<?xml version="1.0" encoding="UTF-8"?>
<kml xmlns="http://www.opengis.net/kml/2.2" xmlns:gx="http://www.google.com/kml/ext/2.2" xmlns:kml="http://www.opengis.net/kml/2.2" xmlns:atom="http://www.w3.org/2005/Atom">
<Document>
  <name>1010.kml</name>
  <StyleMap id="FF0040FF">
    <Pair>
      <key>normal</key>
      <styleUrl>#s_FF0040FF</styleUrl>
    </Pair>
    <Pair>
      <key>highlight</key>
      <styleUrl>#s_FF0040FF_hl</styleUrl>
    </Pair>
  </StyleMap>
  <Style id="s_FF0040FF">
   <IconStyle>
      <scale>1.1</scale>
      <Icon>
        <href>http://maps.google.com/mapfiles/kml/pushpin/agrocad.png</href>
      </Icon>
      <hotSpot x="20" y="2" xunits="pixels" yunits="pixels"/>
    </IconStyle>
    <LineStyle>
      <color>FF0040FF</color>
      <width>1</width>
    </LineStyle>
    <PolyStyle>
      <color>40ffffff</color>
      <fill>1</fill>
    </PolyStyle>
  </Style>
  <Style id="s_FF0040FF_hl">
    <IconStyle>
      <scale>1.3</scale>
      <Icon>
        <href>http://maps.google.com/mapfiles/kml/pushpin/agrocad.png</href>
      </Icon>
      <hotSpot x="20" y="2" xunits="pixels" yunits="pixels"/>
    </IconStyle>
    <LineStyle>
      <color>ff000000</color>
      <width>1</width>
    </LineStyle>
    <PolyStyle>
      <color>40ffffff</color>
      <fill>1</fill>
    </PolyStyle>
  </Style>
  <Placemark>
    <name>AgroCAD: 81E4</name>
    <styleUrl>FF0040FF</styleUrl>
    <Polygon>
      <outerBoundaryIs>
        <LinearRing>
          <coordinates>
           -36.23677087486778,-9.85724671153974 -36.23584202006307,-9.85517351139415 -36.23537946647490,-9.85578179957415 -36.23550164146285,-9.85605916935274 -36.23601652114125,-9.85712110858313 -36.23612663507454,-9.85735408489504 -36.23677087486778,-9.85724671153974 -36.23677087486778,-9.85724671153974
          </coordinates>
        </LinearRing>
      </outerBoundaryIs>
    </Polygon>
  </Placemark>
  <Placemark>
    <name>AgroCAD: 81E3</name>
    <styleUrl>FF0040FF</styleUrl>
    <Polygon>
      <outerBoundaryIs>
        <LinearRing>
          <coordinates>
           -36.24193067919889,-9.85523858870075 -36.24086368329507,-9.85670140382639 -36.23928068233437,-9.85690709896021 -36.23687709605769,-9.85722900786804 -36.23683580828571,-9.85723588922220 -36.23588593032499,-9.85511576634837 -36.23659428088257,-9.85418423174851 -36.23915832563397,-9.85083702732072 -36.23967532223916,-9.85017203666967 -36.23973657975654,-9.85031778717070 -36.24047699342759,-9.85198103561943 -36.24139970664368,-9.85406250544173 -36.24193067919889,-9.85523858870075 -36.24193067919889,-9.85523858870075
          </coordinates>
        </LinearRing>
      </outerBoundaryIs>
    </Polygon>
  </Placemark>
  <Placemark>
    <name>AgroCAD: 81E8</name>
    <styleUrl>FF0040FF</styleUrl>
    <Polygon>
      <outerBoundaryIs>
        <LinearRing>
          <coordinates>
           -36.23977501995070,-9.85024486814026 -36.23979518588308,-9.85029284907161 -36.24053535161579,-9.85195553980419 -36.24145799820027,-9.85403685837539 -36.24197383696068,-9.85517942045198 -36.24215402623967,-9.85493238494756 -36.24311068797315,-9.85361796927004 -36.24293356033459,-9.85344588024392 -36.24115402601102,-9.85162830929914 -36.23977501995070,-9.85024486814026 -36.23977501995070,-9.85024486814026
          </coordinates>
        </LinearRing>
      </outerBoundaryIs>
    </Polygon>
  </Placemark>
</Document>
</kml>
