<?xml version="1.0" encoding="UTF-8"?>
<kml xmlns="http://www.opengis.net/kml/2.2" xmlns:gx="http://www.google.com/kml/ext/2.2" xmlns:kml="http://www.opengis.net/kml/2.2" xmlns:atom="http://www.w3.org/2005/Atom">
<Document>
  <name>1004.kml</name>
  <StyleMap id="FFFF4000">
    <Pair>
      <key>normal</key>
      <styleUrl>#s_FFFF4000</styleUrl>
    </Pair>
    <Pair>
      <key>highlight</key>
      <styleUrl>#s_FFFF4000_hl</styleUrl>
    </Pair>
  </StyleMap>
  <Style id="s_FFFF4000">
   <IconStyle>
      <scale>1.1</scale>
      <Icon>
        <href>http://maps.google.com/mapfiles/kml/pushpin/agrocad.png</href>
      </Icon>
      <hotSpot x="20" y="2" xunits="pixels" yunits="pixels"/>
    </IconStyle>
    <LineStyle>
      <color>FFFF4000</color>
      <width>1</width>
    </LineStyle>
    <PolyStyle>
      <color>40ffffff</color>
      <fill>1</fill>
    </PolyStyle>
  </Style>
  <Style id="s_FFFF4000_hl">
    <IconStyle>
      <scale>1.3</scale>
      <Icon>
        <href>http://maps.google.com/mapfiles/kml/pushpin/agrocad.png</href>
      </Icon>
      <hotSpot x="20" y="2" xunits="pixels" yunits="pixels"/>
    </IconStyle>
    <LineStyle>
      <color>ff000000</color>
      <width>1</width>
    </LineStyle>
    <PolyStyle>
      <color>40ffffff</color>
      <fill>1</fill>
    </PolyStyle>
  </Style>
  <Placemark>
    <name>AgroCAD: 9320</name>
    <styleUrl>FFFF4000</styleUrl>
    <Polygon>
      <outerBoundaryIs>
        <LinearRing>
          <coordinates>
           -36.23149791838317,-9.84153679998078 -36.23177024777609,-9.84211642751060 -36.23177210310288,-9.84212987001188 -36.23176996037874,-9.84214942274850 -36.23176980361441,-9.84215163504600 -36.23176471510742,-9.84217754219956 -36.23175947186377,-9.84221266106964 -36.23175122099681,-9.84224777336802 -36.23173864756544,-9.84229802894260 -36.23173024175153,-9.84232987965791 -36.23171682223155,-9.84237793881722 -36.23170731285411,-9.84240981475402 -36.23169739895873,-9.84244098185861 -36.23169005331817,-9.84247307290284 -36.23168041721888,-9.84252358410212 -36.23167511593653,-9.84255494430103 -36.23166729737721,-9.84260532387132 -36.23166130427682,-9.84264000685874 -36.23165488467495,-9.84267383651600 -36.23164735514864,-9.84272264019142 -36.23164388648233,-9.84275592150982 -36.23163933814177,-9.84278904117649 -36.23163700730173,-9.84282202335973 -36.23163266460513,-9.84287302576987 -36.23162945672045,-9.84290750554184 -36.23162531137428,-9.84295813507761 -36.23162299779976,-9.84299262474032 -36.23161935900795,-9.84302822013626 -36.23160215773494,-9.84311108037320 -36.23156498321182,-9.84324084058444 -36.23156455499835,-9.84324311911930 -36.23154996459234,-9.84327771249041 -36.23152653733614,-9.84331977939103 -36.23150898133319,-9.84334709107590 -36.23149158750953,-9.84337451185344 -36.23146125982271,-9.84341452124523 -36.23144002187303,-9.84344077525672 -36.23141916832061,-9.84346760661495 -36.23138761960209,-9.84350771929525 -36.23136481560948,-9.84353431058111 -36.23133044576048,-9.84357248373374 -36.23130652394142,-9.84359815944696 -36.23128068333614,-9.84362214360005 -36.23124226805759,-9.84365832387621 -36.23120245236687,-9.84369295244777 -36.23116544255390,-9.84372630736773 -36.23112929253259,-9.84375621451147 -36.23110302421001,-9.84377456219677 -36.23107750160887,-9.84379314360774 -36.23103671609925,-9.84382167768769 -36.23099492905385,-9.84384871848280 -36.23095395486167,-9.84387726412717 -36.23092535606996,-9.84389646561623 -36.23088595995282,-9.84393031308054 -36.23086099752526,-9.84395534573268 -36.23082657631564,-9.84399342380850 -36.23079476731502,-9.84403250333572 -36.23076115137613,-9.84407217272790 -36.23072807993317,-9.84411099726201 -36.23069286520403,-9.84414847502256 -36.23067047843127,-9.84417562104022 -36.23064979949484,-9.84419954129620 -36.23062741330345,-9.84422635206131 -36.23060633720968,-9.84425461288269 -36.23057561136480,-9.84429791868793 -36.23055441959503,-9.84432738863023 -36.23053423641247,-9.84435693353297 -36.23050374121293,-9.84439913999987 -36.23047190747958,-9.84443859285138 -36.23044956579319,-9.84446666536172 -36.23041862347472,-9.84450654232980 -36.23038742583484,-9.84454735086023 -36.23035493791679,-9.84458791487440 -36.23033414580617,-9.84461620964351 -36.23030626660270,-9.84465856946582 -36.23028870596288,-9.84468822268101 -36.23026199602970,-9.84473156586141 -36.23023453081998,-9.84477397687092 -36.23020488384005,-9.84481379316459 -36.23018453391331,-9.84484006049561 -36.23016035536511,-9.84486394669988 -36.23012576001011,-9.84489954862129 -36.23010137778210,-9.84492057711196 -36.23006425001371,-9.84495007083267 -36.23003767765685,-9.84496654596861 -36.22999878084473,-9.84498838466483 -36.22997637581857,-9.84500075428442 -36.22996397101179,-9.84500622304362 -36.22995159079760,-9.84500630430543 -36.22992907382876,-9.84499754958283 -36.22991405169952,-9.84498735630800 -36.22989988601107,-9.84497470836982 -36.22987872399978,-9.84495062075927 -36.22986626107667,-9.84493171469254 -36.22984865571524,-9.84490146577792 -36.22983923798286,-9.84488312581481 -36.22983346032111,-9.84487254977417 -36.22929114956486,-9.84381017660322 -36.22901714596692,-9.84326814428482 -36.22909253457204,-9.84321553079070 -36.22915759196100,-9.84317012739210 -36.22922446528209,-9.84312345662878 -36.22928647246253,-9.84308018190862 -36.23149791838317,-9.84153679998078
          </coordinates>
        </LinearRing>
      </outerBoundaryIs>
    </Polygon>
  </Placemark>
</Document>
</kml>
