<?xml version="1.0" encoding="UTF-8"?>
<kml xmlns="http://www.opengis.net/kml/2.2" xmlns:gx="http://www.google.com/kml/ext/2.2" xmlns:kml="http://www.opengis.net/kml/2.2" xmlns:atom="http://www.w3.org/2005/Atom">
<Document>
  <name>1025.kml</name>
  <StyleMap id="FF0040FF">
    <Pair>
      <key>normal</key>
      <styleUrl>#s_FF0040FF</styleUrl>
    </Pair>
    <Pair>
      <key>highlight</key>
      <styleUrl>#s_FF0040FF_hl</styleUrl>
    </Pair>
  </StyleMap>
  <Style id="s_FF0040FF">
   <IconStyle>
      <scale>1.1</scale>
      <Icon>
        <href>http://maps.google.com/mapfiles/kml/pushpin/agrocad.png</href>
      </Icon>
      <hotSpot x="20" y="2" xunits="pixels" yunits="pixels"/>
    </IconStyle>
    <LineStyle>
      <color>FF0040FF</color>
      <width>1</width>
    </LineStyle>
    <PolyStyle>
      <color>40ffffff</color>
      <fill>1</fill>
    </PolyStyle>
  </Style>
  <Style id="s_FF0040FF_hl">
    <IconStyle>
      <scale>1.3</scale>
      <Icon>
        <href>http://maps.google.com/mapfiles/kml/pushpin/agrocad.png</href>
      </Icon>
      <hotSpot x="20" y="2" xunits="pixels" yunits="pixels"/>
    </IconStyle>
    <LineStyle>
      <color>ff000000</color>
      <width>1</width>
    </LineStyle>
    <PolyStyle>
      <color>40ffffff</color>
      <fill>1</fill>
    </PolyStyle>
  </Style>
  <Placemark>
    <name>AgroCAD: 8405</name>
    <styleUrl>FF0040FF</styleUrl>
    <Polygon>
      <outerBoundaryIs>
        <LinearRing>
          <coordinates>
           -36.41614759172786,-9.76571657133263 -36.41614928101626,-9.76596002380200 -36.41615016725965,-9.76626773279912 -36.41615260769150,-9.76651324273530 -36.41615443296227,-9.76672298293821 -36.41615539375712,-9.76688994294216 -36.41615802724987,-9.76707407881788 -36.41615820268390,-9.76728276960501 -36.41615961004286,-9.76752408122585 -36.41616065148411,-9.76776092082940 -36.41616194210044,-9.76797726279150 -36.41616304303881,-9.76817457745502 -36.41616328541472,-9.76830163332245 -36.41616245063220,-9.76833863381318 -36.41623363490712,-9.76833228933412 -36.41657373754600,-9.76829759024504 -36.41692807876449,-9.76826259340533 -36.41726791991479,-9.76823689506799 -36.41759204063824,-9.76821084894652 -36.41789602166700,-9.76818368202274 -36.41817257044154,-9.76815824774583 -36.41840150000824,-9.76814018896962 -36.41857669911908,-9.76812568347486 -36.41875157639332,-9.76810885662784 -36.41892183122161,-9.76809483447314 -36.41908485830290,-9.76807690984022 -36.41913296395760,-9.76807113245189 -36.41913111385632,-9.76802876111500 -36.41912833549465,-9.76796347156564 -36.41912343762936,-9.76788000020109 -36.41911519051401,-9.76775935121849 -36.41910176470519,-9.76763316272509 -36.41908878723020,-9.76752189186039 -36.41907710995732,-9.76742819260888 -36.41906129440949,-9.76731406649846 -36.41904441398494,-9.76719966971116 -36.41903066463951,-9.76709582288507 -36.41902109956057,-9.76700114294221 -36.41901088963416,-9.76690979140149 -36.41900255451691,-9.76682629678657 -36.41898738031720,-9.76671319595595 -36.41897209943348,-9.76660953153197 -36.41895977964413,-9.76651658474378 -36.41894694674020,-9.76642436906271 -36.41892472133159,-9.76629863263443 -36.41889929601572,-9.76616427702526 -36.41887111668141,-9.76603022673698 -36.41883961618083,-9.76589863729599 -36.41880874844088,-9.76576720392836 -36.41876610551354,-9.76560501770468 -36.41873419930494,-9.76549028038270 -36.41843183460113,-9.76551611347864 -36.41797422811815,-9.76555260439360 -36.41707417419689,-9.76563343356149 -36.41635319062909,-9.76569706307628 -36.41614759172786,-9.76571657133263 -36.41614759172786,-9.76571657133263
          </coordinates>
        </LinearRing>
      </outerBoundaryIs>
    </Polygon>
  </Placemark>
</Document>
</kml>
