<?xml version="1.0" encoding="UTF-8"?>
<kml xmlns="http://www.opengis.net/kml/2.2" xmlns:gx="http://www.google.com/kml/ext/2.2" xmlns:kml="http://www.opengis.net/kml/2.2" xmlns:atom="http://www.w3.org/2005/Atom">
<Document>
  <name>1012.kml</name>
  <StyleMap id="FF0040FF">
    <Pair>
      <key>normal</key>
      <styleUrl>#s_FF0040FF</styleUrl>
    </Pair>
    <Pair>
      <key>highlight</key>
      <styleUrl>#s_FF0040FF_hl</styleUrl>
    </Pair>
  </StyleMap>
  <Style id="s_FF0040FF">
   <IconStyle>
      <scale>1.1</scale>
      <Icon>
        <href>http://maps.google.com/mapfiles/kml/pushpin/agrocad.png</href>
      </Icon>
      <hotSpot x="20" y="2" xunits="pixels" yunits="pixels"/>
    </IconStyle>
    <LineStyle>
      <color>FF0040FF</color>
      <width>1</width>
    </LineStyle>
    <PolyStyle>
      <color>40ffffff</color>
      <fill>1</fill>
    </PolyStyle>
  </Style>
  <Style id="s_FF0040FF_hl">
    <IconStyle>
      <scale>1.3</scale>
      <Icon>
        <href>http://maps.google.com/mapfiles/kml/pushpin/agrocad.png</href>
      </Icon>
      <hotSpot x="20" y="2" xunits="pixels" yunits="pixels"/>
    </IconStyle>
    <LineStyle>
      <color>ff000000</color>
      <width>1</width>
    </LineStyle>
    <PolyStyle>
      <color>40ffffff</color>
      <fill>1</fill>
    </PolyStyle>
  </Style>
  <Placemark>
    <name>AgroCAD: 83F5</name>
    <styleUrl>FF0040FF</styleUrl>
    <Polygon>
      <outerBoundaryIs>
        <LinearRing>
          <coordinates>
           -36.40711530850467,-9.74886173702094 -36.40701858417997,-9.74924302839788 -36.40693745410710,-9.74957352633788 -36.40685195663073,-9.74991319057628 -36.40670742166746,-9.75048744921819 -36.40663735562707,-9.75075518780406 -36.40657259060767,-9.75100412636908 -36.40650588954578,-9.75126836159753 -36.40643963226759,-9.75149520044019 -36.40639593965170,-9.75166934036271 -36.40636031771122,-9.75183466822249 -36.40629796646543,-9.75219005555311 -36.40623021173038,-9.75270068577069 -36.40615818709932,-9.75330990138371 -36.40612281161881,-9.75362493247206 -36.40608862001958,-9.75392959571274 -36.40606596852734,-9.75415981483181 -36.40604642842141,-9.75433149557521 -36.40603301033616,-9.75448451910955 -36.40602037384237,-9.75462767241042 -36.40600888950840,-9.75477686608625 -36.40600263316513,-9.75493531682396 -36.40599619064365,-9.75509916060912 -36.40599292987534,-9.75526411735175 -36.40598812397583,-9.75542329261829 -36.40598727277306,-9.75545105111728 -36.40654878159685,-9.75505912680000 -36.40691487364649,-9.75480500491563 -36.40744409690670,-9.75444229150176 -36.40808663076940,-9.75399966837975 -36.40873602955284,-9.75355441739753 -36.40955981998639,-9.75298759293254 -36.40984213514734,-9.75279496788342 -36.40980766750004,-9.75274670698552 -36.40962995679144,-9.75248875083377 -36.40950834744052,-9.75231295699104 -36.40937532318993,-9.75211851942903 -36.40910312878579,-9.75172675042330 -36.40882670103002,-9.75133030378417 -36.40849413305293,-9.75084678477576 -36.40829319008163,-9.75055646147015 -36.40790708034547,-9.74999982497383 -36.40773288114938,-9.74974507797981 -36.40757370016163,-9.74951851808516 -36.40743155946194,-9.74931377411968 -36.40729738054252,-9.74912514737507 -36.40720171303794,-9.74898430412261 -36.40711530850467,-9.74886173702094 -36.40711530850467,-9.74886173702094
          </coordinates>
        </LinearRing>
      </outerBoundaryIs>
    </Polygon>
  </Placemark>
</Document>
</kml>
