<?xml version="1.0" encoding="UTF-8"?>
<kml xmlns="http://www.opengis.net/kml/2.2" xmlns:gx="http://www.google.com/kml/ext/2.2" xmlns:kml="http://www.opengis.net/kml/2.2" xmlns:atom="http://www.w3.org/2005/Atom">
<Document>
  <name>1015.kml</name>
  <StyleMap id="FFFF4000">
    <Pair>
      <key>normal</key>
      <styleUrl>#s_FFFF4000</styleUrl>
    </Pair>
    <Pair>
      <key>highlight</key>
      <styleUrl>#s_FFFF4000_hl</styleUrl>
    </Pair>
  </StyleMap>
  <Style id="s_FFFF4000">
   <IconStyle>
      <scale>1.1</scale>
      <Icon>
        <href>http://maps.google.com/mapfiles/kml/pushpin/agrocad.png</href>
      </Icon>
      <hotSpot x="20" y="2" xunits="pixels" yunits="pixels"/>
    </IconStyle>
    <LineStyle>
      <color>FFFF4000</color>
      <width>1</width>
    </LineStyle>
    <PolyStyle>
      <color>40ffffff</color>
      <fill>1</fill>
    </PolyStyle>
  </Style>
  <Style id="s_FFFF4000_hl">
    <IconStyle>
      <scale>1.3</scale>
      <Icon>
        <href>http://maps.google.com/mapfiles/kml/pushpin/agrocad.png</href>
      </Icon>
      <hotSpot x="20" y="2" xunits="pixels" yunits="pixels"/>
    </IconStyle>
    <LineStyle>
      <color>ff000000</color>
      <width>1</width>
    </LineStyle>
    <PolyStyle>
      <color>40ffffff</color>
      <fill>1</fill>
    </PolyStyle>
  </Style>
  <Placemark>
    <name>AgroCAD: 934B</name>
    <styleUrl>FFFF4000</styleUrl>
    <Polygon>
      <outerBoundaryIs>
        <LinearRing>
          <coordinates>
           -36.42388658959902,-9.75760380244204 -36.42387647942091,-9.75753226250304 -36.42385996300895,-9.75747351937915 -36.42384347781892,-9.75741467291953 -36.42382626340918,-9.75735332968448 -36.42380618456737,-9.75728650211797 -36.42378287235502,-9.75721361497380 -36.42375685601114,-9.75713697376265 -36.42372840486644,-9.75705674011204 -36.42369972607998,-9.75697211673709 -36.42367233891611,-9.75689229156080 -36.42365034335176,-9.75682712448991 -36.42362995694354,-9.75676907382669 -36.42360988579716,-9.75671015957862 -36.42359136520471,-9.75664835825299 -36.42357519157806,-9.75658746154497 -36.42356413054846,-9.75653135860704 -36.42355580348958,-9.75647657086051 -36.42354596330992,-9.75643442811606 -36.42353092068482,-9.75639615310972 -36.42351368602870,-9.75635524993920 -36.42349594544182,-9.75631429431881 -36.42347604715859,-9.75626970043238 -36.42344689585652,-9.75619493540940 -36.42341836449214,-9.75611276661945 -36.42339537274974,-9.75603723967803 -36.42337365857688,-9.75597009138032 -36.42335290576167,-9.75590923836002 -36.42332909845655,-9.75583955548407 -36.42330255071625,-9.75575664044345 -36.42327198296634,-9.75566088128508 -36.42323938400152,-9.75556294418475 -36.42320681260051,-9.75546945498725 -36.42317831157648,-9.75538088406715 -36.42315286128911,-9.75530637348072 -36.42313089652898,-9.75524497454876 -36.42311266065799,-9.75519020693305 -36.42309583787545,-9.75513963372315 -36.42308123606211,-9.75509230375280 -36.42306498542473,-9.75504535615066 -36.42305083669802,-9.75500664966224 -36.42303310206899,-9.75496538493906 -36.42300845718111,-9.75493249348328 -36.42297951086148,-9.75490435548790 -36.42294296918163,-9.75487594484254 -36.42290718699676,-9.75484831407270 -36.42287258680302,-9.75482372564578 -36.42283820524466,-9.75480584803328 -36.42279923093965,-9.75479356622025 -36.42276090897889,-9.75478501261243 -36.42272071601170,-9.75478346257232 -36.42268083746925,-9.75478745967130 -36.42263191259518,-9.75480566562726 -36.42260645420057,-9.75481993542147 -36.42257033735287,-9.75484092690541 -36.42252223712630,-9.75487156316397 -36.42249810154750,-9.75489056175051 -36.42245545219478,-9.75493660275655 -36.42239341560646,-9.75502126071463 -36.42233931840832,-9.75509864826729 -36.42229892114623,-9.75515565933358 -36.42221234054274,-9.75527803080014 -36.42214526955890,-9.75537280916384 -36.42209389860991,-9.75544145053932 -36.42205368324874,-9.75549287432146 -36.42201339616648,-9.75554320260999 -36.42197219437460,-9.75559692185630 -36.42192283054525,-9.75565733398859 -36.42186954153195,-9.75571816744344 -36.42181222145536,-9.75577201376182 -36.42175239686291,-9.75581591788021 -36.42169526256747,-9.75585376209509 -36.42163680023476,-9.75588840941149 -36.42157815898649,-9.75592098055393 -36.42152142275602,-9.75595245592373 -36.42146649327929,-9.75598243786787 -36.42140873732687,-9.75601182933936 -36.42134678572705,-9.75604730147303 -36.42127287996133,-9.75608818138737 -36.42120802570330,-9.75612128233874 -36.42115013157130,-9.75615119931479 -36.42108863779209,-9.75617950798327 -36.42103336763014,-9.75620252518802 -36.42098371758909,-9.75622407690034 -36.42093397615966,-9.75624928405980 -36.42088370564678,-9.75627499312918 -36.42083609589481,-9.75630609642794 -36.42079665228236,-9.75634250429122 -36.42076375876718,-9.75638013626424 -36.42073952602312,-9.75641362060504 -36.42071603467876,-9.75645690478074 -36.42069341953936,-9.75650700840968 -36.42067264347113,-9.75655926717067 -36.42064975355469,-9.75661745120118 -36.42062554071877,-9.75667864308590 -36.42059079368545,-9.75674633374146 -36.42054606514969,-9.75681890648926 -36.42049618254907,-9.75688715227916 -36.42043921881873,-9.75695186753685 -36.42037861086121,-9.75701868941770 -36.42031413732239,-9.75708459934406 -36.42025631934540,-9.75714232661117 -36.42020865762658,-9.75718981156967 -36.42016345741196,-9.75723531821779 -36.42011962331991,-9.75727952802353 -36.42007806821638,-9.75732344951870 -36.42003343437336,-9.75737529164830 -36.41996495621828,-9.75745807516657 -36.41993093425831,-9.75749981849876 -36.41988679217313,-9.75755513796271 -36.41985309329646,-9.75760551565530 -36.41982845231618,-9.75765192550146 -36.41980880728061,-9.75769887623723 -36.41978747871507,-9.75776522999586 -36.41978126043578,-9.75780025975807 -36.41977842927559,-9.75782532425471 -36.41977632565157,-9.75785207828774 -36.41977687740416,-9.75788037536502 -36.41978270550243,-9.75791262886387 -36.41978941820132,-9.75794412376371 -36.41980149358506,-9.75797271369388 -36.41981827860103,-9.75800004800292 -36.41983483111054,-9.75802746431522 -36.41985274333540,-9.75805461133842 -36.41986103177788,-9.75806426332133 -36.42049718248762,-9.75895770219198 -36.42090132722304,-9.75952599873744 -36.42091167774996,-9.75954196875038 -36.42093085357261,-9.75957194269624 -36.42095059293736,-9.75960056775929 -36.42096865111883,-9.75962304105013 -36.42388658959902,-9.75760380244204
          </coordinates>
        </LinearRing>
      </outerBoundaryIs>
    </Polygon>
  </Placemark>
</Document>
</kml>
