<?xml version="1.0" encoding="UTF-8"?>
<kml xmlns="http://www.opengis.net/kml/2.2" xmlns:gx="http://www.google.com/kml/ext/2.2" xmlns:kml="http://www.opengis.net/kml/2.2" xmlns:atom="http://www.w3.org/2005/Atom">
<Document>
  <name>1030.kml</name>
  <StyleMap id="FF0040FF">
    <Pair>
      <key>normal</key>
      <styleUrl>#s_FF0040FF</styleUrl>
    </Pair>
    <Pair>
      <key>highlight</key>
      <styleUrl>#s_FF0040FF_hl</styleUrl>
    </Pair>
  </StyleMap>
  <Style id="s_FF0040FF">
   <IconStyle>
      <scale>1.1</scale>
      <Icon>
        <href>http://maps.google.com/mapfiles/kml/pushpin/agrocad.png</href>
      </Icon>
      <hotSpot x="20" y="2" xunits="pixels" yunits="pixels"/>
    </IconStyle>
    <LineStyle>
      <color>FF0040FF</color>
      <width>1</width>
    </LineStyle>
    <PolyStyle>
      <color>40ffffff</color>
      <fill>1</fill>
    </PolyStyle>
  </Style>
  <Style id="s_FF0040FF_hl">
    <IconStyle>
      <scale>1.3</scale>
      <Icon>
        <href>http://maps.google.com/mapfiles/kml/pushpin/agrocad.png</href>
      </Icon>
      <hotSpot x="20" y="2" xunits="pixels" yunits="pixels"/>
    </IconStyle>
    <LineStyle>
      <color>ff000000</color>
      <width>1</width>
    </LineStyle>
    <PolyStyle>
      <color>40ffffff</color>
      <fill>1</fill>
    </PolyStyle>
  </Style>
  <Placemark>
    <name>AgroCAD: 8406</name>
    <styleUrl>FF0040FF</styleUrl>
    <Polygon>
      <outerBoundaryIs>
        <LinearRing>
          <coordinates>
           -36.41275999722720,-9.76602922498850 -36.41276916286479,-9.76655553844203 -36.41276902941609,-9.76670850761945 -36.41276906793926,-9.76688969558440 -36.41277053396239,-9.76708967954477 -36.41277598526985,-9.76728686320463 -36.41277322145350,-9.76749341075232 -36.41277222246188,-9.76772275473423 -36.41277585973829,-9.76796968937973 -36.41277676445030,-9.76815965751821 -36.41277375755080,-9.76827790351243 -36.41276943016798,-9.76838796764984 -36.41276711738081,-9.76843720210526 -36.41284870906641,-9.76843618194074 -36.41304168789934,-9.76843479102263 -36.41320483511129,-9.76843642851760 -36.41336859884349,-9.76843044167682 -36.41371144075491,-9.76842899295746 -36.41386237272988,-9.76843341680232 -36.41399581898796,-9.76843044461438 -36.41414469706892,-9.76842593956702 -36.41430685214905,-9.76841729144329 -36.41447240667441,-9.76841356068962 -36.41463621236494,-9.76841086698386 -36.41481246583103,-9.76840602291561 -36.41505193056769,-9.76839749093782 -36.41536134949769,-9.76838630836859 -36.41568437240206,-9.76837269761745 -36.41596534749164,-9.76835620104960 -36.41612593201501,-9.76834188862153 -36.41612684858714,-9.76830126312756 -36.41612660718723,-9.76817471166771 -36.41612550663768,-9.76797746282930 -36.41612421595711,-9.76776110658996 -36.41612317453117,-9.76752426459340 -36.41612176682672,-9.76728288921847 -36.41612159154308,-9.76707435024856 -36.41611895933017,-9.76689030245412 -36.41611799797600,-9.76672324208943 -36.41611617338104,-9.76651357691104 -36.41611373193860,-9.76626796261023 -36.41611284557386,-9.76596019981499 -36.41611117906447,-9.76572002633547 -36.41574172412858,-9.76575508170783 -36.41513606848388,-9.76581033813507 -36.41387749521914,-9.76592662517451 -36.41311338423099,-9.76599906603776 -36.41275999722720,-9.76602922498852 -36.41275999722720,-9.76602922498850
          </coordinates>
        </LinearRing>
      </outerBoundaryIs>
    </Polygon>
  </Placemark>
</Document>
</kml>
