<?xml version="1.0" encoding="UTF-8"?>
<kml xmlns="http://www.opengis.net/kml/2.2" xmlns:gx="http://www.google.com/kml/ext/2.2" xmlns:kml="http://www.opengis.net/kml/2.2" xmlns:atom="http://www.w3.org/2005/Atom">
<Document>
  <name>1021.kml</name>
  <StyleMap id="FFFF4000">
    <Pair>
      <key>normal</key>
      <styleUrl>#s_FFFF4000</styleUrl>
    </Pair>
    <Pair>
      <key>highlight</key>
      <styleUrl>#s_FFFF4000_hl</styleUrl>
    </Pair>
  </StyleMap>
  <Style id="s_FFFF4000">
   <IconStyle>
      <scale>1.1</scale>
      <Icon>
        <href>http://maps.google.com/mapfiles/kml/pushpin/agrocad.png</href>
      </Icon>
      <hotSpot x="20" y="2" xunits="pixels" yunits="pixels"/>
    </IconStyle>
    <LineStyle>
      <color>FFFF4000</color>
      <width>1</width>
    </LineStyle>
    <PolyStyle>
      <color>40ffffff</color>
      <fill>1</fill>
    </PolyStyle>
  </Style>
  <Style id="s_FFFF4000_hl">
    <IconStyle>
      <scale>1.3</scale>
      <Icon>
        <href>http://maps.google.com/mapfiles/kml/pushpin/agrocad.png</href>
      </Icon>
      <hotSpot x="20" y="2" xunits="pixels" yunits="pixels"/>
    </IconStyle>
    <LineStyle>
      <color>ff000000</color>
      <width>1</width>
    </LineStyle>
    <PolyStyle>
      <color>40ffffff</color>
      <fill>1</fill>
    </PolyStyle>
  </Style>
  <Placemark>
    <name>AgroCAD: 9100</name>
    <styleUrl>FFFF4000</styleUrl>
    <Polygon>
      <outerBoundaryIs>
        <LinearRing>
          <coordinates>
           -36.42337695309838,-9.76316234281119 -36.42353102616129,-9.76338209349872 -36.42561777608875,-9.76635834214007 -36.42561854039405,-9.76636457578517 -36.42560097645841,-9.76640469380761 -36.42557421966194,-9.76644424028589 -36.42553679987128,-9.76647647633739 -36.42549577430627,-9.76650317323507 -36.42347372354695,-9.76762960981251 -36.42342572999889,-9.76765144408901 -36.42337808366724,-9.76766688633477 -36.42332904280468,-9.76767586266785 -36.42327759589095,-9.76768285706845 -36.42322773978319,-9.76769108612131 -36.42317510660789,-9.76769924233828 -36.42312261954738,-9.76770651464164 -36.42309633132322,-9.76771013950378 -36.42272639248444,-9.76774236306841 -36.42267739466555,-9.76774703301690 -36.42263297304936,-9.76774411693746 -36.42259840522200,-9.76771547555878 -36.42257537865228,-9.76767264736743 -36.42255196841149,-9.76762811461289 -36.42252694363610,-9.76758365746195 -36.42250346698819,-9.76753836436350 -36.42248117905437,-9.76749200085222 -36.42245990524163,-9.76744752853889 -36.42243890035408,-9.76740114985149 -36.42241826819315,-9.76735504061252 -36.42239805267443,-9.76730893917142 -36.42237697403202,-9.76726263363202 -36.42234937176231,-9.76720471510592 -36.42232688743048,-9.76715839408191 -36.42230235938239,-9.76711308333964 -36.42227554699910,-9.76706627007999 -36.42224983861778,-9.76702261987376 -36.42222427704437,-9.76697920628659 -36.42219959383697,-9.76693567513792 -36.42217319355388,-9.76689119778904 -36.42215384689523,-9.76685968605202 -36.42213344591125,-9.76682506964368 -36.42210266943988,-9.76676801200053 -36.42205179940606,-9.76667499663056 -36.42199977480969,-9.76658537947580 -36.42197848584485,-9.76654300636173 -36.42195785271039,-9.76649589641853 -36.42194001718998,-9.76644837604478 -36.42191841139905,-9.76640213145056 -36.42190311441526,-9.76636932008852 -36.42189589002843,-9.76635663440486 -36.42188783977275,-9.76634342466249 -36.42188205624807,-9.76632939015357 -36.42186688030842,-9.76630099863326 -36.42184491902376,-9.76625758487071 -36.42182169490685,-9.76621324053971 -36.42179971801122,-9.76616964824557 -36.42177984545324,-9.76612391686626 -36.42176079790035,-9.76607979371250 -36.42174838360010,-9.76601973049206 -36.42174744440199,-9.76597301687717 -36.42175089674018,-9.76593702012015 -36.42176664264214,-9.76587832965762 -36.42178437879593,-9.76583174316906 -36.42180130281897,-9.76578721124306 -36.42180961009780,-9.76573858719561 -36.42179609979507,-9.76569007709162 -36.42176803924467,-9.76564832729275 -36.42173202036973,-9.76561464578217 -36.42169414353358,-9.76558483150744 -36.42165713122747,-9.76555513288304 -36.42162335870003,-9.76552171457349 -36.42159566535492,-9.76548345580968 -36.42157233735002,-9.76544167430587 -36.42155337114080,-9.76539740087709 -36.42153676810365,-9.76535104357390 -36.42151985300584,-9.76530331654355 -36.42150630373882,-9.76525244086914 -36.42149275083899,-9.76520297323833 -36.42147403357438,-9.76511848300761 -36.42146258420817,-9.76508360852319 -36.42144739119732,-9.76503530165809 -36.42143761598446,-9.76498968556311 -36.42142214114181,-9.76493930802145 -36.42140932637260,-9.76489283083392 -36.42139508310825,-9.76484940630452 -36.42138028449340,-9.76480097805487 -36.42136725609714,-9.76474881805156 -36.42135362010135,-9.76470034754084 -36.42134078747157,-9.76465289896361 -36.42131951945537,-9.76457612868187 -36.42337695309838,-9.76316234281119
          </coordinates>
        </LinearRing>
      </outerBoundaryIs>
    </Polygon>
  </Placemark>
</Document>
</kml>
