<?xml version="1.0" encoding="UTF-8"?>
<kml xmlns="http://www.opengis.net/kml/2.2" xmlns:gx="http://www.google.com/kml/ext/2.2" xmlns:kml="http://www.opengis.net/kml/2.2" xmlns:atom="http://www.w3.org/2005/Atom">
<Document>
  <name>1005.kml</name>
  <StyleMap id="FF0040FF">
    <Pair>
      <key>normal</key>
      <styleUrl>#s_FF0040FF</styleUrl>
    </Pair>
    <Pair>
      <key>highlight</key>
      <styleUrl>#s_FF0040FF_hl</styleUrl>
    </Pair>
  </StyleMap>
  <Style id="s_FF0040FF">
   <IconStyle>
      <scale>1.1</scale>
      <Icon>
        <href>http://maps.google.com/mapfiles/kml/pushpin/agrocad.png</href>
      </Icon>
      <hotSpot x="20" y="2" xunits="pixels" yunits="pixels"/>
    </IconStyle>
    <LineStyle>
      <color>FF0040FF</color>
      <width>1</width>
    </LineStyle>
    <PolyStyle>
      <color>40ffffff</color>
      <fill>1</fill>
    </PolyStyle>
  </Style>
  <Style id="s_FF0040FF_hl">
    <IconStyle>
      <scale>1.3</scale>
      <Icon>
        <href>http://maps.google.com/mapfiles/kml/pushpin/agrocad.png</href>
      </Icon>
      <hotSpot x="20" y="2" xunits="pixels" yunits="pixels"/>
    </IconStyle>
    <LineStyle>
      <color>ff000000</color>
      <width>1</width>
    </LineStyle>
    <PolyStyle>
      <color>40ffffff</color>
      <fill>1</fill>
    </PolyStyle>
  </Style>
  <Placemark>
    <name>AgroCAD: 83EB</name>
    <styleUrl>FF0040FF</styleUrl>
    <Polygon>
      <outerBoundaryIs>
        <LinearRing>
          <coordinates>
           -36.41451848540266,-9.75641113436021 -36.41450825192847,-9.75639424623601 -36.41446361031585,-9.75632762462370 -36.41442363181490,-9.75627293782198 -36.41437200863407,-9.75620208187739 -36.41422765053329,-9.75599839178335 -36.41412729674118,-9.75585206150894 -36.41400975324728,-9.75568179703856 -36.41389626960854,-9.75552025305662 -36.41379104833680,-9.75537081869524 -36.41375035750799,-9.75530980824076 -36.41383157892090,-9.75526018827393 -36.41417772897116,-9.75502240780843 -36.41481635204712,-9.75457911955625 -36.41555596900754,-9.75407180178581 -36.41587862975565,-9.75384677249243 -36.41610838366694,-9.75369115788489 -36.41629423172263,-9.75355837063602 -36.41651419499864,-9.75340755433920 -36.41676218844100,-9.75323280009738 -36.41700393907659,-9.75306588468480 -36.41717617029086,-9.75294578855693 -36.41725236604684,-9.75289213734396 -36.41729729256516,-9.75286276957034 -36.41732971019666,-9.75284190410200 -36.41733328791366,-9.75285966266386 -36.41734555910599,-9.75291975867855 -36.41735231684946,-9.75298051894295 -36.41735036473163,-9.75305002013714 -36.41734244416725,-9.75312073395943 -36.41732902350273,-9.75319553887166 -36.41731593846498,-9.75327131146140 -36.41731451950465,-9.75334645670956 -36.41733207580837,-9.75342797607884 -36.41735901526498,-9.75349988570366 -36.41739058314743,-9.75356377825553 -36.41743166806332,-9.75363099671614 -36.41748946814058,-9.75369483342952 -36.41756578662021,-9.75375552934773 -36.41764495538032,-9.75381349049441 -36.41773398720886,-9.75387900693713 -36.41778708281050,-9.75392606074652 -36.41782743429631,-9.75397055285264 -36.41785366139454,-9.75401275671470 -36.41786590160204,-9.75405631386634 -36.41787424005037,-9.75409762341211 -36.41787312249686,-9.75414239667821 -36.41786855615450,-9.75418599372517 -36.41785078890649,-9.75426166444099 -36.41781950838088,-9.75432961703194 -36.41779636574904,-9.75436242141661 -36.41775814871849,-9.75440236922180 -36.41770747392972,-9.75443910717706 -36.41764601283480,-9.75447530435047 -36.41758065816943,-9.75450287573908 -36.41751300773209,-9.75452779370329 -36.41744474413959,-9.75455206021162 -36.41737698118983,-9.75458013260431 -36.41731232283682,-9.75461717998237 -36.41725608485741,-9.75467380549970 -36.41722454387386,-9.75474645462984 -36.41720322186031,-9.75486239876891 -36.41717802054929,-9.75500729738120 -36.41714675645469,-9.75513329306909 -36.41711750337369,-9.75522943631980 -36.41709032779511,-9.75529374163053 -36.41705214830309,-9.75535396425456 -36.41700303343962,-9.75542303550368 -36.41695755765961,-9.75549990245696 -36.41692665159055,-9.75556864841545 -36.41689811080699,-9.75563442236959 -36.41687131678377,-9.75570532344704 -36.41684766040752,-9.75578033776972 -36.41683002969856,-9.75586005992352 -36.41681918944669,-9.75593459873393 -36.41681490418752,-9.75607078217729 -36.41681438146811,-9.75615023508015 -36.41680079777703,-9.75622626023965 -36.41676877617520,-9.75628856168823 -36.41671057764631,-9.75633895291834 -36.41664577548541,-9.75637947528261 -36.41658260500057,-9.75641230291296 -36.41651610756893,-9.75644485788437 -36.41645234472944,-9.75647222308261 -36.41636506895288,-9.75650330015585 -36.41627272584615,-9.75652958767026 -36.41618396201478,-9.75655866591356 -36.41610577693539,-9.75658451911599 -36.41602586782631,-9.75661036569831 -36.41583997558361,-9.75665947968915 -36.41567781296123,-9.75670228368675 -36.41549801333154,-9.75672342634672 -36.41542334523873,-9.75671898503133 -36.41534697606377,-9.75669976141200 -36.41527087344613,-9.75667172920468 -36.41520742410158,-9.75663881760372 -36.41513472253975,-9.75660304043473 -36.41490347897027,-9.75648199229009 -36.41481164938185,-9.75644421507814 -36.41471968468181,-9.75642572372043 -36.41462639062940,-9.75641399332306 -36.41454624302542,-9.75640872702750 -36.41451848540266,-9.75641113436021 -36.41451848540266,-9.75641113436021
          </coordinates>
        </LinearRing>
      </outerBoundaryIs>
    </Polygon>
  </Placemark>
  <Placemark>
    <name>AgroCAD: 83F7</name>
    <styleUrl>FF0040FF</styleUrl>
    <Polygon>
      <outerBoundaryIs>
        <LinearRing>
          <coordinates>
           -36.41336556915915,-9.75556627555891 -36.41338670229348,-9.75560044124925 -36.41342725044456,-9.75566439992652 -36.41346593617127,-9.75572764140203 -36.41350478261254,-9.75579460280304 -36.41353728466122,-9.75586106124382 -36.41356830605837,-9.75592419470484 -36.41360284744219,-9.75598514396169 -36.41364364436082,-9.75604004479746 -36.41368776248362,-9.75609253707213 -36.41373665178727,-9.75614178290065 -36.41378856670811,-9.75619474010996 -36.41383810513615,-9.75625577057277 -36.41388413842920,-9.75631977947581 -36.41392218004531,-9.75638784788040 -36.41395008317937,-9.75646472714674 -36.41396686297572,-9.75654251980198 -36.41398696039154,-9.75660708022863 -36.41402224675007,-9.75665372456510 -36.41406960490985,-9.75667007636491 -36.41412163969615,-9.75665651198753 -36.41418071897990,-9.75661213571999 -36.41423458609443,-9.75656161130044 -36.41428652824040,-9.75652005291905 -36.41434543772282,-9.75647899012331 -36.41441087253904,-9.75644351653560 -36.41447790169646,-9.75641465405519 -36.41447809741302,-9.75641463708135 -36.41447745093694,-9.75641357021290 -36.41443367877922,-9.75634824613430 -36.41439411928089,-9.75629413248002 -36.41434233956129,-9.75622306166549 -36.41419768361373,-9.75601895127550 -36.41409720389737,-9.75587243736150 -36.41397977603513,-9.75570234035856 -36.41386638866786,-9.75554093339313 -36.41376091569205,-9.75539114153964 -36.41371931781122,-9.75532877107139 -36.41368657797301,-9.75534877254959 -36.41360508102316,-9.75540355703438 -36.41353024684362,-9.75545675131477 -36.41345752226632,-9.75550877073183 -36.41336556915915,-9.75556627555891 -36.41336556915915,-9.75556627555891
          </coordinates>
        </LinearRing>
      </outerBoundaryIs>
    </Polygon>
  </Placemark>
</Document>
</kml>
