<?xml version="1.0" encoding="UTF-8"?>
<kml xmlns="http://www.opengis.net/kml/2.2" xmlns:gx="http://www.google.com/kml/ext/2.2" xmlns:kml="http://www.opengis.net/kml/2.2" xmlns:atom="http://www.w3.org/2005/Atom">
<Document>
  <name>1028.kml</name>
  <StyleMap id="FF0040FF">
    <Pair>
      <key>normal</key>
      <styleUrl>#s_FF0040FF</styleUrl>
    </Pair>
    <Pair>
      <key>highlight</key>
      <styleUrl>#s_FF0040FF_hl</styleUrl>
    </Pair>
  </StyleMap>
  <Style id="s_FF0040FF">
   <IconStyle>
      <scale>1.1</scale>
      <Icon>
        <href>http://maps.google.com/mapfiles/kml/pushpin/agrocad.png</href>
      </Icon>
      <hotSpot x="20" y="2" xunits="pixels" yunits="pixels"/>
    </IconStyle>
    <LineStyle>
      <color>FF0040FF</color>
      <width>1</width>
    </LineStyle>
    <PolyStyle>
      <color>40ffffff</color>
      <fill>1</fill>
    </PolyStyle>
  </Style>
  <Style id="s_FF0040FF_hl">
    <IconStyle>
      <scale>1.3</scale>
      <Icon>
        <href>http://maps.google.com/mapfiles/kml/pushpin/agrocad.png</href>
      </Icon>
      <hotSpot x="20" y="2" xunits="pixels" yunits="pixels"/>
    </IconStyle>
    <LineStyle>
      <color>ff000000</color>
      <width>1</width>
    </LineStyle>
    <PolyStyle>
      <color>40ffffff</color>
      <fill>1</fill>
    </PolyStyle>
  </Style>
  <Placemark>
    <name>AgroCAD: 83F1</name>
    <styleUrl>FF0040FF</styleUrl>
    <Polygon>
      <outerBoundaryIs>
        <LinearRing>
          <coordinates>
           -36.41600073791736,-9.76161000792270 -36.41597137416607,-9.76159987420684 -36.41588299727184,-9.76157366999968 -36.41578281292876,-9.76155301267191 -36.41567657358885,-9.76152616241493 -36.41557440000534,-9.76148989409970 -36.41547967444127,-9.76144353296627 -36.41540813549195,-9.76139297843340 -36.41536224562870,-9.76133701518524 -36.41533085029657,-9.76127128016845 -36.41523965420296,-9.76107068500089 -36.41520231213839,-9.76100456176449 -36.41515885912141,-9.76094673356093 -36.41511579487175,-9.76088743396428 -36.41507234288281,-9.76082984119613 -36.41502580714753,-9.76077579701455 -36.41497456437948,-9.76072320066975 -36.41491530847595,-9.76068158516324 -36.41485367426803,-9.76065364168822 -36.41478761465100,-9.76064972002563 -36.41471420776654,-9.76065945009255 -36.41463248312232,-9.76067172570540 -36.41455042266480,-9.76068997161140 -36.41446682751896,-9.76071598559954 -36.41429428389249,-9.76076857353778 -36.41421508884316,-9.76079183005905 -36.41401777815096,-9.76083588676402 -36.41392854282680,-9.76083936300750 -36.41383049807983,-9.76083247715369 -36.41363410273316,-9.76080398172573 -36.41354611956987,-9.76078180501227 -36.41345613968308,-9.76075406596261 -36.41336797586301,-9.76073081236030 -36.41328431654008,-9.76071133845631 -36.41319013334871,-9.76068927711222 -36.41309816530882,-9.76066902935318 -36.41301186190444,-9.76064904483438 -36.41293608405192,-9.76062648375058 -36.41287309861269,-9.76060104709050 -36.41280331907179,-9.76057157299832 -36.41272340746658,-9.76054163391078 -36.41264791487097,-9.76051640771518 -36.41258546981865,-9.76050144418491 -36.41258772846479,-9.76054727143976 -36.41259563781634,-9.76063416999505 -36.41260175919804,-9.76072124797960 -36.41261173258055,-9.76090686588688 -36.41263013440806,-9.76128046714275 -36.41264123296073,-9.76158097695822 -36.41264896121850,-9.76175498588601 -36.41266892298845,-9.76210353143498 -36.41268378273652,-9.76243360013477 -36.41269087699262,-9.76264146075804 -36.41270028418432,-9.76285902346412 -36.41271128020596,-9.76307997817480 -36.41272879459498,-9.76342503445849 -36.41273521704245,-9.76366123557975 -36.41285841445145,-9.76364420152479 -36.41302304144460,-9.76361446197053 -36.41324720587698,-9.76357826484385 -36.41345607247499,-9.76354616757583 -36.41368553844797,-9.76351033166434 -36.41392078067847,-9.76347402995490 -36.41413251355393,-9.76344533340665 -36.41420420594305,-9.76343571496923 -36.41437963720959,-9.76340404905255 -36.41455596251334,-9.76337456309112 -36.41476510761152,-9.76334222561584 -36.41500983314754,-9.76330370661585 -36.41529496977048,-9.76325882584858 -36.41559212076169,-9.76321120967246 -36.41588356227144,-9.76316769574708 -36.41607665800884,-9.76313865090814 -36.41607604645399,-9.76313073418885 -36.41606703252119,-9.76300672137042 -36.41605968709552,-9.76287823153824 -36.41605273589551,-9.76274899257947 -36.41605109491893,-9.76263828569115 -36.41604974151075,-9.76253410256613 -36.41604738292551,-9.76243674687249 -36.41604042752002,-9.76222547649939 -36.41603620573168,-9.76211190211045 -36.41603299997004,-9.76193569659257 -36.41603061559610,-9.76185968732207 -36.41602381311733,-9.76178673576724 -36.41601492517785,-9.76171091895738 -36.41600466439097,-9.76163510873481 -36.41600073791736,-9.76161000792270 -36.41600073791736,-9.76161000792270
          </coordinates>
        </LinearRing>
      </outerBoundaryIs>
    </Polygon>
  </Placemark>
</Document>
</kml>
