<?xml version="1.0" encoding="UTF-8"?>
<kml xmlns="http://www.opengis.net/kml/2.2" xmlns:gx="http://www.google.com/kml/ext/2.2" xmlns:kml="http://www.opengis.net/kml/2.2" xmlns:atom="http://www.w3.org/2005/Atom">
<Document>
  <name>18.kml</name>
  <StyleMap id="FFFF4000">
    <Pair>
      <key>normal</key>
      <styleUrl>#s_FFFF4000</styleUrl>
    </Pair>
    <Pair>
      <key>highlight</key>
      <styleUrl>#s_FFFF4000_hl</styleUrl>
    </Pair>
  </StyleMap>
  <Style id="s_FFFF4000">
   <IconStyle>
      <scale>1.1</scale>
      <Icon>
        <href>http://maps.google.com/mapfiles/kml/pushpin/agrocad.png</href>
      </Icon>
      <hotSpot x="20" y="2" xunits="pixels" yunits="pixels"/>
    </IconStyle>
    <LineStyle>
      <color>FFFF4000</color>
      <width>1</width>
    </LineStyle>
    <PolyStyle>
      <color>40ffffff</color>
      <fill>1</fill>
    </PolyStyle>
  </Style>
  <Style id="s_FFFF4000_hl">
    <IconStyle>
      <scale>1.3</scale>
      <Icon>
        <href>http://maps.google.com/mapfiles/kml/pushpin/agrocad.png</href>
      </Icon>
      <hotSpot x="20" y="2" xunits="pixels" yunits="pixels"/>
    </IconStyle>
    <LineStyle>
      <color>ff000000</color>
      <width>1</width>
    </LineStyle>
    <PolyStyle>
      <color>40ffffff</color>
      <fill>1</fill>
    </PolyStyle>
  </Style>
  <Placemark>
    <name>AgroCAD: 1DAF4</name>
    <styleUrl>FFFF4000</styleUrl>
    <Polygon>
      <outerBoundaryIs>
        <LinearRing>
          <coordinates>
           -36.41950274854941,-9.63844272811260 -36.41951420998242,-9.63852677862095 -36.41961927311792,-9.63875982775774 -36.41990198846422,-9.63933480964449 -36.42026493384123,-9.64003586729377 -36.42046741915694,-9.64046949150742 -36.42057248229234,-9.64064905395708 -36.42058012324763,-9.64069872016661 -36.42059731539713,-9.64071591231597 -36.42063743041243,-9.64071782255483 -36.42070237853253,-9.64071973279364 -36.42088003074345,-9.64067388706183 -36.42121623277696,-9.64057264440404 -36.42161738293057,-9.64044656864154 -36.42191346994867,-9.64035296693904 -36.42214651908549,-9.64027464714717 -36.42221719792209,-9.64025363452006 -36.42234136344580,-9.64022689117650 -36.42257823306030,-9.64020205807179 -36.42287049960081,-9.64019441711651 -36.42316849685772,-9.64020587854946 -36.42347222483113,-9.64023453213189 -36.42382179853643,-9.64026891643074 -36.42422485892884,-9.64030330072963 -36.42454195857405,-9.64033577478968 -36.42523155479046,-9.64039308195454 -36.42561360255577,-9.64042746625338 -36.42581035715500,-9.64042746625341 -36.42582563906559,-9.64024981404258 -36.42585620288679,-9.63994990654681 -36.42590777933508,-9.63954302567679 -36.42595744554459,-9.63903872262666 -36.42601284247059,-9.63855352196473 -36.42607205987419,-9.63813900013940 -36.42610835441189,-9.63773402950822 -36.42614273871080,-9.63747805750550 -36.42586957455858,-9.63744749368426 -36.42569383258647,-9.63743603225128 -36.42544168106138,-9.63743412201242 -36.42519143977506,-9.63744749368422 -36.42477500771086,-9.63751435204311 -36.42457634287295,-9.63754109538668 -36.42437003707965,-9.63757547968557 -36.42405484767325,-9.63765379947743 -36.42365751799733,-9.63774549094108 -36.42316276614121,-9.63786774622596 -36.42285712792900,-9.63792505339077 -36.42260497640389,-9.63794988649546 -36.42215416004078,-9.63801483461556 -36.42162884436347,-9.63807787249679 -36.42094688910236,-9.63816956396041 -36.42037954817094,-9.63827844757356 -36.41970332362622,-9.63840261309722 -36.41958297858021,-9.63841598476902 -36.41950847926591,-9.63842362572431 -36.41950274854941,-9.63844272811260 -36.41950274854941,-9.63844272811260 -36.41950274854941,-9.63844272811260
          </coordinates>
        </LinearRing>
      </outerBoundaryIs>
    </Polygon>
  </Placemark>
</Document>
</kml>
