<?xml version="1.0" encoding="UTF-8"?>
<kml xmlns="http://www.opengis.net/kml/2.2" xmlns:gx="http://www.google.com/kml/ext/2.2" xmlns:kml="http://www.opengis.net/kml/2.2" xmlns:atom="http://www.w3.org/2005/Atom">
<Document>
  <name>1009.kml</name>
  <StyleMap id="FF0040FF">
    <Pair>
      <key>normal</key>
      <styleUrl>#s_FF0040FF</styleUrl>
    </Pair>
    <Pair>
      <key>highlight</key>
      <styleUrl>#s_FF0040FF_hl</styleUrl>
    </Pair>
  </StyleMap>
  <Style id="s_FF0040FF">
   <IconStyle>
      <scale>1.1</scale>
      <Icon>
        <href>http://maps.google.com/mapfiles/kml/pushpin/agrocad.png</href>
      </Icon>
      <hotSpot x="20" y="2" xunits="pixels" yunits="pixels"/>
    </IconStyle>
    <LineStyle>
      <color>FF0040FF</color>
      <width>1</width>
    </LineStyle>
    <PolyStyle>
      <color>40ffffff</color>
      <fill>1</fill>
    </PolyStyle>
  </Style>
  <Style id="s_FF0040FF_hl">
    <IconStyle>
      <scale>1.3</scale>
      <Icon>
        <href>http://maps.google.com/mapfiles/kml/pushpin/agrocad.png</href>
      </Icon>
      <hotSpot x="20" y="2" xunits="pixels" yunits="pixels"/>
    </IconStyle>
    <LineStyle>
      <color>ff000000</color>
      <width>1</width>
    </LineStyle>
    <PolyStyle>
      <color>40ffffff</color>
      <fill>1</fill>
    </PolyStyle>
  </Style>
  <Placemark>
    <name>AgroCAD: 8094</name>
    <styleUrl>FF0040FF</styleUrl>
    <Polygon>
      <outerBoundaryIs>
        <LinearRing>
          <coordinates>
           -36.27355979820278,-9.76246301430668 -36.27355762927380,-9.76246359952969 -36.27336223992323,-9.76257560910321 -36.27318966598910,-9.76282854410953 -36.27300230530386,-9.76300094566999 -36.27287117055400,-9.76301381847202 -36.27269336642983,-9.76300058268533 -36.27256889500156,-9.76293732644987 -36.27244352140618,-9.76281223050058 -36.27240449431362,-9.76277609738026 -36.27240617781918,-9.76273904019845 -36.27238452338659,-9.76247918627498 -36.27229835364825,-9.76209142200621 -36.27222593161749,-9.76181621806567 -36.27266521521257,-9.76185615305011 -36.27306132692198,-9.76189183421393 -36.27332726656803,-9.76196287898501 -36.27351318602853,-9.76201390769704 -36.27355306734405,-9.76204276779258 -36.27361005842878,-9.76218740189526 -36.27361415078176,-9.76230748148770 -36.27355979820278,-9.76246301430668
          </coordinates>
        </LinearRing>
      </outerBoundaryIs>
    </Polygon>
  </Placemark>
</Document>
</kml>
