<?xml version="1.0" encoding="UTF-8"?>
<kml xmlns="http://www.opengis.net/kml/2.2" xmlns:gx="http://www.google.com/kml/ext/2.2" xmlns:kml="http://www.opengis.net/kml/2.2" xmlns:atom="http://www.w3.org/2005/Atom">
<Document>
  <name>1017.kml</name>
  <StyleMap id="FF0040FF">
    <Pair>
      <key>normal</key>
      <styleUrl>#s_FF0040FF</styleUrl>
    </Pair>
    <Pair>
      <key>highlight</key>
      <styleUrl>#s_FF0040FF_hl</styleUrl>
    </Pair>
  </StyleMap>
  <Style id="s_FF0040FF">
   <IconStyle>
      <scale>1.1</scale>
      <Icon>
        <href>http://maps.google.com/mapfiles/kml/pushpin/agrocad.png</href>
      </Icon>
      <hotSpot x="20" y="2" xunits="pixels" yunits="pixels"/>
    </IconStyle>
    <LineStyle>
      <color>FF0040FF</color>
      <width>1</width>
    </LineStyle>
    <PolyStyle>
      <color>40ffffff</color>
      <fill>1</fill>
    </PolyStyle>
  </Style>
  <Style id="s_FF0040FF_hl">
    <IconStyle>
      <scale>1.3</scale>
      <Icon>
        <href>http://maps.google.com/mapfiles/kml/pushpin/agrocad.png</href>
      </Icon>
      <hotSpot x="20" y="2" xunits="pixels" yunits="pixels"/>
    </IconStyle>
    <LineStyle>
      <color>ff000000</color>
      <width>1</width>
    </LineStyle>
    <PolyStyle>
      <color>40ffffff</color>
      <fill>1</fill>
    </PolyStyle>
  </Style>
  <Placemark>
    <name>AgroCAD: 8098</name>
    <styleUrl>FF0040FF</styleUrl>
    <Polygon>
      <outerBoundaryIs>
        <LinearRing>
          <coordinates>
           -36.26086043821640,-9.74160754479620 -36.26086043821640,-9.74160754479620 -36.26030276328204,-9.74020219918842 -36.25930491128730,-9.73773454373515 -36.25929134837959,-9.73770100293392 -36.25929134837959,-9.73770100293392 -36.25871488716593,-9.73627542153197 -36.25772914214634,-9.73381914105773 -36.25771566761521,-9.73378556503597 -36.25771566761521,-9.73378556503597 -36.25740597267432,-9.73301386165741 -36.25716704974375,-9.73242319223744 -36.25747355619822,-9.73216533638777 -36.25795770510994,-9.73179034664406 -36.25861974179017,-9.73343540677226 -36.25863324905153,-9.73346897014021 -36.25885272005195,-9.73401431956461 -36.26019175325854,-9.73734121189551 -36.26020526162086,-9.73737477383942 -36.26093411006316,-9.73918561348247 -36.26177292292074,-9.74126736327083 -36.26178644718760,-9.74130092739312 -36.26205190452886,-9.74195973057191 -36.26124555258865,-9.74257803162202 -36.26087378374059,-9.74164117553298 -36.26086043821640,-9.74160754479620 -36.26086043821640,-9.74160754479620
          </coordinates>
        </LinearRing>
      </outerBoundaryIs>
    </Polygon>
  </Placemark>
</Document>
</kml>
