<?xml version="1.0" encoding="UTF-8"?>
<kml xmlns="http://www.opengis.net/kml/2.2" xmlns:gx="http://www.google.com/kml/ext/2.2" xmlns:kml="http://www.opengis.net/kml/2.2" xmlns:atom="http://www.w3.org/2005/Atom">
<Document>
  <name>84.kml</name>
  <StyleMap id="FFFF0000">
    <Pair>
      <key>normal</key>
      <styleUrl>#s_FFFF0000</styleUrl>
    </Pair>
    <Pair>
      <key>highlight</key>
      <styleUrl>#s_FFFF0000_hl</styleUrl>
    </Pair>
  </StyleMap>
  <Style id="s_FFFF0000">
   <IconStyle>
      <scale>1.1</scale>
      <Icon>
        <href>http://maps.google.com/mapfiles/kml/pushpin/agrocad.png</href>
      </Icon>
      <hotSpot x="20" y="2" xunits="pixels" yunits="pixels"/>
    </IconStyle>
    <LineStyle>
      <color>FFFF0000</color>
      <width>1</width>
    </LineStyle>
    <PolyStyle>
      <color>40ffffff</color>
      <fill>1</fill>
    </PolyStyle>
  </Style>
  <Style id="s_FFFF0000_hl">
    <IconStyle>
      <scale>1.3</scale>
      <Icon>
        <href>http://maps.google.com/mapfiles/kml/pushpin/agrocad.png</href>
      </Icon>
      <hotSpot x="20" y="2" xunits="pixels" yunits="pixels"/>
    </IconStyle>
    <LineStyle>
      <color>ff000000</color>
      <width>1</width>
    </LineStyle>
    <PolyStyle>
      <color>40ffffff</color>
      <fill>1</fill>
    </PolyStyle>
  </Style>
  <Placemark>
    <name>AgroCAD: 11808</name>
    <styleUrl>FFFF0000</styleUrl>
    <Polygon>
      <outerBoundaryIs>
        <LinearRing>
          <coordinates>
           -36.39357653919967,-9.79665378712414 -36.39262690910374,-9.79471068659883 -36.39207498063877,-9.79540707972684 -36.39174592157632,-9.79575454183227 -36.39142196655892,-9.79611151384968 -36.39065266751313,-9.79702011512812 -36.39043879251714,-9.79727558017358 -36.39083980745007,-9.79763638760810 -36.39109230151583,-9.79783629582218 -36.39129920790560,-9.79805407028326 -36.39151340165452,-9.79836823675218 -36.39175815567951,-9.79874785344698 -36.39180599793099,-9.79874822133712 -36.39186953220699,-9.79855687144689 -36.39203344005438,-9.79801262500040 -36.39223275668754,-9.79762819765929 -36.39237460008222,-9.79740401336572 -36.39254809120526,-9.79729785855584 -36.39301039068203,-9.79705127454769 -36.39353638381260,-9.79673274776481 -36.39357653919967,-9.79665378712414 -36.39357653919967,-9.79665378712414 -36.39357653919967,-9.79665378712414
          </coordinates>
        </LinearRing>
      </outerBoundaryIs>
    </Polygon>
  </Placemark>
</Document>
</kml>
