<?xml version="1.0" encoding="UTF-8"?>
<kml xmlns="http://www.opengis.net/kml/2.2" xmlns:gx="http://www.google.com/kml/ext/2.2" xmlns:kml="http://www.opengis.net/kml/2.2" xmlns:atom="http://www.w3.org/2005/Atom">
<Document>
  <name>55.kml</name>
  <StyleMap id="FFFF4000">
    <Pair>
      <key>normal</key>
      <styleUrl>#s_FFFF4000</styleUrl>
    </Pair>
    <Pair>
      <key>highlight</key>
      <styleUrl>#s_FFFF4000_hl</styleUrl>
    </Pair>
  </StyleMap>
  <Style id="s_FFFF4000">
   <IconStyle>
      <scale>1.1</scale>
      <Icon>
        <href>http://maps.google.com/mapfiles/kml/pushpin/agrocad.png</href>
      </Icon>
      <hotSpot x="20" y="2" xunits="pixels" yunits="pixels"/>
    </IconStyle>
    <LineStyle>
      <color>FFFF4000</color>
      <width>1</width>
    </LineStyle>
    <PolyStyle>
      <color>40ffffff</color>
      <fill>1</fill>
    </PolyStyle>
  </Style>
  <Style id="s_FFFF4000_hl">
    <IconStyle>
      <scale>1.3</scale>
      <Icon>
        <href>http://maps.google.com/mapfiles/kml/pushpin/agrocad.png</href>
      </Icon>
      <hotSpot x="20" y="2" xunits="pixels" yunits="pixels"/>
    </IconStyle>
    <LineStyle>
      <color>ff000000</color>
      <width>1</width>
    </LineStyle>
    <PolyStyle>
      <color>40ffffff</color>
      <fill>1</fill>
    </PolyStyle>
  </Style>
  <Placemark>
    <name>AgroCAD: 15F8D</name>
    <styleUrl>FFFF4000</styleUrl>
    <Polygon>
      <outerBoundaryIs>
        <LinearRing>
          <coordinates>
           -36.39488096350986,-9.77268193783107 -36.39487165959736,-9.77259200001006 -36.39486176895167,-9.77250520540273 -36.39484944755395,-9.77242415239903 -36.39483737761336,-9.77234033336734 -36.39482346365416,-9.77225207192695 -36.39480602929556,-9.77216762425254 -36.39479203151726,-9.77207865035035 -36.39475665988585,-9.77191004836804 -36.39474148864106,-9.77182643888389 -36.39472388664446,-9.77174358377110 -36.39470678756195,-9.77165867509195 -36.39468063602404,-9.77149715581784 -36.39466336930354,-9.77142184441787 -36.39464568348786,-9.77134770648429 -36.39462841676735,-9.77127361046026 -36.39461542481736,-9.77120408257346 -36.39460310341976,-9.77113522523892 -36.39459094966015,-9.77107642618818 -36.39458516614695,-9.77102848170203 -36.39457896353855,-9.77098556635781 -36.39457041399735,-9.77094839261726 -36.39456756415025,-9.77092425273607 -36.39456736876765,-9.77090100219960 -36.39708112927323,-9.77075410010187 -36.39709305052202,-9.77073139132861 -36.39710382625592,-9.77072739332550 -36.39710317367862,-9.77074969960272 -36.39712739737872,-9.77078217947752 -36.39714458028023,-9.77082333462204 -36.39715237545023,-9.77088146312058 -36.39717098327523,-9.77095006899800 -36.39720115812663,-9.77107730628813 -36.39721725138072,-9.77114817527947 -36.39723569156773,-9.77121866708514 -36.39725714923983,-9.77129066763337 -36.39727223666553,-9.77136426074322 -36.39728506097743,-9.77144124852385 -36.39730081895533,-9.77152376836058 -36.39731624165723,-9.77160934759196 -36.39735119419344,-9.77178742112480 -36.39736737126654,-9.77187522156053 -36.39738455416804,-9.77196365063900 -36.39739888722243,-9.77205174444130 -36.39741908760914,-9.77214184990040 -36.39743945563385,-9.77223073998354 -36.39745781200173,-9.77231828896216 -36.39747549781743,-9.77240617321688 -36.39749251308094,-9.77249326119084 -36.39750961216334,-9.77257812796047 -36.39752947727393,-9.77266630558182 -36.39754984529863,-9.77275884179285 -36.39756853694263,-9.77284861197579 -36.39758496547294,-9.77294060336309 -36.39760323802184,-9.77303196610766 -36.39762318695134,-9.77312764553235 -36.39763961548154,-9.77322395359979 -36.39765436763114,-9.77332596136138 -36.39767020942814,-9.77342524500444 -36.39768890107224,-9.77352431909994 -36.39770910145885,-9.77362326746687 -36.39774405399504,-9.77381303375466 -36.39776023106825,-9.77390615669889 -36.39777523467485,-9.77399965682879 -36.39779141174805,-9.77409106148284 -36.39780683444985,-9.77418187940367 -36.39781982639975,-9.77427424797665 -36.39785008507025,-9.77445550663273 -36.39786433430566,-9.77454531872520 -36.39787984082634,-9.77463450217492 -36.39790314251725,-9.77480578636623 -36.39791672120046,-9.77489144941664 -36.39792895877905,-9.77497878884770 -36.39794178309085,-9.77506407471248 -36.39796986246655,-9.77523720292246 -36.39800012113695,-9.77540572108568 -36.39801361600096,-9.77548916293175 -36.39804521577595,-9.77565893838051 -36.39806105757305,-9.77574627781158 -36.39808109032156,-9.77583286287132 -36.39809768648985,-9.77591911265492 -36.39811277391556,-9.77600729027632 -36.39812593350346,-9.77609261805059 -36.39814403841436,-9.77617958029597 -36.39816138895394,-9.77626880565525 -36.39817647637966,-9.77635668990998 -36.39819080943406,-9.77644947757810 -36.39820287937466,-9.77654247479379 -36.39821939172386,-9.77663505291430 -36.39823917301536,-9.77672570319709 -36.39827513137996,-9.77690972788121 -36.39829332010986,-9.77700083916868 -36.39833447525447,-9.77718586968119 -36.39835710639296,-9.77727693905913 -36.39837806115088,-9.77736700260871 -36.39839801008046,-9.77745698233927 -36.39844218271016,-9.77764239003741 -36.39848124237897,-9.77783467089614 -36.39850102367046,-9.77792548881701 -36.39851795511488,-9.77801257679095 -36.39853262344538,-9.77810188596927 -36.39855198564177,-9.77819329062331 -36.39856983909548,-9.77828138442565 -36.39858769254927,-9.77837148988473 -36.39860873112617,-9.77846109242966 -36.39863035643637,-9.77855040160793 -36.39865064064208,-9.77863904023397 -36.39867268504737,-9.77872864277885 -36.39869355598627,-9.77881908351405 -36.39871149325907,-9.77890856033041 -36.39872792178929,-9.77900038407968 -36.39874367976727,-9.77909266883355 -36.39876388015388,-9.77918503740650 -36.39877980576998,-9.77927723834141 -36.39879724012859,-9.77936746952903 -36.39881224373518,-9.77945795217381 -36.39882917517958,-9.77954646507126 -36.39884669335727,-9.77963372068329 -36.39886538500127,-9.77971837790529 -36.39888105916027,-9.77980161020379 -36.39889748769048,-9.77988572260210 -36.39891450295387,-9.77997121801444 -36.39893026093187,-9.78005671342681 -36.39894492926237,-9.78014304702948 -36.39896303417328,-9.78022397430459 -36.39897803777998,-9.78030146499939 -36.39900242911817,-9.78044659765284 -36.39901625925840,-9.78051386242578 -36.39902229422868,-9.78057224238134 -36.39902723955158,-9.78062647329484 -36.39903050849377,-9.78066934672961 -36.39903126286507,-9.78071486046380 -36.39902254568579,-9.78072273945280 -36.39900921845978,-9.78072605030452 -36.39899807052849,-9.78072412246686 -36.39896722512488,-9.78068120712255 -36.39894249851046,-9.78065090654261 -36.39888902196827,-9.78057425403811 -36.39884501697659,-9.78052526181407 -36.39879321681498,-9.78047124044810 -36.39869146051048,-9.78034790074292 -36.39863764869217,-9.78028147416034 -36.39858501034017,-9.78021240727822 -36.39853362927377,-9.78013952663009 -36.39847286047576,-9.78006090437838 -36.39840865509746,-9.77998395850726 -36.39834914358497,-9.77990424660811 -36.39828510584476,-9.77982365460907 -36.39821905644776,-9.77974209869124 -36.39814797790886,-9.77966330880145 -36.39808025213125,-9.77958137569795 -36.39801302926775,-9.77949801767091 -36.39794513585205,-9.77941126497308 -36.39780348168844,-9.77924077706257 -36.39773508535875,-9.77915758667357 -36.39766476119105,-9.77907422864654 -36.39758932406254,-9.77898533856343 -36.39751690441914,-9.77889514928528 -36.39744465241383,-9.77880831276844 -36.39737474734133,-9.77872126670402 -36.39723585920584,-9.77855832250633 -36.39716880398043,-9.77847693422652 -36.39710015619343,-9.77838955288600 -36.39703326860612,-9.77829953124593 -36.39696286061953,-9.77821101834843 -36.39689429665152,-9.77811986515146 -36.39682087117973,-9.77802808331172 -36.39674660751762,-9.77793634338153 -36.39666706325651,-9.77784271752308 -36.39659221286122,-9.77775018131209 -36.39651442879980,-9.77765714218685 -36.39643865639511,-9.77756297150474 -36.39636129142891,-9.77746649579921 -36.39628593811941,-9.77737131928873 -36.39621100390510,-9.77727828016353 -36.39613833280460,-9.77718670787137 -36.39599818738350,-9.77701211282831 -36.39592995869169,-9.77692934153452 -36.39586374165669,-9.77684967154485 -36.39579878190710,-9.77677427632585 -36.39573574999519,-9.77670059939695 -36.39568679968068,-9.77663614256156 -36.39564447106967,-9.77658459385705 -36.39561546968468,-9.77654503127410 -36.39559602366938,-9.77651716144608 -36.39559032397518,-9.77649796688782 -36.39558839613748,-9.77647294690685 -36.39558185825298,-9.77644348451718 -36.39557733202528,-9.77640459248648 -36.39557037504567,-9.77635446870550 -36.39555562289608,-9.77629554392624 -36.39553667979489,-9.77623087754322 -36.39551798815089,-9.77616017618999 -36.39550164343968,-9.77608285313324 -36.39548253270037,-9.77600603299070 -36.39544799925938,-9.77584438798801 -36.39543333092877,-9.77575784483778 -36.39542050661698,-9.77566811656436 -36.39540910722868,-9.77557528698669 -36.39539267869837,-9.77548279268522 -36.39535638505768,-9.77529135001677 -36.39533802868978,-9.77519127009295 -36.39531925322667,-9.77509165117376 -36.39527943918658,-9.77489878358175 -36.39522738756787,-9.77461300259315 -36.39521003702827,-9.77451665261620 -36.39519494960267,-9.77441975781555 -36.39517852107238,-9.77432298874342 -36.39516309837067,-9.77422789605194 -36.39514549637386,-9.77413569511707 -36.39512621799667,-9.77404215307767 -36.39510643670516,-9.77394835958120 -36.39508539812827,-9.77385418889905 -36.39506469482726,-9.77376014394549 -36.39504558408817,-9.77366505125403 -36.39501532541775,-9.77348157139359 -36.39499931598267,-9.77339104683936 -36.39498104343376,-9.77330068992319 -36.39496511781777,-9.77320936908811 -36.39494759964006,-9.77311708433419 -36.39492748307247,-9.77302811043206 -36.39491298237996,-9.77294299220535 -36.39489973897296,-9.77285908935459 -36.39488766903247,-9.77277229474725 -36.39488096350986,-9.77268193783107 -36.39488096350986,-9.77268193783107 -36.39488096350986,-9.77268193783107
          </coordinates>
        </LinearRing>
      </outerBoundaryIs>
    </Polygon>
  </Placemark>
</Document>
</kml>
