<?xml version="1.0" encoding="UTF-8"?>
<kml xmlns="http://www.opengis.net/kml/2.2" xmlns:gx="http://www.google.com/kml/ext/2.2" xmlns:kml="http://www.opengis.net/kml/2.2" xmlns:atom="http://www.w3.org/2005/Atom">
<Document>
  <name>61.kml</name>
  <StyleMap id="FFFF4000">
    <Pair>
      <key>normal</key>
      <styleUrl>#s_FFFF4000</styleUrl>
    </Pair>
    <Pair>
      <key>highlight</key>
      <styleUrl>#s_FFFF4000_hl</styleUrl>
    </Pair>
  </StyleMap>
  <Style id="s_FFFF4000">
   <IconStyle>
      <scale>1.1</scale>
      <Icon>
        <href>http://maps.google.com/mapfiles/kml/pushpin/agrocad.png</href>
      </Icon>
      <hotSpot x="20" y="2" xunits="pixels" yunits="pixels"/>
    </IconStyle>
    <LineStyle>
      <color>FFFF4000</color>
      <width>1</width>
    </LineStyle>
    <PolyStyle>
      <color>40ffffff</color>
      <fill>1</fill>
    </PolyStyle>
  </Style>
  <Style id="s_FFFF4000_hl">
    <IconStyle>
      <scale>1.3</scale>
      <Icon>
        <href>http://maps.google.com/mapfiles/kml/pushpin/agrocad.png</href>
      </Icon>
      <hotSpot x="20" y="2" xunits="pixels" yunits="pixels"/>
    </IconStyle>
    <LineStyle>
      <color>ff000000</color>
      <width>1</width>
    </LineStyle>
    <PolyStyle>
      <color>40ffffff</color>
      <fill>1</fill>
    </PolyStyle>
  </Style>
  <Placemark>
    <name>AgroCAD: 15F9B</name>
    <styleUrl>FFFF4000</styleUrl>
    <Polygon>
      <outerBoundaryIs>
        <LinearRing>
          <coordinates>
           -36.39287651518551,-9.78319464651657 -36.39286008665531,-9.78311920938804 -36.39284550214371,-9.78304565818772 -36.39283125290830,-9.78297089161142 -36.39281256126431,-9.78289671176837 -36.39280007222850,-9.78282580086755 -36.39278640972641,-9.78275405177642 -36.39276805335840,-9.78268259605188 -36.39274106363020,-9.78254006178844 -36.39272555710940,-9.78246936043518 -36.39270644637009,-9.78239698270127 -36.39269228095380,-9.78232485642450 -36.39267543332841,-9.78225453225692 -36.39265741223660,-9.78218332798946 -36.39264307918211,-9.78211183035544 -36.39262975195610,-9.78204112900215 -36.39261349106391,-9.78196808071605 -36.39259865509531,-9.78189423614908 -36.39258507641220,-9.78182315761021 -36.39257250355740,-9.78176515484028 -36.39256219381650,-9.78172035356783 -36.39255381191340,-9.78167949178985 -36.39253486881219,-9.78161537023061 -36.39252288269069,-9.78156218705496 -36.39251475224459,-9.78152849180424 -36.39250720853169,-9.78149295253478 -36.39250335285630,-9.78145661698455 -36.39249572532440,-9.78141969470107 -36.39247938061319,-9.78134802942893 -36.39246881941519,-9.78131060423131 -36.39245951550269,-9.78126794034415 -36.39245222324689,-9.78122506690941 -36.39244367370569,-9.78118634251681 -36.39242389241419,-9.78107880269909 -36.39241760598679,-9.78104334724867 -36.39240897262660,-9.78100533531780 -36.39239715414309,-9.78096690429178 -36.39238810168770,-9.78092277357160 -36.39237737285159,-9.78087323652384 -36.39236823657710,-9.78082219073352 -36.39235775919819,-9.78077772473719 -36.39234644362889,-9.78073711441633 -36.39234191740119,-9.78069629454790 -36.39233336785999,-9.78065291819898 -36.39232557269000,-9.78061029622134 -36.39231568204429,-9.78056679414386 -36.39230629431269,-9.78052199287144 -36.39228559101189,-9.78042886992721 -36.39227268288099,-9.78034882275194 -36.39226513916809,-9.78030951162606 -36.39225876892169,-9.78026965567647 -36.39225365596079,-9.78023239811686 -36.39225030319949,-9.78019413472892 -36.39225055465658,-9.78015893073559 -36.39224384913410,-9.78012305619004 -36.39222926462259,-9.78008906757266 -36.39221291991139,-9.78005566568852 -36.39220395127499,-9.78001677365780 -36.39218928294438,-9.77993111060740 -36.39218433762158,-9.77989251194327 -36.39217721300389,-9.77986254663947 -36.39215248638950,-9.77974574481878 -36.39214695433338,-9.77970618223579 -36.39214075172509,-9.77966695492896 -36.39213262127898,-9.77962932018372 -36.39212350823799,-9.77957477795202 -36.39211309144458,-9.77953271874971 -36.39210571536979,-9.77949927495601 -36.39209540562888,-9.77942899269798 -36.39208920302059,-9.77939123222416 -36.39208165930779,-9.77934969989395 -36.39207109810978,-9.77930875429694 -36.39206648806308,-9.77927091000413 -36.39205215500858,-9.77920867437309 -36.39204938898048,-9.77917896052636 -36.39204150999148,-9.77915909541580 -36.39203421773589,-9.77914425944723 -36.39203019442228,-9.77913244096375 -36.39202600347078,-9.77909874571297 -36.39201158659727,-9.77903206767328 -36.39200798237888,-9.77899891724625 -36.39200689273148,-9.77897356198913 -36.39200412670348,-9.77895218813606 -36.39200480854159,-9.77890820956323 -36.39407211106274,-9.77829197502664 -36.39579765195809,-9.77781762135519 -36.39580640943900,-9.77783391652469 -36.39581856319859,-9.77787389820282 -36.39583616519519,-9.77791995676076 -36.39584060760389,-9.77798051601119 -36.39585007915449,-9.77804405083722 -36.39586617240860,-9.77811965560383 -36.39587614687339,-9.77819312298511 -36.39588511550979,-9.77828075578275 -36.39589576052678,-9.77836595782849 -36.39590841720059,-9.77845279434535 -36.39592652211140,-9.77853992422880 -36.39594362119389,-9.77862894004049 -36.39595837334350,-9.77871795585215 -36.39597899282529,-9.77880625920206 -36.39599961230710,-9.77889326335702 -36.39602182435048,-9.77898303353993 -36.39604772443129,-9.77907464774162 -36.39606072427200,-9.77912326078556 -36.39607563616890,-9.77920280704109 -36.39608904721389,-9.77927225110886 -36.39610229062089,-9.77933574402537 -36.39611134307639,-9.77939911121336 -36.39612408356921,-9.77946272985842 -36.39614017682330,-9.77952764769849 -36.39615090565930,-9.77959210453388 -36.39616051942861,-9.77963704601062 -36.39617311770270,-9.77971163047309 -36.39619155788970,-9.77980462768878 -36.39619928660970,-9.77984296214238 -36.39619993979290,-9.77985156634657 -36.39621167445731,-9.77991170650177 -36.39621464034670,-9.77992208711571 -36.39622734861631,-9.77999405870045 -36.39624301599180,-9.78007306302407 -36.39624503443200,-9.78009145641531 -36.39625709290450,-9.78013303056109 -36.39626523481860,-9.78016597153448 -36.39627730174581,-9.78021965482257 -36.39627529310240,-9.78022896153679 -36.39628233390111,-9.78026102231644 -36.39628821743920,-9.78029027657608 -36.39628903942361,-9.78029593294317 -36.39629792424101,-9.78036684384398 -36.39630856925791,-9.78044567564329 -36.39632566834052,-9.78053247025066 -36.39634243214681,-9.78062194706697 -36.39635911213402,-9.78071406418284 -36.39637361282652,-9.78080358290874 -36.39639372939411,-9.78089414937246 -36.39641468415201,-9.78098391955544 -36.39645667748701,-9.78116635167795 -36.39647654259742,-9.78125997753638 -36.39649640770802,-9.78135666278945 -36.39651326095571,-9.78144374408493 -36.39652230778882,-9.78149312017309 -36.39653379099611,-9.78156864112064 -36.39654183762322,-9.78164244377809 -36.39655876906761,-9.78170895417973 -36.39656608577431,-9.78173208647663 -36.39656966554172,-9.78175233052865 -36.39658818954771,-9.78185069216240 -36.39660746792501,-9.78195056253867 -36.39662967996841,-9.78204942708657 -36.39665348457342,-9.78214611233961 -36.39667510988361,-9.78224493497803 -36.39669271188021,-9.78234392525447 -36.39673872852872,-9.78254014560768 -36.39676161112432,-9.78263419056129 -36.39678105713972,-9.78272710395793 -36.39680000024082,-9.78281930489283 -36.39681408183822,-9.78291200874191 -36.39682967217812,-9.78300404203871 -36.39684643598442,-9.78309641061164 -36.39686420561912,-9.78318919827975 -36.39688573531542,-9.78329205711359 -36.39689907433633,-9.78336609834620 -36.39691516759044,-9.78343822462298 -36.39693117702552,-9.78351802034117 -36.39693725440273,-9.78354603761229 -36.39697426000783,-9.78373967977053 -36.39699068853803,-9.78383368281457 -36.39700963163924,-9.78392835641089 -36.39702974820682,-9.78402018016014 -36.39704894276502,-9.78411368029001 -36.39707048425623,-9.78420730614843 -36.39709143901413,-9.78430399140152 -36.39711264522912,-9.78439799444558 -36.39713359998713,-9.78448910573303 -36.39715363273563,-9.78457950455875 -36.39717282729395,-9.78466872991799 -36.39719319531864,-9.78475837437243 -36.39722906986423,-9.78492680871662 -36.39724625276573,-9.78500970573900 -36.39726259747694,-9.78509549451793 -36.39727927746424,-9.78518107374933 -36.39729830438443,-9.78526468323347 -36.39731557110494,-9.78534837653662 -36.39733375983484,-9.78543324330623 -36.39736624790924,-9.78557560275350 -36.39737776482653,-9.78563558244882 -36.39741464520044,-9.78583138370685 -36.39742462161793,-9.78587612291533 -36.39743677342484,-9.78594629959932 -36.39745085502215,-9.78603275893055 -36.39746611008594,-9.78612131373756 -36.39748622665353,-9.78620584523105 -36.39752235265625,-9.78638224238329 -36.39754188249064,-9.78646627096257 -36.39756015503945,-9.78655381994121 -36.39758052306414,-9.78664287766237 -36.39760072345075,-9.78672816352714 -36.39761050288414,-9.78677349434315 -36.39761254193424,-9.78678537001629 -36.39762746172185,-9.78687514019926 -36.39764221387145,-9.78696616766771 -36.39765906149684,-9.78705857815018 -36.39768182124956,-9.78716895784499 -36.39768680559634,-9.78719746628571 -36.39769996518435,-9.78726623980122 -36.39771488497195,-9.78733597723559 -36.39773089440705,-9.78740910934077 -36.39774774203236,-9.78748274436015 -36.39776391910555,-9.78755847485527 -36.39778085054995,-9.78763516926930 -36.39779543506145,-9.78771194750234 -36.39780809173526,-9.78778654644055 -36.39782552609386,-9.78786231884525 -36.39784052970056,-9.78793763024521 -36.39785519803105,-9.78800858305556 -36.39786785470485,-9.78807425526691 -36.39788243921636,-9.78812622306656 -36.39789124021465,-9.78816888695373 -36.39789853247046,-9.78824344398241 -36.39790222050786,-9.78827764214736 -36.39790917748746,-9.78830329077107 -36.39791797848585,-9.78832608954769 -36.39793591575865,-9.78838853472635 -36.39794480057595,-9.78842311007690 -36.39795200901266,-9.78845709869428 -36.39795410448846,-9.78848802791697 -36.39795234428886,-9.78851602347356 -36.39794379474756,-9.78854318083980 -36.39789710754696,-9.78862448530057 -36.39786844143805,-9.78866916084448 -36.39784094879566,-9.78871019026050 -36.39781362379136,-9.78875725464683 -36.39778336512085,-9.78880721078969 -36.39775570484045,-9.78885905286080 -36.39772863129315,-9.78891156548416 -36.39767020942805,-9.78901814138301 -36.39764213005245,-9.78907061209684 -36.39761622997165,-9.78912061014925 -36.39758739622474,-9.78917404478197 -36.39755613172584,-9.78923032926176 -36.39752780089315,-9.78928577555121 -36.39750139789824,-9.78934138947876 -36.39747113922775,-9.78939993707238 -36.39743895271965,-9.78945668255688 -36.39740651475435,-9.78951263176052 -36.39737298714153,-9.78956719795017 -36.39733862133864,-9.78962235087308 -36.39730299825023,-9.78967683324364 -36.39726234601984,-9.78973127370474 -36.39721817339013,-9.78978382823762 -36.39717584477903,-9.78983541885166 -36.39713075014003,-9.78988667418953 -36.39708624223424,-9.78993922872241 -36.39703905211933,-9.78998868195115 -36.39698943125253,-9.79003461478051 -36.39693905601453,-9.79008033806231 -36.39688683675772,-9.79012920455778 -36.39683495277712,-9.79017966361486 -36.39673378320583,-9.79028012072436 -36.39668181540612,-9.79033028641481 -36.39662758449262,-9.79038036828627 -36.39657553287392,-9.79043149789560 -36.39652130196042,-9.79047990338643 -36.39646497557111,-9.79052843460576 -36.39640613461081,-9.79057445125420 -36.39628811741421,-9.79066216787086 -36.39623070137741,-9.79070080844450 -36.39617202805521,-9.79073664108053 -36.39605434613470,-9.79080646233394 -36.39599340969861,-9.79083873266112 -36.39593088070100,-9.79087003906948 -36.39587279411210,-9.79089962718768 -36.39572250658819,-9.79098088973891 -36.39568042943429,-9.79100238932056 -36.39560331592509,-9.79104513702670 -36.39556031676189,-9.79106764243671 -36.39547515662559,-9.79111747285108 -36.39543006198658,-9.79114320529379 -36.39538220131948,-9.79117446979262 -36.39533601703298,-9.79120703348644 -36.39529050329878,-9.79124156692751 -36.39524482192648,-9.79127819584437 -36.39519754799258,-9.79131968626502 -36.39515681194318,-9.79136063186203 -36.39512412252078,-9.79138871123766 -36.39510191047738,-9.79140681614853 -36.39508841561327,-9.79141159383333 -36.39507852496758,-9.79140731906269 -36.39506435955116,-9.79139386610812 -36.39504726046868,-9.79137018723167 -36.39503041284338,-9.79134118584667 -36.39501482250348,-9.79130702959127 -36.39499923216357,-9.79127744147307 -36.39499026352717,-9.79125397214418 -36.39498540202327,-9.79123012562966 -36.39496712947437,-9.79116621361798 -36.39495849611417,-9.79113117726270 -36.39493519442328,-9.79104740014051 -36.39490988107578,-9.79096307819463 -36.39489890078257,-9.79092334797359 -36.39489269817427,-9.79088914980867 -36.39487962240526,-9.79084216924138 -36.39487258160656,-9.79081895136957 -36.39485632071447,-9.79075109986345 -36.39484332876457,-9.79070944180467 -36.39482949862426,-9.79066292224207 -36.39480946587577,-9.79061045152823 -36.39479236679326,-9.79055169438700 -36.39477669263436,-9.79049121895560 -36.39476235957986,-9.79043418010450 -36.39474861325866,-9.79038175130017 -36.39473084362396,-9.79032877767213 -36.39471282253215,-9.79027136163543 -36.39469538817356,-9.79020782680939 -36.39467837291017,-9.79014286705982 -36.39465867543766,-9.79007157897334 -36.39463671485136,-9.79000112907721 -36.39461617918865,-9.78992879325286 -36.39459874482996,-9.78985599642376 -36.39457879590046,-9.78978131366656 -36.39455792496156,-9.78970776246620 -36.39453738929886,-9.78964317990228 -36.39452029021626,-9.78958459039911 -36.39450361022896,-9.78953090430928 -36.39448592441336,-9.78947566756740 -36.39446890914996,-9.78941711997374 -36.39444611037336,-9.78935425569996 -36.39442616144376,-9.78928380580379 -36.39440931381846,-9.78920941641314 -36.39437285253966,-9.78906206255540 -36.39435214923875,-9.78899190602587 -36.39433270322345,-9.78891772618281 -36.39431241901775,-9.78884275005893 -36.39429045843145,-9.78876995322987 -36.39426682146445,-9.78869405509667 -36.39424201103106,-9.78861857605861 -36.39421896079735,-9.78854024717351 -36.39417311178705,-9.78838237402727 -36.39414872044875,-9.78830417087070 -36.39412491584375,-9.78822462660958 -36.39410002159134,-9.78814721973378 -36.39407713899575,-9.78807391999053 -36.39405216092425,-9.78800296718021 -36.39403103852825,-9.78792991889410 -36.39400547372354,-9.78785293111346 -36.39397848399534,-9.78777673961364 -36.39395250009555,-9.78769744680964 -36.39392701910994,-9.78762280596191 -36.39387756588114,-9.78747335662836 -36.39385392891423,-9.78739812904739 -36.39380531387584,-9.78724637469046 -36.39378251509923,-9.78716926118130 -36.39375971632263,-9.78709001028682 -36.39373540880343,-9.78701231004441 -36.39371437022643,-9.78693657954924 -36.39368997888823,-9.78686051377799 -36.39364446515394,-9.78670741831654 -36.39362024145383,-9.78663118490725 -36.39359618539173,-9.78655310747918 -36.39357070440603,-9.78647666452225 -36.39354413377303,-9.78640336477903 -36.39352024534893,-9.78632755046485 -36.39347707854764,-9.78617365872265 -36.39346014710323,-9.78609222853334 -36.39344832861973,-9.78600991824418 -36.39343818651692,-9.78592614112199 -36.39342745768082,-9.78584915334138 -36.39342083597733,-9.78578645670565 -36.39340650292292,-9.78567870734038 -36.39339342715402,-9.78562757773105 -36.39337641189052,-9.78557560993136 -36.39336073773163,-9.78551743952337 -36.39333567584112,-9.78539062132838 -36.39332125896782,-9.78532578730734 -36.39330365697102,-9.78525961218183 -36.39329083265912,-9.78519247313741 -36.39327557759552,-9.78512193942225 -36.39322461562422,-9.78489927416449 -36.39318865725952,-9.78474022755182 -36.39317231254842,-9.78465921645767 -36.39315714130372,-9.78457602606870 -36.39313870111671,-9.78449279377021 -36.39312369751001,-9.78441572217056 -36.39311179520751,-9.78434041077054 -36.39310332948531,-9.78427251735487 -36.39309318738251,-9.78420994644772 -36.39307642357611,-9.78414515433618 -36.39306049796011,-9.78407835056794 -36.39302462341452,-9.78394625177395 -36.39301288875012,-9.78387487986845 -36.39299796896241,-9.78380396896761 -36.39296838084420,-9.78365401671986 -36.39295144939981,-9.78357740612491 -36.39293652961220,-9.78350071171090 -36.39291875997752,-9.78342573558702 -36.39287651518551,-9.78319464651657 -36.39287651518551,-9.78319464651657 -36.39287651518551,-9.78319464651657
          </coordinates>
        </LinearRing>
      </outerBoundaryIs>
    </Polygon>
  </Placemark>
</Document>
</kml>
