<?xml version="1.0" encoding="UTF-8"?>
<kml xmlns="http://www.opengis.net/kml/2.2" xmlns:gx="http://www.google.com/kml/ext/2.2" xmlns:kml="http://www.opengis.net/kml/2.2" xmlns:atom="http://www.w3.org/2005/Atom">
<Document>
  <name>2009.kml</name>
  <StyleMap id="FFFF4000">
    <Pair>
      <key>normal</key>
      <styleUrl>#s_FFFF4000</styleUrl>
    </Pair>
    <Pair>
      <key>highlight</key>
      <styleUrl>#s_FFFF4000_hl</styleUrl>
    </Pair>
  </StyleMap>
  <Style id="s_FFFF4000">
   <IconStyle>
      <scale>1.1</scale>
      <Icon>
        <href>http://maps.google.com/mapfiles/kml/pushpin/agrocad.png</href>
      </Icon>
      <hotSpot x="20" y="2" xunits="pixels" yunits="pixels"/>
    </IconStyle>
    <LineStyle>
      <color>FFFF4000</color>
      <width>1</width>
    </LineStyle>
    <PolyStyle>
      <color>40ffffff</color>
      <fill>1</fill>
    </PolyStyle>
  </Style>
  <Style id="s_FFFF4000_hl">
    <IconStyle>
      <scale>1.3</scale>
      <Icon>
        <href>http://maps.google.com/mapfiles/kml/pushpin/agrocad.png</href>
      </Icon>
      <hotSpot x="20" y="2" xunits="pixels" yunits="pixels"/>
    </IconStyle>
    <LineStyle>
      <color>ff000000</color>
      <width>1</width>
    </LineStyle>
    <PolyStyle>
      <color>40ffffff</color>
      <fill>1</fill>
    </PolyStyle>
  </Style>
  <Placemark>
    <name>AgroCAD: 9144</name>
    <styleUrl>FFFF4000</styleUrl>
    <Polygon>
      <outerBoundaryIs>
        <LinearRing>
          <coordinates>
           -36.18744434411440,-9.79456792522481 -36.18739905157843,-9.79451272296133 -36.18732614292151,-9.79443168310317 -36.18725520910923,-9.79437030274963 -36.18719475982877,-9.79432922941201 -36.18713248745106,-9.79429302983975 -36.18706400609190,-9.79425976923996 -36.18696630846988,-9.79422359728270 -36.18688141383056,-9.79420237207015 -36.18667126814240,-9.79419586641660 -36.18659165017461,-9.79420675516467 -36.18654149164175,-9.79421561307921 -36.18652023946444,-9.79421682799795 -36.18650696957927,-9.79421024436407 -36.18651863291651,-9.79414892636183 -36.18654797301257,-9.79412422818763 -36.18666209414230,-9.79403838957686 -36.18669045930303,-9.79401869561009 -36.18673853826702,-9.79398496462445 -36.18682309650389,-9.79392226077063 -36.18691186465929,-9.79386061051832 -36.18700422958297,-9.79379860237358 -36.18709310189264,-9.79373389778162 -36.18718239859835,-9.79366936110934 -36.18727369836941,-9.79360097708512 -36.18740391185819,-9.79350158706760 -36.18747418713357,-9.79344870338434 -36.18761265483953,-9.79334554112151 -36.18770914503372,-9.79328128670914 -36.18779906783190,-9.79321029165909 -36.18790680896548,-9.79312313131209 -36.18800798899184,-9.79304576859393 -36.18809820995907,-9.79297719243754 -36.18818009402544,-9.79291399519847 -36.18826548299823,-9.79284835271795 -36.18835192941359,-9.79277755963648 -36.18842878656640,-9.79271165975133 -36.18848499570094,-9.79264358551337 -36.18853196459902,-9.79255668724899 -36.18858041877778,-9.79245147946587 -36.18862597117475,-9.79234260798958 -36.18867338933320,-9.79223392748638 -36.18872104265864,-9.79213790771715 -36.18877074833514,-9.79203823742205 -36.18883412019329,-9.79191823643911 -36.18888635691220,-9.79180258950621 -36.18892896349374,-9.79167948675457 -36.18897034511018,-9.79156498121245 -36.18901404882310,-9.79145269627019 -36.18906331546302,-9.79134949125421 -36.18912139889218,-9.79125163799944 -36.18918588725183,-9.79116161258895 -36.18925442387388,-9.79107305571289 -36.18932206370819,-9.79099169314062 -36.18939235544742,-9.79091059811117 -36.18946295598751,-9.79083619872350 -36.18953437494289,-9.79075765817861 -36.18963052802555,-9.79066570332509 -36.18973637755242,-9.79056661869778 -36.18984961765872,-9.79046313962862 -36.18996800368108,-9.79034698862166 -36.19009549282650,-9.79022198140599 -36.19021839434144,-9.79010213846145 -36.19031314063853,-9.79000852078556 -36.19039782456486,-9.78992350637803 -36.19047403321459,-9.78985217464964 -36.19054664163122,-9.78980279357396 -36.19059174045206,-9.78979979813690 -36.19059359899304,-9.78980018618975 -36.19133158732239,-9.78997568684476 -36.18953890699477,-9.79712485939058 -36.18841666620993,-9.79596093165312 -36.18836833551514,-9.79591105564985 -36.18834722006547,-9.79588663547166 -36.18827130736632,-9.79580177282529 -36.18819603939549,-9.79570896677696 -36.18812040607958,-9.79561519773877 -36.18805520989091,-9.79552792180637 -36.18798632847631,-9.79543263638320 -36.18791596056179,-9.79531925081158 -36.18784283922126,-9.79520366014613 -36.18777628942658,-9.79509315054031 -36.18771312229677,-9.79498442216467 -36.18765885806350,-9.79489467057551 -36.18759629951273,-9.79479221809280 -36.18752900973330,-9.79468830595253 -36.18744434411440,-9.79456792522481
          </coordinates>
        </LinearRing>
      </outerBoundaryIs>
    </Polygon>
  </Placemark>
</Document>
</kml>
