<?xml version="1.0" encoding="UTF-8"?>
<kml xmlns="http://www.opengis.net/kml/2.2" xmlns:gx="http://www.google.com/kml/ext/2.2" xmlns:kml="http://www.opengis.net/kml/2.2" xmlns:atom="http://www.w3.org/2005/Atom">
<Document>
  <name>2014.kml</name>
  <StyleMap id="FF0040FF">
    <Pair>
      <key>normal</key>
      <styleUrl>#s_FF0040FF</styleUrl>
    </Pair>
    <Pair>
      <key>highlight</key>
      <styleUrl>#s_FF0040FF_hl</styleUrl>
    </Pair>
  </StyleMap>
  <Style id="s_FF0040FF">
   <IconStyle>
      <scale>1.1</scale>
      <Icon>
        <href>http://maps.google.com/mapfiles/kml/pushpin/agrocad.png</href>
      </Icon>
      <hotSpot x="20" y="2" xunits="pixels" yunits="pixels"/>
    </IconStyle>
    <LineStyle>
      <color>FF0040FF</color>
      <width>1</width>
    </LineStyle>
    <PolyStyle>
      <color>40ffffff</color>
      <fill>1</fill>
    </PolyStyle>
  </Style>
  <Style id="s_FF0040FF_hl">
    <IconStyle>
      <scale>1.3</scale>
      <Icon>
        <href>http://maps.google.com/mapfiles/kml/pushpin/agrocad.png</href>
      </Icon>
      <hotSpot x="20" y="2" xunits="pixels" yunits="pixels"/>
    </IconStyle>
    <LineStyle>
      <color>ff000000</color>
      <width>1</width>
    </LineStyle>
    <PolyStyle>
      <color>40ffffff</color>
      <fill>1</fill>
    </PolyStyle>
  </Style>
  <Placemark>
    <name>AgroCAD: 800E</name>
    <styleUrl>FF0040FF</styleUrl>
    <Polygon>
      <outerBoundaryIs>
        <LinearRing>
          <coordinates>
           -36.19981808481913,-9.79640559581138 -36.19982661509691,-9.79637044025583 -36.19994586231905,-9.79587899164473 -36.20056808592966,-9.79347592275586 -36.20086839176277,-9.79231046497811 -36.20143612009558,-9.79244404720037 -36.20263608537225,-9.79276546664488 -36.20268582203888,-9.79278396858933 -36.20245917592797,-9.79302804886710 -36.20192295453955,-9.79365006553373 -36.20168765120642,-9.79388536858927 -36.20140803120666,-9.79414347914480 -36.20137371204002,-9.79418549386703 -36.20135832204003,-9.79424718664481 -36.20140911065110,-9.79429797525592 -36.20145861287328,-9.79433816081148 -36.20135039287337,-9.79446513108926 -36.20060230176291,-9.79548772303366 -36.20032435398539,-9.79596856914475 -36.20016258704106,-9.79640507053363 -36.20014093870774,-9.79649196358918 -36.20013208481886,-9.79652750192252 -36.20006086704114,-9.79681335858917 -36.20005484926335,-9.79696776136695 -36.20005313176334,-9.79772245664472 -36.20016120787430,-9.79970450442251 -36.20020775009644,-9.80073926386697 -36.20007403259656,-9.80070435970028 -36.19880514620882,-9.80039603358910 -36.19923772565293,-9.79879737053358 -36.19981808481913,-9.79640559581138
          </coordinates>
        </LinearRing>
      </outerBoundaryIs>
    </Polygon>
  </Placemark>
  <Placemark>
    <name>AgroCAD: 8007</name>
    <styleUrl>FF0040FF</styleUrl>
    <Polygon>
      <outerBoundaryIs>
        <LinearRing>
          <coordinates>
           -36.19981808481913,-9.79640559581138 -36.19982661509691,-9.79637044025583 -36.19994586231905,-9.79587899164473 -36.20056808592966,-9.79347592275586 -36.20086839176277,-9.79231046497811 -36.20143612009558,-9.79244404720037 -36.20263608537225,-9.79276546664488 -36.20268582203888,-9.79278396858933 -36.20245917592797,-9.79302804886710 -36.20192295453955,-9.79365006553373 -36.20168765120642,-9.79388536858927 -36.20140803120666,-9.79414347914480 -36.20137371204002,-9.79418549386703 -36.20135832204003,-9.79424718664481 -36.20140911065110,-9.79429797525592 -36.20145861287328,-9.79433816081148 -36.20135039287337,-9.79446513108926 -36.20060230176291,-9.79548772303366 -36.20032435398539,-9.79596856914475 -36.20016258704106,-9.79640507053363 -36.20014093870774,-9.79649196358918 -36.20013208481886,-9.79652750192252 -36.20006086704114,-9.79681335858917 -36.20005484926335,-9.79696776136695 -36.20005313176334,-9.79772245664472 -36.20016120787430,-9.79970450442251 -36.20020775009644,-9.80073926386697 -36.20007403259656,-9.80070435970028 -36.19880514620882,-9.80039603358910 -36.19923772565293,-9.79879737053358 -36.19981808481913,-9.79640559581138
          </coordinates>
        </LinearRing>
      </outerBoundaryIs>
    </Polygon>
  </Placemark>
</Document>
</kml>
