<?xml version="1.0" encoding="UTF-8"?>
<kml xmlns="http://www.opengis.net/kml/2.2" xmlns:gx="http://www.google.com/kml/ext/2.2" xmlns:kml="http://www.opengis.net/kml/2.2" xmlns:atom="http://www.w3.org/2005/Atom">
<Document>
  <name>2017.kml</name>
  <StyleMap id="FF0040FF">
    <Pair>
      <key>normal</key>
      <styleUrl>#s_FF0040FF</styleUrl>
    </Pair>
    <Pair>
      <key>highlight</key>
      <styleUrl>#s_FF0040FF_hl</styleUrl>
    </Pair>
  </StyleMap>
  <Style id="s_FF0040FF">
   <IconStyle>
      <scale>1.1</scale>
      <Icon>
        <href>http://maps.google.com/mapfiles/kml/pushpin/agrocad.png</href>
      </Icon>
      <hotSpot x="20" y="2" xunits="pixels" yunits="pixels"/>
    </IconStyle>
    <LineStyle>
      <color>FF0040FF</color>
      <width>1</width>
    </LineStyle>
    <PolyStyle>
      <color>40ffffff</color>
      <fill>1</fill>
    </PolyStyle>
  </Style>
  <Style id="s_FF0040FF_hl">
    <IconStyle>
      <scale>1.3</scale>
      <Icon>
        <href>http://maps.google.com/mapfiles/kml/pushpin/agrocad.png</href>
      </Icon>
      <hotSpot x="20" y="2" xunits="pixels" yunits="pixels"/>
    </IconStyle>
    <LineStyle>
      <color>ff000000</color>
      <width>1</width>
    </LineStyle>
    <PolyStyle>
      <color>40ffffff</color>
      <fill>1</fill>
    </PolyStyle>
  </Style>
  <Placemark>
    <name>AgroCAD: 800A</name>
    <styleUrl>FF0040FF</styleUrl>
    <Polygon>
      <outerBoundaryIs>
        <LinearRing>
          <coordinates>
           -36.20401413509322,-9.79334409747828 -36.20405193425987,-9.79315962831163 -36.20427060759301,-9.79322920636720 -36.20521552731438,-9.79342248553391 -36.20626679953565,-9.79365848581176 -36.20688776397953,-9.79379647831178 -36.20670733036858,-9.79403705636734 -36.20647115370211,-9.79429470331176 -36.20636361675776,-9.79444525497841 -36.20625728620230,-9.79457285164508 -36.20595731175811,-9.79487282581173 -36.20585745564709,-9.79497743470061 -36.20544239370300,-9.79534478636725 -36.20511870286995,-9.79571163581169 -36.20483865564795,-9.79618556136722 -36.20462365425927,-9.79659406386722 -36.20449494425935,-9.79687293553386 -36.20434596981504,-9.79714960192274 -36.20419869759294,-9.79731791303385 -36.20400888037089,-9.79744445775605 -36.20362456092679,-9.79761526636715 -36.20345450620471,-9.79767903664492 -36.20309174814948,-9.79776439136712 -36.20293507648296,-9.79778528081155 -36.20309132592729,-9.79712122053379 -36.20328446620490,-9.79634866108936 -36.20347751926032,-9.79549064803382 -36.20360620676022,-9.79504024247827 -36.20382085564894,-9.79418164747828 -36.20392822537108,-9.79375216858940 -36.20401413509322,-9.79334409747828
          </coordinates>
        </LinearRing>
      </outerBoundaryIs>
    </Polygon>
  </Placemark>
  <Placemark>
    <name>AgroCAD: 8009</name>
    <styleUrl>FF0040FF</styleUrl>
    <Polygon>
      <outerBoundaryIs>
        <LinearRing>
          <coordinates>
           -36.20235704148347,-9.79794106220042 -36.20225215092800,-9.79781519358930 -36.20222553592803,-9.79776196358930 -36.20236872537236,-9.79781173497818 -36.20249128092780,-9.79782152525598 -36.20257782898328,-9.79784316220042 -36.20277442676088,-9.79784316220044 -36.20309839620503,-9.79779996664491 -36.20346519731581,-9.79771366053380 -36.20363846453788,-9.79764868553381 -36.20402661981532,-9.79747617220051 -36.20422303953738,-9.79734522581162 -36.20437617425945,-9.79717021497831 -36.20452760675934,-9.79688898331165 -36.20465638814812,-9.79660995664499 -36.20487053953682,-9.79620306970056 -36.20514839064769,-9.79573285997835 -36.20546842870297,-9.79537015053393 -36.20583869342488,-9.79503691247839 -36.20582479759155,-9.79507165247839 -36.20576108620272,-9.79522031192282 -36.20561194536950,-9.79545467608949 -36.20522576703652,-9.79599103442280 -36.20458203814816,-9.79697808497832 -36.20419745148183,-9.79751223275607 -36.20351360537132,-9.79806785747825 -36.20323861870490,-9.79823707942269 -36.20306295981616,-9.79826860581156 -36.20288335009410,-9.79825777442266 -36.20273665370534,-9.79822023720044 -36.20261183953880,-9.79815339414488 -36.20235704148347,-9.79794106220042
          </coordinates>
        </LinearRing>
      </outerBoundaryIs>
    </Polygon>
  </Placemark>
</Document>
</kml>
