<?xml version="1.0" encoding="UTF-8"?>
<kml xmlns="http://www.opengis.net/kml/2.2" xmlns:gx="http://www.google.com/kml/ext/2.2" xmlns:kml="http://www.opengis.net/kml/2.2" xmlns:atom="http://www.w3.org/2005/Atom">
<Document>
  <name>2039.kml</name>
  <StyleMap id="FFFF4000">
    <Pair>
      <key>normal</key>
      <styleUrl>#s_FFFF4000</styleUrl>
    </Pair>
    <Pair>
      <key>highlight</key>
      <styleUrl>#s_FFFF4000_hl</styleUrl>
    </Pair>
  </StyleMap>
  <Style id="s_FFFF4000">
   <IconStyle>
      <scale>1.1</scale>
      <Icon>
        <href>http://maps.google.com/mapfiles/kml/pushpin/agrocad.png</href>
      </Icon>
      <hotSpot x="20" y="2" xunits="pixels" yunits="pixels"/>
    </IconStyle>
    <LineStyle>
      <color>FFFF4000</color>
      <width>1</width>
    </LineStyle>
    <PolyStyle>
      <color>40ffffff</color>
      <fill>1</fill>
    </PolyStyle>
  </Style>
  <Style id="s_FFFF4000_hl">
    <IconStyle>
      <scale>1.3</scale>
      <Icon>
        <href>http://maps.google.com/mapfiles/kml/pushpin/agrocad.png</href>
      </Icon>
      <hotSpot x="20" y="2" xunits="pixels" yunits="pixels"/>
    </IconStyle>
    <LineStyle>
      <color>ff000000</color>
      <width>1</width>
    </LineStyle>
    <PolyStyle>
      <color>40ffffff</color>
      <fill>1</fill>
    </PolyStyle>
  </Style>
  <Placemark>
    <name>AgroCAD: 952E</name>
    <styleUrl>FFFF4000</styleUrl>
    <Polygon>
      <outerBoundaryIs>
        <LinearRing>
          <coordinates>
           -36.21095107328898,-9.77355001323508 -36.20874016033925,-9.77301036168264 -36.20875289291058,-9.77295898462304 -36.20896356498511,-9.77213569232922 -36.20900879783879,-9.77195519291748 -36.20907101980191,-9.77174249202956 -36.20919242875679,-9.77147604410457 -36.20936585179533,-9.77122765185369 -36.20952850983839,-9.77103017874960 -36.20975193758136,-9.77078242794531 -36.21065231461706,-9.76979316638512 -36.21083799677109,-9.76958073573406 -36.21097559905143,-9.76940894310180 -36.21108544967285,-9.76926196225056 -36.21120012224619,-9.76910918480637 -36.21136002869755,-9.76888564904710 -36.21151252652456,-9.76866407603276 -36.21167548747749,-9.76844150306395 -36.21182272804999,-9.76827051475495 -36.21192797294045,-9.76817108147937 -36.21237082081815,-9.76778040047706 -36.21095107328898,-9.77355001323508
          </coordinates>
        </LinearRing>
      </outerBoundaryIs>
    </Polygon>
  </Placemark>
</Document>
</kml>
