<?xml version="1.0" encoding="UTF-8"?>
<kml xmlns="http://www.opengis.net/kml/2.2" xmlns:gx="http://www.google.com/kml/ext/2.2" xmlns:kml="http://www.opengis.net/kml/2.2" xmlns:atom="http://www.w3.org/2005/Atom">
<Document>
  <name>2015.kml</name>
  <StyleMap id="FF0040FF">
    <Pair>
      <key>normal</key>
      <styleUrl>#s_FF0040FF</styleUrl>
    </Pair>
    <Pair>
      <key>highlight</key>
      <styleUrl>#s_FF0040FF_hl</styleUrl>
    </Pair>
  </StyleMap>
  <Style id="s_FF0040FF">
   <IconStyle>
      <scale>1.1</scale>
      <Icon>
        <href>http://maps.google.com/mapfiles/kml/pushpin/agrocad.png</href>
      </Icon>
      <hotSpot x="20" y="2" xunits="pixels" yunits="pixels"/>
    </IconStyle>
    <LineStyle>
      <color>FF0040FF</color>
      <width>1</width>
    </LineStyle>
    <PolyStyle>
      <color>40ffffff</color>
      <fill>1</fill>
    </PolyStyle>
  </Style>
  <Style id="s_FF0040FF_hl">
    <IconStyle>
      <scale>1.3</scale>
      <Icon>
        <href>http://maps.google.com/mapfiles/kml/pushpin/agrocad.png</href>
      </Icon>
      <hotSpot x="20" y="2" xunits="pixels" yunits="pixels"/>
    </IconStyle>
    <LineStyle>
      <color>ff000000</color>
      <width>1</width>
    </LineStyle>
    <PolyStyle>
      <color>40ffffff</color>
      <fill>1</fill>
    </PolyStyle>
  </Style>
  <Placemark>
    <name>AgroCAD: 800D</name>
    <styleUrl>FF0040FF</styleUrl>
    <Polygon>
      <outerBoundaryIs>
        <LinearRing>
          <coordinates>
           -36.20011689342994,-9.79772081886696 -36.20011860398553,-9.79696905470028 -36.20012432537441,-9.79682225720030 -36.20022364065210,-9.79642362108918 -36.20038234065198,-9.79599539497809 -36.20065591287396,-9.79552211886699 -36.20086672176267,-9.79523395775589 -36.20086672146491,-9.79559739744628 -36.20084935065158,-9.79562476358921 -36.20080865231827,-9.79566202664477 -36.20076003648499,-9.79575973386699 -36.20073849342943,-9.79590703497810 -36.20075974481830,-9.79613410608921 -36.20091081759593,-9.79652257942256 -36.20110406704018,-9.79703791192256 -36.20125473259559,-9.79738229053368 -36.20144876453985,-9.79774879581147 -36.20162071037301,-9.79798522164481 -36.20168365537295,-9.79809012997814 -36.20174637898401,-9.79827830053371 -36.20172509926180,-9.79887412164482 -36.20163963009519,-9.79923736497815 -36.20157595231746,-9.79953452858926 -36.20154807703971,-9.79957568247814 -36.20149065315088,-9.79963071303369 -36.20148190370642,-9.79964305692259 -36.20137612190769,-9.79970652582155 -36.20107457926235,-9.79975999886700 -36.20055989842948,-9.79986722386697 -36.20026172120753,-9.79990982053362 -36.20023421537422,-9.79990873525585 -36.20022488926313,-9.79970138775585 -36.20011689342994,-9.79772081886696
          </coordinates>
        </LinearRing>
      </outerBoundaryIs>
    </Polygon>
  </Placemark>
</Document>
</kml>
