<?xml version="1.0" encoding="UTF-8"?>
<kml xmlns="http://www.opengis.net/kml/2.2" xmlns:gx="http://www.google.com/kml/ext/2.2" xmlns:kml="http://www.opengis.net/kml/2.2" xmlns:atom="http://www.w3.org/2005/Atom">
<Document>
  <name>2018.kml</name>
  <StyleMap id="FF0040FF">
    <Pair>
      <key>normal</key>
      <styleUrl>#s_FF0040FF</styleUrl>
    </Pair>
    <Pair>
      <key>highlight</key>
      <styleUrl>#s_FF0040FF_hl</styleUrl>
    </Pair>
  </StyleMap>
  <Style id="s_FF0040FF">
   <IconStyle>
      <scale>1.1</scale>
      <Icon>
        <href>http://maps.google.com/mapfiles/kml/pushpin/agrocad.png</href>
      </Icon>
      <hotSpot x="20" y="2" xunits="pixels" yunits="pixels"/>
    </IconStyle>
    <LineStyle>
      <color>FF0040FF</color>
      <width>1</width>
    </LineStyle>
    <PolyStyle>
      <color>40ffffff</color>
      <fill>1</fill>
    </PolyStyle>
  </Style>
  <Style id="s_FF0040FF_hl">
    <IconStyle>
      <scale>1.3</scale>
      <Icon>
        <href>http://maps.google.com/mapfiles/kml/pushpin/agrocad.png</href>
      </Icon>
      <hotSpot x="20" y="2" xunits="pixels" yunits="pixels"/>
    </IconStyle>
    <LineStyle>
      <color>ff000000</color>
      <width>1</width>
    </LineStyle>
    <PolyStyle>
      <color>40ffffff</color>
      <fill>1</fill>
    </PolyStyle>
  </Style>
  <Placemark>
    <name>AgroCAD: 8014</name>
    <styleUrl>FF0040FF</styleUrl>
    <Polygon>
      <outerBoundaryIs>
        <LinearRing>
          <coordinates>
           -36.20328078231614,-9.79235244942272 -36.20349282064930,-9.79207170081160 -36.20390409537116,-9.79147565331162 -36.20412008703764,-9.79111492470051 -36.20429571064862,-9.79076673720052 -36.20441843314849,-9.79082515497832 -36.20514878064784,-9.79108292497835 -36.20596386925821,-9.79138322081173 -36.20628969536903,-9.79151122442287 -36.20618890731356,-9.79191925553396 -36.20614596064690,-9.79204809553397 -36.20597417842482,-9.79277816858951 -36.20582394592494,-9.79333617442283 -36.20578460953608,-9.79351318858950 -36.20522322842548,-9.79338716386725 -36.20427987759300,-9.79319420525609 -36.20380802926010,-9.79304407164494 -36.20324957676060,-9.79291519775602 -36.20286677842761,-9.79281906720045 -36.20328078231614,-9.79235244942272
          </coordinates>
        </LinearRing>
      </outerBoundaryIs>
    </Polygon>
  </Placemark>
  <Placemark>
    <name>AgroCAD: 8013</name>
    <styleUrl>FF0040FF</styleUrl>
    <Polygon>
      <outerBoundaryIs>
        <LinearRing>
          <coordinates>
           -36.20600952648035,-9.79278693914507 -36.20618106675799,-9.79205789386730 -36.20622395036907,-9.79192924275618 -36.20632388731344,-9.79152465692286 -36.20656451203544,-9.79161918803399 -36.20705684120166,-9.79181183886736 -36.20741157231245,-9.79201238053404 -36.20771370203441,-9.79227746497850 -36.20773349731216,-9.79235240831182 -36.20773316620104,-9.79248015692295 -36.20765567691115,-9.79282885886675 -36.20761829981225,-9.79282885886738 -36.20748379203458,-9.79289611275626 -36.20735119231248,-9.79300661247846 -36.20724151647922,-9.79318209358958 -36.20711287009046,-9.79350370942291 -36.20702963953497,-9.79362855497845 -36.20692037592394,-9.79371596581179 -36.20690463314620,-9.79376319442289 -36.20627480314675,-9.79362323192283 -36.20582014398050,-9.79352116581172 -36.20585935203602,-9.79334472942283 -36.20600952648035,-9.79278693914507
          </coordinates>
        </LinearRing>
      </outerBoundaryIs>
    </Polygon>
  </Placemark>
  <Placemark>
    <name>AgroCAD: 802C</name>
    <styleUrl>FF0040FF</styleUrl>
    <Polygon>
      <outerBoundaryIs>
        <LinearRing>
          <coordinates>
           -36.20727418731254,-9.79319840470070 -36.20737908814579,-9.79303056358960 -36.20750397981234,-9.79292648747849 -36.20762696342334,-9.79286499553406 -36.20764401370111,-9.79286499553405 -36.20764733064549,-9.79286502297622 -36.20764733064554,-9.79297143858960 -36.20756470675672,-9.79313668608961 -36.20745878509016,-9.79324260775626 -36.20737215147912,-9.79335089970070 -36.20717914147927,-9.79360824636735 -36.20707546120159,-9.79373266220068 -36.20694711481281,-9.79377544442289 -36.20693849897949,-9.79377671414512 -36.20695159925726,-9.79373741303401 -36.20705691175717,-9.79365316331180 -36.20714534231264,-9.79352051720068 -36.20727418731254,-9.79319840470070
          </coordinates>
        </LinearRing>
      </outerBoundaryIs>
    </Polygon>
  </Placemark>
</Document>
</kml>
