<?xml version="1.0" encoding="UTF-8"?>
<kml xmlns="http://www.opengis.net/kml/2.2" xmlns:gx="http://www.google.com/kml/ext/2.2" xmlns:kml="http://www.opengis.net/kml/2.2" xmlns:atom="http://www.w3.org/2005/Atom">
<Document>
  <name>2057.kml</name>
  <StyleMap id="FFFF4000">
    <Pair>
      <key>normal</key>
      <styleUrl>#s_FFFF4000</styleUrl>
    </Pair>
    <Pair>
      <key>highlight</key>
      <styleUrl>#s_FFFF4000_hl</styleUrl>
    </Pair>
  </StyleMap>
  <Style id="s_FFFF4000">
   <IconStyle>
      <scale>1.1</scale>
      <Icon>
        <href>http://maps.google.com/mapfiles/kml/pushpin/agrocad.png</href>
      </Icon>
      <hotSpot x="20" y="2" xunits="pixels" yunits="pixels"/>
    </IconStyle>
    <LineStyle>
      <color>FFFF4000</color>
      <width>1</width>
    </LineStyle>
    <PolyStyle>
      <color>40ffffff</color>
      <fill>1</fill>
    </PolyStyle>
  </Style>
  <Style id="s_FFFF4000_hl">
    <IconStyle>
      <scale>1.3</scale>
      <Icon>
        <href>http://maps.google.com/mapfiles/kml/pushpin/agrocad.png</href>
      </Icon>
      <hotSpot x="20" y="2" xunits="pixels" yunits="pixels"/>
    </IconStyle>
    <LineStyle>
      <color>ff000000</color>
      <width>1</width>
    </LineStyle>
    <PolyStyle>
      <color>40ffffff</color>
      <fill>1</fill>
    </PolyStyle>
  </Style>
  <Placemark>
    <name>AgroCAD: 8EBC</name>
    <styleUrl>FFFF4000</styleUrl>
    <Polygon>
      <outerBoundaryIs>
        <LinearRing>
          <coordinates>
           -36.19108284207725,-9.75524568517229 -36.19110533903860,-9.75524072027360 -36.19113368536139,-9.75523721678954 -36.19112726413602,-9.75525010629626 -36.19111374294735,-9.75527486110756 -36.19109864169035,-9.75529508454491 -36.19063656325810,-9.75605222712557 -36.19011787536456,-9.75690967638243 -36.19011089977291,-9.75691781141599 -36.19008882535633,-9.75691837746271 -36.19006345616490,-9.75690614160635 -36.19003980748625,-9.75689306083071 -36.19001826377541,-9.75688420617516 -36.18999671386512,-9.75686817313102 -36.18997034478471,-9.75685047262182 -36.18994219877495,-9.75683314811347 -36.18991570115778,-9.75681698967524 -36.18988852034831,-9.75679861656695 -36.18986035293275,-9.75678097262363 -36.18983322325376,-9.75676460257830 -36.18980966221079,-9.75674697511411 -36.18978397881129,-9.75672941004928 -36.18954705967693,-9.75656028035567 -36.18920724594260,-9.75632648013176 -36.18913434822383,-9.75627688874275 -36.18917264285145,-9.75622745808687 -36.18919029496354,-9.75621120102467 -36.18922943234316,-9.75618431797194 -36.18925536646650,-9.75616164339243 -36.18927754764897,-9.75614365391801 -36.18929894910948,-9.75612562319725 -36.18932159556706,-9.75610805300109 -36.18934771553243,-9.75609469763108 -36.18937279109069,-9.75607592359434 -36.18939654590897,-9.75605495041784 -36.18942183214452,-9.75603152569997 -36.18944121732836,-9.75600587558808 -36.18946033229035,-9.75598196910656 -36.18947738630232,-9.75595758175198 -36.18949272287436,-9.75593537150812 -36.18951840183929,-9.75586792082723 -36.18952486241199,-9.75585980427416 -36.18954389078333,-9.75582695854186 -36.18958583143314,-9.75576250013841 -36.18960477806066,-9.75572875267802 -36.18962503102669,-9.75569572106228 -36.18964611164955,-9.75566539042707 -36.18968413242917,-9.75560526329048 -36.18970401478459,-9.75558224303974 -36.18974004123356,-9.75555491834846 -36.18975657648258,-9.75554761786055 -36.18978575028278,-9.75554494327001 -36.18985378925231,-9.75555062214039 -36.18988308312163,-9.75555605025252 -36.18991356446655,-9.75555856100052 -36.18994661638540,-9.75556464028479 -36.18998020121301,-9.75557177708245 -36.19001459051280,-9.75558237060500 -36.19005120420056,-9.75558838584376 -36.19008666555092,-9.75559530114448 -36.19011820478854,-9.75559979627996 -36.19015085545483,-9.75560144458160 -36.19018547143289,-9.75559936348350 -36.19023798070586,-9.75558671197690 -36.19025297309819,-9.75557893667823 -36.19028887698479,-9.75556707990341 -36.19032586155716,-9.75554762323388 -36.19036187573307,-9.75552964077860 -36.19039661397272,-9.75551072031218 -36.19043056217722,-9.75549294859625 -36.19046175976710,-9.75547584992234 -36.19049290008276,-9.75546034266186 -36.19056018359786,-9.75542635871805 -36.19059507593951,-9.75541068677491 -36.19062760966591,-9.75539222692340 -36.19066121709117,-9.75537771743278 -36.19069513689979,-9.75536345075664 -36.19072900291257,-9.75534810131387 -36.19076258591957,-9.75533644784504 -36.19079762922187,-9.75532459031252 -36.19083375047604,-9.75531417154995 -36.19087086293317,-9.75530321091600 -36.19090682829254,-9.75529166330721 -36.19094209842139,-9.75528073736360 -36.19097592112328,-9.75526865164458 -36.19101189981565,-9.75526313818441 -36.19104113395021,-9.75525666291457 -36.19107168051582,-9.75524697182781 -36.19108284207725,-9.75524568517229
          </coordinates>
        </LinearRing>
      </outerBoundaryIs>
    </Polygon>
  </Placemark>
  <Placemark>
    <name>AgroCAD: 8EBB</name>
    <styleUrl>FFFF4000</styleUrl>
    <Polygon>
      <outerBoundaryIs>
        <LinearRing>
          <coordinates>
           -36.19129687841190,-9.75475330488358 -36.19128195223607,-9.75475435130954 -36.19124739930501,-9.75475980480754 -36.19121631065753,-9.75476395958345 -36.19118377521565,-9.75477253480701 -36.19114556049557,-9.75477572690607 -36.19110808198798,-9.75478352255372 -36.19106807222110,-9.75478883505344 -36.19102886071844,-9.75479713701354 -36.19099032124654,-9.75480233994873 -36.19095238862704,-9.75480709498261 -36.19091383498856,-9.75481082217542 -36.19087697957962,-9.75481789468959 -36.19083798810119,-9.75482225137764 -36.19079850302731,-9.75482807404390 -36.19076159080095,-9.75483329548446 -36.19072427216836,-9.75483872279577 -36.19069223143803,-9.75484679471475 -36.19055450310766,-9.75486671259837 -36.19054231980118,-9.75486714676032 -36.19050547299096,-9.75487213729758 -36.19046877498361,-9.75487896533133 -36.19043355173681,-9.75488835263451 -36.19039835775162,-9.75489435758716 -36.19036110837690,-9.75490286493291 -36.19032654219423,-9.75491203148573 -36.19029538692096,-9.75492489346696 -36.19026313198752,-9.75492914626324 -36.19022927202975,-9.75493769366734 -36.19019553994192,-9.75495058283629 -36.19016205553924,-9.75496028637407 -36.19012772366521,-9.75497113671238 -36.19010028315650,-9.75498004326805 -36.19006734588280,-9.75499632531499 -36.19005479607048,-9.75499767122415 -36.19002072699887,-9.75500347356037 -36.18998338341985,-9.75501151319356 -36.18994708592139,-9.75501623728060 -36.18991861525783,-9.75501400606730 -36.18988804911078,-9.75502060401904 -36.18985647274744,-9.75502807320658 -36.18982787374861,-9.75503263599972 -36.18979942521598,-9.75503144743211 -36.18976644738496,-9.75502894706472 -36.18970376677401,-9.75502358475102 -36.18961530525992,-9.75501903727227 -36.18958632507914,-9.75502292547512 -36.18956332683825,-9.75503271847683 -36.18954268572180,-9.75504664162785 -36.18951614188792,-9.75505965786415 -36.18941368112612,-9.75523685241805 -36.18938341444504,-9.75530104774026 -36.18937411136272,-9.75531472463632 -36.18935812218314,-9.75534547336300 -36.18934196620911,-9.75537778191051 -36.18932351744716,-9.75540990811514 -36.18930309825943,-9.75544025090765 -36.18928114386093,-9.75547154273482 -36.18925842022530,-9.75550138205994 -36.18923131201710,-9.75552878638739 -36.18917611374903,-9.75557995920636 -36.18914715333212,-9.75560404976305 -36.18911811767061,-9.75562692024172 -36.18908690964947,-9.75564903797718 -36.18905646058675,-9.75566538308801 -36.18902859365309,-9.75568222101000 -36.18899773492396,-9.75569748756731 -36.18896655802740,-9.75571932973853 -36.18893517348065,-9.75573858434950 -36.18890668413611,-9.75576387895417 -36.18887386884898,-9.75578376830699 -36.18884521470497,-9.75580419057073 -36.18881334530348,-9.75582518099529 -36.18874721016603,-9.75586072857498 -36.18873647762330,-9.75586817986305 -36.18863201114597,-9.75592119792677 -36.18860674973652,-9.75593085888040 -36.18860980503191,-9.75594522050134 -36.18863140330949,-9.75595881968168 -36.18865541583844,-9.75597405103124 -36.18866461887054,-9.75597664888926 -36.18897187210509,-9.75616635821637 -36.18910426180840,-9.75625642133022 -36.18914561975549,-9.75620303654925 -36.18916741725237,-9.75618296171332 -36.18920694352287,-9.75615581153572 -36.18923178639614,-9.75613409105205 -36.18925422624468,-9.75611589179338 -36.18927592801091,-9.75609760806532 -36.18930185604440,-9.75607749186670 -36.18932825685312,-9.75606399289881 -36.18934967147060,-9.75604795980336 -36.18937200142387,-9.75602824464324 -36.18939461640932,-9.75600729452458 -36.18941236843578,-9.75598380537735 -36.18943106633793,-9.75596042050115 -36.18944739359353,-9.75593707241518 -36.18946019255620,-9.75591853710951 -36.18948631604334,-9.75584991881975 -36.18949461278869,-9.75583949544552 -36.18951277265250,-9.75580814888682 -36.18955458479974,-9.75574388701713 -36.18957329223898,-9.75571056559968 -36.18959444903945,-9.75567605987725 -36.18961566815666,-9.75564552998041 -36.18965471522944,-9.75558378268319 -36.18967884466206,-9.75555584506973 -36.18972131685350,-9.75552363152782 -36.18974724758390,-9.75551218283442 -36.18978560921572,-9.75550866592248 -36.18985866201291,-9.75551476373492 -36.18988794736589,-9.75552019026823 -36.18991840446915,-9.75552269901834 -36.18995375351910,-9.75552920081602 -36.18998943674062,-9.75553678352255 -36.19002300754446,-9.75554712490892 -36.19005769499270,-9.75555282368582 -36.19009277324430,-9.75555966427759 -36.19012172825550,-9.75556379109488 -36.19015067879157,-9.75556525260220 -36.19018002780711,-9.75556348815086 -36.19022505248835,-9.75555263996948 -36.19023868969460,-9.75554556749186 -36.19027449116415,-9.75553374453825 -36.19030913699860,-9.75551551821993 -36.19034491510172,-9.75549765363885 -36.19037934584704,-9.75547890065099 -36.19041325145692,-9.75546115123247 -36.19044477325167,-9.75544387486868 -36.19047646007101,-9.75542809545955 -36.19054440235481,-9.75539377903435 -36.19057848295348,-9.75537847168600 -36.19061124915825,-9.75535987992387 -36.19064683824016,-9.75534451488257 -36.19068045481486,-9.75533037574585 -36.19071539071912,-9.75531454138405 -36.19075069156372,-9.75530229181622 -36.19078665792193,-9.75529012195005 -36.19082346771285,-9.75527950458590 -36.19086005536995,-9.75526869894311 -36.19089578988144,-9.75525722545290 -36.19093049111028,-9.75524647574159 -36.19096688434455,-9.75523347150410 -36.19100514248114,-9.75522760873562 -36.19103159721945,-9.75522174909264 -36.19106395743733,-9.75521148261218 -36.19109800515351,-9.75520755773994 -36.19114105327092,-9.75519684555397 -36.19143034725108,-9.75475272366409 -36.19143515650968,-9.75474363176834 -36.19143022738435,-9.75472733841117 -36.19140143650260,-9.75473119703620 -36.19129687841190,-9.75475330488358
          </coordinates>
        </LinearRing>
      </outerBoundaryIs>
    </Polygon>
  </Placemark>
  <Placemark>
    <name>AgroCAD: 8EB5</name>
    <styleUrl>FFFF4000</styleUrl>
    <Polygon>
      <outerBoundaryIs>
        <LinearRing>
          <coordinates>
           -36.19026769661362,-9.75227420342085 -36.19222651574311,-9.75344489164707 -36.19179494290714,-9.75414630362086 -36.19149567483475,-9.75465622646270 -36.19148619353403,-9.75467387222261 -36.19145752128936,-9.75469152200110 -36.19143752110601,-9.75469793351696 -36.19120917355728,-9.75472845061409 -36.19117752172516,-9.75473679294974 -36.19114027447209,-9.75473990423652 -36.19110191935342,-9.75474788222343 -36.19106184470544,-9.75475320333910 -36.19102259394816,-9.75476151361165 -36.19098558151217,-9.75476651039387 -36.19094833763127,-9.75477117909223 -36.19090859742702,-9.75477502099798 -36.19087147301943,-9.75478214513402 -36.19083326978169,-9.75478641374955 -36.19079325354814,-9.75479231474455 -36.19075637749348,-9.75479753106953 -36.19071712784517,-9.75480323921277 -36.19068510134128,-9.75481130754891 -36.19055121194055,-9.75483067026141 -36.19053919418034,-9.75483109852430 -36.19049964773435,-9.75483645470186 -36.19046067948165,-9.75484370513879 -36.19042572184528,-9.75485302165569 -36.19039117809260,-9.75485891566370 -36.19035231520710,-9.75486779151869 -36.19031478801004,-9.75487774329937 -36.19028582548520,-9.75488970003892 -36.19025621675600,-9.75489360393511 -36.19021819447837,-9.75490320205134 -36.19018386528938,-9.75491631937628 -36.19015141752675,-9.75492572250411 -36.19011653037810,-9.75493674833393 -36.19008642155595,-9.75494652096330 -36.19005694076061,-9.75496109435328 -36.19004975145495,-9.75496186537311 -36.19001377871104,-9.75496799192670 -36.18997714025881,-9.75497587975564 -36.18994622613814,-9.75497990320192 -36.18991665388271,-9.75497744752180 -36.18987995083454,-9.75498537017507 -36.18984934588043,-9.75499260958299 -36.18982572622794,-9.75499637795305 -36.18980158035807,-9.75499536914948 -36.18976940050288,-9.75499292928529 -36.18970627508725,-9.75498752892047 -36.18961379357485,-9.75498277479092 -36.18957652042396,-9.75498777564315 -36.18954573959394,-9.75500088259091 -36.18952428513367,-9.75501535437118 -36.18949005991971,-9.75503213730721 -36.18938132703771,-9.75522017878222 -36.18935162414994,-9.75528317829467 -36.18934271774867,-9.75529627200992 -36.18932561605131,-9.75532916021029 -36.18930979674588,-9.75536079548656 -36.18929250364805,-9.75539090924325 -36.18927299705788,-9.75541989591824 -36.18925164981436,-9.75545032235859 -36.18923077178475,-9.75547773814189 -36.18920586164990,-9.75550292038411 -36.18915195814056,-9.75555289288764 -36.18912411970983,-9.75557605012630 -36.18909618916536,-9.75559805013896 -36.18906757836353,-9.75561832717458 -36.18903830533619,-9.75563404098790 -36.18901095841683,-9.75565056470439 -36.18897899030302,-9.75566638010148 -36.18894645155229,-9.75568917637249 -36.18891327632669,-9.75570952957600 -36.18888486110686,-9.75573475836833 -36.18885371685437,-9.75575363490681 -36.18882450519114,-9.75577445452369 -36.18879455070017,-9.75579418371430 -36.18878521651434,-9.75579920472526 -36.18863361718734,-9.75589732630699 -36.18861309184478,-9.75590389384251 -36.18858359488481,-9.75590579838446 -36.18855566559838,-9.75590734538334 -36.18852672511718,-9.75590365829504 -36.18849893067741,-9.75589339430067 -36.18847187857011,-9.75588143418782 -36.18844269161050,-9.75586884709056 -36.18840300549474,-9.75584831548560 -36.18837450767049,-9.75583116106783 -36.18834904356778,-9.75581711209498 -36.18833085465128,-9.75580666273624 -36.18829805543485,-9.75578694570564 -36.18827451325735,-9.75576845018055 -36.18825209315878,-9.75575017050597 -36.18823255506101,-9.75573209692025 -36.18819850301941,-9.75570760219047 -36.18819335752425,-9.75570610313688 -36.19014818262258,-9.75246820635192 -36.19026769661362,-9.75227420342085
          </coordinates>
        </LinearRing>
      </outerBoundaryIs>
    </Polygon>
  </Placemark>
</Document>
</kml>
