<?xml version="1.0" encoding="UTF-8"?>
<kml xmlns="http://www.opengis.net/kml/2.2" xmlns:gx="http://www.google.com/kml/ext/2.2" xmlns:kml="http://www.opengis.net/kml/2.2" xmlns:atom="http://www.w3.org/2005/Atom">
<Document>
  <name>31.kml</name>
  <StyleMap id="FFFF4000">
    <Pair>
      <key>normal</key>
      <styleUrl>#s_FFFF4000</styleUrl>
    </Pair>
    <Pair>
      <key>highlight</key>
      <styleUrl>#s_FFFF4000_hl</styleUrl>
    </Pair>
  </StyleMap>
  <Style id="s_FFFF4000">
   <IconStyle>
      <scale>1.1</scale>
      <Icon>
        <href>http://maps.google.com/mapfiles/kml/pushpin/agrocad.png</href>
      </Icon>
      <hotSpot x="20" y="2" xunits="pixels" yunits="pixels"/>
    </IconStyle>
    <LineStyle>
      <color>FFFF4000</color>
      <width>1</width>
    </LineStyle>
    <PolyStyle>
      <color>40ffffff</color>
      <fill>1</fill>
    </PolyStyle>
  </Style>
  <Style id="s_FFFF4000_hl">
    <IconStyle>
      <scale>1.3</scale>
      <Icon>
        <href>http://maps.google.com/mapfiles/kml/pushpin/agrocad.png</href>
      </Icon>
      <hotSpot x="20" y="2" xunits="pixels" yunits="pixels"/>
    </IconStyle>
    <LineStyle>
      <color>ff000000</color>
      <width>1</width>
    </LineStyle>
    <PolyStyle>
      <color>40ffffff</color>
      <fill>1</fill>
    </PolyStyle>
  </Style>
  <Placemark>
    <name>AgroCAD: 19839</name>
    <styleUrl>FFFF4000</styleUrl>
    <Polygon>
      <outerBoundaryIs>
        <LinearRing>
          <coordinates>
           -36.27330428278803,-9.72750477346734 -36.27360899402115,-9.72754909510129 -36.27395941193926,-9.72759341673519 -36.27453559318008,-9.72766266928819 -36.27508684350181,-9.72773192184121 -36.27540263514342,-9.72776377801560 -36.27579183449122,-9.72780671459847 -36.27666026150566,-9.72791613363219 -36.27722120718487,-9.72797292072569 -36.27762564209429,-9.72804078822766 -36.27766026837079,-9.72801170215534 -36.27766165342188,-9.72792167383649 -36.27765334311548,-9.72770283576911 -36.27759240086888,-9.72735795805529 -36.27751483800948,-9.72715712565160 -36.27747605657978,-9.72708925814971 -36.27742619474168,-9.72695213809481 -36.27738741331198,-9.72679008712085 -36.27738602826098,-9.72666127737234 -36.27742480969057,-9.72647568053034 -36.27745251071178,-9.72627484812673 -36.27745528081398,-9.72618481980784 -36.27743589009908,-9.72589534413641 -36.27741234423108,-9.72555739167785 -36.27740818907788,-9.72537872009118 -36.27735278703557,-9.72527622631279 -36.27722951749117,-9.72520420365768 -36.27698713355576,-9.72511833049200 -36.27675028982456,-9.72507677896021 -36.27657854349314,-9.72506154339853 -36.27646358425524,-9.72502830217305 -36.27641233736594,-9.72503661247945 -36.27630984358753,-9.72504492278581 -36.27607438490743,-9.72502137691776 -36.27581815046142,-9.72499229084551 -36.27553421499411,-9.72497705528383 -36.27526135993540,-9.72495489446689 -36.27497049921279,-9.72493688880306 -36.27479044257509,-9.72492719344564 -36.27456883440547,-9.72490780273081 -36.27428905409147,-9.72489533727128 -36.27415885929187,-9.72488702696490 -36.27396079699035,-9.72486071099477 -36.27378351045464,-9.72484270533098 -36.27375026922925,-9.72493411870090 -36.27371702800374,-9.72511140523651 -36.27368794193154,-9.72531362269120 -36.27365054555295,-9.72547567366518 -36.27361453422535,-9.72573606326440 -36.27358960330624,-9.72594243587225 -36.27356467238724,-9.72610448684619 -36.27353143116174,-9.72626930792225 -36.27348849457893,-9.72649645629604 -36.27344832809824,-9.72669590364863 -36.27339985131114,-9.72694382778824 -36.27336245493254,-9.72716543595780 -36.27332921370703,-9.72735241785080 -36.27330428278803,-9.72750477346734 -36.27330428278803,-9.72750477346734 -36.27330428278803,-9.72750477346734
          </coordinates>
        </LinearRing>
      </outerBoundaryIs>
    </Polygon>
  </Placemark>
</Document>
</kml>
