<?xml version="1.0" encoding="UTF-8"?>
<kml xmlns="http://www.opengis.net/kml/2.2" xmlns:gx="http://www.google.com/kml/ext/2.2" xmlns:kml="http://www.opengis.net/kml/2.2" xmlns:atom="http://www.w3.org/2005/Atom">
<Document>
  <name>29.kml</name>
  <StyleMap id="FFFF4000">
    <Pair>
      <key>normal</key>
      <styleUrl>#s_FFFF4000</styleUrl>
    </Pair>
    <Pair>
      <key>highlight</key>
      <styleUrl>#s_FFFF4000_hl</styleUrl>
    </Pair>
  </StyleMap>
  <Style id="s_FFFF4000">
   <IconStyle>
      <scale>1.1</scale>
      <Icon>
        <href>http://maps.google.com/mapfiles/kml/pushpin/agrocad.png</href>
      </Icon>
      <hotSpot x="20" y="2" xunits="pixels" yunits="pixels"/>
    </IconStyle>
    <LineStyle>
      <color>FFFF4000</color>
      <width>1</width>
    </LineStyle>
    <PolyStyle>
      <color>40ffffff</color>
      <fill>1</fill>
    </PolyStyle>
  </Style>
  <Style id="s_FFFF4000_hl">
    <IconStyle>
      <scale>1.3</scale>
      <Icon>
        <href>http://maps.google.com/mapfiles/kml/pushpin/agrocad.png</href>
      </Icon>
      <hotSpot x="20" y="2" xunits="pixels" yunits="pixels"/>
    </IconStyle>
    <LineStyle>
      <color>ff000000</color>
      <width>1</width>
    </LineStyle>
    <PolyStyle>
      <color>40ffffff</color>
      <fill>1</fill>
    </PolyStyle>
  </Style>
  <Placemark>
    <name>AgroCAD: 1983A</name>
    <styleUrl>FFFF4000</styleUrl>
    <Polygon>
      <outerBoundaryIs>
        <LinearRing>
          <coordinates>
           -36.27378258708725,-9.72481223420763 -36.27385922657925,-9.72482793145303 -36.27417317148616,-9.72486855961743 -36.27445756863707,-9.72487871665855 -36.27477613038080,-9.72490364757763 -36.27499958528508,-9.72491195788404 -36.27534030784580,-9.72493688880310 -36.27561270122081,-9.72495720288530 -36.27597004439423,-9.72498952074340 -36.27637724940584,-9.72502460870359 -36.27642618787654,-9.72500983482563 -36.27642618787654,-9.72496089635486 -36.27642895797875,-9.72485932594385 -36.27642064767233,-9.72467742257136 -36.27641695420285,-9.72448351542297 -36.27641787757023,-9.72435516735820 -36.27643357481554,-9.72414740969922 -36.27647143287784,-9.72400705785855 -36.27648158991893,-9.72390548744752 -36.27652037134864,-9.72368387927797 -36.27653237512445,-9.72348258519069 -36.27654160879824,-9.72326467049064 -36.27654345553295,-9.72312154854784 -36.27652683492024,-9.72291748435839 -36.27649359369484,-9.72276328200711 -36.27644834869354,-9.72259892261469 -36.27640772052914,-9.72246226424349 -36.27635970542574,-9.72237177424093 -36.27624705460623,-9.72218802413368 -36.27614271409303,-9.72203751525190 -36.27607069143792,-9.72197103280102 -36.27599128184382,-9.72188700637007 -36.27588971143282,-9.72182883422554 -36.27576413347000,-9.72179374626538 -36.27563393867041,-9.72178543595903 -36.27549820366660,-9.72180020983699 -36.27535877519320,-9.72183529779715 -36.27529321610970,-9.72186484555308 -36.27516579141219,-9.72194702524929 -36.27508453508339,-9.72200981423065 -36.27497557773339,-9.72207260321202 -36.27487585405708,-9.72212523515226 -36.27469118058247,-9.72222218872640 -36.27450835384257,-9.72235146015863 -36.27432091026586,-9.72247796148875 -36.27410391893316,-9.72258691883873 -36.27398203443986,-9.72266355833065 -36.27392663239745,-9.72275035486375 -36.27390354821315,-9.72283530466206 -36.27391647535635,-9.72299597058498 -36.27391832209115,-9.72318249079430 -36.27391093515215,-9.72334500345192 -36.27391001178476,-9.72347796835370 -36.27390077811105,-9.72354722090666 -36.27388600423305,-9.72369495968639 -36.27386938362035,-9.72385470224182 -36.27386107331405,-9.72400705785844 -36.27383706576225,-9.72418711449614 -36.27383706576225,-9.72432469623473 -36.27383521902756,-9.72447612848393 -36.27380751800635,-9.72466818889748 -36.27378258708725,-9.72481223420763 -36.27378258708725,-9.72481223420763 -36.27378258708725,-9.72481223420763
          </coordinates>
        </LinearRing>
      </outerBoundaryIs>
    </Polygon>
  </Placemark>
</Document>
</kml>
