<?xml version="1.0" encoding="utf-8" ?>
<kml xmlns="http://www.opengis.net/kml/2.2">
<Document id="root_doc">
<Schema name="GITIRANA_TALHAO_1026_ID_7" id="GITIRANA_TALHAO_1026_ID_7">
	<SimpleField name="ID" type="float"></SimpleField>
	<SimpleField name="AREA_TOTAL" type="float"></SimpleField>
	<SimpleField name="FAZENDA" type="float"></SimpleField>
	<SimpleField name="FAZ_NOME" type="string"></SimpleField>
	<SimpleField name="TALHAO" type="float"></SimpleField>
	<SimpleField name="ZONA" type="float"></SimpleField>
	<SimpleField name="ACIONISTA" type="string"></SimpleField>
	<SimpleField name="CODE" type="string"></SimpleField>
</Schema>
<Folder><name>GITIRANA_TALHAO_1026_ID_7</name>
  <Placemark id="GITIRANA_TALHAO_1026_ID_7.1">
	<Style><LineStyle><color>ff0000ff</color></LineStyle><PolyStyle><fill>0</fill></PolyStyle></Style>
	<ExtendedData><SchemaData schemaUrl="#GITIRANA_TALHAO_1026_ID_7">
		<SimpleData name="ID">7</SimpleData>
		<SimpleData name="AREA_TOTAL">1.04</SimpleData>
		<SimpleData name="FAZENDA">1</SimpleData>
		<SimpleData name="FAZ_NOME">GITIRANA</SimpleData>
		<SimpleData name="TALHAO">1026</SimpleData>
		<SimpleData name="ZONA">1</SimpleData>
		<SimpleData name="ACIONISTA">HENRIQUE TENÓRIO</SimpleData>
		<SimpleData name="CODE"></SimpleData>
	</SchemaData></ExtendedData>
      <MultiGeometry><Polygon><outerBoundaryIs><LinearRing><coordinates>-36.1923382491225,-9.84028533753231,0 -36.1916602316,-9.84215881541469,0 -36.1920552310544,-9.84228811253371,0 -36.192158952907,-9.84203142394287,0 -36.192243533685,-9.84180411946326,0 -36.1923396870991,-9.8415437767114,0 -36.1924543812187,-9.84122485445473,0 -36.1925547103376,-9.84095267438978,0 -36.1926365792726,-9.84072901098419,0 -36.1927401553824,-9.84041432512803,0 -36.1923382491225,-9.84028533753231,0</coordinates></LinearRing></outerBoundaryIs></Polygon></MultiGeometry>
  </Placemark>
</Folder>
</Document></kml>
