<?xml version="1.0" encoding="utf-8" ?>
<kml xmlns="http://www.opengis.net/kml/2.2">
<Document id="root_doc">
<Schema name="GITIRANA_TALHAO_1032_ID_66" id="GITIRANA_TALHAO_1032_ID_66">
	<SimpleField name="ID" type="float"></SimpleField>
	<SimpleField name="AREA_TOTAL" type="float"></SimpleField>
	<SimpleField name="FAZENDA" type="float"></SimpleField>
	<SimpleField name="FAZ_NOME" type="string"></SimpleField>
	<SimpleField name="TALHAO" type="float"></SimpleField>
	<SimpleField name="ZONA" type="float"></SimpleField>
	<SimpleField name="ACIONISTA" type="string"></SimpleField>
	<SimpleField name="CODE" type="string"></SimpleField>
</Schema>
<Folder><name>GITIRANA_TALHAO_1032_ID_66</name>
  <Placemark id="GITIRANA_TALHAO_1032_ID_66.1">
	<Style><LineStyle><color>ff0000ff</color></LineStyle><PolyStyle><fill>0</fill></PolyStyle></Style>
	<ExtendedData><SchemaData schemaUrl="#GITIRANA_TALHAO_1032_ID_66">
		<SimpleData name="ID">66</SimpleData>
		<SimpleData name="AREA_TOTAL">20.42</SimpleData>
		<SimpleData name="FAZENDA">1</SimpleData>
		<SimpleData name="FAZ_NOME">GITIRANA</SimpleData>
		<SimpleData name="TALHAO">1032</SimpleData>
		<SimpleData name="ZONA">1</SimpleData>
		<SimpleData name="ACIONISTA">HENRIQUE TENÓRIO</SimpleData>
		<SimpleData name="CODE"></SimpleData>
	</SchemaData></ExtendedData>
      <MultiGeometry><Polygon><outerBoundaryIs><LinearRing><coordinates>-36.1868957677672,-9.85132403986661,0 -36.1869272062452,-9.85128383439066,0 -36.1869619069159,-9.85123722797177,0 -36.1872666004551,-9.85083061762963,0 -36.1872879384613,-9.85080286377855,0 -36.1873082437337,-9.85077352127808,0 -36.1873293590295,-9.85074498982049,0 -36.1873518402057,-9.85071572901123,0 -36.1873723785809,-9.85068699169105,0 -36.18739330336,-9.85065674864248,0 -36.1874096538567,-9.85062657726906,0 -36.187425646311,-9.85059224362527,0 -36.1874416191953,-9.85055746875453,0 -36.1874606780969,-9.85053772169381,0 -36.1874787606169,-9.85050929617343,0 -36.1874822861597,-9.85050459535611,0 -36.1875068048072,-9.85047374820075,0 -36.1875268539348,-9.8504418616112,0 -36.1877483342256,-9.85015445247518,0 -36.188047031793,-9.84973115148825,0 -36.1882223257952,-9.84947395690708,0 -36.1883739076947,-9.84924570894035,0 -36.1886821977464,-9.84878567773677,0 -36.1890029315472,-9.84829955049474,0 -36.1890244096809,-9.84826622344815,0 -36.1890448432644,-9.84823220264663,0 -36.1890661393609,-9.8481970842783,0 -36.1890878627781,-9.84816204552324,0 -36.1891100368574,-9.84812596601001,0 -36.1891325192291,-9.84808807598891,0 -36.1891549374868,-9.848052400068,0 -36.1891776635054,-9.84801538734317,0 -36.1891997915329,-9.84797804922959,0 -36.1892224941951,-9.84794064067253,0 -36.1892440464456,-9.84790490827389,0 -36.1892640329654,-9.84787013193701,0 -36.1892682014654,-9.84785564231417,0 -36.1892601785795,-9.84784804381755,0 -36.1892305337375,-9.8478319886794,0 -36.1892008964507,-9.84781874271838,0 -36.189168604303,-9.84780696779938,0 -36.1891365157124,-9.84779397505578,0 -36.1891031651581,-9.84778350179763,0 -36.189082528817,-9.84777859630256,0 -36.1887511791656,-9.84766301304047,0 -36.188581945393,-9.84760660930227,0 -36.1881800281329,-9.84747570730933,0 -36.1876112968596,-9.84728523858651,0 -36.1868405028718,-9.84703792657364,0 -36.1860071026518,-9.84677078080582,0 -36.1854739181509,-9.84659392788688,0 -36.185133989754,-9.84648131984924,0 -36.1850735914792,-9.84646264105376,0 -36.185029551933,-9.84644954504512,0 -36.1850046090856,-9.84649779947996,0 -36.184874188735,-9.84683689592847,0 -36.184771385209,-9.84714103109307,0 -36.1846696704554,-9.84744977836497,0 -36.1845037959342,-9.84788475871027,0 -36.1844063124033,-9.84812630780445,0 -36.1841479809731,-9.84843614924154,0 -36.1839251663236,-9.84877717898649,0 -36.1837931997603,-9.84903371251197,0 -36.1836505641566,-9.84926638536583,0 -36.183506497681,-9.84946112920189,0 -36.1833715380935,-9.84962390380455,0 -36.1831928035827,-9.84985766246108,0 -36.1831321564776,-9.8499745203575,0 -36.1831254898531,-9.84999643047133,0 -36.1831233000913,-9.85003013441052,0 -36.1831466094279,-9.85005260348825,0 -36.1831809526299,-9.85006737605023,0 -36.1832198406155,-9.8500804126929,0 -36.1832582223373,-9.85009684723915,0 -36.1833002375261,-9.85011203643507,0 -36.1833216591818,-9.85012719501394,0 -36.1838354855378,-9.85028953343754,0 -36.1843151956806,-9.85045213642429,0 -36.1849870442975,-9.85068199683043,0 -36.1855406202867,-9.85086714704668,0 -36.1862143133499,-9.85109899948112,0 -36.1867217428966,-9.85126840507873,0 -36.186753302976,-9.85127932742561,0 -36.1868229879254,-9.85129968620555,0 -36.1868957677672,-9.85132403986661,0</coordinates></LinearRing></outerBoundaryIs></Polygon></MultiGeometry>
  </Placemark>
</Folder>
</Document></kml>
