<?xml version="1.0" encoding="utf-8" ?>
<kml xmlns="http://www.opengis.net/kml/2.2">
<Document id="root_doc">
<Schema name="GITIRANA_TALHAO_1041_ID_58" id="GITIRANA_TALHAO_1041_ID_58">
	<SimpleField name="ID" type="float"></SimpleField>
	<SimpleField name="AREA_TOTAL" type="float"></SimpleField>
	<SimpleField name="FAZENDA" type="float"></SimpleField>
	<SimpleField name="FAZ_NOME" type="string"></SimpleField>
	<SimpleField name="TALHAO" type="float"></SimpleField>
	<SimpleField name="ZONA" type="float"></SimpleField>
	<SimpleField name="ACIONISTA" type="string"></SimpleField>
	<SimpleField name="CODE" type="string"></SimpleField>
</Schema>
<Folder><name>GITIRANA_TALHAO_1041_ID_58</name>
  <Placemark id="GITIRANA_TALHAO_1041_ID_58.1">
	<Style><LineStyle><color>ff0000ff</color></LineStyle><PolyStyle><fill>0</fill></PolyStyle></Style>
	<ExtendedData><SchemaData schemaUrl="#GITIRANA_TALHAO_1041_ID_58">
		<SimpleData name="ID">58</SimpleData>
		<SimpleData name="AREA_TOTAL">18.65</SimpleData>
		<SimpleData name="FAZENDA">1</SimpleData>
		<SimpleData name="FAZ_NOME">GITIRANA</SimpleData>
		<SimpleData name="TALHAO">1041</SimpleData>
		<SimpleData name="ZONA">1</SimpleData>
		<SimpleData name="ACIONISTA">HENRIQUE TENÓRIO</SimpleData>
		<SimpleData name="CODE"></SimpleData>
	</SchemaData></ExtendedData>
      <MultiGeometry><Polygon><outerBoundaryIs><LinearRing><coordinates>-36.1854401038369,-9.86351979697333,103.170427327044 -36.1854200524857,-9.86350249980693,103.170427327044 -36.1853790527169,-9.86348805503187,103.170427327044 -36.1853359835372,-9.86347353909766,103.170427327044 -36.1852093850515,-9.86342530092647,103.170427327044 -36.184751991357,-9.86319848250293,103.170427327044 -36.1842864789347,-9.86297533977892,103.170427327044 -36.1837886193747,-9.86273867307095,103.170427327044 -36.1833139882779,-9.86250512638517,103.170427327044 -36.1827826038421,-9.8622542794597,103.170427327044 -36.1826337113225,-9.86218228783747,103.170427327044 -36.1825159530696,-9.86212162831058,103.170427327044 -36.1821727899322,-9.86195794163647,103.170427327044 -36.1819628277772,-9.86185418831386,103.170427327044 -36.1813806488773,-9.86156836221486,103.170427327044 -36.1809448645071,-9.8613605530413,103.170427327044 -36.1804609099247,-9.86113366927797,103.170427327044 -36.1804194523815,-9.86111011822573,103.170427327044 -36.1803770597055,-9.86109151813169,103.170427327044 -36.1803348468035,-9.86107289970537,103.170427327044 -36.1802922204756,-9.86106984526565,103.170427327044 -36.1802576671831,-9.86108869332748,103.170427327044 -36.1802453119447,-9.86112767261171,103.170427327044 -36.1802394640311,-9.86117157717725,103.170427327044 -36.1802331734574,-9.86121421733393,103.170427327044 -36.1802091090789,-9.86148467459038,103.170427327044 -36.1801745432873,-9.86177094513604,103.170427327044 -36.1801345263116,-9.86209806149302,103.170427327044 -36.1801061386313,-9.86238047325663,103.170427327044 -36.180081337314,-9.86259164314126,103.170427327044 -36.1800485530039,-9.86295594733182,103.170427327044 -36.1799841942459,-9.86349770286041,103.170427327044 -36.1799404757466,-9.86387494747666,103.170427327044 -36.1798897318264,-9.86436758814828,103.170427327044 -36.179840303744,-9.86484430046057,103.170427327044 -36.1798353301987,-9.86488296682874,103.170427327044 -36.1798241121631,-9.86495767205092,103.170427327044 -36.1798441846356,-9.86497435196395,103.170427327044 -36.1798829437157,-9.86500158517218,103.170427327044 -36.1799045495651,-9.86501225270532,103.170427327044 -36.1799822865098,-9.86504458281059,103.170427327044 -36.180199434345,-9.86513000408262,103.170427327044 -36.1803812369338,-9.86516720088931,103.170427327044 -36.1805939788463,-9.8652057505311,103.170427327044 -36.1807148364139,-9.86521002848411,103.170427327044 -36.1809187954197,-9.86518010076442,103.170427327044 -36.1810270321993,-9.86513158752743,103.170427327044 -36.181097749392,-9.86506901710941,103.170427327044 -36.1811524404892,-9.86499979549221,103.170427327044 -36.1812272785044,-9.86483450460634,103.170427327044 -36.1812412611487,-9.86479653651497,103.170427327044 -36.1812569516301,-9.86475810509657,103.170427327044 -36.1812699114428,-9.86471772794862,103.170427327044 -36.1812865826704,-9.86467909998455,103.170427327044 -36.1813045479294,-9.86464037563845,103.170427327044 -36.1813242847841,-9.86460472214208,103.170427327044 -36.1813488891686,-9.86457206688749,103.170427327044 -36.1813780468061,-9.86454148193097,103.170427327044 -36.1814061330676,-9.86451244529901,103.170427327044 -36.1814419670921,-9.86449340277729,103.170427327044 -36.1814830386594,-9.8644910346549,103.170427327044 -36.1815224280918,-9.86449972829249,103.170427327044 -36.1815593809522,-9.86451826882582,103.170427327044 -36.181591377325,-9.8645445579748,103.170427327044 -36.1816171333132,-9.86457762392879,103.170427327044 -36.1816389015025,-9.86462549291917,103.170427327044 -36.1816501313706,-9.86465587041013,103.170427327044 -36.1816680278595,-9.864706599834,103.170427327044 -36.1816793965307,-9.86474827463996,103.170427327044 -36.1816912494158,-9.8647886926605,103.170427327044 -36.1817033373905,-9.86482960402931,103.170427327044 -36.1817146633489,-9.86487178395618,103.170427327044 -36.1817272677781,-9.86491382462329,103.170427327044 -36.1817406548558,-9.86495519328472,103.170427327044 -36.1817482696013,-9.8649971498805,103.170427327044 -36.1817592139639,-9.86503854808324,103.170427327044 -36.1817744433696,-9.86507913379725,103.170427327044 -36.1817953675193,-9.86511643549789,103.170427327044 -36.1818215157472,-9.86514969108337,103.170427327044 -36.1818436067642,-9.8651860279608,103.170427327044 -36.1818682979261,-9.86522245315275,103.170427327044 -36.1818957988902,-9.86525597498872,103.170427327044 -36.1819220970291,-9.86528986267533,103.170427327044 -36.1819511765298,-9.86532264659458,103.170427327044 -36.1819858833267,-9.8653532408628,103.170427327044 -36.182022283217,-9.86538276504877,103.170427327044 -36.1820565112512,-9.86540589114098,103.170427327044 -36.1820886569172,-9.86542745617323,103.170427327044 -36.1821236085402,-9.86544685605429,103.170427327044 -36.1821618654247,-9.86546132596757,103.170427327044 -36.1822008479266,-9.86547649298148,103.170427327044 -36.1822401285312,-9.86548860198865,103.170427327044 -36.1822796471269,-9.86550076754764,103.170427327044 -36.1823213470328,-9.86551284965386,103.170427327044 -36.1823637156919,-9.86552331306295,103.170427327044 -36.1824054692029,-9.86553368798373,103.170427327044 -36.1824482005243,-9.86554448477388,103.170427327044 -36.182490274234,-9.86555601584075,103.170427327044 -36.1825327707619,-9.86556871848417,103.170427327044 -36.1825774435261,-9.86557973704212,103.170427327044 -36.1826222101163,-9.86559258132876,103.170427327044 -36.1826654391038,-9.86560917179033,103.170427327044 -36.182710291214,-9.86562334557857,103.170427327044 -36.1827553510681,-9.86563829265871,103.170427327044 -36.1827877341979,-9.86563520715863,103.170427327044 -36.182831056869,-9.86564658617313,103.170427327044 -36.1828691477226,-9.86565331290417,103.170427327044 -36.1829085241159,-9.86565614912224,103.170427327044 -36.1829477502756,-9.86565549105941,103.170427327044 -36.182988016309,-9.86565274569982,103.170427327044 -36.1830276491894,-9.86564832193057,103.170427327044 -36.1830667307568,-9.86564219019541,103.170427327044 -36.1831055625373,-9.86563289217458,103.170427327044 -36.183144314404,-9.86562129815609,103.170427327044 -36.1831828800774,-9.86560675372287,103.170427327044 -36.1832281742106,-9.86558762282282,103.170427327044 -36.1832560438066,-9.86557786833312,103.170427327044 -36.1832931787962,-9.86556398795755,103.170427327044 -36.1833419666395,-9.86554877999126,103.170427327044 -36.1833814547608,-9.86553390204319,103.170427327044 -36.183420887529,-9.86551883696934,103.170427327044 -36.1834591757641,-9.86550069751407,103.170427327044 -36.1834981059799,-9.86548165543442,103.170427327044 -36.1835362737017,-9.86546244993321,103.170427327044 -36.1835741480401,-9.86544444166328,103.170427327044 -36.1836118590299,-9.86542676633099,103.170427327044 -36.1836494591975,-9.86540757362336,103.170427327044 -36.1836864314947,-9.86538634802212,103.170427327044 -36.1837200573483,-9.86536716502405,103.170427327044 -36.1837538158665,-9.8653497315993,103.170427327044 -36.183788848407,-9.86533189193438,103.170427327044 -36.1838246576588,-9.86531312521889,103.170427327044 -36.1838609627668,-9.86529424771821,103.170427327044 -36.1838968835476,-9.86527442029934,103.170427327044 -36.1839332415731,-9.86525510516418,103.170427327044 -36.183970279056,-9.86523489616486,103.170427327044 -36.1840089152752,-9.86521657239233,103.170427327044 -36.1840458235335,-9.86519612667598,103.170427327044 -36.1840830096293,-9.86517595089446,103.170427327044 -36.1841181250164,-9.86515435031596,103.170427327044 -36.1841540128877,-9.8651332933751,103.170427327044 -36.1841887076994,-9.86511048573051,103.170427327044 -36.1842234426278,-9.86508740678062,103.170427327044 -36.1842587418274,-9.8650626706884,103.170427327044 -36.1842927068747,-9.86503665801513,103.170427327044 -36.1843284803406,-9.86501189428349,103.170427327044 -36.1843632321256,-9.86498601626385,103.170427327044 -36.1843956766454,-9.86496717454948,103.170427327044 -36.1844447237852,-9.86493413402209,103.170427327044 -36.1844763932844,-9.86491143878491,103.170427327044 -36.1845057336914,-9.86488309592665,103.170427327044 -36.1845337661844,-9.86485239749388,103.170427327044 -36.1845621429393,-9.86482121622921,103.170427327044 -36.184588091961,-9.86478833417638,103.170427327044 -36.1846164526317,-9.86475583585995,103.170427327044 -36.1846424450469,-9.86472187473693,103.170427327044 -36.1846687339241,-9.86468857183796,103.170427327044 -36.1846945828649,-9.86465728705335,103.170427327044 -36.184719749205,-9.86462484152101,103.170427327044 -36.1847443948135,-9.86459241701418,103.170427327044 -36.1847686592162,-9.86455859000552,103.170427327044 -36.184793185859,-9.86452371625203,103.170427327044 -36.1848156361203,-9.86448634920326,103.170427327044 -36.1848382504161,-9.86445187298083,103.170427327044 -36.1848603020036,-9.8644175599289,103.170427327044 -36.1848864632895,-9.86438567224908,103.170427327044 -36.1849134847244,-9.86435416873382,103.170427327044 -36.1849406669784,-9.86432222880173,103.170427327044 -36.1849666563337,-9.8642877532969,103.170427327044 -36.1849936943607,-9.86425517900357,103.170427327044 -36.185020317128,-9.86422180321579,103.170427327044 -36.1850472746236,-9.86418830838032,103.170427327044 -36.1850736577753,-9.86415545740118,103.170427327044 -36.1851001585029,-9.86412143177215,103.170427327044 -36.1851267893634,-9.86408686174607,103.170427327044 -36.1851506577308,-9.86404902519447,103.170427327044 -36.1851736305436,-9.86401309885704,103.170427327044 -36.1851933539519,-9.8639749873564,103.170427327044 -36.1852147238109,-9.86393665092946,103.170427327044 -36.1852358082351,-9.86389777192515,103.170427327044 -36.1852591451173,-9.86386147607525,103.170427327044 -36.1852822152,-9.86382569275313,103.170427327044 -36.1853137938437,-9.86377462025035,103.170427327044 -36.1853457875128,-9.86372299035118,103.170427327044 -36.1853833679972,-9.86365152981744,103.170427327044 -36.1854075062044,-9.86359168471708,103.170427327044 -36.1854312196731,-9.86354607339942,103.170427327044 -36.1854401038369,-9.86351979697333,103.170427327044</coordinates></LinearRing></outerBoundaryIs></Polygon></MultiGeometry>
  </Placemark>
</Folder>
</Document></kml>
