<?xml version="1.0" encoding="utf-8" ?>
<kml xmlns="http://www.opengis.net/kml/2.2">
<Document id="root_doc">
<Schema name="GITIRANA_TALHAO_1022_ID_27" id="GITIRANA_TALHAO_1022_ID_27">
	<SimpleField name="ID" type="float"></SimpleField>
	<SimpleField name="AREA_TOTAL" type="float"></SimpleField>
	<SimpleField name="FAZENDA" type="float"></SimpleField>
	<SimpleField name="FAZ_NOME" type="string"></SimpleField>
	<SimpleField name="TALHAO" type="float"></SimpleField>
	<SimpleField name="ZONA" type="float"></SimpleField>
	<SimpleField name="ACIONISTA" type="string"></SimpleField>
	<SimpleField name="CODE" type="string"></SimpleField>
</Schema>
<Folder><name>GITIRANA_TALHAO_1022_ID_27</name>
  <Placemark id="GITIRANA_TALHAO_1022_ID_27.1">
	<Style><LineStyle><color>ff0000ff</color></LineStyle><PolyStyle><fill>0</fill></PolyStyle></Style>
	<ExtendedData><SchemaData schemaUrl="#GITIRANA_TALHAO_1022_ID_27">
		<SimpleData name="ID">27</SimpleData>
		<SimpleData name="AREA_TOTAL">1.95</SimpleData>
		<SimpleData name="FAZENDA">1</SimpleData>
		<SimpleData name="FAZ_NOME">GITIRANA</SimpleData>
		<SimpleData name="TALHAO">1022</SimpleData>
		<SimpleData name="ZONA">1</SimpleData>
		<SimpleData name="ACIONISTA">HENRIQUE TENÓRIO</SimpleData>
		<SimpleData name="CODE"></SimpleData>
	</SchemaData></ExtendedData>
      <MultiGeometry><Polygon><outerBoundaryIs><LinearRing><coordinates>-36.1952880786098,-9.84045287648969,0 -36.195366841393,-9.84029406045987,0 -36.1955441926137,-9.83996278299997,0 -36.1955887495937,-9.83986491647783,0 -36.1932551258,-9.83908822214079,0 -36.1932054093577,-9.83923411180518,0 -36.1930384332496,-9.83972773531185,0 -36.1930561133454,-9.8397334320478,0 -36.1930734405776,-9.83973901731493,0 -36.1930907678106,-9.83974460258128,0 -36.1931080950444,-9.83975018784694,0 -36.193125422279,-9.83975577311183,0 -36.1931427495144,-9.83976135837602,0 -36.1931600767507,-9.83976694363949,0 -36.1931774039877,-9.83977252890219,0 -36.1931947312256,-9.83977811416419,0 -36.1932120584642,-9.83978369942548,0 -36.1932293857037,-9.83978928468601,0 -36.1932467129439,-9.83979486994583,0 -36.193264040185,-9.83980045520487,0 -36.1932813674269,-9.83980604046325,0 -36.1932986946696,-9.83981162572086,0 -36.1933160219131,-9.83981721097777,0 -36.1933333491574,-9.83982279623386,0 -36.1933506764026,-9.83982838148932,0 -36.1933680036485,-9.83983396674402,0 -36.1933853308952,-9.83983955199798,0 -36.1934026581428,-9.83984513725121,0 -36.1934199853911,-9.83985072250372,0 -36.1934373126403,-9.83985630775549,0 -36.1934546398902,-9.83986189300654,0 -36.193471967141,-9.8398674782569,0 -36.1934892943925,-9.8398730635064,0 -36.193506621645,-9.83987864875533,0 -36.1935239488982,-9.83988423400344,0 -36.1935412761522,-9.83988981925083,0 -36.193558603407,-9.83989540449751,0 -36.1935759306626,-9.83990098974342,0 -36.1935932579191,-9.83990657498865,0 -36.1936105851763,-9.83991216023313,0 -36.1936279124343,-9.83991774547685,0 -36.1936452396932,-9.83992333071985,0 -36.1936625669529,-9.83992891596219,0 -36.1936798942133,-9.83993450120372,0 -36.1936972214746,-9.83994008644455,0 -36.1937145487367,-9.83994567168466,0 -36.1937318759996,-9.839951256924,0 -36.1937492032633,-9.83995684216266,0 -36.1937665305278,-9.83996242740057,0 -36.1937838577931,-9.83996801263774,0 -36.1938011850593,-9.83997359787416,0 -36.1938185123262,-9.83997918310988,0 -36.193835839594,-9.83998476834491,0 -36.1938531668625,-9.83999035357914,0 -36.1938704941318,-9.83999593881264,0 -36.193887821402,-9.84000152404544,0 -36.193905148673,-9.84000710927752,0 -36.1939224759448,-9.84001269450886,0 -36.1939398032174,-9.84001827973946,0 -36.1939571304908,-9.84002386496933,0 -36.193974457765,-9.84002945019846,0 -36.19399178504,-9.84003503542692,0 -36.1940091123158,-9.84004062065458,0 -36.1940264395924,-9.84004620588151,0 -36.1940437668699,-9.84005179110776,0 -36.1940610941481,-9.84005737633324,0 -36.1940784214272,-9.84006296155802,0 -36.194095748707,-9.84006854678206,0 -36.1941130759877,-9.84007413200536,0 -36.1941304032692,-9.84007971722792,0 -36.1941477305515,-9.84008530244979,0 -36.1941650578346,-9.8400908876709,0 -36.1941823851185,-9.84009647289127,0 -36.1941997124032,-9.84010205811093,0 -36.1942170396887,-9.84010764332985,0 -36.194234366975,-9.84011322854803,0 -36.1942516942622,-9.84011881376554,0 -36.1942690215501,-9.84012439898223,0 -36.1942863488389,-9.84012998419823,0 -36.1943036761284,-9.84013556941351,0 -36.1943210034188,-9.84014115462804,0 -36.19433833071,-9.84014673984185,0 -36.194355658002,-9.84015232505496,0 -36.1943729852947,-9.84015791026732,0 -36.1943903125883,-9.84016349547893,0 -36.1944076398828,-9.84016908068985,0 -36.1944249671779,-9.84017466590001,0 -36.194442294474,-9.84018025110943,0 -36.1944596217708,-9.84018583631814,0 -36.1944769490684,-9.84019142152611,0 -36.1944942763669,-9.84019700673334,0 -36.1945116036661,-9.84020259193986,0 -36.1945289309835,-9.84020817715121,0 -36.1945462582844,-9.84021376235629,0 -36.1945635855861,-9.8402193475606,0 -36.1945809128885,-9.84022493276419,0 -36.1945982401918,-9.84023051796703,0 -36.1946155674959,-9.84023610316914,0 -36.1946328948009,-9.8402416883706,0 -36.1946502221066,-9.84024727357125,0 -36.1946675494131,-9.8402528587712,0 -36.1946848767204,-9.84025844397042,0 -36.1947022040286,-9.84026402916887,0 -36.1947195313375,-9.84026961436665,0 -36.1947368586473,-9.84027519956368,0 -36.1947541859578,-9.84028078475993,0 -36.1947715132692,-9.8402863699555,0 -36.1947888405814,-9.84029195515037,0 -36.1948061678944,-9.84029754034444,0 -36.1948234952082,-9.84030312553779,0 -36.1948408225228,-9.84030871073045,0 -36.1948581498382,-9.84031429592235,0 -36.1948754771544,-9.84031988111352,0 -36.1948928044714,-9.840325466304,0 -36.1949101317893,-9.84033105149372,0 -36.1949274591079,-9.84033663668267,0 -36.1949447864273,-9.84034222187094,0 -36.1949621137476,-9.84034780705853,0 -36.1949794410687,-9.84035339224529,0 -36.1949967683905,-9.84035897743133,0 -36.1950140957132,-9.84036456261669,0 -36.1950314230368,-9.84037014780134,0 -36.195048750361,-9.84037573298519,0 -36.1950660776861,-9.84038131816832,0 -36.1950834050121,-9.84038690335074,0 -36.1951007323388,-9.84039248853244,0 -36.1951180596663,-9.8403980737134,0 -36.1951353869946,-9.8404036588936,0 -36.1951527143238,-9.84040924407311,0 -36.1952880786098,-9.84045287648969,0</coordinates></LinearRing></outerBoundaryIs></Polygon></MultiGeometry>
  </Placemark>
</Folder>
</Document></kml>
