<?xml version="1.0" encoding="utf-8" ?>
<kml xmlns="http://www.opengis.net/kml/2.2">
<Document id="root_doc">
<Schema name="GITIRANA_TALHAO_1014_ID_39" id="GITIRANA_TALHAO_1014_ID_39">
	<SimpleField name="ID" type="float"></SimpleField>
	<SimpleField name="AREA_TOTAL" type="float"></SimpleField>
	<SimpleField name="FAZENDA" type="float"></SimpleField>
	<SimpleField name="FAZ_NOME" type="string"></SimpleField>
	<SimpleField name="TALHAO" type="float"></SimpleField>
	<SimpleField name="ZONA" type="float"></SimpleField>
	<SimpleField name="ACIONISTA" type="string"></SimpleField>
	<SimpleField name="CODE" type="string"></SimpleField>
</Schema>
<Folder><name>GITIRANA_TALHAO_1014_ID_39</name>
  <Placemark id="GITIRANA_TALHAO_1014_ID_39.1">
	<Style><LineStyle><color>ff0000ff</color></LineStyle><PolyStyle><fill>0</fill></PolyStyle></Style>
	<ExtendedData><SchemaData schemaUrl="#GITIRANA_TALHAO_1014_ID_39">
		<SimpleData name="ID">39</SimpleData>
		<SimpleData name="AREA_TOTAL">13.31</SimpleData>
		<SimpleData name="FAZENDA">1</SimpleData>
		<SimpleData name="FAZ_NOME">GITIRANA</SimpleData>
		<SimpleData name="TALHAO">1014</SimpleData>
		<SimpleData name="ZONA">1</SimpleData>
		<SimpleData name="ACIONISTA">HENRIQUE TENÓRIO</SimpleData>
		<SimpleData name="CODE"></SimpleData>
	</SchemaData></ExtendedData>
      <MultiGeometry><Polygon><outerBoundaryIs><LinearRing><coordinates>-36.1965699513712,-9.82932741846604,0 -36.1967567435968,-9.8293582128426,0 -36.1970843735157,-9.8294211634388,0 -36.1974277950436,-9.82948894031562,0 -36.1977721671746,-9.82955442158031,0 -36.1980878043528,-9.82961304383059,0 -36.1983842019505,-9.82966771635984,0 -36.1987913750638,-9.8297419262922,0 -36.1989036273916,-9.82977336873556,0 -36.1989690055631,-9.82980537088936,0 -36.1990201781154,-9.82983265773705,0 -36.1990455218737,-9.82983811677732,0 -36.1990950797553,-9.82982936268655,0 -36.1991364170306,-9.82980841425484,0 -36.1991598315691,-9.82978514523274,0 -36.1992209062624,-9.82969987197334,0 -36.1992984323693,-9.82957068289974,0 -36.1994189655954,-9.82934724978487,0 -36.1995266456134,-9.82913078170804,0 -36.1996375533618,-9.82891595558505,0 -36.1997329768035,-9.82867287749427,0 -36.1998262207666,-9.82845487812853,0 -36.199933708793,-9.82819028146774,0 -36.2000422555433,-9.82791443795865,0 -36.2001170496981,-9.82772442745551,0 -36.2002374274771,-9.82745128181729,0 -36.2003602160002,-9.82721848429552,0 -36.2005188331098,-9.82690521117521,0 -36.2006333087283,-9.82670298067269,0 -36.2007169254154,-9.82657213728706,0 -36.2007421771435,-9.8265460616375,0 -36.2007587687053,-9.82651829864578,0 -36.2007776971825,-9.8264901197366,0 -36.2007892490806,-9.82646236767819,0 -36.2007788671943,-9.82644553856156,0 -36.2007652830622,-9.82643698454522,0 -36.2006092491218,-9.82638207551827,0 -36.2001989585372,-9.82625037682308,0 -36.1999773100543,-9.82617852828587,0 -36.1999138191363,-9.8261571826239,0 -36.199550579904,-9.82604066619626,0 -36.1990003022795,-9.82586212745885,0 -36.1988668128864,-9.82581799499039,0 -36.1983348669857,-9.82563806343508,0 -36.1978616712672,-9.82548823998096,0 -36.197352810616,-9.82701157095898,0 -36.1970183005202,-9.82800988436211,0 -36.1965699513712,-9.82932741846604,0</coordinates></LinearRing></outerBoundaryIs></Polygon></MultiGeometry>
  </Placemark>
</Folder>
</Document></kml>
