<?xml version="1.0" encoding="utf-8" ?>
<kml xmlns="http://www.opengis.net/kml/2.2">
<Document id="root_doc">
<Schema name="GITIRANA_TALHAO_1017_ID_17" id="GITIRANA_TALHAO_1017_ID_17">
	<SimpleField name="ID" type="float"></SimpleField>
	<SimpleField name="AREA_TOTAL" type="float"></SimpleField>
	<SimpleField name="FAZENDA" type="float"></SimpleField>
	<SimpleField name="FAZ_NOME" type="string"></SimpleField>
	<SimpleField name="TALHAO" type="float"></SimpleField>
	<SimpleField name="ZONA" type="float"></SimpleField>
	<SimpleField name="ACIONISTA" type="string"></SimpleField>
	<SimpleField name="CODE" type="string"></SimpleField>
</Schema>
<Folder><name>GITIRANA_TALHAO_1017_ID_17</name>
  <Placemark id="GITIRANA_TALHAO_1017_ID_17.1">
	<Style><LineStyle><color>ff0000ff</color></LineStyle><PolyStyle><fill>0</fill></PolyStyle></Style>
	<ExtendedData><SchemaData schemaUrl="#GITIRANA_TALHAO_1017_ID_17">
		<SimpleData name="ID">17</SimpleData>
		<SimpleData name="AREA_TOTAL">1.49</SimpleData>
		<SimpleData name="FAZENDA">1</SimpleData>
		<SimpleData name="FAZ_NOME">GITIRANA</SimpleData>
		<SimpleData name="TALHAO">1017</SimpleData>
		<SimpleData name="ZONA">1</SimpleData>
		<SimpleData name="ACIONISTA">HENRIQUE TENÓRIO</SimpleData>
		<SimpleData name="CODE"></SimpleData>
	</SchemaData></ExtendedData>
      <MultiGeometry><Polygon><outerBoundaryIs><LinearRing><coordinates>-36.1957261195338,-9.82921194829855,0 -36.1952015898514,-9.83066145384424,0 -36.1959888796925,-9.8308388519758,0 -36.1960650036317,-9.83061414931185,0 -36.196132386988,-9.83041759820031,0 -36.196348777445,-9.82979049585657,0 -36.196403630077,-9.82962886625808,0 -36.1964947438056,-9.82935570068055,0 -36.1957261195338,-9.82921194829855,0</coordinates></LinearRing></outerBoundaryIs></Polygon></MultiGeometry>
  </Placemark>
</Folder>
</Document></kml>
