<?xml version="1.0" encoding="utf-8" ?>
<kml xmlns="http://www.opengis.net/kml/2.2">
<Document id="root_doc">
<Schema name="GITIRANA_TALHAO_1017_ID_18" id="GITIRANA_TALHAO_1017_ID_18">
	<SimpleField name="ID" type="float"></SimpleField>
	<SimpleField name="AREA_TOTAL" type="float"></SimpleField>
	<SimpleField name="FAZENDA" type="float"></SimpleField>
	<SimpleField name="FAZ_NOME" type="string"></SimpleField>
	<SimpleField name="TALHAO" type="float"></SimpleField>
	<SimpleField name="ZONA" type="float"></SimpleField>
	<SimpleField name="ACIONISTA" type="string"></SimpleField>
	<SimpleField name="CODE" type="string"></SimpleField>
</Schema>
<Folder><name>GITIRANA_TALHAO_1017_ID_18</name>
  <Placemark id="GITIRANA_TALHAO_1017_ID_18.1">
	<Style><LineStyle><color>ff0000ff</color></LineStyle><PolyStyle><fill>0</fill></PolyStyle></Style>
	<ExtendedData><SchemaData schemaUrl="#GITIRANA_TALHAO_1017_ID_18">
		<SimpleData name="ID">18</SimpleData>
		<SimpleData name="AREA_TOTAL">2.88</SimpleData>
		<SimpleData name="FAZENDA">1</SimpleData>
		<SimpleData name="FAZ_NOME">GITIRANA</SimpleData>
		<SimpleData name="TALHAO">1017</SimpleData>
		<SimpleData name="ZONA">1</SimpleData>
		<SimpleData name="ACIONISTA">HENRIQUE TENÓRIO</SimpleData>
		<SimpleData name="CODE"></SimpleData>
	</SchemaData></ExtendedData>
      <MultiGeometry><Polygon><outerBoundaryIs><LinearRing><coordinates>-36.1941307773146,-9.82891357285174,0 -36.1936266864215,-9.83030657891598,0 -36.1951702706972,-9.83065439673493,0 -36.1956943939304,-9.82920601476167,0 -36.1941307773146,-9.82891357285174,0</coordinates></LinearRing></outerBoundaryIs></Polygon></MultiGeometry>
  </Placemark>
</Folder>
</Document></kml>
