<?xml version="1.0" encoding="utf-8" ?>
<kml xmlns="http://www.opengis.net/kml/2.2">
<Document id="root_doc">
<Schema name="GITIRANA_TALHAO_1017_ID_16" id="GITIRANA_TALHAO_1017_ID_16">
	<SimpleField name="ID" type="float"></SimpleField>
	<SimpleField name="AREA_TOTAL" type="float"></SimpleField>
	<SimpleField name="FAZENDA" type="float"></SimpleField>
	<SimpleField name="FAZ_NOME" type="string"></SimpleField>
	<SimpleField name="TALHAO" type="float"></SimpleField>
	<SimpleField name="ZONA" type="float"></SimpleField>
	<SimpleField name="ACIONISTA" type="string"></SimpleField>
	<SimpleField name="CODE" type="string"></SimpleField>
</Schema>
<Folder><name>GITIRANA_TALHAO_1017_ID_16</name>
  <Placemark id="GITIRANA_TALHAO_1017_ID_16.1">
	<Style><LineStyle><color>ff0000ff</color></LineStyle><PolyStyle><fill>0</fill></PolyStyle></Style>
	<ExtendedData><SchemaData schemaUrl="#GITIRANA_TALHAO_1017_ID_16">
		<SimpleData name="ID">16</SimpleData>
		<SimpleData name="AREA_TOTAL">1.58</SimpleData>
		<SimpleData name="FAZENDA">1</SimpleData>
		<SimpleData name="FAZ_NOME">GITIRANA</SimpleData>
		<SimpleData name="TALHAO">1017</SimpleData>
		<SimpleData name="ZONA">1</SimpleData>
		<SimpleData name="ACIONISTA">HENRIQUE TENÓRIO</SimpleData>
		<SimpleData name="CODE"></SimpleData>
	</SchemaData></ExtendedData>
      <MultiGeometry><Polygon><outerBoundaryIs><LinearRing><coordinates>-36.1954618143898,-9.83239863906424,0 -36.1954712296529,-9.83236915984946,0 -36.1955958225784,-9.83199589442063,0 -36.1957602069954,-9.83151417557376,0 -36.1958120410926,-9.8313608424081,0 -36.1959742999705,-9.83088188835019,0 -36.1951860912029,-9.83070428311582,0 -36.1946515570146,-9.83218141522409,0 -36.1954618143898,-9.83239863906424,0</coordinates></LinearRing></outerBoundaryIs></Polygon></MultiGeometry>
  </Placemark>
</Folder>
</Document></kml>
