<?xml version="1.0" encoding="utf-8" ?>
<kml xmlns="http://www.opengis.net/kml/2.2">
<Document id="root_doc">
<Schema name="SÍTIO_DO_OURO_TALHAO_1009_ID_195" id="SÍTIO_DO_OURO_TALHAO_1009_ID_195">
	<SimpleField name="ID" type="float"></SimpleField>
	<SimpleField name="AREA_TOTAL" type="float"></SimpleField>
	<SimpleField name="FAZENDA" type="float"></SimpleField>
	<SimpleField name="FAZ_NOME" type="string"></SimpleField>
	<SimpleField name="TALHAO" type="float"></SimpleField>
	<SimpleField name="ZONA" type="float"></SimpleField>
	<SimpleField name="ACIONISTA" type="string"></SimpleField>
	<SimpleField name="CODE" type="string"></SimpleField>
</Schema>
<Folder><name>SÍTIO_DO_OURO_TALHAO_1009_ID_195</name>
  <Placemark id="SÍTIO_DO_OURO_TALHAO_1009_ID_195.1">
	<Style><LineStyle><color>ff0000ff</color></LineStyle><PolyStyle><fill>0</fill></PolyStyle></Style>
	<ExtendedData><SchemaData schemaUrl="#SÍTIO_DO_OURO_TALHAO_1009_ID_195">
		<SimpleData name="ID">195</SimpleData>
		<SimpleData name="AREA_TOTAL">4.72</SimpleData>
		<SimpleData name="FAZ_NOME">SÍTIO DO OURO</SimpleData>
		<SimpleData name="TALHAO">1009</SimpleData>
		<SimpleData name="ZONA">1</SimpleData>
		<SimpleData name="ACIONISTA">ISABEL TENÓRIO</SimpleData>
		<SimpleData name="CODE"></SimpleData>
	</SchemaData></ExtendedData>
      <MultiGeometry><Polygon><outerBoundaryIs><LinearRing><coordinates>-36.2564374183436,-9.81109305187845,0 -36.2572734530993,-9.8103942529136,0 -36.2564323284155,-9.80645642434183,0 -36.2555955641526,-9.80715175680771,0 -36.2564374183436,-9.81109305187845,0</coordinates></LinearRing></outerBoundaryIs></Polygon></MultiGeometry>
  </Placemark>
</Folder>
</Document></kml>
