<?xml version="1.0" encoding="utf-8" ?>
<kml xmlns="http://www.opengis.net/kml/2.2">
<Document id="root_doc">
<Schema name="SÍTIO_DO_OURO_TALHAO_1005_ID_193" id="SÍTIO_DO_OURO_TALHAO_1005_ID_193">
	<SimpleField name="ID" type="float"></SimpleField>
	<SimpleField name="AREA_TOTAL" type="float"></SimpleField>
	<SimpleField name="FAZENDA" type="float"></SimpleField>
	<SimpleField name="FAZ_NOME" type="string"></SimpleField>
	<SimpleField name="TALHAO" type="float"></SimpleField>
	<SimpleField name="ZONA" type="float"></SimpleField>
	<SimpleField name="ACIONISTA" type="string"></SimpleField>
	<SimpleField name="CODE" type="string"></SimpleField>
</Schema>
<Folder><name>SÍTIO_DO_OURO_TALHAO_1005_ID_193</name>
  <Placemark id="SÍTIO_DO_OURO_TALHAO_1005_ID_193.1">
	<Style><LineStyle><color>ff0000ff</color></LineStyle><PolyStyle><fill>0</fill></PolyStyle></Style>
	<ExtendedData><SchemaData schemaUrl="#SÍTIO_DO_OURO_TALHAO_1005_ID_193">
		<SimpleData name="ID">193</SimpleData>
		<SimpleData name="AREA_TOTAL">1.62</SimpleData>
		<SimpleData name="FAZ_NOME">SÍTIO DO OURO</SimpleData>
		<SimpleData name="TALHAO">1005</SimpleData>
		<SimpleData name="ZONA">1</SimpleData>
		<SimpleData name="ACIONISTA">ISABEL TENÓRIO</SimpleData>
		<SimpleData name="CODE"></SimpleData>
	</SchemaData></ExtendedData>
      <MultiGeometry><Polygon><outerBoundaryIs><LinearRing><coordinates>-36.2592149029255,-9.80412055219855,0 -36.2601781362394,-9.80332009725745,0 -36.2599466407923,-9.80223638013397,0 -36.2597815485113,-9.80233709999734,0 -36.2589437763357,-9.80285128758312,0 -36.2592149029255,-9.80412055219855,0</coordinates></LinearRing></outerBoundaryIs></Polygon></MultiGeometry>
  </Placemark>
</Folder>
</Document></kml>
