<?xml version="1.0" encoding="utf-8" ?>
<kml xmlns="http://www.opengis.net/kml/2.2">
<Document id="root_doc">
<Schema name="SÍTIO_DO_OURO_TALHAO_1001_ID_205" id="SÍTIO_DO_OURO_TALHAO_1001_ID_205">
	<SimpleField name="ID" type="float"></SimpleField>
	<SimpleField name="AREA_TOTAL" type="float"></SimpleField>
	<SimpleField name="FAZENDA" type="float"></SimpleField>
	<SimpleField name="FAZ_NOME" type="string"></SimpleField>
	<SimpleField name="TALHAO" type="float"></SimpleField>
	<SimpleField name="ZONA" type="float"></SimpleField>
	<SimpleField name="ACIONISTA" type="string"></SimpleField>
	<SimpleField name="CODE" type="string"></SimpleField>
</Schema>
<Folder><name>SÍTIO_DO_OURO_TALHAO_1001_ID_205</name>
  <Placemark id="SÍTIO_DO_OURO_TALHAO_1001_ID_205.1">
	<Style><LineStyle><color>ff0000ff</color></LineStyle><PolyStyle><fill>0</fill></PolyStyle></Style>
	<ExtendedData><SchemaData schemaUrl="#SÍTIO_DO_OURO_TALHAO_1001_ID_205">
		<SimpleData name="ID">205</SimpleData>
		<SimpleData name="AREA_TOTAL">7.17</SimpleData>
		<SimpleData name="FAZ_NOME">SÍTIO DO OURO</SimpleData>
		<SimpleData name="TALHAO">1001</SimpleData>
		<SimpleData name="ZONA">1</SimpleData>
		<SimpleData name="ACIONISTA">ISABEL TENÓRIO</SimpleData>
		<SimpleData name="CODE"></SimpleData>
	</SchemaData></ExtendedData>
      <MultiGeometry><Polygon><outerBoundaryIs><LinearRing><coordinates>-36.2572838219743,-9.81083146483308,0 -36.2557048875166,-9.81214130368307,0 -36.2559203681397,-9.81308057126675,0 -36.2559296818468,-9.81311216928704,0 -36.2559449871849,-9.81313299211339,0 -36.255967410554,-9.81315005990774,0 -36.255974191477,-9.81315405403798,0 -36.2560080740145,-9.81315347928005,0 -36.2562141250502,-9.81307534387189,0 -36.2572125621883,-9.81259589246808,0 -36.259170107236,-9.81158238783182,0 -36.2595309079727,-9.81138006193869,0 -36.2597259939398,-9.81128259992824,0 -36.2600234222571,-9.81112792400446,0 -36.2583506565842,-9.80994304839216,0 -36.2572838219743,-9.81083146483308,0</coordinates></LinearRing></outerBoundaryIs></Polygon></MultiGeometry>
  </Placemark>
</Folder>
</Document></kml>
