<?xml version="1.0" encoding="utf-8" ?>
<kml xmlns="http://www.opengis.net/kml/2.2">
<Document id="root_doc">
<Schema name="SÍTIO_DO_OURO_TALHAO_1007_ID_198" id="SÍTIO_DO_OURO_TALHAO_1007_ID_198">
	<SimpleField name="ID" type="float"></SimpleField>
	<SimpleField name="AREA_TOTAL" type="float"></SimpleField>
	<SimpleField name="FAZENDA" type="float"></SimpleField>
	<SimpleField name="FAZ_NOME" type="string"></SimpleField>
	<SimpleField name="TALHAO" type="float"></SimpleField>
	<SimpleField name="ZONA" type="float"></SimpleField>
	<SimpleField name="ACIONISTA" type="string"></SimpleField>
	<SimpleField name="CODE" type="string"></SimpleField>
</Schema>
<Folder><name>SÍTIO_DO_OURO_TALHAO_1007_ID_198</name>
  <Placemark id="SÍTIO_DO_OURO_TALHAO_1007_ID_198.1">
	<Style><LineStyle><color>ff0000ff</color></LineStyle><PolyStyle><fill>0</fill></PolyStyle></Style>
	<ExtendedData><SchemaData schemaUrl="#SÍTIO_DO_OURO_TALHAO_1007_ID_198">
		<SimpleData name="ID">198</SimpleData>
		<SimpleData name="AREA_TOTAL">4.98</SimpleData>
		<SimpleData name="FAZ_NOME">SÍTIO DO OURO</SimpleData>
		<SimpleData name="TALHAO">1007</SimpleData>
		<SimpleData name="ZONA">1</SimpleData>
		<SimpleData name="ACIONISTA">ISABEL TENÓRIO</SimpleData>
		<SimpleData name="CODE"></SimpleData>
	</SchemaData></ExtendedData>
      <MultiGeometry><Polygon><outerBoundaryIs><LinearRing><coordinates>-36.2581696156462,-9.80964312868345,0 -36.2582248661911,-9.80959927551125,0 -36.2588093935735,-9.80910622958734,0 -36.2590509186836,-9.80888910309422,0 -36.2582148710724,-9.80497515172964,0 -36.2573296468362,-9.80571076626547,0 -36.2581696156462,-9.80964312868345,0</coordinates></LinearRing></outerBoundaryIs></Polygon></MultiGeometry>
  </Placemark>
</Folder>
</Document></kml>
