<?xml version="1.0" encoding="UTF-8"?>
<kml xmlns="http://www.opengis.net/kml/2.2" xmlns:gx="http://www.google.com/kml/ext/2.2" xmlns:kml="http://www.opengis.net/kml/2.2" xmlns:atom="http://www.w3.org/2005/Atom">
<Document>
  <name>89.kml</name>
  <StyleMap id="FFFF0000">
    <Pair>
      <key>normal</key>
      <styleUrl>#s_FFFF0000</styleUrl>
    </Pair>
    <Pair>
      <key>highlight</key>
      <styleUrl>#s_FFFF0000_hl</styleUrl>
    </Pair>
  </StyleMap>
  <Style id="s_FFFF0000">
   <IconStyle>
      <scale>1.1</scale>
      <Icon>
        <href>http://maps.google.com/mapfiles/kml/pushpin/agrocad.png</href>
      </Icon>
      <hotSpot x="20" y="2" xunits="pixels" yunits="pixels"/>
    </IconStyle>
    <LineStyle>
      <color>FFFF0000</color>
      <width>1</width>
    </LineStyle>
    <PolyStyle>
      <color>40ffffff</color>
      <fill>1</fill>
    </PolyStyle>
  </Style>
  <Style id="s_FFFF0000_hl">
    <IconStyle>
      <scale>1.3</scale>
      <Icon>
        <href>http://maps.google.com/mapfiles/kml/pushpin/agrocad.png</href>
      </Icon>
      <hotSpot x="20" y="2" xunits="pixels" yunits="pixels"/>
    </IconStyle>
    <LineStyle>
      <color>ff000000</color>
      <width>1</width>
    </LineStyle>
    <PolyStyle>
      <color>40ffffff</color>
      <fill>1</fill>
    </PolyStyle>
  </Style>
  <Placemark>
    <name>AgroCAD: 1B6EE</name>
    <styleUrl>FFFF0000</styleUrl>
    <Polygon>
      <outerBoundaryIs>
        <LinearRing>
          <coordinates>
           -36.14129979711569,-9.96947461295549 -36.14130759874129,-9.96948056807694 -36.14133614230139,-9.96948799151958 -36.14140220729286,-9.96951930984459 -36.14144482044807,-9.96954866568830 -36.14147540326146,-9.96956712890827 -36.14150880157002,-9.96958631566197 -36.14153307999312,-9.96960983950781 -36.14156976442429,-9.96962617186835 -36.14159393378492,-9.96965198316470 -36.14161792845039,-9.96967984339701 -36.14164201687706,-9.96971213639358 -36.14166749004501,-9.96974137369065 -36.14169994405042,-9.96976773649283 -36.14181958195153,-9.96985133381464 -36.14186133996684,-9.96988016246841 -36.14190299513346,-9.96991230108758 -36.14194215938396,-9.96994323879783 -36.14198452034722,-9.96997148043346 -36.14203192042002,-9.96999847375039 -36.14208032130016,-9.97002406408399 -36.14212491658510,-9.97005367515586 -36.14216827411973,-9.97008282121137 -36.14221097168453,-9.97011286879744 -36.14225571597708,-9.97014285785037 -36.14229988398345,-9.97017249117461 -36.14234487083265,-9.97020009173436 -36.14238978608727,-9.97022610079929 -36.14243448154397,-9.97025069904248 -36.14248132285904,-9.97027671475322 -36.14252695117226,-9.97030333591153 -36.14257263258765,-9.97032889476676 -36.14261687024722,-9.97035575071988 -36.14266041782989,-9.97038182907729 -36.14270352090891,-9.97040709020607 -36.14274402579671,-9.97043113035845 -36.14278581234481,-9.97045483431218 -36.14283064445730,-9.97048052182827 -36.14287634103617,-9.97050685662023 -36.14292163865466,-9.97053334888492 -36.14296557811621,-9.97055873035041 -36.14300763513422,-9.97058281512427 -36.14304596645331,-9.97060647979159 -36.14308004336436,-9.97062393999244 -36.14311412027896,-9.97064140028109 -36.14314819719798,-9.97065886056730 -36.14318259643435,-9.97066111983057 -36.14321872512378,-9.97066105763340 -36.14326007047977,-9.97066083070760 -36.14330271774092,-9.97066260754684 -36.14334423046410,-9.97066417320617 -36.14338575771520,-9.97066484588814 -36.14342818831966,-9.97066577085120 -36.14346973362620,-9.97066542826085 -36.14351335760915,-9.97066733169330 -36.14356251413769,-9.97067032258250 -36.14361241038569,-9.97067462863927 -36.14366191931515,-9.97067935560652 -36.14371139765861,-9.97068381770020 -36.14376076679356,-9.97068815879038 -36.14381208471387,-9.97069238665400 -36.14386417624953,-9.97069636167964 -36.14391516155360,-9.97069986811867 -36.14396504752765,-9.97070410095226 -36.14401334326319,-9.97070779420425 -36.14406163900250,-9.97071148735929 -36.14410993474494,-9.97071518050760 -36.14415431842568,-9.97071701989890 -36.14419519488443,-9.97071413457557 -36.14423442427852,-9.97070751477843 -36.14427618805362,-9.97070190065545 -36.14431825589196,-9.97069756662269 -36.14436273944068,-9.97069349808804 -36.14440539974527,-9.97068995507106 -36.14444637610775,-9.97068722396731 -36.14448968659779,-9.97068509571353 -36.14453311721015,-9.97068088434717 -36.14457957430551,-9.97067611980862 -36.14462685392119,-9.97067410790717 -36.14467460706042,-9.97067309857669 -36.14472143225390,-9.97067359312911 -36.14476765108890,-9.97067414888372 -36.14481222068328,-9.97067451462205 -36.14485535697060,-9.97067605523795 -36.14490018384045,-9.97067942190154 -36.14494646452057,-9.97068451221814 -36.14499179112710,-9.97069030858707 -36.14503987058803,-9.97069587276305 -36.14508829505477,-9.97069905302130 -36.14513556996179,-9.97069610879207 -36.14518675464599,-9.97069467525622 -36.14524066203941,-9.97069280844034 -36.14529266298865,-9.97069026392103 -36.14534197564864,-9.97068755970015 -36.14538815702795,-9.97068366121150 -36.14542988206644,-9.97067503621606 -36.14548780809804,-9.97063729157604 -36.14551881183539,-9.97062125046137 -36.14556631066552,-9.97060127355940 -36.14563234428259,-9.97057941696447 -36.14566529896682,-9.97057562237679 -36.14573335379768,-9.97055785967220 -36.14578698946456,-9.97054201186656 -36.14582813844887,-9.97054236400122 -36.14586926968725,-9.97054475428725 -36.14593097542219,-9.97054732062880 -36.14597004921595,-9.97054969329679 -36.14602359614526,-9.97054403657176 -36.14606275867370,-9.97053621844511 -36.14614298073477,-9.97053894318697 -36.14620241608726,-9.97056595009688 -36.14622089764745,-9.97057018484955 -36.14625990047230,-9.97058071045218 -36.14628655860142,-9.97059113008910 -36.14631518545622,-9.97061175845295 -36.14633545829875,-9.97064658350164 -36.14636979614845,-9.97072025744148 -36.14638572341146,-9.97078154400591 -36.14640590754203,-9.97082656018059 -36.14645056744016,-9.97089624547934 -36.14647080481668,-9.97093514718191 -36.14649295769514,-9.97099037174767 -36.14651915450577,-9.97105378448926 -36.14654141386151,-9.97109678011062 -36.14657584050614,-9.97116026292658 -36.14659196299766,-9.97119912942359 -36.14662034150177,-9.97124829232711 -36.14664471156910,-9.97128519073951 -36.14667764971829,-9.97131700560478 -36.14549507832797,-9.97127561785771 -36.14493636165967,-9.97127259693071 -36.14474672051001,-9.97128002350824 -36.14332341134999,-9.97173553793497 -36.14255194077585,-9.97193899053995 -36.14214136457047,-9.97204156599582 -36.14167828320498,-9.97213213641780 -36.14129561005012,-9.97212040098306 -36.14126066574365,-9.96946935354860 -36.14129979711569,-9.96947461295549 -36.14129979711569,-9.96947461295549 -36.14129979711569,-9.96947461295549
          </coordinates>
        </LinearRing>
      </outerBoundaryIs>
    </Polygon>
  </Placemark>
</Document>
</kml>
