<?xml version="1.0" encoding="UTF-8"?>
<kml xmlns="http://www.opengis.net/kml/2.2" xmlns:gx="http://www.google.com/kml/ext/2.2" xmlns:kml="http://www.opengis.net/kml/2.2" xmlns:atom="http://www.w3.org/2005/Atom">
<Document>
  <name>92.kml</name>
  <StyleMap id="FFFF0000">
    <Pair>
      <key>normal</key>
      <styleUrl>#s_FFFF0000</styleUrl>
    </Pair>
    <Pair>
      <key>highlight</key>
      <styleUrl>#s_FFFF0000_hl</styleUrl>
    </Pair>
  </StyleMap>
  <Style id="s_FFFF0000">
   <IconStyle>
      <scale>1.1</scale>
      <Icon>
        <href>http://maps.google.com/mapfiles/kml/pushpin/agrocad.png</href>
      </Icon>
      <hotSpot x="20" y="2" xunits="pixels" yunits="pixels"/>
    </IconStyle>
    <LineStyle>
      <color>FFFF0000</color>
      <width>1</width>
    </LineStyle>
    <PolyStyle>
      <color>40ffffff</color>
      <fill>1</fill>
    </PolyStyle>
  </Style>
  <Style id="s_FFFF0000_hl">
    <IconStyle>
      <scale>1.3</scale>
      <Icon>
        <href>http://maps.google.com/mapfiles/kml/pushpin/agrocad.png</href>
      </Icon>
      <hotSpot x="20" y="2" xunits="pixels" yunits="pixels"/>
    </IconStyle>
    <LineStyle>
      <color>ff000000</color>
      <width>1</width>
    </LineStyle>
    <PolyStyle>
      <color>40ffffff</color>
      <fill>1</fill>
    </PolyStyle>
  </Style>
  <Placemark>
    <name>AgroCAD: 1B6EA</name>
    <styleUrl>FFFF0000</styleUrl>
    <Polygon>
      <outerBoundaryIs>
        <LinearRing>
          <coordinates>
           -36.14671709654401,-9.97138155031256 -36.14643547300309,-9.97415695455847 -36.14518336607110,-9.97438196396703 -36.14550928673030,-9.97133927930876 -36.14671709654401,-9.97138155031256 -36.14671709654401,-9.97138155031256 -36.14671709654401,-9.97138155031256
          </coordinates>
        </LinearRing>
      </outerBoundaryIs>
    </Polygon>
  </Placemark>
  <Placemark>
    <name>AgroCAD: 1B6E9</name>
    <styleUrl>FFFF0000</styleUrl>
    <Polygon>
      <outerBoundaryIs>
        <LinearRing>
          <coordinates>
           -36.14617464770816,-9.97669914085005 -36.14617457701719,-9.97666915877522 -36.14616770507016,-9.97664150003592 -36.14615722281129,-9.97661661491489 -36.14614020503458,-9.97659139049628 -36.14611829834255,-9.97656921644089 -36.14609431591866,-9.97655285651966 -36.14606809535203,-9.97654097881346 -36.14604241173402,-9.97653113317009 -36.14601531758065,-9.97652272814625 -36.14598138393285,-9.97651595223985 -36.14594903923561,-9.97651096749472 -36.14591921446426,-9.97650794939898 -36.14589019063754,-9.97650647458624 -36.14586203379782,-9.97650790714918 -36.14583387708915,-9.97651157382559 -36.14580487778201,-9.97651814534727 -36.14577549395862,-9.97652672265617 -36.14574589063514,-9.97653684407434 -36.14571815034365,-9.97654726920574 -36.14569019178620,-9.97655717538862 -36.14566239112920,-9.97656761399439 -36.14563594395825,-9.97657723945761 -36.14560777677386,-9.97658689212684 -36.14557738083716,-9.97659656269142 -36.14554757174584,-9.97660596409274 -36.14551823844003,-9.97661413551624 -36.14548841176825,-9.97662244446400 -36.14545860279881,-9.97663055889090 -36.14542784497377,-9.97663845227172 -36.14539663568255,-9.97664791342331 -36.14536766236587,-9.97665650291168 -36.14533732409109,-9.97666639423707 -36.14530660608432,-9.97667657015938 -36.14527767584184,-9.97668641558271 -36.14524907894218,-9.97669727973953 -36.14521941728290,-9.97670918474667 -36.14519121623049,-9.97672265154417 -36.14516545532850,-9.97673616517308 -36.14514037705907,-9.97675053642364 -36.14511369649717,-9.97676678573475 -36.14508734605896,-9.97678314474696 -36.14506121799891,-9.97679829797634 -36.14503542900584,-9.97681398467643 -36.14500973687998,-9.97682909933947 -36.14498421053337,-9.97684463373190 -36.14496018543718,-9.97685857883681 -36.14493631343296,-9.97687190194084 -36.14491542386971,-9.97688328182756 -36.14517848548909,-9.97442752641388 -36.14643085439842,-9.97420247002714 -36.14617464770816,-9.97669914085005 -36.14617464770816,-9.97669914085005 -36.14617464770816,-9.97669914085005
          </coordinates>
        </LinearRing>
      </outerBoundaryIs>
    </Polygon>
  </Placemark>
</Document>
</kml>
