<?xml version="1.0" encoding="UTF-8"?>
<kml xmlns="http://www.opengis.net/kml/2.2" xmlns:gx="http://www.google.com/kml/ext/2.2" xmlns:kml="http://www.opengis.net/kml/2.2" xmlns:atom="http://www.w3.org/2005/Atom">
<Document>
  <name>94.kml</name>
  <StyleMap id="FFFF0000">
    <Pair>
      <key>normal</key>
      <styleUrl>#s_FFFF0000</styleUrl>
    </Pair>
    <Pair>
      <key>highlight</key>
      <styleUrl>#s_FFFF0000_hl</styleUrl>
    </Pair>
  </StyleMap>
  <Style id="s_FFFF0000">
   <IconStyle>
      <scale>1.1</scale>
      <Icon>
        <href>http://maps.google.com/mapfiles/kml/pushpin/agrocad.png</href>
      </Icon>
      <hotSpot x="20" y="2" xunits="pixels" yunits="pixels"/>
    </IconStyle>
    <LineStyle>
      <color>FFFF0000</color>
      <width>1</width>
    </LineStyle>
    <PolyStyle>
      <color>40ffffff</color>
      <fill>1</fill>
    </PolyStyle>
  </Style>
  <Style id="s_FFFF0000_hl">
    <IconStyle>
      <scale>1.3</scale>
      <Icon>
        <href>http://maps.google.com/mapfiles/kml/pushpin/agrocad.png</href>
      </Icon>
      <hotSpot x="20" y="2" xunits="pixels" yunits="pixels"/>
    </IconStyle>
    <LineStyle>
      <color>ff000000</color>
      <width>1</width>
    </LineStyle>
    <PolyStyle>
      <color>40ffffff</color>
      <fill>1</fill>
    </PolyStyle>
  </Style>
  <Placemark>
    <name>AgroCAD: 1B6EF</name>
    <styleUrl>FFFF0000</styleUrl>
    <Polygon>
      <outerBoundaryIs>
        <LinearRing>
          <coordinates>
           -36.14142825875431,-9.97896079264965 -36.14146012204356,-9.97895474527566 -36.14149451672317,-9.97894828177524 -36.14152865328379,-9.97894165730714 -36.14156313929979,-9.97893389735556 -36.14159657959641,-9.97892508803882 -36.14162714096620,-9.97891792081951 -36.14165604089160,-9.97891186771541 -36.14168521606378,-9.97890639985992 -36.14171473965341,-9.97890101246959 -36.14174309939606,-9.97889697485945 -36.14177210329976,-9.97889208627604 -36.14180366081318,-9.97888713921487 -36.14183698349121,-9.97888194726053 -36.14186992396571,-9.97887762065317 -36.14190020820934,-9.97887342728306 -36.14193284429551,-9.97886955685435 -36.14196693004064,-9.97886450346813 -36.14199892646848,-9.97885981999128 -36.14203046844211,-9.97885514730718 -36.14206459291946,-9.97884809885999 -36.14209847159366,-9.97884001407628 -36.14213098643409,-9.97883222275975 -36.14216347505145,-9.97882410889164 -36.14219406360378,-9.97881643255160 -36.14222624012756,-9.97880878993619 -36.14226113105779,-9.97879971828715 -36.14229526778186,-9.97879077838681 -36.14233029691889,-9.97878183505538 -36.14236482802002,-9.97877334522688 -36.14239679426727,-9.97876501779238 -36.14243060917626,-9.97875707681913 -36.14246785790488,-9.97874828883184 -36.14250411127645,-9.97873987653617 -36.14253750157362,-9.97873390835479 -36.14257186333029,-9.97873109876054 -36.14260443484729,-9.97872664993341 -36.14263588715350,-9.97872351607822 -36.14266568155333,-9.97872059119469 -36.14269282838971,-9.97871781493910 -36.14272142622527,-9.97871527399938 -36.14275229771418,-9.97871185809111 -36.14278096806196,-9.97870909037207 -36.14280912576791,-9.97870614901213 -36.14283815414134,-9.97870286791945 -36.14286406145300,-9.97870043469474 -36.14288928705720,-9.97869948279405 -36.14291541780981,-9.97869707109139 -36.14294119591479,-9.97869514869181 -36.14296663304955,-9.97869204627134 -36.14299289703004,-9.97868872533479 -36.14302101474322,-9.97868543835316 -36.14304752755869,-9.97868228340880 -36.14307283590835,-9.97867975991423 -36.14310046792015,-9.97867701120064 -36.14313279731494,-9.97867408222447 -36.14316612785203,-9.97867067008994 -36.14319750093889,-9.97866708110279 -36.14323138654916,-9.97866281010118 -36.14326290625477,-9.97865831330024 -36.14329550164750,-9.97865737303835 -36.14333174456723,-9.97865341929841 -36.14336471814731,-9.97864951984981 -36.14339665617560,-9.97864547336944 -36.14342773748034,-9.97864158714322 -36.14345948639162,-9.97863878155862 -36.14349057633435,-9.97863434466571 -36.14351939384422,-9.97863066706497 -36.14355039307458,-9.97862761218766 -36.14358339097864,-9.97862270261579 -36.14361972203827,-9.97861851390103 -36.14365347034897,-9.97861239870221 -36.14368430248118,-9.97860891537647 -36.14371471488176,-9.97860509544356 -36.14374458966081,-9.97860196422792 -36.14376795764086,-9.97859787241142 -36.14378577008669,-9.97859467065772 -36.14380952192306,-9.97859068472038 -36.14383678907845,-9.97858500126034 -36.14386588805709,-9.97857973566638 -36.14389347048080,-9.97857094960662 -36.14392030309460,-9.97856351346725 -36.14394437615047,-9.97855560389832 -36.14397279283184,-9.97854751798494 -36.14399756924752,-9.97853688922816 -36.14402308495098,-9.97852705168486 -36.14404626417287,-9.97851823825780 -36.14406934370992,-9.97850941375270 -36.14409472972130,-9.97849874792238 -36.14411755944761,-9.97848847658026 -36.14414100692464,-9.97847638014241 -36.14416660668887,-9.97846243838719 -36.14418886904248,-9.97844956334581 -36.14420635840037,-9.97843962032898 -36.14421729276378,-9.97843195026424 -36.14422311654166,-9.97842829345255 -36.14423211932076,-9.97841910571307 -36.14424997800263,-9.97840813165406 -36.14443171142116,-9.97832040108699 -36.14472492727045,-9.97817146380707 -36.14475113967618,-9.97816336139383 -36.14478061501348,-9.97815419646685 -36.14481079824455,-9.97814483884853 -36.14483983499372,-9.97813585163818 -36.14486822985149,-9.97812702324083 -36.14489703133207,-9.97811888643212 -36.14492448117412,-9.97810935234228 -36.14494759409634,-9.97810143737931 -36.14506866869882,-9.97805022337432 -36.14509064331346,-9.97804161784580 -36.14511436137402,-9.97803243041286 -36.14513833018854,-9.97802186686626 -36.14516053319157,-9.97801115889430 -36.14518239124939,-9.97799989542231 -36.14519534475539,-9.97799205525280 -36.14521249455532,-9.97798579335195 -36.14528934098081,-9.97790856256465 -36.14530680264712,-9.97785402371328 -36.14531093456036,-9.97777838472990 -36.14531486037233,-9.97770651824064 -36.14531518302230,-9.97766949872601 -36.14532484321204,-9.97760640435845 -36.14533512709504,-9.97756948630687 -36.14534042920651,-9.97756432396995 -36.14541540679741,-9.97752756033017 -36.14544185352119,-9.97750507557277 -36.14546156390669,-9.97748681101672 -36.14553500850261,-9.97744697881701 -36.14556318610326,-9.97743474553799 -36.14559481057304,-9.97742038738902 -36.14562634898150,-9.97740622159680 -36.14565714228105,-9.97739140249228 -36.14568396625750,-9.97737853952172 -36.14571114753720,-9.97736532272463 -36.14573582324839,-9.97735269097519 -36.14576145648678,-9.97733882745504 -36.14577789543355,-9.97732724327117 -36.14579095553948,-9.97732240835436 -36.14580925539414,-9.97731370410258 -36.14582819410586,-9.97730148763969 -36.14584713991173,-9.97728875495756 -36.14587537994887,-9.97727246954355 -36.14589635810748,-9.97724994141378 -36.14592786096416,-9.97723160319601 -36.14594168631097,-9.97722354559924 -36.14597145559836,-9.97720749416231 -36.14598499643582,-9.97719430963589 -36.14600974991777,-9.97717557548877 -36.14603161810400,-9.97715732958713 -36.14607838699354,-9.97711179258817 -36.14610733138049,-9.97706957846079 -36.14612340855026,-9.97700219817946 -36.14613988094863,-9.97694954079926 -36.14582020555982,-9.97976589797390 -36.14140528504313,-9.97929583625096 -36.14140024121246,-9.97896694443690 -36.14140024121246,-9.97896694443690 -36.14142825875431,-9.97896079264965 -36.14142825875431,-9.97896079264965 -36.14142825875431,-9.97896079264965
          </coordinates>
        </LinearRing>
      </outerBoundaryIs>
    </Polygon>
  </Placemark>
</Document>
</kml>
