<?xml version="1.0" encoding="UTF-8"?>
<kml xmlns="http://www.opengis.net/kml/2.2" xmlns:gx="http://www.google.com/kml/ext/2.2" xmlns:kml="http://www.opengis.net/kml/2.2" xmlns:atom="http://www.w3.org/2005/Atom">
<Document>
  <name>96.kml</name>
  <StyleMap id="FFFF0000">
    <Pair>
      <key>normal</key>
      <styleUrl>#s_FFFF0000</styleUrl>
    </Pair>
    <Pair>
      <key>highlight</key>
      <styleUrl>#s_FFFF0000_hl</styleUrl>
    </Pair>
  </StyleMap>
  <Style id="s_FFFF0000">
   <IconStyle>
      <scale>1.1</scale>
      <Icon>
        <href>http://maps.google.com/mapfiles/kml/pushpin/agrocad.png</href>
      </Icon>
      <hotSpot x="20" y="2" xunits="pixels" yunits="pixels"/>
    </IconStyle>
    <LineStyle>
      <color>FFFF0000</color>
      <width>1</width>
    </LineStyle>
    <PolyStyle>
      <color>40ffffff</color>
      <fill>1</fill>
    </PolyStyle>
  </Style>
  <Style id="s_FFFF0000_hl">
    <IconStyle>
      <scale>1.3</scale>
      <Icon>
        <href>http://maps.google.com/mapfiles/kml/pushpin/agrocad.png</href>
      </Icon>
      <hotSpot x="20" y="2" xunits="pixels" yunits="pixels"/>
    </IconStyle>
    <LineStyle>
      <color>ff000000</color>
      <width>1</width>
    </LineStyle>
    <PolyStyle>
      <color>40ffffff</color>
      <fill>1</fill>
    </PolyStyle>
  </Style>
  <Placemark>
    <name>AgroCAD: 1B6E4</name>
    <styleUrl>FFFF0000</styleUrl>
    <Polygon>
      <outerBoundaryIs>
        <LinearRing>
          <coordinates>
           -36.14978080548315,-9.96961507309912 -36.14980932148188,-9.96964957265434 -36.14984936389387,-9.96968417103755 -36.14996685215871,-9.96972783894055 -36.14998209773069,-9.96972089985237 -36.14999331601936,-9.96971753667537 -36.15000553530155,-9.96971327928266 -36.15001731182611,-9.96970873425797 -36.15002891406741,-9.96970670985696 -36.15004077914184,-9.96970477795088 -36.15005267751559,-9.96970219190558 -36.15006399687407,-9.96969795780790 -36.15007512456747,-9.96969206984317 -36.15008647933687,-9.96968711685006 -36.15009739538854,-9.96968336117896 -36.15010984267986,-9.96967985790106 -36.15012063700640,-9.96967360473215 -36.15013060139734,-9.96966808760924 -36.15013995917794,-9.96966341513200 -36.15015074524122,-9.96966162387665 -36.15016336429081,-9.96965476855075 -36.15017456528352,-9.96964921212363 -36.15018542732371,-9.96964410079646 -36.15019660952854,-9.96963968863567 -36.15020612099934,-9.96963239010932 -36.15021563256078,-9.96962509158340 -36.15022470249683,-9.96961742756246 -36.15023489012589,-9.96961072888795 -36.15024544495113,-9.96960428810906 -36.15025637623589,-9.96959910473706 -36.15026780344118,-9.96959340831421 -36.15027895487100,-9.96958814370919 -36.15028939520961,-9.96958141250087 -36.15030134875274,-9.96957563502115 -36.15031311349902,-9.96957015883824 -36.15032496815874,-9.96956660459472 -36.15033716167866,-9.96956323428714 -36.15034962645836,-9.96955927014235 -36.15036169839674,-9.96955481128132 -36.15037441205734,-9.96955094068579 -36.15038653378583,-9.96954619487726 -36.15039732449864,-9.96954037746636 -36.15040837500000,-9.96953353510777 -36.15041942559127,-9.96952669283984 -36.15043047609102,-9.96951985057056 -36.15044137213984,-9.96951298575150 -36.15045158329139,-9.96950615925727 -36.15046198104853,-9.96950127531324 -36.15047266234922,-9.96949551658892 -36.15048366141881,-9.96948873034053 -36.15049395559496,-9.96948212317680 -36.15050478359300,-9.96947559094779 -36.15051413088302,-9.96946722842694 -36.15052277628411,-9.96945703242034 -36.15053194244069,-9.96944855081895 -36.15054065521628,-9.96944090930125 -36.15055056102561,-9.96943366977945 -36.15056161079250,-9.96942824267536 -36.15057246562196,-9.96942300560722 -36.15058246629156,-9.96941669965582 -36.15059193596096,-9.96940909242656 -36.15060097563438,-9.96940182635025 -36.15061024468359,-9.96939397231541 -36.15061972391038,-9.96938700576819 -36.15062906762751,-9.96938086747530 -36.15063876165925,-9.96937465421104 -36.15064899418168,-9.96936705611570 -36.15065816793343,-9.96935967112207 -36.15067519113026,-9.96934583586303 -36.15068286315730,-9.96933878675351 -36.15068857477528,-9.96933091334808 -36.15074362015260,-9.96929642083460 -36.15075435525007,-9.96929220918000 -36.15076786286984,-9.96928680179617 -36.15078727914543,-9.96927954755820 -36.15081359901415,-9.96927054223147 -36.15084158810787,-9.96926199707852 -36.15087388785805,-9.96925418969028 -36.15090712904225,-9.96924791573216 -36.15093794053482,-9.96924283726705 -36.15096904912324,-9.96923950824307 -36.15100386555664,-9.96923759769541 -36.15104084805504,-9.96923674491655 -36.15107591575196,-9.96923660437294 -36.15111067911885,-9.96923707779778 -36.15114754862172,-9.96923838497774 -36.15118166213734,-9.96924121903386 -36.15121577574565,-9.96924405308746 -36.15125328126341,-9.96924861946831 -36.15128897680666,-9.96925354891313 -36.15132134003318,-9.96925855080658 -36.15135390592363,-9.96926392084742 -36.15138570066572,-9.96926987973186 -36.15141571328176,-9.96927593324842 -36.15143437939546,-9.96928009742908 -36.15144934271066,-9.96928332125699 -36.15146367828714,-9.96928638189943 -36.15148559554067,-9.96929068170688 -36.15151472433562,-9.96929639539707 -36.15154746913712,-9.96930304354533 -36.15158519949421,-9.96931145876671 -36.15162159265707,-9.96932084528613 -36.15165419508745,-9.96932986770398 -36.15168416676901,-9.96933835840786 -36.15171448003017,-9.96934784269645 -36.15174427678175,-9.96935724198895 -36.15177306361454,-9.96936609874547 -36.15180082865776,-9.96937552748188 -36.15182537469771,-9.96938538043175 -36.15184770170604,-9.96939408328371 -36.15186690077145,-9.96940227420970 -36.15187186943154,-9.96940459238288 -36.15147453923142,-9.97325135777316 -36.14939526690533,-9.97362504495207 -36.14977061494598,-9.96960093763711 -36.14978080548315,-9.96961507309912 -36.14978080548315,-9.96961507309912 -36.14978080548315,-9.96961507309912
          </coordinates>
        </LinearRing>
      </outerBoundaryIs>
    </Polygon>
  </Placemark>
  <Placemark>
    <name>AgroCAD: 1B6E3</name>
    <styleUrl>FFFF0000</styleUrl>
    <Polygon>
      <outerBoundaryIs>
        <LinearRing>
          <coordinates>
           -36.15071630137238,-9.98026309603188 -36.14879387163558,-9.98007208105570 -36.14939102765972,-9.97367049247944 -36.15151526520973,-9.97328872414876 -36.15071630137238,-9.98026309603188 -36.15071630137238,-9.98026309603188 -36.15071630137238,-9.98026309603188
          </coordinates>
        </LinearRing>
      </outerBoundaryIs>
    </Polygon>
  </Placemark>
</Document>
</kml>
