<?xml version="1.0" encoding="UTF-8"?>
<kml xmlns="http://www.opengis.net/kml/2.2" xmlns:gx="http://www.google.com/kml/ext/2.2" xmlns:kml="http://www.opengis.net/kml/2.2" xmlns:atom="http://www.w3.org/2005/Atom">
<Document>
  <name>33.kml</name>
  <StyleMap id="FFFF0000">
    <Pair>
      <key>normal</key>
      <styleUrl>#s_FFFF0000</styleUrl>
    </Pair>
    <Pair>
      <key>highlight</key>
      <styleUrl>#s_FFFF0000_hl</styleUrl>
    </Pair>
  </StyleMap>
  <Style id="s_FFFF0000">
   <IconStyle>
      <scale>1.1</scale>
      <Icon>
        <href>http://maps.google.com/mapfiles/kml/pushpin/agrocad.png</href>
      </Icon>
      <hotSpot x="20" y="2" xunits="pixels" yunits="pixels"/>
    </IconStyle>
    <LineStyle>
      <color>FFFF0000</color>
      <width>1</width>
    </LineStyle>
    <PolyStyle>
      <color>40ffffff</color>
      <fill>1</fill>
    </PolyStyle>
  </Style>
  <Style id="s_FFFF0000_hl">
    <IconStyle>
      <scale>1.3</scale>
      <Icon>
        <href>http://maps.google.com/mapfiles/kml/pushpin/agrocad.png</href>
      </Icon>
      <hotSpot x="20" y="2" xunits="pixels" yunits="pixels"/>
    </IconStyle>
    <LineStyle>
      <color>ff000000</color>
      <width>1</width>
    </LineStyle>
    <PolyStyle>
      <color>40ffffff</color>
      <fill>1</fill>
    </PolyStyle>
  </Style>
  <Placemark>
    <name>AgroCAD: 141EF</name>
    <styleUrl>FFFF0000</styleUrl>
    <Polygon>
      <outerBoundaryIs>
        <LinearRing>
          <coordinates>
           -36.35780827642714,-9.72667897420990 -36.35757626641852,-9.72949444701634 -36.35748220830692,-9.73091158923068 -36.35987755488200,-9.73141323249253 -36.36015345867601,-9.73032215839829 -36.35952640459879,-9.73010896001198 -36.35986501380050,-9.72856013644146 -36.35866734051298,-9.72744398018406 -36.35822840265886,-9.72696114854466 -36.35785217021254,-9.72665389204680 -36.35780827642714,-9.72667897420990 -36.35780827642714,-9.72667897420990 -36.35780827642714,-9.72667897420990
          </coordinates>
        </LinearRing>
      </outerBoundaryIs>
    </Polygon>
  </Placemark>
</Document>
</kml>
