<?xml version="1.0" encoding="UTF-8"?>
<kml xmlns="http://www.opengis.net/kml/2.2" xmlns:gx="http://www.google.com/kml/ext/2.2" xmlns:kml="http://www.opengis.net/kml/2.2" xmlns:atom="http://www.w3.org/2005/Atom">
<Document>
  <name>32.kml</name>
  <StyleMap id="FFFF0000">
    <Pair>
      <key>normal</key>
      <styleUrl>#s_FFFF0000</styleUrl>
    </Pair>
    <Pair>
      <key>highlight</key>
      <styleUrl>#s_FFFF0000_hl</styleUrl>
    </Pair>
  </StyleMap>
  <Style id="s_FFFF0000">
   <IconStyle>
      <scale>1.1</scale>
      <Icon>
        <href>http://maps.google.com/mapfiles/kml/pushpin/agrocad.png</href>
      </Icon>
      <hotSpot x="20" y="2" xunits="pixels" yunits="pixels"/>
    </IconStyle>
    <LineStyle>
      <color>FFFF0000</color>
      <width>1</width>
    </LineStyle>
    <PolyStyle>
      <color>40ffffff</color>
      <fill>1</fill>
    </PolyStyle>
  </Style>
  <Style id="s_FFFF0000_hl">
    <IconStyle>
      <scale>1.3</scale>
      <Icon>
        <href>http://maps.google.com/mapfiles/kml/pushpin/agrocad.png</href>
      </Icon>
      <hotSpot x="20" y="2" xunits="pixels" yunits="pixels"/>
    </IconStyle>
    <LineStyle>
      <color>ff000000</color>
      <width>1</width>
    </LineStyle>
    <PolyStyle>
      <color>40ffffff</color>
      <fill>1</fill>
    </PolyStyle>
  </Style>
  <Placemark>
    <name>AgroCAD: 14208</name>
    <styleUrl>FFFF0000</styleUrl>
    <Polygon>
      <outerBoundaryIs>
        <LinearRing>
          <coordinates>
           -36.36427518026362,-9.73400826284423 -36.35737378389722,-9.73234538400986 -36.35742640796513,-9.73158577681629 -36.35745406352033,-9.73089672353571 -36.35821967897344,-9.73106515680854 -36.35844565579726,-9.73110908762352 -36.35952855261570,-9.73136149102451 -36.36042496612851,-9.73158088554709 -36.36278910152590,-9.73216850276716 -36.36278911858330,-9.73216850701837 -36.36297916729329,-9.73221600182861 -36.36301122151870,-9.73223570744917 -36.36296446023489,-9.73249513882166 -36.36292762534909,-9.73275809934724 -36.36287812056009,-9.73309821186844 -36.36284871872640,-9.73335882257543 -36.36317821316970,-9.73341969741711 -36.36387248525892,-9.73353614191497 -36.36414830212774,-9.73355596537180 -36.36425378421904,-9.73356529728859 -36.36427518026362,-9.73400826284423 -36.36427518026362,-9.73400826284423 -36.36427518026362,-9.73400826284423
          </coordinates>
        </LinearRing>
      </outerBoundaryIs>
    </Polygon>
  </Placemark>
</Document>
</kml>
