<?xml version="1.0" encoding="UTF-8"?>
<kml xmlns="http://www.opengis.net/kml/2.2" xmlns:gx="http://www.google.com/kml/ext/2.2" xmlns:kml="http://www.opengis.net/kml/2.2" xmlns:atom="http://www.w3.org/2005/Atom">
<Document>
  <name>04.kml</name>
  <StyleMap id="FF0000FF">
    <Pair>
      <key>normal</key>
      <styleUrl>#s_FF0000FF</styleUrl>
    </Pair>
    <Pair>
      <key>highlight</key>
      <styleUrl>#s_FF0000FF_hl</styleUrl>
    </Pair>
  </StyleMap>
  <Style id="s_FF0000FF">
   <IconStyle>
      <scale>1.1</scale>
      <Icon>
        <href>http://maps.google.com/mapfiles/kml/pushpin/agrocad.png</href>
      </Icon>
      <hotSpot x="20" y="2" xunits="pixels" yunits="pixels"/>
    </IconStyle>
    <LineStyle>
      <color>FF0000FF</color>
      <width>1</width>
    </LineStyle>
    <PolyStyle>
      <color>40ffffff</color>
      <fill>1</fill>
    </PolyStyle>
  </Style>
  <Style id="s_FF0000FF_hl">
    <IconStyle>
      <scale>1.3</scale>
      <Icon>
        <href>http://maps.google.com/mapfiles/kml/pushpin/agrocad.png</href>
      </Icon>
      <hotSpot x="20" y="2" xunits="pixels" yunits="pixels"/>
    </IconStyle>
    <LineStyle>
      <color>ff000000</color>
      <width>1</width>
    </LineStyle>
    <PolyStyle>
      <color>40ffffff</color>
      <fill>1</fill>
    </PolyStyle>
  </Style>
  <Placemark>
    <name>AgroCAD: BEBA</name>
    <styleUrl>FF0000FF</styleUrl>
    <Polygon>
      <outerBoundaryIs>
        <LinearRing>
          <coordinates>
           -36.39167397819478,-9.72367793368030 -36.39110868739090,-9.72405892712979 -36.39108778196786,-9.72413959048777 -36.39110240696977,-9.72422155004677 -36.39112178822816,-9.72428777428090 -36.39137403413550,-9.72455979568500 -36.39173698395886,-9.72493776633214 -36.39194385444627,-9.72513818086671 -36.39222149436845,-9.72544385583339 -36.39241314457834,-9.72572053225332 -36.39252609397821,-9.72588100610392 -36.39269502319809,-9.72628627759200 -36.39272423711048,-9.72637124131577 -36.39319740385317,-9.72610916056519 -36.39358205316237,-9.72588461798082 -36.39339699434695,-9.72564488735107 -36.39318933248556,-9.72532770576125 -36.39301109013274,-9.72508679461352 -36.39232587495648,-9.72437030008502 -36.39190343207199,-9.72392241769229 -36.39174459201405,-9.72375085571066 -36.39167397819478,-9.72367793368030 -36.39167397819478,-9.72367793368030 -36.39167397819478,-9.72367793368030
          </coordinates>
        </LinearRing>
      </outerBoundaryIs>
    </Polygon>
  </Placemark>
</Document>
</kml>
