<?xml version="1.0" encoding="UTF-8"?>
<kml xmlns="http://www.opengis.net/kml/2.2" xmlns:gx="http://www.google.com/kml/ext/2.2" xmlns:kml="http://www.opengis.net/kml/2.2" xmlns:atom="http://www.w3.org/2005/Atom">
<Document>
  <name>60.kml</name>
  <StyleMap id="FFFF4000">
    <Pair>
      <key>normal</key>
      <styleUrl>#s_FFFF4000</styleUrl>
    </Pair>
    <Pair>
      <key>highlight</key>
      <styleUrl>#s_FFFF4000_hl</styleUrl>
    </Pair>
  </StyleMap>
  <Style id="s_FFFF4000">
   <IconStyle>
      <scale>1.1</scale>
      <Icon>
        <href>http://maps.google.com/mapfiles/kml/pushpin/agrocad.png</href>
      </Icon>
      <hotSpot x="20" y="2" xunits="pixels" yunits="pixels"/>
    </IconStyle>
    <LineStyle>
      <color>FFFF4000</color>
      <width>1</width>
    </LineStyle>
    <PolyStyle>
      <color>40ffffff</color>
      <fill>1</fill>
    </PolyStyle>
  </Style>
  <Style id="s_FFFF4000_hl">
    <IconStyle>
      <scale>1.3</scale>
      <Icon>
        <href>http://maps.google.com/mapfiles/kml/pushpin/agrocad.png</href>
      </Icon>
      <hotSpot x="20" y="2" xunits="pixels" yunits="pixels"/>
    </IconStyle>
    <LineStyle>
      <color>ff000000</color>
      <width>1</width>
    </LineStyle>
    <PolyStyle>
      <color>40ffffff</color>
      <fill>1</fill>
    </PolyStyle>
  </Style>
  <Placemark>
    <name>AgroCAD: 16311</name>
    <styleUrl>FFFF4000</styleUrl>
    <Polygon>
      <outerBoundaryIs>
        <LinearRing>
          <coordinates>
           -36.25570385048834,-9.81887505683640 -36.25547210313913,-9.81898721337627 -36.25518439410153,-9.81912128022480 -36.25506655797831,-9.81917347683572 -36.25516299062412,-9.81954314624365 -36.25528061095242,-9.82003121057190 -36.25537997382572,-9.82044356113616 -36.25548496812164,-9.82086555191051 -36.25551014358123,-9.82090870080186 -36.25557509699674,-9.82115706521267 -36.25564409022814,-9.82145421820811 -36.25572098766094,-9.82176651597846 -36.25582030700534,-9.82217026625374 -36.25588277574365,-9.82243612364915 -36.25593737877026,-9.82264168356042 -36.25604331663975,-9.82261466995646 -36.25632513203767,-9.82254599016479 -36.25660130579087,-9.82247970689327 -36.25666242292519,-9.82246992800103 -36.25570385048834,-9.81887505683640 -36.25570385048834,-9.81887505683640 -36.25570385048834,-9.81887505683640
          </coordinates>
        </LinearRing>
      </outerBoundaryIs>
    </Polygon>
  </Placemark>
</Document>
</kml>
