<?xml version="1.0" encoding="utf-8" ?>
<kml xmlns="http://www.opengis.net/kml/2.2">
<Document id="root_doc">
<Schema name="JEQUIA_I_TALHAO_1001_ID_323" id="JEQUIA_I_TALHAO_1001_ID_323">
	<SimpleField name="ID" type="float"></SimpleField>
	<SimpleField name="AREA_TOTAL" type="float"></SimpleField>
	<SimpleField name="FAZENDA" type="float"></SimpleField>
	<SimpleField name="FAZ_NOME" type="string"></SimpleField>
	<SimpleField name="TALHAO" type="float"></SimpleField>
	<SimpleField name="ZONA" type="float"></SimpleField>
	<SimpleField name="ACIONISTA" type="string"></SimpleField>
	<SimpleField name="CODE" type="string"></SimpleField>
</Schema>
<Folder><name>JEQUIA_I_TALHAO_1001_ID_323</name>
  <Placemark id="JEQUIA_I_TALHAO_1001_ID_323.1">
	<Style><LineStyle><color>ff0000ff</color></LineStyle><PolyStyle><fill>0</fill></PolyStyle></Style>
	<ExtendedData><SchemaData schemaUrl="#JEQUIA_I_TALHAO_1001_ID_323">
		<SimpleData name="ID">323</SimpleData>
		<SimpleData name="AREA_TOTAL">8.16</SimpleData>
		<SimpleData name="FAZ_NOME">JEQUIA I</SimpleData>
		<SimpleData name="TALHAO">1001</SimpleData>
		<SimpleData name="ZONA">1</SimpleData>
		<SimpleData name="ACIONISTA">LEONARDO MONTEIRO</SimpleData>
		<SimpleData name="CODE"></SimpleData>
	</SchemaData></ExtendedData>
      <MultiGeometry><Polygon><outerBoundaryIs><LinearRing><coordinates>-36.1956971845488,-9.86569145953659,0 -36.1956832711163,-9.86570358905271,0 -36.1956677042692,-9.86571662363767,0 -36.1956507051367,-9.86573063493948,0 -36.1956328140578,-9.86574326174552,0 -36.1956152026375,-9.86575548271657,0 -36.1955978836711,-9.86576750800761,0 -36.1955804652321,-9.86578045973851,0 -36.1955616056905,-9.86579355232448,0 -36.1955424426633,-9.86580592917952,0 -36.1955235057291,-9.86581864549105,0 -36.1955042615234,-9.86583120911079,0 -36.1954850875393,-9.86584426188475,0 -36.1954652858,-9.8658565451909,0 -36.1954464834176,-9.86586794299394,0 -36.1954282574988,-9.86587684024066,0 -36.1954113634134,-9.86588689585741,0 -36.1953937153729,-9.86589704745795,0 -36.19537577679,-9.86590858359539,0 -36.1953576590224,-9.86591966649844,0 -36.1953401997396,-9.8659308495924,0 -36.1953228831429,-9.86594236443348,0 -36.1953052875181,-9.8659546489576,0 -36.1952872739333,-9.86596656224014,0 -36.1952692244429,-9.86597861511912,0 -36.1952505725121,-9.86599072765746,0 -36.1952336411392,-9.86600369425189,0 -36.1952185185907,-9.86601762856868,0 -36.1952083141862,-9.86603041415499,0 -36.1951962018358,-9.86605691599368,0 -36.1951952191319,-9.8660830640388,0 -36.1952066373559,-9.86610939906061,0 -36.1952143114534,-9.86612151682852,0 -36.1952336257141,-9.86614711125361,0 -36.1952560041724,-9.866173790531,0 -36.1952674850682,-9.86618808574295,0 -36.1952806644575,-9.86620248610233,0 -36.19529458112,-9.86621821597535,0 -36.1953083833742,-9.86623603332468,0 -36.1953213836821,-9.86625518815084,0 -36.1953338298741,-9.86627602153511,0 -36.1953457510152,-9.86629643692187,0 -36.1953576111703,-9.86631626254931,0 -36.1953697294313,-9.8663358668507,0 -36.1953811326625,-9.86635539377147,0 -36.1953918975994,-9.86637320054306,0 -36.1954127466013,-9.86640842317896,0 -36.1954322192047,-9.86644222906619,0 -36.1954505386605,-9.86647124679303,0 -36.1954587600225,-9.86648219055083,0 -36.1954681135556,-9.86649245771231,0 -36.1954876549689,-9.86651350277625,0 -36.1955010491676,-9.86652869081623,0 -36.1955132180132,-9.86654607423198,0 -36.1955330133494,-9.86656429737861,0 -36.1955392987898,-9.86656834842658,0 -36.1955462137673,-9.86657321470111,0 -36.1955545650305,-9.86657844040993,0 -36.1955593282989,-9.86658116834542,0 -36.1955639394356,-9.86658293314452,0 -36.1955815865648,-9.86658635739419,0 -36.1956012558288,-9.86659059211271,0 -36.1956251155803,-9.86659619597254,0 -36.1956494297193,-9.86659944663033,0 -36.1956734909311,-9.86660211140453,0 -36.1956850348085,-9.8666018822895,0 -36.1957489005229,-9.86659557648131,0 -36.1958327612139,-9.86657775112744,0 -36.1959244393119,-9.86655751892165,0 -36.1960322780021,-9.8665453540383,0 -36.1960737089336,-9.86653996660791,0 -36.1960927435154,-9.86653661259989,0 -36.1961112151604,-9.86653262696663,0 -36.1961293180373,-9.86652932116782,0 -36.1961686654075,-9.86651957548579,0 -36.1961887760986,-9.86651371318705,0 -36.1962092390603,-9.86650721830569,0 -36.1962293938479,-9.86650016557148,0 -36.1962495713955,-9.86649336859535,0 -36.1962887986021,-9.86647986727646,0 -36.1963080353322,-9.86647119505306,0 -36.1963283752769,-9.86646302069801,0 -36.1963481256244,-9.86645273309312,0 -36.1963749911879,-9.8664409761942,0 -36.1963968640058,-9.8664317894548,0 -36.1964149860183,-9.86642266817055,0 -36.196470220347,-9.86639308576409,0 -36.1964901268915,-9.86638449301063,0 -36.1965114275125,-9.86637472301496,0 -36.1965341745353,-9.86636512316871,0 -36.1965567187944,-9.86635451725429,0 -36.196579397999,-9.86634349301701,0 -36.1966247427554,-9.86632014308311,0 -36.1966483846409,-9.86630729745893,0 -36.1966730786677,-9.86629403688531,0 -36.1966982328671,-9.86628039109346,0 -36.1967234240686,-9.86626681668357,0 -36.1967485023406,-9.86625319184648,0 -36.1967737890129,-9.86623987360211,0 -36.1967992367783,-9.86622684244691,0 -36.1968241232034,-9.86621438947183,0 -36.1968477271819,-9.86620158966716,0 -36.1968705729147,-9.86618814698824,0 -36.1968936880672,-9.86617429341802,0 -36.1969171590331,-9.86616098469974,0 -36.1969402737166,-9.86614741634121,0 -36.1969642738271,-9.86613375263834,0 -36.1969889392533,-9.86612032398089,0 -36.1970139554078,-9.86610750387953,0 -36.1970380801461,-9.86609576283318,0 -36.1970607247332,-9.86608058331606,0 -36.1970964182325,-9.86606394977873,0 -36.1971882951186,-9.86602938139461,0 -36.1972102160294,-9.8660198404319,0 -36.1972325758715,-9.86600870005686,0 -36.197388446764,-9.86594187072439,0 -36.1974367432603,-9.86592840643564,0 -36.1974867867923,-9.8659138281995,0 -36.1975595527078,-9.86589147378393,0 -36.1976358314306,-9.86587977999476,0 -36.1977003205176,-9.8658727136777,0 -36.1977601366862,-9.86586755616227,0 -36.1978142684936,-9.86586194503657,0 -36.1978660590012,-9.86586176703119,0 -36.1979301337922,-9.86586193803528,0 -36.1979815103543,-9.86586395255535,0 -36.1980359023108,-9.86586315155191,0 -36.1980650066649,-9.86586168426092,0 -36.1980840882962,-9.86586277555556,0 -36.1981034053809,-9.86586090079731,0 -36.1981682440868,-9.86585754626392,0 -36.1981890903534,-9.86585459739439,0 -36.1982118612995,-9.86585167359577,0 -36.1983061835086,-9.86582802001901,0 -36.1983288952374,-9.86582122439578,0 -36.1983547070014,-9.8658142666952,0 -36.1984591842743,-9.86578871271618,0 -36.1984826890857,-9.86578111051828,0 -36.1985066694294,-9.86577356541584,0 -36.1985297145728,-9.86576741049984,0 -36.1985538898073,-9.86576122560482,0 -36.1985791971397,-9.86575662421112,0 -36.1986042099898,-9.86575211124186,0 -36.1986699960803,-9.8657361387507,0 -36.1987383089517,-9.86571924484704,0 -36.1988457764405,-9.86567875082803,0 -36.1988803059833,-9.86565881202772,0 -36.1988990085734,-9.86564671040201,0 -36.1989772567319,-9.86559816475594,0 -36.1989959346634,-9.86558312694572,0 -36.1990176587623,-9.86557404766306,0 -36.1990371881939,-9.86556526391425,0 -36.199057696485,-9.86555671408705,0 -36.1990775733821,-9.86554890863151,0 -36.1991177366407,-9.86553342938347,0 -36.1991360606628,-9.86552493619269,0 -36.1991562070311,-9.86551515663634,0 -36.1991766367099,-9.86550364207232,0 -36.1991972601391,-9.86549022229416,0 -36.1992189640444,-9.86547716373744,0 -36.1992411856884,-9.86546339200441,0 -36.1993588934765,-9.86539807690425,0 -36.1993798919607,-9.86538631817354,0 -36.1994001423009,-9.86537506862962,0 -36.1994195226962,-9.86536444522367,0 -36.1994402051216,-9.86535340750122,0 -36.1994619062942,-9.86534074627266,0 -36.1994848447694,-9.86532792288879,0 -36.1996186656208,-9.86524681204046,0 -36.1996401751153,-9.86523327451619,0 -36.1996626122651,-9.86521922896213,0 -36.1996852906583,-9.86520582545371,0 -36.1997082053129,-9.86519283500352,0 -36.1997314619423,-9.8651795209134,0 -36.1997556055251,-9.86516640234955,0 -36.1997803866136,-9.8651536331048,0 -36.1998054682793,-9.86514110171622,0 -36.1998305223138,-9.8651291075193,0 -36.1998550059146,-9.86511705936158,0 -36.1998791265162,-9.86510492600956,0 -36.199924244531,-9.86508179968996,0 -36.1999465566755,-9.86507059050539,0 -36.1999687266067,-9.86505955307679,0 -36.1999914500926,-9.86504827044744,0 -36.2000137339822,-9.86503722100567,0 -36.200036080843,-9.86502620687246,0 -36.2000577569582,-9.86501489142659,0 -36.2000796931083,-9.86500358331513,0 -36.200101240891,-9.86499289914142,0 -36.2001223426838,-9.86498191901715,0 -36.2001434160786,-9.86497118933245,0 -36.2001641822601,-9.86496039782159,0 -36.2001851813385,-9.86495021687904,0 -36.20020506617,-9.86493998270418,0 -36.2002312507294,-9.86492623047093,0 -36.2002507414014,-9.86491561668329,0 -36.1990136619551,-9.86343933381576,0 -36.1957772077749,-9.86556523803809,0 -36.1957782317064,-9.86557064367464,0 -36.1957670292887,-9.86560566623517,0 -36.1957480584036,-9.86563720563767,0 -36.1957256788659,-9.86566671375926,0 -36.1956971845488,-9.86569145953659,0</coordinates></LinearRing></outerBoundaryIs></Polygon></MultiGeometry>
  </Placemark>
</Folder>
</Document></kml>
