<?xml version="1.0" encoding="utf-8" ?>
<kml xmlns="http://www.opengis.net/kml/2.2">
<Document id="root_doc">
<Schema name="JEQUIA_I_TALHAO_1129_ID_315" id="JEQUIA_I_TALHAO_1129_ID_315">
	<SimpleField name="ID" type="float"></SimpleField>
	<SimpleField name="AREA_TOTAL" type="float"></SimpleField>
	<SimpleField name="FAZENDA" type="float"></SimpleField>
	<SimpleField name="FAZ_NOME" type="string"></SimpleField>
	<SimpleField name="TALHAO" type="float"></SimpleField>
	<SimpleField name="ZONA" type="float"></SimpleField>
	<SimpleField name="ACIONISTA" type="string"></SimpleField>
	<SimpleField name="CODE" type="string"></SimpleField>
</Schema>
<Folder><name>JEQUIA_I_TALHAO_1129_ID_315</name>
  <Placemark id="JEQUIA_I_TALHAO_1129_ID_315.1">
	<Style><LineStyle><color>ff0000ff</color></LineStyle><PolyStyle><fill>0</fill></PolyStyle></Style>
	<ExtendedData><SchemaData schemaUrl="#JEQUIA_I_TALHAO_1129_ID_315">
		<SimpleData name="ID">315</SimpleData>
		<SimpleData name="AREA_TOTAL">1.52</SimpleData>
		<SimpleData name="FAZ_NOME">JEQUIA I</SimpleData>
		<SimpleData name="TALHAO">1129</SimpleData>
		<SimpleData name="ZONA">1</SimpleData>
		<SimpleData name="ACIONISTA">LEONARDO MONTEIRO</SimpleData>
		<SimpleData name="CODE"></SimpleData>
	</SchemaData></ExtendedData>
      <MultiGeometry><Polygon><outerBoundaryIs><LinearRing><coordinates>-36.2086976000501,-9.84304332094114,0 -36.2085194489457,-9.84367640627404,0 -36.2085449426504,-9.8436749302311,0 -36.2085709251725,-9.84367388146062,0 -36.2086008560707,-9.84367255768577,0 -36.208633804725,-9.84367130538265,0 -36.2086691281541,-9.84367105047981,0 -36.2087053713212,-9.84367194088824,0 -36.208740769057,-9.84367372283467,0 -36.2087753826906,-9.84367622650488,0 -36.2088096949254,-9.84367910302674,0 -36.2088432143457,-9.84368193198487,0 -36.208877463867,-9.84368431951136,0 -36.2089130755812,-9.84368726667554,0 -36.2089499286922,-9.84369095727956,0 -36.2089878458212,-9.84369564118449,0 -36.2090263509463,-9.84370094326841,0 -36.209065686935,-9.84370657578102,0 -36.209105845541,-9.8437131610784,0 -36.2091464716063,-9.84372045287829,0 -36.2091886680369,-9.84372817342477,0 -36.2092277976586,-9.84373616241303,0 -36.2092681847861,-9.84374508226901,0 -36.2093116735706,-9.84375503570736,0 -36.2093575292519,-9.84376468205308,0 -36.2094065931252,-9.8437740992587,0 -36.209457904143,-9.84378322051343,0 -36.2095116787062,-9.84379198829973,0 -36.2095652159895,-9.8438020120396,0 -36.2096196852146,-9.84381066169004,0 -36.2096764645588,-9.8438179191634,0 -36.2097356094766,-9.84382536885447,0 -36.2097966414417,-9.84383263030648,0 -36.2098590726247,-9.84383864972893,0 -36.2099237581089,-9.84384390697649,0 -36.2099892481241,-9.84384833410443,0 -36.2100507654642,-9.84385141664811,0 -36.2101115756171,-9.84385271954008,0 -36.2101745956601,-9.84385319292593,0 -36.210240031937,-9.84385293207585,0 -36.2103066309846,-9.84385239830363,0 -36.2103726609568,-9.84385090368898,0 -36.2104398064609,-9.84384778491753,0 -36.2105085526135,-9.84384504974972,0 -36.2105781598503,-9.84384214692766,0 -36.2106490688215,-9.84383866184069,0 -36.2107213216511,-9.84383437331529,0 -36.2107941621583,-9.84382853224455,0 -36.2108676099661,-9.84382044872006,0 -36.2109425237069,-9.84381007822141,0 -36.2110186930912,-9.84379894535097,0 -36.2110948262287,-9.84378799029812,0 -36.2111698783684,-9.84377518681712,0 -36.2112444201418,-9.84375994511052,0 -36.2113177011001,-9.84374152456094,0 -36.2113897386481,-9.84371987874505,0 -36.2114603719328,-9.84369522416612,0 -36.211530285752,-9.84366718030627,0 -36.21159932474,-9.84363747456132,0 -36.2116665772094,-9.84360514759769,0 -36.2117343335911,-9.84357060923702,0 -36.2118029813726,-9.84353333103849,0 -36.2118737677514,-9.84349417694528,0 -36.2119465651299,-9.84345491585778,0 -36.2120193675191,-9.84341608298143,0 -36.2120880654623,-9.84337893852554,0 -36.2121506669148,-9.84334440832675,0 -36.2122087210801,-9.84331175429499,0 -36.212265794929,-9.84327998131238,0 -36.2123209448315,-9.8432521273756,0 -36.2123729777306,-9.84322779483257,0 -36.2124204164847,-9.84320574695956,0 -36.2124626150793,-9.84318650597744,0 -36.2125028656673,-9.84316672343702,0 -36.2124901227994,-9.8431597896309,0 -36.2124674756706,-9.84315073098295,0 -36.2124402431423,-9.84314039483045,0 -36.2124104705813,-9.84312874798014,0 -36.2123766474317,-9.84311504321886,0 -36.2123424292035,-9.84310084708405,0 -36.2123117534198,-9.84308903439572,0 -36.2122821205773,-9.84307800337093,0 -36.2122493659906,-9.84306673975318,0 -36.212215798288,-9.84305699250573,0 -36.2121814833092,-9.84305116073442,0 -36.2121457281099,-9.84305076322512,0 -36.2121091429492,-9.84305775010894,0 -36.2120724557736,-9.84307063162201,0 -36.2120372021092,-9.84308861130211,0 -36.2120036044459,-9.84310991243144,0 -36.2119721671588,-9.84313412420303,0 -36.211941786633,-9.84316144569819,0 -36.2119114823891,-9.84319087148646,0 -36.2118816785562,-9.84322133968649,0 -36.211852423204,-9.84325210506526,0 -36.2118230264353,-9.84328291216544,0 -36.2117930454802,-9.8433135762819,0 -36.2117619699297,-9.84334363753585,0 -36.2117295411574,-9.84337385957333,0 -36.2116959938407,-9.84340418672147,0 -36.2116616529604,-9.84343288476284,0 -36.2116253611882,-9.84345964011741,0 -36.2115854162644,-9.84348434058366,0 -36.2115420909325,-9.84350582240751,0 -36.2114969324902,-9.84352414757901,0 -36.2114501958677,-9.84354034616325,0 -36.211404813399,-9.84355390143249,0 -36.2113597793147,-9.84356562417425,0 -36.2113141204965,-9.84357617586575,0 -36.2112688463087,-9.84358462985448,0 -36.2112236376681,-9.84359242808837,0 -36.2111772337275,-9.8435990128392,0 -36.2111305154203,-9.84360530718721,0 -36.2110847381428,-9.84361039940882,0 -36.2110396376803,-9.84361525941541,0 -36.2109947307109,-9.84361852572137,0 -36.2109499848576,-9.84362124851628,0 -36.2109049546435,-9.84362350449158,0 -36.2108593109979,-9.84362512631818,0 -36.2108132567241,-9.84362579529667,0 -36.2107681713656,-9.84362617821543,0 -36.2107246578402,-9.8436261900212,0 -36.2106814699602,-9.8436255540981,0 -36.2106370684641,-9.84362426461448,0 -36.2105927762742,-9.84362225499488,0 -36.210549313368,-9.84361998034185,0 -36.2105047321061,-9.84361679421194,0 -36.2104592446177,-9.84361276859721,0 -36.2104132213431,-9.84360829508801,0 -36.2103658639131,-9.84360240710687,0 -36.2103169745873,-9.84359622162772,0 -36.2102693871835,-9.84358914968455,0 -36.2102247508027,-9.84358161088841,0 -36.2101806492365,-9.84357281593481,0 -36.2101371398637,-9.84356211804802,0 -36.2100944963161,-9.84354979401364,0 -36.2100523238687,-9.84353523299875,0 -36.2100107953894,-9.8435189953517,0 -36.2099698845796,-9.84350241684346,0 -36.2099292294917,-9.84348529625925,0 -36.2098886671388,-9.84346768563707,0 -36.2098482762121,-9.84344899325346,0 -36.2098077176883,-9.84343017408901,0 -36.2097673617354,-9.84341238215823,0 -36.2097282055014,-9.84339517523964,0 -36.2096897438137,-9.8433780974524,0 -36.209650819581,-9.84336037234621,0 -36.2096107794795,-9.8433418787075,0 -36.2095701426534,-9.84332337549901,0 -36.2095300738253,-9.84330568988726,0 -36.2094906142894,-9.8432886951557,0 -36.2094508490136,-9.84327160688867,0 -36.2094096442634,-9.84325586688319,0 -36.2093680880033,-9.84324037445583,0 -36.2093274654128,-9.84322512862426,0 -36.2092855998875,-9.84321005727711,0 -36.2092422019274,-9.84319411920248,0 -36.2091998045605,-9.84317856850037,0 -36.2091586234352,-9.8431645984059,0 -36.2091159629939,-9.84315290573218,0 -36.2090712156653,-9.8431418432991,0 -36.2090275271689,-9.84313162634049,0 -36.2089859627254,-9.84312230310428,0 -36.208943844135,-9.8431136470273,0 -36.2089008931099,-9.84310494361,0 -36.2088576095418,-9.84309554652567,0 -36.2088138564558,-9.84308433231903,0 -36.2087719717104,-9.84307188683046,0 -36.2087371578023,-9.84305953676532,0 -36.2087119315803,-9.84304915877098,0 -36.2086976000501,-9.84304332094114,0</coordinates></LinearRing></outerBoundaryIs></Polygon></MultiGeometry>
  </Placemark>
</Folder>
</Document></kml>
