<?xml version="1.0" encoding="utf-8" ?>
<kml xmlns="http://www.opengis.net/kml/2.2">
<Document id="root_doc">
<Schema name="JEQUIA_I_TALHAO_1015_ID_310" id="JEQUIA_I_TALHAO_1015_ID_310">
	<SimpleField name="ID" type="float"></SimpleField>
	<SimpleField name="AREA_TOTAL" type="float"></SimpleField>
	<SimpleField name="FAZENDA" type="float"></SimpleField>
	<SimpleField name="FAZ_NOME" type="string"></SimpleField>
	<SimpleField name="TALHAO" type="float"></SimpleField>
	<SimpleField name="ZONA" type="float"></SimpleField>
	<SimpleField name="ACIONISTA" type="string"></SimpleField>
	<SimpleField name="CODE" type="string"></SimpleField>
</Schema>
<Folder><name>JEQUIA_I_TALHAO_1015_ID_310</name>
  <Placemark id="JEQUIA_I_TALHAO_1015_ID_310.1">
	<Style><LineStyle><color>ff0000ff</color></LineStyle><PolyStyle><fill>0</fill></PolyStyle></Style>
	<ExtendedData><SchemaData schemaUrl="#JEQUIA_I_TALHAO_1015_ID_310">
		<SimpleData name="ID">310</SimpleData>
		<SimpleData name="AREA_TOTAL">25.07</SimpleData>
		<SimpleData name="FAZ_NOME">JEQUIA I</SimpleData>
		<SimpleData name="TALHAO">1015</SimpleData>
		<SimpleData name="ZONA">1</SimpleData>
		<SimpleData name="ACIONISTA">LEONARDO MONTEIRO</SimpleData>
		<SimpleData name="CODE"></SimpleData>
	</SchemaData></ExtendedData>
      <MultiGeometry><Polygon><outerBoundaryIs><LinearRing><coordinates>-36.2154409975082,-9.82957086217828,0 -36.2212987927058,-9.83593687778736,0 -36.2232346353806,-9.83505062302346,0 -36.215793844953,-9.82701174280401,0 -36.2157805257404,-9.82702987865064,0 -36.2157617505287,-9.82705568385407,0 -36.2157426663488,-9.82708203087333,0 -36.2157251039809,-9.82710892538345,0 -36.215712040812,-9.82713074239259,0 -36.2156764233566,-9.82719362576569,0 -36.2156602707148,-9.82722464702671,0 -36.2156438961515,-9.82725683846099,0 -36.2156190984445,-9.82730518504804,0 -36.215591004238,-9.82734028914451,0 -36.2155716413578,-9.82736537569709,0 -36.2155359971241,-9.82740851370878,0 -36.2155058352199,-9.82744287585082,0 -36.2154841237504,-9.82746829116635,0 -36.215463059417,-9.8274917796253,0 -36.215448048524,-9.82750943162719,0 -36.2153944059201,-9.8275751231064,0 -36.215358565483,-9.82761575188839,0 -36.2153366445536,-9.82764081007401,0 -36.2153149351386,-9.82766534520867,0 -36.2152939571565,-9.82768991736151,0 -36.2152733326321,-9.82771465603209,0 -36.2152530854377,-9.8277396601935,0 -36.2152327213398,-9.82776521221939,0 -36.215208220401,-9.82779652273248,0 -36.2151721826994,-9.82784150917061,0 -36.2151528723676,-9.82786656999821,0 -36.2151349858332,-9.8278917102841,0 -36.2151178433656,-9.82791695000866,0 -36.2151040864642,-9.82793852023251,0 -36.215068736551,-9.82799564421588,0 -36.215053100346,-9.82802322518575,0 -36.2150379954353,-9.82805225090481,0 -36.2150231886038,-9.82808186240574,0 -36.2150089350988,-9.82811182040451,0 -36.2149949136474,-9.82814199392935,0 -36.2149816492469,-9.82817231074527,0 -36.2149694200438,-9.82820253734611,0 -36.2149588011461,-9.82823323248832,0 -36.214949455703,-9.82826443555804,0 -36.214940890138,-9.82829604734803,0 -36.2149331686877,-9.82832787586469,0 -36.2149264564231,-9.82835933732807,0 -36.214920288296,-9.82839030896514,0 -36.2149155063286,-9.82842155805046,0 -36.2149114053718,-9.82845142033657,0 -36.2149089779102,-9.82848067649793,0 -36.2149084544574,-9.82849253124461,0 -36.2149052123134,-9.82858570626737,0 -36.2149003673422,-9.82861942779812,0 -36.214896916113,-9.82864529528961,0 -36.2148955593776,-9.8286703388404,0 -36.2148960810471,-9.82869421083656,0 -36.2148993235404,-9.82871805580603,0 -36.2149062771217,-9.82874242990571,0 -36.2149159524228,-9.82876780602253,0 -36.2149288641075,-9.82879281177677,0 -36.2149448526578,-9.82881617505394,0 -36.214964021084,-9.828837851465,0 -36.2149839106923,-9.82885771274621,0 -36.2150049100087,-9.82887417704824,0 -36.2150267113955,-9.82888953225468,0 -36.2150545590227,-9.82890696922865,0 -36.2150926591722,-9.82893549265295,0 -36.2151119644424,-9.82894898861859,0 -36.2151706838158,-9.82898960250906,0 -36.2152235633452,-9.82903052414125,0 -36.2152685330089,-9.82906748059512,0 -36.2153100149606,-9.82910116873847,0 -36.2153598551551,-9.82914487424233,0 -36.2154022078207,-9.82919044551638,0 -36.2154565516991,-9.82926826550218,0 -36.2154848700771,-9.82931490279134,0 -36.2155083824016,-9.82937401821708,0 -36.2155226175665,-9.82943418123341,0 -36.215526093354,-9.82950012341557,0 -36.2154982283331,-9.82955394660852,0 -36.2154409975082,-9.82957086217828,0</coordinates></LinearRing></outerBoundaryIs></Polygon></MultiGeometry>
  </Placemark>
</Folder>
</Document></kml>
