<?xml version="1.0" encoding="utf-8" ?>
<kml xmlns="http://www.opengis.net/kml/2.2">
<Document id="root_doc">
<Schema name="JEQUIA_I_TALHAO_1009_ID_311" id="JEQUIA_I_TALHAO_1009_ID_311">
	<SimpleField name="ID" type="float"></SimpleField>
	<SimpleField name="AREA_TOTAL" type="float"></SimpleField>
	<SimpleField name="FAZENDA" type="float"></SimpleField>
	<SimpleField name="FAZ_NOME" type="string"></SimpleField>
	<SimpleField name="TALHAO" type="float"></SimpleField>
	<SimpleField name="ZONA" type="float"></SimpleField>
	<SimpleField name="ACIONISTA" type="string"></SimpleField>
	<SimpleField name="CODE" type="string"></SimpleField>
</Schema>
<Folder><name>JEQUIA_I_TALHAO_1009_ID_311</name>
  <Placemark id="JEQUIA_I_TALHAO_1009_ID_311.1">
	<Style><LineStyle><color>ff0000ff</color></LineStyle><PolyStyle><fill>0</fill></PolyStyle></Style>
	<ExtendedData><SchemaData schemaUrl="#JEQUIA_I_TALHAO_1009_ID_311">
		<SimpleData name="ID">311</SimpleData>
		<SimpleData name="AREA_TOTAL">34.77</SimpleData>
		<SimpleData name="FAZ_NOME">JEQUIA I</SimpleData>
		<SimpleData name="TALHAO">1009</SimpleData>
		<SimpleData name="ZONA">1</SimpleData>
		<SimpleData name="ACIONISTA">LEONARDO MONTEIRO</SimpleData>
		<SimpleData name="CODE"></SimpleData>
	</SchemaData></ExtendedData>
      <MultiGeometry><Polygon><outerBoundaryIs><LinearRing><coordinates>-36.2131157065286,-9.8430115972991,0 -36.2132279100602,-9.84294903757135,0 -36.2133793749015,-9.84285959188376,0 -36.2134605429075,-9.84280248055281,0 -36.2135488309345,-9.84268535950527,0 -36.2136261344584,-9.84259410799081,0 -36.2136830345654,-9.84245427857241,0 -36.2137794652916,-9.84216800895678,0 -36.2140012335668,-9.84145629537725,0 -36.2142005136663,-9.84090465743224,0 -36.2142926133845,-9.84067090916445,0 -36.2143602430666,-9.84053771253929,0 -36.2100468251284,-9.83589929742259,0 -36.2100413009923,-9.83592081635905,0 -36.2100340996689,-9.83595059133627,0 -36.2100273642221,-9.83598122026349,0 -36.2100205046712,-9.83601211736353,0 -36.2100145778043,-9.83604309110878,0 -36.2100088876299,-9.83607535838078,0 -36.2100032581652,-9.83610735686144,0 -36.2099993650686,-9.83613950468725,0 -36.209997112961,-9.83617174338642,0 -36.2099930428534,-9.83620412353486,0 -36.2099865760247,-9.83623678797776,0 -36.209979393169,-9.83627142616542,0 -36.2099686485442,-9.83630555548557,0 -36.2099546780024,-9.83633832914528,0 -36.2099389164223,-9.83637020259576,0 -36.2099232272894,-9.83640143029949,0 -36.2099100449015,-9.83643319707106,0 -36.2098960175658,-9.83646511456636,0 -36.2098827636956,-9.83649601531122,0 -36.2098713582916,-9.83652727542808,0 -36.2098609741156,-9.83655825978484,0 -36.2098514264533,-9.83658753274199,0 -36.2098434288071,-9.83661679421916,0 -36.2098355237746,-9.83664666617684,0 -36.2098266295756,-9.83667498843043,0 -36.2098178806254,-9.83670160826557,0 -36.2098070032154,-9.8367273021813,0 -36.2097848579174,-9.83677899624276,0 -36.209777686493,-9.83680658025365,0 -36.2097692564629,-9.83683441906967,0 -36.2097597809664,-9.83686181461129,0 -36.2097508225606,-9.83688881269094,0 -36.2097408101225,-9.83691673275341,0 -36.2097290726103,-9.83694416560569,0 -36.2097178145136,-9.83697174545072,0 -36.2097043562089,-9.83699938554781,0 -36.2096890476955,-9.83702628262223,0 -36.2096723256248,-9.83705288529725,0 -36.2096538791871,-9.83707916502346,0 -36.209634830548,-9.8371046206475,0 -36.2096155469094,-9.83713023852581,0 -36.2095951964102,-9.83715743953872,0 -36.2095741837547,-9.83718329955266,0 -36.2095537322014,-9.83720883676867,0 -36.2095330994742,-9.83723516082687,0 -36.2095120423432,-9.83726099654503,0 -36.2094915225568,-9.83728655278703,0 -36.2094719268006,-9.83731291631615,0 -36.2094516592321,-9.83733836662107,0 -36.2094325131263,-9.83736331444761,0 -36.2094139444487,-9.83738840771232,0 -36.2093950441114,-9.83741356595669,0 -36.2093734758263,-9.83743584189761,0 -36.2093521174384,-9.83745823351656,0 -36.2093287619231,-9.83748058608512,0 -36.2093056142031,-9.83750215285262,0 -36.2092826044023,-9.83752527549799,0 -36.209258162647,-9.83754847763207,0 -36.2092339831569,-9.83757179291723,0 -36.2092106151758,-9.83759512204366,0 -36.2091882916255,-9.83762031059227,0 -36.2091651959029,-9.83764577867134,0 -36.2091421652084,-9.83766971461255,0 -36.2091191875041,-9.83769350166421,0 -36.2090953338228,-9.8377179359631,0 -36.2090702528517,-9.83774290520688,0 -36.209043491446,-9.83776775370082,0 -36.2090163283613,-9.83779226626021,0 -36.2089894514592,-9.83781730117079,0 -36.2089625080901,-9.83784388632732,0 -36.2089345651403,-9.83786955611811,0 -36.2089070257988,-9.83789550036104,0 -36.2088797173989,-9.83792223627072,0 -36.2088527913499,-9.83794841984169,0 -36.2088285085241,-9.83797515791826,0 -36.2088069494392,-9.83800149516192,0 -36.2087874417209,-9.8380257722827,0 -36.2087706902379,-9.83804849606655,0 -36.208754151378,-9.83807106613033,0 -36.2087363371789,-9.83809284201301,0 -36.2087174292358,-9.83811574782525,0 -36.2086970446281,-9.8381405890391,0 -36.2086751600658,-9.83816621758443,0 -36.2086554870722,-9.83819329049948,0 -36.2086385768431,-9.83822189174937,0 -36.2086243156827,-9.83825169878061,0 -36.2086121500627,-9.83827914393622,0 -36.2086020994007,-9.83830407139805,0 -36.2085939833633,-9.83832934065321,0 -36.2085868955927,-9.83835625764537,0 -36.2085796809196,-9.83838660699023,0 -36.2085712320396,-9.83841837771148,0 -36.208563466753,-9.83845096173377,0 -36.2085567782217,-9.83848457146125,0 -36.2085498637333,-9.83851837666849,0 -36.2085433947628,-9.83855121232932,0 -36.2085381089498,-9.83858278430172,0 -36.2085340496601,-9.83861369107258,0 -36.2085295552211,-9.83864583382863,0 -36.2085243781894,-9.83867706490993,0 -36.2085192656974,-9.83870737513854,0 -36.2085140887657,-9.83873687618738,0 -36.2085101191328,-9.8387651235647,0 -36.208506795824,-9.83879388200326,0 -36.2085031505164,-9.83882394273311,0 -36.2084995113298,-9.83885505948834,0 -36.2084960559435,-9.83888629687633,0 -36.2084920305781,-9.83891624527011,0 -36.2084889377043,-9.8389457778014,0 -36.2084860769673,-9.83897558194374,0 -36.2084822181459,-9.83900477327839,0 -36.2084786089362,-9.8390332462334,0 -36.2084743036888,-9.83906106956889,0 -36.2084686396547,-9.83908878475024,0 -36.2084624128365,-9.8391184784468,0 -36.2084552594755,-9.83914958082008,0 -36.2084485056548,-9.83918283990271,0 -36.2084409881275,-9.8392171620703,0 -36.2084339960834,-9.83925316626048,0 -36.2084242923263,-9.83928865514017,0 -36.2084152428602,-9.83932344112439,0 -36.2084066414071,-9.83935854183952,0 -36.2083980042645,-9.83939384537232,0 -36.2083895505283,-9.83942781380124,0 -36.2083822625496,-9.83946089150499,0 -36.2083752476631,-9.8394943734158,0 -36.2083650619425,-9.83952752546456,0 -36.2083522675217,-9.83955950229834,0 -36.208338927768,-9.83958964242686,0 -36.2083272381379,-9.83962093687989,0 -36.2083131511139,-9.83965283610152,0 -36.2082977131355,-9.83968401568428,0 -36.2082824803902,-9.83971522288067,0 -36.2082661995304,-9.83974586327771,0 -36.2082501139858,-9.83977593804311,0 -36.208234744674,-9.83980557344184,0 -36.2082201856433,-9.83983469013436,0 -36.2082075014983,-9.8398643794313,0 -36.2081898036114,-9.83989095092441,0 -36.2081671495283,-9.83991307370303,0 -36.2081438870898,-9.83993014017357,0 -36.2081225056289,-9.83994800052643,0 -36.20810059281,-9.83996944707345,0 -36.208078324794,-9.83999431002687,0 -36.2080632248765,-9.84001190201092,0 -36.2078252921436,-9.8404953002039,0 -36.2077210350011,-9.84070679601077,0 -36.2076764206604,-9.84091287458286,0 -36.2076823736164,-9.8410987516748,0 -36.2077398751014,-9.84125187303094,0 -36.2078672691999,-9.84144556487563,0 -36.208157170273,-9.8418502498484,0 -36.2085053613902,-9.84220186928356,0 -36.2088842943615,-9.84250858067581,0 -36.2090609906575,-9.84263696032643,0 -36.2094802923905,-9.84280870924614,0 -36.2099031014892,-9.84294403319167,0 -36.2105466836759,-9.84306947499302,0 -36.2107640065075,-9.84309715144779,0 -36.2109706980615,-9.84308544371476,0 -36.2113625571916,-9.84298671958781,0 -36.2115330303043,-9.84287979848112,0 -36.2117170567373,-9.84275634541881,0 -36.2119084395223,-9.84266273101145,0 -36.2121219880961,-9.84261300155282,0 -36.2123244226957,-9.84263497054365,0 -36.2124883909619,-9.84270279161397,0 -36.2127729360704,-9.84284316236868,0 -36.2131157065286,-9.8430115972991,0</coordinates></LinearRing></outerBoundaryIs></Polygon></MultiGeometry>
  </Placemark>
</Folder>
</Document></kml>
