<?xml version="1.0" encoding="utf-8" ?>
<kml xmlns="http://www.opengis.net/kml/2.2">
<Document id="root_doc">
<Schema name="JEQUIA_I_TALHAO_1016_ID_313" id="JEQUIA_I_TALHAO_1016_ID_313">
	<SimpleField name="ID" type="float"></SimpleField>
	<SimpleField name="AREA_TOTAL" type="float"></SimpleField>
	<SimpleField name="FAZENDA" type="float"></SimpleField>
	<SimpleField name="FAZ_NOME" type="string"></SimpleField>
	<SimpleField name="TALHAO" type="float"></SimpleField>
	<SimpleField name="ZONA" type="float"></SimpleField>
	<SimpleField name="ACIONISTA" type="string"></SimpleField>
	<SimpleField name="CODE" type="string"></SimpleField>
</Schema>
<Folder><name>JEQUIA_I_TALHAO_1016_ID_313</name>
  <Placemark id="JEQUIA_I_TALHAO_1016_ID_313.1">
	<Style><LineStyle><color>ff0000ff</color></LineStyle><PolyStyle><fill>0</fill></PolyStyle></Style>
	<ExtendedData><SchemaData schemaUrl="#JEQUIA_I_TALHAO_1016_ID_313">
		<SimpleData name="ID">313</SimpleData>
		<SimpleData name="AREA_TOTAL">28.04</SimpleData>
		<SimpleData name="FAZ_NOME">JEQUIA I</SimpleData>
		<SimpleData name="TALHAO">1016</SimpleData>
		<SimpleData name="ZONA">1</SimpleData>
		<SimpleData name="ACIONISTA">LEONARDO MONTEIRO</SimpleData>
		<SimpleData name="CODE"></SimpleData>
	</SchemaData></ExtendedData>
      <MultiGeometry><Polygon><outerBoundaryIs><LinearRing><coordinates>-36.2250909207801,-9.83419531539261,0 -36.2171849844053,-9.82533951264328,0 -36.2171728450281,-9.82536531040116,0 -36.2171346107451,-9.82538594810406,0 -36.2171197788166,-9.82539550002701,0 -36.2171034185524,-9.82540614951238,0 -36.2170874467591,-9.82541717090464,0 -36.2170714750667,-9.82542935662573,0 -36.2170557847963,-9.8254438352166,0 -36.2170398376083,-9.82545916237909,0 -36.2170248192999,-9.82547577266288,0 -36.2170106555342,-9.82549266104822,0 -36.2169978066287,-9.82551075160326,0 -36.2169848717401,-9.82553045562957,0 -36.2169711101003,-9.82555153981669,0 -36.2169567614697,-9.82557408409027,0 -36.216942838304,-9.82559689106824,0 -36.2169299859011,-9.82562084945665,0 -36.21691643208,-9.82564581176818,0 -36.2169023090063,-9.82567009667765,0 -36.2168872499466,-9.82569362974747,0 -36.2168714408567,-9.82571706123535,0 -36.2168558234099,-9.82573951229597,0 -36.2168387710442,-9.82576205173196,0 -36.2168193421021,-9.8257869684047,0 -36.2167977650396,-9.82581358980069,0 -36.2167751685787,-9.82584104759655,0 -36.2167508464033,-9.82586827618099,0 -36.2167258817181,-9.82589483645519,0 -36.2167008982321,-9.82592204860036,0 -36.2166762680674,-9.82594979011636,0 -36.216651225588,-9.82597732329925,0 -36.216626139847,-9.82600471557539,0 -36.2166011441524,-9.82603063356644,0 -36.2165753637809,-9.82605616818648,0 -36.2165492191133,-9.82608132584959,0 -36.2165228389803,-9.82610742629404,0 -36.2164949957208,-9.8261334269186,0 -36.2164672696644,-9.82615978919038,0 -36.2164392754933,-9.82618705046692,0 -36.2164109776061,-9.82621326253493,0 -36.2163832179215,-9.82623932793114,0 -36.2163553292153,-9.82626502270979,0 -36.2163267013621,-9.82628986771344,0 -36.2162985123252,-9.82631464684745,0 -36.2162707720661,-9.82634151742019,0 -36.2162422910132,-9.82636864187121,0 -36.2162135492402,-9.82639602989718,0 -36.2161849194362,-9.8264240466025,0 -36.2161564025509,-9.82645234961296,0 -36.2161286537742,-9.82648161945948,0 -36.2161013648335,-9.82651100877262,0 -36.2160764093468,-9.82654091228507,0 -36.2160533078033,-9.8265723526382,0 -36.2160308510056,-9.82660469480123,0 -36.2160093173129,-9.82663755950987,0 -36.215988934851,-9.82667063339891,0 -36.2159698703542,-9.82670226489209,0 -36.2159523833503,-9.8267333217938,0 -36.2159357181775,-9.82676482439506,0 -36.2159198171196,-9.82679634315899,0 -36.2159044604231,-9.82682777797971,0 -36.2158895936786,-9.82685907646495,0 -36.2158742788353,-9.8268909465055,0 -36.2158572990473,-9.82692204939311,0 -36.215838021648,-9.82695183634002,0 -36.2158177652307,-9.82697899294345,0 -36.2158158837864,-9.82698157277024,0 -36.2232697108823,-9.83503453642317,0 -36.2250909207801,-9.83419531539261,0</coordinates></LinearRing></outerBoundaryIs></Polygon></MultiGeometry>
  </Placemark>
</Folder>
</Document></kml>
