<?xml version="1.0" encoding="utf-8" ?>
<kml xmlns="http://www.opengis.net/kml/2.2">
<Document id="root_doc">
<Schema name="JEQUIA_I_TALHAO_1004_ID_321" id="JEQUIA_I_TALHAO_1004_ID_321">
	<SimpleField name="ID" type="float"></SimpleField>
	<SimpleField name="AREA_TOTAL" type="float"></SimpleField>
	<SimpleField name="FAZENDA" type="float"></SimpleField>
	<SimpleField name="FAZ_NOME" type="string"></SimpleField>
	<SimpleField name="TALHAO" type="float"></SimpleField>
	<SimpleField name="ZONA" type="float"></SimpleField>
	<SimpleField name="ACIONISTA" type="string"></SimpleField>
	<SimpleField name="CODE" type="string"></SimpleField>
</Schema>
<Folder><name>JEQUIA_I_TALHAO_1004_ID_321</name>
  <Placemark id="JEQUIA_I_TALHAO_1004_ID_321.1">
	<Style><LineStyle><color>ff0000ff</color></LineStyle><PolyStyle><fill>0</fill></PolyStyle></Style>
	<ExtendedData><SchemaData schemaUrl="#JEQUIA_I_TALHAO_1004_ID_321">
		<SimpleData name="ID">321</SimpleData>
		<SimpleData name="AREA_TOTAL">9.48</SimpleData>
		<SimpleData name="FAZ_NOME">JEQUIA I</SimpleData>
		<SimpleData name="TALHAO">1004</SimpleData>
		<SimpleData name="ZONA">1</SimpleData>
		<SimpleData name="ACIONISTA">LEONARDO MONTEIRO</SimpleData>
		<SimpleData name="CODE"></SimpleData>
	</SchemaData></ExtendedData>
      <MultiGeometry><Polygon><outerBoundaryIs><LinearRing><coordinates>-36.203540841805,-9.85349641432918,0 -36.2035113478069,-9.85352678853925,0 -36.2034816222201,-9.85355823322136,0 -36.2034518477849,-9.85359042948264,0 -36.2034214462475,-9.8536223588325,0 -36.2033909901951,-9.85365342929675,0 -36.2033614983388,-9.85368367926397,0 -36.2033330412216,-9.85371338233561,0 -36.2033040402025,-9.85374202827151,0 -36.2032678810285,-9.85377541716931,0 -36.2032157014508,-9.85382058110388,0 -36.2031862493461,-9.85384542867927,0 -36.2031478015162,-9.85387713055722,0 -36.2030964089114,-9.85391886181606,0 -36.2030662255064,-9.853942954051,0 -36.20303632326,-9.85396693065606,0 -36.2030073015822,-9.8539911819594,0 -36.2029782081172,-9.85401518773166,0 -36.2029496192783,-9.85403882912698,0 -36.2029215006348,-9.85406169714143,0 -36.2028945890162,-9.85408409020582,0 -36.2028683451347,-9.85410854732484,0 -36.2028429350438,-9.85413654851888,0 -36.2028201010323,-9.85416577362119,0 -36.2027993975733,-9.85419491016006,0 -36.2027816259437,-9.85422520377896,0 -36.202768067775,-9.85425642364509,0 -36.2027608283674,-9.85428820808927,0 -36.2027585322046,-9.85431955566334,0 -36.2027611685249,-9.85435092359892,0 -36.2027697091818,-9.85438281257258,0 -36.2027846564995,-9.85441384543704,0 -36.2028038212513,-9.85444252646082,0 -36.2028259400467,-9.85446878862313,0 -36.2028497772965,-9.85449236069923,0 -36.2028746286013,-9.85451413787523,0 -36.2029015593546,-9.85453696426048,0 -36.2029283759151,-9.85456150649017,0 -36.2029538933142,-9.85458439661958,0 -36.2029783250401,-9.8546047873912,0 -36.2030017248834,-9.85462462368589,0 -36.2030263620925,-9.85464816182781,0 -36.2030421538886,-9.85468113236036,0 -36.2030459441059,-9.85471769576551,0 -36.2030331701423,-9.85477100226621,0 -36.2029791250032,-9.85481623979022,0 -36.2029079467156,-9.85483440054588,0 -36.2028400811298,-9.854833971445,0 -36.2027779861721,-9.85482567321821,0 -36.2027256511659,-9.85481433487993,0 -36.2026537632917,-9.85479625693852,0 -36.2026127833941,-9.85478658818208,0 -36.2025705844791,-9.85477708782439,0 -36.2025282674387,-9.85476712372465,0 -36.2024869040203,-9.85475792854437,0 -36.202446157321,-9.8547497945658,0 -36.2024062161926,-9.85474154609678,0 -36.2023680931746,-9.85473324475323,0 -36.2023324970201,-9.85473035799493,0 -36.2022995918358,-9.85473236039834,0 -36.2022698014601,-9.85473979013179,0 -36.2022406236268,-9.85475495689719,0 -36.2022107278035,-9.85477709055309,0 -36.2021822880588,-9.85480348862977,0 -36.2021563108753,-9.85483246073469,0 -36.2021325556071,-9.85486292073367,0 -36.2021098039217,-9.85489277351649,0 -36.2020871092106,-9.85492293690922,0 -36.2020649291962,-9.85495307762265,0 -36.2020431269995,-9.85498234457754,0 -36.202021110442,-9.85501136950311,0 -36.2019976771434,-9.85504008448994,0 -36.2019638527474,-9.85508199396052,0 -36.2019213312683,-9.85512947206269,0 -36.2018954929527,-9.85515854070866,0 -36.2018707421302,-9.85518694068161,0 -36.2018463126189,-9.85521516144819,0 -36.2018224772319,-9.85524384960719,0 -36.2017989045968,-9.85527327134808,0 -36.201775342625,-9.85530294459021,0 -36.2017516991317,-9.85533261707567,0 -36.201729065323,-9.85536173615878,0 -36.2017067313631,-9.85538967512394,0 -36.2016763838628,-9.85542779345295,0 -36.2016459310155,-9.855463800938,0 -36.2016285407964,-9.85548249219292,0 -36.2015945382754,-9.85552009039702,0 -36.2015765164475,-9.85553930423689,0 -36.2015497312458,-9.85556924912047,0 -36.2015118967454,-9.85560726251447,0 -36.2014932032614,-9.85562624181812,0 -36.2014726427235,-9.85564726294053,0 -36.2014492036466,-9.85567096041343,0 -36.2014234871895,-9.85569337082604,0 -36.2013984362287,-9.85571667392129,0 -36.2013714572086,-9.8557407171742,0 -36.2013447866655,-9.85576852683653,0 -36.2013147351284,-9.85579444516829,0 -36.2012820206775,-9.85582403315849,0 -36.2012367361921,-9.85585649921318,0 -36.2011862309322,-9.85588793439552,0 -36.201137283409,-9.85591633151898,0 -36.2010834349072,-9.85594078322819,0 -36.2010350574902,-9.85596324142474,0 -36.200977950664,-9.85598719927615,0 -36.2009287933904,-9.85600698712275,0 -36.2008692130335,-9.85602996128336,0 -36.20083184442,-9.85604472483753,0 -36.2007954413181,-9.8560589563992,0 -36.2007594210694,-9.85607381624722,0 -36.2007236503561,-9.85608875664439,0 -36.2006892971842,-9.85610416405919,0 -36.2006565829943,-9.85612013519772,0 -36.2006246127552,-9.8561358063854,0 -36.2005921827367,-9.85614989387231,0 -36.2005424511718,-9.85616793741234,0 -36.2004756197847,-9.8561860507912,0 -36.2004075929096,-9.85620049990154,0 -36.200342168771,-9.85621351531532,0 -36.2003067236438,-9.85621961387683,0 -36.2002711586086,-9.85622312412572,0 -36.2002368756586,-9.85622733660639,0 -36.200203939934,-9.85623239992497,0 -36.2001710743708,-9.85623835956475,0 -36.2001378909915,-9.85624707722044,0 -36.2001042396852,-9.85625977837847,0 -36.200070298568,-9.85627521565364,0 -36.2000388691897,-9.85629172169831,0 -36.2000127293696,-9.85630744320759,0 -36.1999927534362,-9.85632069365734,0 -36.1999667205228,-9.85633952390134,0 -36.1999512516513,-9.85635094318987,0 -36.1999343558131,-9.8563656087354,0 -36.1999180693835,-9.85637988183069,0 -36.1999000362906,-9.8563967003965,0 -36.1998821101748,-9.85641154078299,0 -36.1998762684241,-9.85641723434717,0 -36.2011909864324,-9.85640756245667,0 -36.2012011876672,-9.85640642422456,0 -36.2012234830217,-9.8564017648414,0 -36.2012486558348,-9.85639562695015,0 -36.2012821804439,-9.85638594653977,0 -36.2013348633469,-9.85637564114358,0 -36.2013646242088,-9.85636952193384,0 -36.2013938294241,-9.85636328119033,0 -36.2014205097153,-9.85635707496956,0 -36.201447492251,-9.85635019681973,0 -36.2014753959047,-9.85634201445115,0 -36.2015050172104,-9.85633331832948,0 -36.2015352811625,-9.8563238025524,0 -36.2015647173241,-9.8563142705894,0 -36.2015942251726,-9.85630549156465,0 -36.2016254607247,-9.85629765564288,0 -36.2016516398457,-9.85628768722983,0 -36.2017118023213,-9.85626228032168,0 -36.2017379489176,-9.85625002066662,0 -36.2017638515257,-9.8562373213363,0 -36.20181784269,-9.85621294520355,0 -36.2018448163366,-9.85620074810027,0 -36.2018731911629,-9.85618689037097,0 -36.2019022763757,-9.85617194561918,0 -36.2019309276047,-9.85615582373533,0 -36.2019583160269,-9.85613985381058,0 -36.2020157391438,-9.85609998110528,0 -36.202046446456,-9.85607849555932,0 -36.2020771502726,-9.85605616385179,0 -36.2021079717243,-9.85603320871312,0 -36.2021390465684,-9.85601005182471,0 -36.2021702770675,-9.85598645787812,0 -36.2022022793988,-9.85596249493314,0 -36.2022347643459,-9.85593745036515,0 -36.2022675573774,-9.85591186077994,0 -36.2023010257975,-9.85588712921655,0 -36.2023344375382,-9.85586261535197,0 -36.202366790448,-9.85583778190124,0 -36.2023969229355,-9.85581286509817,0 -36.2024323169548,-9.85578173626167,0 -36.202476791166,-9.85574535978199,0 -36.2025005431982,-9.8557248095067,0 -36.2025244195522,-9.8557034460789,0 -36.2025484173618,-9.85568063313839,0 -36.2025727171684,-9.85565641557042,0 -36.2025963424711,-9.85563223735409,0 -36.2026180773133,-9.8556093616855,0 -36.2026375941727,-9.85558870411777,0 -36.2026556096043,-9.85556911511308,0 -36.2026734631648,-9.85555002153676,0 -36.2026918481574,-9.85553017583229,0 -36.2027100419523,-9.85550980709388,0 -36.2027292055256,-9.85548766553531,0 -36.2027592864895,-9.85545126227815,0 -36.2027934445641,-9.85541273493016,0 -36.2028167658423,-9.85538777448157,0 -36.2028408465218,-9.85536399470953,0 -36.2028631565818,-9.8553417089207,0 -36.2028825690862,-9.85531960808054,0 -36.2028977275503,-9.85530008839852,0 -36.2029365067439,-9.85524419991661,0 -36.2029589279348,-9.85521489152268,0 -36.203001371457,-9.85516585542254,0 -36.2030234160741,-9.85513995370243,0 -36.203053722937,-9.85510421195225,0 -36.2030949532544,-9.85505905226986,0 -36.2031194902601,-9.85503341583345,0 -36.2031429274325,-9.85500840636101,0 -36.2031653158563,-9.85498402915009,0 -36.203186615905,-9.85496016154494,0 -36.203207213468,-9.85493731531984,0 -36.2032319820778,-9.85490940916358,0 -36.2032638290087,-9.85487392847121,0 -36.2032811281804,-9.85485520554173,0 -36.2032982708308,-9.85483587978751,0 -36.2033160388624,-9.8548156818189,0 -36.2033366578128,-9.85479255648674,0 -36.2033774403539,-9.85474886662548,0 -36.2034016710699,-9.85472274353142,0 -36.2034263888474,-9.85469601582036,0 -36.2034509418883,-9.8546691832396,0 -36.2034748241533,-9.85464248675076,0 -36.2034986313735,-9.85461625976787,0 -36.2035221361092,-9.85459134899937,0 -36.203543883783,-9.85456792505615,0 -36.203563999419,-9.85454609789063,0 -36.2035944765663,-9.85451244956703,0 -36.2036357578094,-9.85447149461447,0 -36.2036680004113,-9.85444153028002,0 -36.2036899184564,-9.85442230092735,0 -36.203736711404,-9.85437872602738,0 -36.2037607890836,-9.85435722871209,0 -36.2037918893444,-9.85432910127847,0 -36.2038288852405,-9.85429801526609,0 -36.2038524249846,-9.85428058594319,0 -36.2038751612808,-9.85426312434658,0 -36.203897914148,-9.85424514041005,0 -36.2039282370916,-9.85422058000983,0 -36.203966282533,-9.85419204154619,0 -36.2039951976872,-9.85417020864858,0 -36.2040355784658,-9.85414630814861,0 -36.2040584074366,-9.85412699728952,0 -36.2041101795928,-9.8540920477276,0 -36.2041363359399,-9.8540759635154,0 -36.2041632939218,-9.854059103118,0 -36.2041910320164,-9.85404082022351,0 -36.2042183922767,-9.85402150227547,0 -36.2042451671166,-9.85400328268715,0 -36.2042706621975,-9.85398674310163,0 -36.2042947776622,-9.85396989764135,0 -36.2043234496046,-9.8539502319507,0 -36.2043737912169,-9.85392121195776,0 -36.2044006179523,-9.85390366979484,0 -36.2044282688804,-9.85388478608666,0 -36.204454477302,-9.85386676688779,0 -36.2044785177946,-9.85384863542513,0 -36.2045030567466,-9.8538319240017,0 -36.2045269596108,-9.85381461066764,0 -36.2045529191773,-9.85379247030433,0 -36.2045795878103,-9.85376922204957,0 -36.2046067417997,-9.85374644964272,0 -36.2046324470663,-9.85372434601833,0 -36.2046566330985,-9.85370221653694,0 -36.2046869034805,-9.8536754254494,0 -36.2047287551327,-9.85364396535492,0 -36.2047538808579,-9.85362137504342,0 -36.2047993049256,-9.85358422929833,0 -36.2048200044503,-9.85356634403709,0 -36.2048509466048,-9.85353629947168,0 -36.2048859160881,-9.85350809441442,0 -36.2049102247549,-9.85348787501161,0 -36.2049356133803,-9.85346763910576,0 -36.2049733675433,-9.85343683713108,0 -36.2050133610433,-9.85340643129358,0 -36.2050388473608,-9.85338619135941,0 -36.2050625061411,-9.85336591662857,0 -36.2050856293007,-9.85334835237214,0 -36.2051071833343,-9.85333177448039,0 -36.2051277000313,-9.85331520136198,0 -36.205149021695,-9.85329869252815,0 -36.2051705127502,-9.85328104440333,0 -36.2052156894678,-9.85323971042018,0 -36.2052387648941,-9.85321847269351,0 -36.2052621671058,-9.85319707152466,0 -36.2053072291015,-9.85315972161942,0 -36.2053449433646,-9.8531297769257,0 -36.2053785703163,-9.85310628003659,0 -36.2053997612628,-9.85308833178933,0 -36.2054209634221,-9.85306832702536,0 -36.2054463070638,-9.85304719439491,0 -36.2054716577727,-9.85302494688088,0 -36.205498302587,-9.85300119328726,0 -36.2055258980044,-9.85297678871496,0 -36.2055539971582,-9.85295063315337,0 -36.2055818441745,-9.85292325229869,0 -36.2056083721931,-9.85289482258164,0 -36.2056329527079,-9.85286583283305,0 -36.2056567440209,-9.85283661622035,0 -36.205681452581,-9.85280665309019,0 -36.2057062396389,-9.85277556459212,0 -36.2057311739353,-9.85274602175416,0 -36.2057535333856,-9.85271751175305,0 -36.2057741548722,-9.85268960590444,0 -36.2057949794889,-9.85266365239275,0 -36.2058136050261,-9.85263830104288,0 -36.2058310808626,-9.8526144542278,0 -36.2058503848043,-9.85258943294227,0 -36.205879791129,-9.85255647907332,0 -36.2059326357233,-9.85249919224032,0 -36.205976215823,-9.85245579484154,0 -36.2060135843983,-9.85241785473363,0 -36.2060560559581,-9.85237906402017,0 -36.206080930501,-9.85235487254171,0 -36.2061057025029,-9.85233025330472,0 -36.2061299857456,-9.85230736131625,0 -36.206154666545,-9.85228344188247,0 -36.2061816493444,-9.8522584861403,0 -36.2062087271736,-9.85223258580944,0 -36.2062454764903,-9.85219647096331,0 -36.2062937657939,-9.85215474889964,0 -36.2063231954361,-9.85213169121167,0 -36.2063521206955,-9.85210818038557,0 -36.2063795271875,-9.85208457942508,0 -36.206411050543,-9.85206216449514,0 -36.2064691007485,-9.85203026339105,0 -36.2064961152145,-9.85201504747875,0 -36.2065227511064,-9.85200077052318,0 -36.2065480688175,-9.85198507957328,0 -36.2065732077415,-9.85196926282802,0 -36.2065985368577,-9.85195629301014,0 -36.206621589339,-9.85194352227056,0 -36.2066481638259,-9.85193104052261,0 -36.2066750846959,-9.85191579755231,0 -36.2067021397926,-9.8518994699147,0 -36.2067294908763,-9.8518828911151,0 -36.2067548449826,-9.85186850994805,0 -36.2068109034072,-9.85183523549849,0 -36.2068391170719,-9.85181831078451,0 -36.2068682352438,-9.85180141374509,0 -36.2069219318241,-9.85177154934322,0 -36.2069549105443,-9.85175490822688,0 -36.2070043081412,-9.85173181804102,0 -36.207047257791,-9.8517143240777,0 -36.2070983775725,-9.85169772266139,0 -36.2071256583117,-9.8516875498132,0 -36.2071667005526,-9.85167077242507,0 -36.2072128469391,-9.85165728550743,0 -36.2072399078533,-9.85164747428722,0 -36.2073037782624,-9.85161948497444,0 -36.2073345036664,-9.8516051907976,0 -36.2073648648002,-9.85159192675286,0 -36.2073948837736,-9.85157867216308,0 -36.2074246700321,-9.85156412322265,0 -36.2074547642164,-9.85154970516379,0 -36.2074852606753,-9.85153495622137,0 -36.2075312586799,-9.85151485590277,0 -36.2075822251808,-9.85149634879463,0 -36.2076122250925,-9.85148500976829,0 -36.2076387006662,-9.85147330899713,0 -36.2076510242616,-9.85146759970797,0 -36.2061817054872,-9.84991181190915,0 -36.2061734470874,-9.8499339422964,0 -36.2061475561664,-9.84999409262077,0 -36.2061322426278,-9.85002676303036,0 -36.2061177644507,-9.85006034888203,0 -36.2061026310109,-9.85009486573538,0 -36.2060873274679,-9.85012913816928,0 -36.2060716618616,-9.85016208361095,0 -36.2060566910887,-9.85019485094028,0 -36.20604178957,-9.85022804489432,0 -36.2060266649694,-9.85026166448546,0 -36.2060111979693,-9.8502960618789,0 -36.2059956266479,-9.85033121768965,0 -36.2059801241533,-9.8503672548127,0 -36.2059654004273,-9.85040451847292,0 -36.2059519351677,-9.85044253886904,0 -36.2059381895096,-9.85048103928322,0 -36.2059250109515,-9.85051914730394,0 -36.2059122306767,-9.85055613473306,0 -36.2058999117176,-9.85059148419799,0 -36.2058871532032,-9.85063117037027,0 -36.2058733527662,-9.85066656714792,0 -36.2058607635473,-9.85070287546504,0 -36.2058421186299,-9.85073737049843,0 -36.2058303200855,-9.8507731689723,0 -36.2058179592679,-9.85080951935064,0 -36.2058088031741,-9.85085436118216,0 -36.2057822859049,-9.85092115372393,0 -36.2057616406652,-9.85095470473185,0 -36.2057397343532,-9.85099646356971,0 -36.2057120266893,-9.85104638390465,0 -36.2057028409768,-9.85107908185111,0 -36.205682908246,-9.85111016408337,0 -36.2056613716201,-9.85115180521081,0 -36.2056455468743,-9.85117905429847,0 -36.2056282152043,-9.85121205566077,0 -36.2056121446555,-9.85124684363639,0 -36.2055955208235,-9.85128158254919,0 -36.2055812044742,-9.85133020755129,0 -36.2055595730682,-9.85138977035001,0 -36.2055476185657,-9.85142490364587,0 -36.2055360790424,-9.85146040830786,0 -36.2055248192621,-9.85149649780509,0 -36.2055158144341,-9.85153231249089,0 -36.2055053623028,-9.85156843828679,0 -36.2054981997836,-9.85160231689266,0 -36.2054958696718,-9.85163478185936,0 -36.2054963187666,-9.85166960158037,0 -36.2054928447849,-9.85171096641356,0 -36.2054816589534,-9.85176847393082,0 -36.2054757930847,-9.85180227141392,0 -36.2054637536221,-9.8518511791451,0 -36.2054331208681,-9.85191582337851,0 -36.2053759287075,-9.85197847496577,0 -36.2053117547634,-9.85200599295367,0 -36.2052523344565,-9.85201403826253,0 -36.2052198244132,-9.85201304626894,0 -36.2051839615861,-9.85201659985657,0 -36.2051512949939,-9.85202691031845,0 -36.2051160754775,-9.85202977177323,0 -36.2050853343727,-9.85204479520912,0 -36.2050510083555,-9.85206178023458,0 -36.204859558787,-9.85224691044001,0 -36.2048343977496,-9.85227246591605,0 -36.2048090640751,-9.85229823230866,0 -36.2047825663819,-9.85232456184127,0 -36.2047561029868,-9.85235125736235,0 -36.2047302783954,-9.85237861208219,0 -36.2047046627839,-9.8524063195863,0 -36.2046787795732,-9.85243423675706,0 -36.2046528797109,-9.85246344608229,0 -36.2046262642171,-9.85249301487838,0 -36.2045991591262,-9.85252251931522,0 -36.2045724890744,-9.85255179571666,0 -36.2045463250754,-9.85258131315801,0 -36.2045121312927,-9.85262040186134,0 -36.2044541879692,-9.85267819308281,0 -36.2044059008994,-9.8527237286011,0 -36.2043524390031,-9.85277127213399,0 -36.2043238398319,-9.85279811618788,0 -36.2042937018212,-9.85282424283863,0 -36.2042634094486,-9.85285128973226,0 -36.2042321581168,-9.85287889685528,0 -36.2042003732548,-9.85290742224442,0 -36.204168027772,-9.85293601905274,0 -36.2041356300286,-9.85296459305155,0 -36.2040906594697,-9.85300394530663,0 -36.2040385279401,-9.85304843358275,0 -36.2040058284796,-9.85307548617399,0 -36.2039733949505,-9.85310217761211,0 -36.2039415141142,-9.85312924948284,0 -36.2039095913231,-9.85315673126428,0 -36.2038777395259,-9.85318457374949,0 -36.2038458675227,-9.85321271489863,0 -36.2038135575412,-9.8532408315065,0 -36.2037810731317,-9.85326945715478,0 -36.2037485648529,-9.85329817349483,0 -36.203716884225,-9.85332659186764,0 -36.2036868337149,-9.85335479630115,0 -36.203657703019,-9.85338312906601,0 -36.2036282251733,-9.85341080699659,0 -36.2035993399783,-9.85343849734031,0 -36.2035701981359,-9.85346702374818,0 -36.203540841805,-9.85349641432918,0</coordinates></LinearRing></outerBoundaryIs></Polygon></MultiGeometry>
  </Placemark>
</Folder>
</Document></kml>
