<?xml version="1.0" encoding="UTF-8"?>
<kml xmlns="http://www.opengis.net/kml/2.2" xmlns:gx="http://www.google.com/kml/ext/2.2" xmlns:kml="http://www.opengis.net/kml/2.2" xmlns:atom="http://www.w3.org/2005/Atom">
<Document>
  <name>4006.kml</name>
  <StyleMap id="FF0040FF">
    <Pair>
      <key>normal</key>
      <styleUrl>#s_FF0040FF</styleUrl>
    </Pair>
    <Pair>
      <key>highlight</key>
      <styleUrl>#s_FF0040FF_hl</styleUrl>
    </Pair>
  </StyleMap>
  <Style id="s_FF0040FF">
   <IconStyle>
      <scale>1.1</scale>
      <Icon>
        <href>http://maps.google.com/mapfiles/kml/pushpin/agrocad.png</href>
      </Icon>
      <hotSpot x="20" y="2" xunits="pixels" yunits="pixels"/>
    </IconStyle>
    <LineStyle>
      <color>FF0040FF</color>
      <width>1</width>
    </LineStyle>
    <PolyStyle>
      <color>40ffffff</color>
      <fill>1</fill>
    </PolyStyle>
  </Style>
  <Style id="s_FF0040FF_hl">
    <IconStyle>
      <scale>1.3</scale>
      <Icon>
        <href>http://maps.google.com/mapfiles/kml/pushpin/agrocad.png</href>
      </Icon>
      <hotSpot x="20" y="2" xunits="pixels" yunits="pixels"/>
    </IconStyle>
    <LineStyle>
      <color>ff000000</color>
      <width>1</width>
    </LineStyle>
    <PolyStyle>
      <color>40ffffff</color>
      <fill>1</fill>
    </PolyStyle>
  </Style>
  <Placemark>
    <name>AgroCAD: 8211</name>
    <styleUrl>FF0040FF</styleUrl>
    <Polygon>
      <outerBoundaryIs>
        <LinearRing>
          <coordinates>
           -36.24040981745846,-9.81719927994991 -36.24084303983317,-9.81657338135966 -36.24091923117060,-9.81646581731777 -36.24091923117060,-9.81646581731777 -36.24094495026968,-9.81642950804434 -36.24120783222823,-9.81605838030802 -36.24206608323184,-9.81479246001906 -36.24268826349116,-9.81393428031377 -36.24318956660508,-9.81322184275707 -36.24326547308270,-9.81312241936247 -36.24345886517424,-9.81363433928092 -36.24397379669856,-9.81505040136375 -36.24456393659556,-9.81665987438547 -36.24467400827274,-9.81695339922456 -36.24436322127183,-9.81711004465820 -36.24274364298053,-9.81787156844590 -36.24163621067263,-9.81839036570945 -36.24160260646889,-9.81840610813247 -36.24160260646889,-9.81840610813247 -36.24155280470236,-9.81842943855119 -36.24114156184333,-9.81862091005880 -36.24040981745846,-9.81719927994991 -36.24040981745846,-9.81719927994991
          </coordinates>
        </LinearRing>
      </outerBoundaryIs>
    </Polygon>
  </Placemark>
</Document>
</kml>
