<?xml version="1.0" encoding="UTF-8"?>
<kml xmlns="http://www.opengis.net/kml/2.2" xmlns:gx="http://www.google.com/kml/ext/2.2" xmlns:kml="http://www.opengis.net/kml/2.2" xmlns:atom="http://www.w3.org/2005/Atom">
<Document>
  <name>4012.kml</name>
  <StyleMap id="FF0040FF">
    <Pair>
      <key>normal</key>
      <styleUrl>#s_FF0040FF</styleUrl>
    </Pair>
    <Pair>
      <key>highlight</key>
      <styleUrl>#s_FF0040FF_hl</styleUrl>
    </Pair>
  </StyleMap>
  <Style id="s_FF0040FF">
   <IconStyle>
      <scale>1.1</scale>
      <Icon>
        <href>http://maps.google.com/mapfiles/kml/pushpin/agrocad.png</href>
      </Icon>
      <hotSpot x="20" y="2" xunits="pixels" yunits="pixels"/>
    </IconStyle>
    <LineStyle>
      <color>FF0040FF</color>
      <width>1</width>
    </LineStyle>
    <PolyStyle>
      <color>40ffffff</color>
      <fill>1</fill>
    </PolyStyle>
  </Style>
  <Style id="s_FF0040FF_hl">
    <IconStyle>
      <scale>1.3</scale>
      <Icon>
        <href>http://maps.google.com/mapfiles/kml/pushpin/agrocad.png</href>
      </Icon>
      <hotSpot x="20" y="2" xunits="pixels" yunits="pixels"/>
    </IconStyle>
    <LineStyle>
      <color>ff000000</color>
      <width>1</width>
    </LineStyle>
    <PolyStyle>
      <color>40ffffff</color>
      <fill>1</fill>
    </PolyStyle>
  </Style>
  <Placemark>
    <name>AgroCAD: 820D</name>
    <styleUrl>FF0040FF</styleUrl>
    <Polygon>
      <outerBoundaryIs>
        <LinearRing>
          <coordinates>
           -36.23621489352171,-9.81725098100111 -36.23597183953807,-9.81689574823109 -36.23580328811067,-9.81668505896489 -36.23578233004407,-9.81637068823198 -36.23582436070570,-9.81607647349777 -36.23603720778979,-9.81577848756053 -36.23618754223568,-9.81547781864745 -36.23648749533753,-9.81502788896988 -36.23676635096671,-9.81457742993266 -36.23693762813421,-9.81433121898649 -36.23702251209000,-9.81421450347838 -36.23728034222664,-9.81395667333437 -36.23755984095903,-9.81352667526668 -36.23773069710891,-9.81331310507187 -36.23788024057336,-9.81314219825093 -36.23813730572621,-9.81288513309335 -36.23835294271656,-9.81266949609834 -36.23856834493148,-9.81236793298616 -36.23873863726298,-9.81213378102258 -36.23886153874396,-9.81203136312255 -36.23902927572474,-9.81201039600093 -36.23918729056728,-9.81196524890408 -36.23931913379522,-9.81176748405818 -36.23944420266862,-9.81162157037040 -36.23982602447150,-9.81147308411598 -36.24023329795362,-9.81132303599712 -36.24068468652856,-9.81117257314461 -36.24109406186914,-9.81097865851511 -36.24150188180165,-9.81074255224371 -36.24152015333853,-9.81073354384341 -36.24168234170379,-9.81088098785993 -36.24171086281510,-9.81090691613347 -36.24175120859631,-9.81094359409383 -36.24197259650942,-9.81112591366344 -36.24158571814759,-9.81163877391211 -36.24013718920164,-9.81372036374267 -36.23791636016854,-9.81683166980243 -36.23729493600265,-9.81771023496814 -36.23727165924524,-9.81773367312960 -36.23709844173691,-9.81768272675216 -36.23669173915175,-9.81761851056197 -36.23644006535464,-9.81751364648503 -36.23625049184612,-9.81730300926504 -36.23623683839762,-9.81728305424834 -36.23621489352171,-9.81725098100111 -36.23621489352171,-9.81725098100111
          </coordinates>
        </LinearRing>
      </outerBoundaryIs>
    </Polygon>
  </Placemark>
</Document>
</kml>
