<?xml version="1.0" encoding="UTF-8"?>
<kml xmlns="http://www.opengis.net/kml/2.2" xmlns:gx="http://www.google.com/kml/ext/2.2" xmlns:kml="http://www.opengis.net/kml/2.2" xmlns:atom="http://www.w3.org/2005/Atom">
<Document>
  <name>4002.kml</name>
  <StyleMap id="FFFF4000">
    <Pair>
      <key>normal</key>
      <styleUrl>#s_FFFF4000</styleUrl>
    </Pair>
    <Pair>
      <key>highlight</key>
      <styleUrl>#s_FFFF4000_hl</styleUrl>
    </Pair>
  </StyleMap>
  <Style id="s_FFFF4000">
   <IconStyle>
      <scale>1.1</scale>
      <Icon>
        <href>http://maps.google.com/mapfiles/kml/pushpin/agrocad.png</href>
      </Icon>
      <hotSpot x="20" y="2" xunits="pixels" yunits="pixels"/>
    </IconStyle>
    <LineStyle>
      <color>FFFF4000</color>
      <width>1</width>
    </LineStyle>
    <PolyStyle>
      <color>40ffffff</color>
      <fill>1</fill>
    </PolyStyle>
  </Style>
  <Style id="s_FFFF4000_hl">
    <IconStyle>
      <scale>1.3</scale>
      <Icon>
        <href>http://maps.google.com/mapfiles/kml/pushpin/agrocad.png</href>
      </Icon>
      <hotSpot x="20" y="2" xunits="pixels" yunits="pixels"/>
    </IconStyle>
    <LineStyle>
      <color>ff000000</color>
      <width>1</width>
    </LineStyle>
    <PolyStyle>
      <color>40ffffff</color>
      <fill>1</fill>
    </PolyStyle>
  </Style>
  <Placemark>
    <name>AgroCAD: 9322</name>
    <styleUrl>FFFF4000</styleUrl>
    <Polygon>
      <outerBoundaryIs>
        <LinearRing>
          <coordinates>
           -36.24009696876675,-9.82308569750211 -36.24010095105735,-9.82308523701336 -36.24012021287902,-9.82308748054911 -36.24014094887947,-9.82308451429385 -36.24019538469403,-9.82307998267746 -36.24034363738061,-9.82309143593022 -36.24054049545636,-9.82309312798688 -36.24062631850320,-9.82308687217975 -36.24076450198993,-9.82307779022444 -36.24088473969806,-9.82306338281929 -36.24097073922499,-9.82305021114497 -36.24112771242853,-9.82302231088645 -36.24122111732959,-9.82301242608162 -36.24133398269472,-9.82299155117705 -36.24137871675134,-9.82298005458445 -36.24147490108421,-9.82295768562236 -36.24152850451397,-9.82294064271592 -36.24156714195530,-9.82293556262902 -36.24167485485994,-9.82293445556424 -36.24177388776475,-9.82290599219262 -36.24191835011858,-9.82285530557261 -36.24198900771336,-9.82283179729994 -36.24205837779574,-9.82281028563317 -36.24224665078649,-9.82273079945604 -36.24238374062975,-9.82266813278075 -36.24246673349404,-9.82262071989372 -36.24249294064583,-9.82261567975975 -36.24256859913053,-9.82259041631223 -36.24268324330240,-9.82253331966438 -36.24280418210606,-9.82248520802703 -36.24296823865249,-9.82240823208008 -36.24310171257019,-9.82233519628012 -36.24315164153887,-9.82230610868913 -36.24318550743885,-9.82227949640163 -36.24324347661254,-9.82224307850696 -36.24329409934720,-9.82220874915316 -36.24339336132769,-9.82214354347115 -36.24355538872033,-9.82202591401478 -36.24363390197425,-9.82196572668632 -36.24380064984649,-9.82183516198747 -36.24391085058612,-9.82174255118137 -36.24411974653702,-9.82155650554487 -36.24432573103483,-9.82138018909740 -36.24465887683037,-9.82108496648359 -36.24481422244090,-9.82096313724085 -36.24485039597541,-9.82092339115484 -36.24492591641432,-9.82085211642014 -36.24514765240203,-9.82065673508398 -36.24531086107070,-9.82051884115677 -36.24546287314882,-9.82037916522445 -36.24556206100159,-9.82029965474117 -36.24578617657816,-9.82013499589788 -36.24579505078957,-9.82010259391386 -36.24574281751837,-9.81998099953348 -36.24558958377141,-9.81955633362593 -36.24496392156759,-9.81780836652648 -36.24474147981304,-9.81715701944116 -36.24473956191663,-9.81714185442134 -36.24472815261589,-9.81712657387427 -36.24471005390061,-9.81713486449985 -36.24463179451178,-9.81717738060010 -36.24449275705731,-9.81724028647953 -36.24432242602615,-9.81732274445673 -36.24384849078837,-9.81754216084576 -36.24209481877397,-9.81834102168956 -36.24142875681780,-9.81864301247455 -36.23892979097160,-9.81981666579389 -36.23892574391123,-9.81981849368651 -36.24009696876675,-9.82308569750211
          </coordinates>
        </LinearRing>
      </outerBoundaryIs>
    </Polygon>
  </Placemark>
</Document>
</kml>
