<?xml version="1.0" encoding="UTF-8"?>
<kml xmlns="http://www.opengis.net/kml/2.2" xmlns:gx="http://www.google.com/kml/ext/2.2" xmlns:kml="http://www.opengis.net/kml/2.2" xmlns:atom="http://www.w3.org/2005/Atom">
<Document>
  <name>4005.kml</name>
  <StyleMap id="FF0040FF">
    <Pair>
      <key>normal</key>
      <styleUrl>#s_FF0040FF</styleUrl>
    </Pair>
    <Pair>
      <key>highlight</key>
      <styleUrl>#s_FF0040FF_hl</styleUrl>
    </Pair>
  </StyleMap>
  <Style id="s_FF0040FF">
   <IconStyle>
      <scale>1.1</scale>
      <Icon>
        <href>http://maps.google.com/mapfiles/kml/pushpin/agrocad.png</href>
      </Icon>
      <hotSpot x="20" y="2" xunits="pixels" yunits="pixels"/>
    </IconStyle>
    <LineStyle>
      <color>FF0040FF</color>
      <width>1</width>
    </LineStyle>
    <PolyStyle>
      <color>40ffffff</color>
      <fill>1</fill>
    </PolyStyle>
  </Style>
  <Style id="s_FF0040FF_hl">
    <IconStyle>
      <scale>1.3</scale>
      <Icon>
        <href>http://maps.google.com/mapfiles/kml/pushpin/agrocad.png</href>
      </Icon>
      <hotSpot x="20" y="2" xunits="pixels" yunits="pixels"/>
    </IconStyle>
    <LineStyle>
      <color>ff000000</color>
      <width>1</width>
    </LineStyle>
    <PolyStyle>
      <color>40ffffff</color>
      <fill>1</fill>
    </PolyStyle>
  </Style>
  <Placemark>
    <name>AgroCAD: 8212</name>
    <styleUrl>FF0040FF</styleUrl>
    <Polygon>
      <outerBoundaryIs>
        <LinearRing>
          <coordinates>
           -36.24038342252062,-9.81723741395350 -36.24038030992168,-9.81724191087017 -36.24037162851873,-9.81725911336142 -36.24034029423989,-9.81730276511119 -36.24021561868814,-9.81741551950192 -36.23999936311646,-9.81750202172960 -36.23978666615907,-9.81762963990177 -36.23948740305321,-9.81784339926194 -36.23922821348455,-9.81805939056707 -36.23890279149456,-9.81818955935973 -36.23845258801573,-9.81831818891975 -36.23822252604851,-9.81842276254006 -36.23818220481885,-9.81848324438629 -36.23805315735951,-9.81865530767234 -36.23765127499812,-9.81919110155189 -36.23702332752475,-9.82004986940413 -36.23652938522249,-9.82072635562237 -36.23651099581252,-9.82074780993245 -36.23663004552678,-9.82070316625971 -36.23695067402348,-9.82056422722094 -36.23890287656563,-9.81966321061760 -36.24110443564133,-9.81863819569302 -36.24038342252062,-9.81723741395350
          </coordinates>
        </LinearRing>
      </outerBoundaryIs>
    </Polygon>
  </Placemark>
</Document>
</kml>
