<?xml version="1.0" encoding="UTF-8"?>
<kml xmlns="http://www.opengis.net/kml/2.2" xmlns:gx="http://www.google.com/kml/ext/2.2" xmlns:kml="http://www.opengis.net/kml/2.2" xmlns:atom="http://www.w3.org/2005/Atom">
<Document>
  <name>4020.kml</name>
  <StyleMap id="FF0040FF">
    <Pair>
      <key>normal</key>
      <styleUrl>#s_FF0040FF</styleUrl>
    </Pair>
    <Pair>
      <key>highlight</key>
      <styleUrl>#s_FF0040FF_hl</styleUrl>
    </Pair>
  </StyleMap>
  <Style id="s_FF0040FF">
   <IconStyle>
      <scale>1.1</scale>
      <Icon>
        <href>http://maps.google.com/mapfiles/kml/pushpin/agrocad.png</href>
      </Icon>
      <hotSpot x="20" y="2" xunits="pixels" yunits="pixels"/>
    </IconStyle>
    <LineStyle>
      <color>FF0040FF</color>
      <width>1</width>
    </LineStyle>
    <PolyStyle>
      <color>40ffffff</color>
      <fill>1</fill>
    </PolyStyle>
  </Style>
  <Style id="s_FF0040FF_hl">
    <IconStyle>
      <scale>1.3</scale>
      <Icon>
        <href>http://maps.google.com/mapfiles/kml/pushpin/agrocad.png</href>
      </Icon>
      <hotSpot x="20" y="2" xunits="pixels" yunits="pixels"/>
    </IconStyle>
    <LineStyle>
      <color>ff000000</color>
      <width>1</width>
    </LineStyle>
    <PolyStyle>
      <color>40ffffff</color>
      <fill>1</fill>
    </PolyStyle>
  </Style>
  <Placemark>
    <name>AgroCAD: 8208</name>
    <styleUrl>FF0040FF</styleUrl>
    <Polygon>
      <outerBoundaryIs>
        <LinearRing>
          <coordinates>
           -36.22934764794243,-9.81596705003389 -36.22948587444072,-9.81610443077776 -36.22981681212879,-9.81645671918019 -36.22991817101086,-9.81652689075309 -36.23162261040342,-9.81497341010865 -36.23193112247069,-9.81469359905331 -36.23193112247069,-9.81469359905331 -36.23195805149435,-9.81466917520634 -36.23346792156457,-9.81329975583332 -36.23523774970814,-9.81167320366574 -36.23472033529003,-9.81107112155919 -36.23422684441767,-9.81052399011666 -36.23379743998724,-9.81003017482649 -36.23368636473210,-9.80989603950209 -36.23345679153354,-9.81005497475395 -36.23309092346502,-9.81029171291269 -36.23278996645045,-9.81044219141725 -36.23259900056083,-9.81054828357693 -36.23238670873947,-9.81073934621716 -36.23221832667872,-9.81092877604224 -36.23213378844388,-9.81120352537306 -36.23211123803463,-9.81129372698752 -36.23195633756204,-9.81144862746458 -36.23167703009870,-9.81164199417078 -36.23144260145374,-9.81185511112268 -36.23127404386702,-9.81204473841439 -36.23118986325305,-9.81229728028928 -36.23114729005900,-9.81257400614253 -36.23112577317180,-9.81287524278302 -36.23101762783491,-9.81330782421498 -36.23092127580573,-9.81350052845777 -36.23090380380141,-9.81353547246444 -36.23082390314019,-9.81369527363974 -36.23060945468988,-9.81420995007552 -36.23039420026368,-9.81468350975909 -36.23025398831583,-9.81489922067203 -36.23011425533426,-9.81511419428977 -36.22994181405456,-9.81535130105890 -36.22978031723906,-9.81553433095606 -36.22961869406024,-9.81571750372812 -36.22940369575035,-9.81591100220994 -36.22934764794245,-9.81596705003389 -36.22934764794243,-9.81596705003389
          </coordinates>
        </LinearRing>
      </outerBoundaryIs>
    </Polygon>
  </Placemark>
</Document>
</kml>
