<?xml version="1.0" encoding="UTF-8"?>
<kml xmlns="http://www.opengis.net/kml/2.2" xmlns:gx="http://www.google.com/kml/ext/2.2" xmlns:kml="http://www.opengis.net/kml/2.2" xmlns:atom="http://www.w3.org/2005/Atom">
<Document>
  <name>4017.kml</name>
  <StyleMap id="FFFF4000">
    <Pair>
      <key>normal</key>
      <styleUrl>#s_FFFF4000</styleUrl>
    </Pair>
    <Pair>
      <key>highlight</key>
      <styleUrl>#s_FFFF4000_hl</styleUrl>
    </Pair>
  </StyleMap>
  <Style id="s_FFFF4000">
   <IconStyle>
      <scale>1.1</scale>
      <Icon>
        <href>http://maps.google.com/mapfiles/kml/pushpin/agrocad.png</href>
      </Icon>
      <hotSpot x="20" y="2" xunits="pixels" yunits="pixels"/>
    </IconStyle>
    <LineStyle>
      <color>FFFF4000</color>
      <width>1</width>
    </LineStyle>
    <PolyStyle>
      <color>40ffffff</color>
      <fill>1</fill>
    </PolyStyle>
  </Style>
  <Style id="s_FFFF4000_hl">
    <IconStyle>
      <scale>1.3</scale>
      <Icon>
        <href>http://maps.google.com/mapfiles/kml/pushpin/agrocad.png</href>
      </Icon>
      <hotSpot x="20" y="2" xunits="pixels" yunits="pixels"/>
    </IconStyle>
    <LineStyle>
      <color>ff000000</color>
      <width>1</width>
    </LineStyle>
    <PolyStyle>
      <color>40ffffff</color>
      <fill>1</fill>
    </PolyStyle>
  </Style>
  <Placemark>
    <name>AgroCAD: 9327</name>
    <styleUrl>FFFF4000</styleUrl>
    <Polygon>
      <outerBoundaryIs>
        <LinearRing>
          <coordinates>
           -36.24112073744603,-9.80644592629433 -36.23928579781689,-9.80808974500605 -36.23933212840531,-9.80816097028104 -36.23940189093181,-9.80826196949085 -36.23948733255285,-9.80835764303462 -36.23961380245550,-9.80849806738120 -36.23976022871923,-9.80865726333102 -36.23990800609530,-9.80882416062305 -36.24008082981355,-9.80902217920598 -36.24020854360888,-9.80915827707663 -36.24034286128606,-9.80930558261023 -36.24049691673393,-9.80948226026413 -36.24064056863852,-9.80964727163363 -36.24078090190395,-9.80981094589757 -36.24092439489506,-9.80997325400353 -36.24105186130946,-9.81011866062032 -36.24112380099648,-9.81020611168831 -36.24115131914767,-9.81024184748678 -36.24123560290582,-9.81026044998170 -36.24125446522532,-9.81026019328821 -36.24132715577744,-9.81025377652088 -36.24142446898698,-9.81021555045658 -36.24153966361090,-9.81014616800798 -36.24166738775523,-9.81006569025239 -36.24180368204323,-9.80997940347086 -36.24193925818496,-9.80990713012850 -36.24207873056783,-9.80987167544969 -36.24209739053110,-9.80986897555008 -36.24212813310551,-9.80987556161738 -36.24217594197370,-9.80988781350527 -36.24227532135177,-9.80991628622289 -36.24232087507847,-9.80992840590854 -36.24236314481058,-9.80994702689624 -36.24240202269966,-9.80996177457167 -36.24243962773554,-9.80997355812275 -36.24247745263702,-9.80998383690970 -36.24251593456616,-9.80999544018334 -36.24254585443306,-9.81000633925727 -36.24258518441790,-9.81001804749693 -36.24263227757033,-9.81001120057716 -36.24267753297927,-9.81000288111311 -36.24272712867446,-9.80999280282722 -36.24277412746793,-9.80998139402336 -36.24282158860482,-9.80996550874790 -36.24286751639665,-9.80995218535449 -36.24291454315221,-9.80993459046114 -36.24296188030763,-9.80991520874937 -36.24300631647558,-9.80989435653707 -36.24304730426616,-9.80987503683116 -36.24308861578291,-9.80985255875118 -36.24312895313043,-9.80982923426501 -36.24316697375466,-9.80980834246200 -36.24320220696836,-9.80979288271666 -36.24324193849147,-9.80978191292409 -36.24327919200635,-9.80976863633222 -36.24331639981488,-9.80975161229125 -36.24335833887297,-9.80974016524020 -36.24340715376938,-9.80973305766207 -36.24345258077968,-9.80973390211102 -36.24349668016242,-9.80974323576213 -36.24353452474329,-9.80974415836908 -36.24357101236630,-9.80975361926764 -36.24360575080991,-9.80975858731380 -36.24364284424544,-9.80976184754516 -36.24368571005984,-9.80975700843944 -36.24372837334912,-9.80974404016612 -36.24375764658390,-9.80970889923823 -36.24377263750392,-9.80968379508304 -36.24376843741028,-9.80963743531719 -36.24375664126273,-9.80959984802978 -36.24373495781521,-9.80955748907076 -36.24371180433832,-9.80951684561073 -36.24368787247097,-9.80947653601184 -36.24366152015842,-9.80943930160963 -36.24363565738400,-9.80939990294379 -36.24360652351408,-9.80936065976475 -36.24357969661297,-9.80931976984126 -36.24355358868842,-9.80928020822582 -36.24352904615363,-9.80924061713408 -36.24350171058178,-9.80920155858364 -36.24347373397103,-9.80916213965456 -36.24344804220520,-9.80912205848714 -36.24342606168433,-9.80908644060750 -36.24305425204412,-9.80859474402083 -36.24304754294496,-9.80858677696507 -36.24300513386057,-9.80853682038077 -36.24287800371036,-9.80839112633107 -36.24276774852923,-9.80826931105727 -36.24267526500747,-9.80816334340553 -36.24255505297160,-9.80802561211837 -36.24241035536034,-9.80786568842795 -36.24227882217864,-9.80772017049882 -36.24160230893640,-9.80697793721162 -36.24152613490115,-9.80689140478976 -36.24140827483491,-9.80676236124216 -36.24127972968276,-9.80662050658897 -36.24112073744603,-9.80644592629433
          </coordinates>
        </LinearRing>
      </outerBoundaryIs>
    </Polygon>
  </Placemark>
</Document>
</kml>
