<?xml version="1.0" encoding="UTF-8"?>
<kml xmlns="http://www.opengis.net/kml/2.2" xmlns:gx="http://www.google.com/kml/ext/2.2" xmlns:kml="http://www.opengis.net/kml/2.2" xmlns:atom="http://www.w3.org/2005/Atom">
<Document>
  <name>07.kml</name>
  <StyleMap id="FFFF0000">
    <Pair>
      <key>normal</key>
      <styleUrl>#s_FFFF0000</styleUrl>
    </Pair>
    <Pair>
      <key>highlight</key>
      <styleUrl>#s_FFFF0000_hl</styleUrl>
    </Pair>
  </StyleMap>
  <Style id="s_FFFF0000">
   <IconStyle>
      <scale>1.1</scale>
      <Icon>
        <href>http://maps.google.com/mapfiles/kml/pushpin/agrocad.png</href>
      </Icon>
      <hotSpot x="20" y="2" xunits="pixels" yunits="pixels"/>
    </IconStyle>
    <LineStyle>
      <color>FFFF0000</color>
      <width>1</width>
    </LineStyle>
    <PolyStyle>
      <color>40ffffff</color>
      <fill>1</fill>
    </PolyStyle>
  </Style>
  <Style id="s_FFFF0000_hl">
    <IconStyle>
      <scale>1.3</scale>
      <Icon>
        <href>http://maps.google.com/mapfiles/kml/pushpin/agrocad.png</href>
      </Icon>
      <hotSpot x="20" y="2" xunits="pixels" yunits="pixels"/>
    </IconStyle>
    <LineStyle>
      <color>ff000000</color>
      <width>1</width>
    </LineStyle>
    <PolyStyle>
      <color>40ffffff</color>
      <fill>1</fill>
    </PolyStyle>
  </Style>
  <Placemark>
    <name>AgroCAD: 19C47</name>
    <styleUrl>FFFF0000</styleUrl>
    <Polygon>
      <outerBoundaryIs>
        <LinearRing>
          <coordinates>
           -36.43087862249269,-9.78816018880553 -36.43101677970186,-9.78830910121910 -36.43105237730788,-9.78835432495398 -36.43111007975235,-9.78842832866955 -36.43115725266177,-9.78849090786883 -36.43126052692146,-9.78863225832605 -36.43130532755598,-9.78869388595285 -36.43134327208580,-9.78874491681488 -36.43138809297557,-9.78880338518284 -36.43143489585812,-9.78886656960924 -36.43147812086453,-9.78892970722881 -36.43151953089713,-9.78899121392305 -36.43155847248695,-9.78905380037523 -36.43159941551681,-9.78911432552842 -36.43167206993299,-9.78923807541741 -36.43170633818896,-9.78929980229560 -36.43173539197320,-9.78935049909117 -36.43176146424373,-9.78939992143328 -36.43179283836167,-9.78945155061487 -36.43182200441483,-9.78950013215703 -36.43185219104620,-9.78955288251653 -36.43187447086531,-9.78959816137274 -36.43189297369197,-9.78964700212164 -36.43189633804597,-9.78968884088586 -36.43187953815622,-9.78971981045407 -36.43184782866558,-9.78974695995304 -36.43180829809631,-9.78977514229565 -36.43176435142158,-9.78980526479066 -36.43171847350271,-9.78983288901052 -36.43167843206120,-9.78985881142429 -36.43164411953983,-9.78988016862180 -36.43120994271304,-9.79016296535513 -36.43060050500001,-9.79056979821356 -36.43024282710022,-9.79080469551677 -36.42983883579839,-9.79107116026364 -36.42980247042697,-9.79109761285013 -36.42977235721530,-9.79111633327631 -36.42974108154310,-9.79113501486548 -36.42971110555385,-9.79115426125672 -36.42968259844941,-9.79117063294274 -36.42965369365203,-9.79118572105194 -36.42962693276324,-9.79120009079117 -36.42959571878556,-9.79121510744652 -36.42956558301467,-9.79122214694507 -36.42953311609980,-9.79122608468878 -36.42950203129104,-9.79122370924351 -36.42947623139991,-9.79121224246448 -36.42945883543712,-9.79119268762265 -36.42944799138547,-9.79116679752757 -36.42944052849696,-9.79113899142435 -36.42943914981832,-9.79090432309734 -36.42943396662754,-9.79059806724282 -36.42942537280268,-9.78990379126447 -36.42941769988057,-9.78954476675667 -36.42942000343525,-9.78936581387788 -36.42941932231249,-9.78922149978378 -36.42942624424267,-9.78912359833144 -36.42944555107379,-9.78906876188172 -36.42946030789062,-9.78903962760482 -36.42946776013255,-9.78902630970431 -36.42948678873633,-9.78899696570096 -36.42954243263305,-9.78893181032170 -36.42955853925650,-9.78891187641667 -36.42958401773585,-9.78888246626036 -36.42960838412140,-9.78885470404580 -36.42963986072930,-9.78882022560050 -36.42983419645922,-9.78861025544084 -36.43004209571579,-9.78837332333085 -36.43006091879352,-9.78834933758720 -36.43007945380121,-9.78832515672267 -36.43010209700084,-9.78829048397158 -36.43011595986511,-9.78827449155276 -36.43014564315459,-9.78825749101860 -36.43016476143900,-9.78825272519901 -36.43021549412179,-9.78824233799243 -36.43087862249269,-9.78816018880553 -36.43087862249269,-9.78816018880553
          </coordinates>
        </LinearRing>
      </outerBoundaryIs>
    </Polygon>
  </Placemark>
</Document>
</kml>
