<?xml version="1.0" encoding="UTF-8"?>
<kml xmlns="http://www.opengis.net/kml/2.2" xmlns:gx="http://www.google.com/kml/ext/2.2" xmlns:kml="http://www.opengis.net/kml/2.2" xmlns:atom="http://www.w3.org/2005/Atom">
<Document>
  <name>02.kml</name>
  <StyleMap id="FFFF0000">
    <Pair>
      <key>normal</key>
      <styleUrl>#s_FFFF0000</styleUrl>
    </Pair>
    <Pair>
      <key>highlight</key>
      <styleUrl>#s_FFFF0000_hl</styleUrl>
    </Pair>
  </StyleMap>
  <Style id="s_FFFF0000">
   <IconStyle>
      <scale>1.1</scale>
      <Icon>
        <href>http://maps.google.com/mapfiles/kml/pushpin/agrocad.png</href>
      </Icon>
      <hotSpot x="20" y="2" xunits="pixels" yunits="pixels"/>
    </IconStyle>
    <LineStyle>
      <color>FFFF0000</color>
      <width>1</width>
    </LineStyle>
    <PolyStyle>
      <color>40ffffff</color>
      <fill>1</fill>
    </PolyStyle>
  </Style>
  <Style id="s_FFFF0000_hl">
    <IconStyle>
      <scale>1.3</scale>
      <Icon>
        <href>http://maps.google.com/mapfiles/kml/pushpin/agrocad.png</href>
      </Icon>
      <hotSpot x="20" y="2" xunits="pixels" yunits="pixels"/>
    </IconStyle>
    <LineStyle>
      <color>ff000000</color>
      <width>1</width>
    </LineStyle>
    <PolyStyle>
      <color>40ffffff</color>
      <fill>1</fill>
    </PolyStyle>
  </Style>
  <Placemark>
    <name>AgroCAD: 19C4B</name>
    <styleUrl>FFFF0000</styleUrl>
    <Polygon>
      <outerBoundaryIs>
        <LinearRing>
          <coordinates>
           -36.42267901379985,-9.78026506587575 -36.42266516858396,-9.78020078353926 -36.42264467891655,-9.78011421244016 -36.42262610653666,-9.78001587718514 -36.42261487888344,-9.77991639545379 -36.42263718998146,-9.77978718917407 -36.42266265871520,-9.77977183551915 -36.42270189183303,-9.77975999541296 -36.42273460134103,-9.77975083866065 -36.42276693820325,-9.77974062783053 -36.42323179229062,-9.77960969803365 -36.42327390108440,-9.77959826329164 -36.42330494393172,-9.77958928451475 -36.42334502008875,-9.77957929530959 -36.42340150028598,-9.77956699386572 -36.42345961391016,-9.77955569944967 -36.42352392311296,-9.77954359189741 -36.42360268642070,-9.77953234568284 -36.42368502354783,-9.77952512390197 -36.42376244014490,-9.77951819465193 -36.42383728710826,-9.77951379985675 -36.42391388428701,-9.77951274398362 -36.42398943580329,-9.77951671703799 -36.42406117943210,-9.77952461877863 -36.42413377181139,-9.77953414824991 -36.42420676807411,-9.77954660221995 -36.42427057346165,-9.77955965359132 -36.42433137720309,-9.77957235204523 -36.42445928362955,-9.77960244996551 -36.42452600827722,-9.77961954136179 -36.42459420384312,-9.77963512389868 -36.42466266406948,-9.77965208607492 -36.42473336405525,-9.77967093794921 -36.42480468966358,-9.77968847529412 -36.42488008900644,-9.77970590047717 -36.42495738013138,-9.77972331672346 -36.42503519198583,-9.77974193083801 -36.42515005625456,-9.77976720819819 -36.42522554327652,-9.77978108916621 -36.42530058856978,-9.77979437535227 -36.42537688730114,-9.77980814405736 -36.42541535102335,-9.77981405643182 -36.42553025177150,-9.77983021005739 -36.42560735798634,-9.77984169099850 -36.42576173671586,-9.77986268996977 -36.42583699373219,-9.77986984499285 -36.42591218287491,-9.77987390960226 -36.42598859915462,-9.77987920032764 -36.42605963041109,-9.77988133867431 -36.42611640110692,-9.77988337443120 -36.42615734813387,-9.77988723128996 -36.42617418917261,-9.77988941812292 -36.42617541687991,-9.77989437793639 -36.42618460069429,-9.77989540678315 -36.42619907880273,-9.77989893948443 -36.42620665099840,-9.77990100092049 -36.42621319908713,-9.77991524079445 -36.42621206748632,-9.77993697316783 -36.42621256141243,-9.77995907896504 -36.42621141755983,-9.78001040596549 -36.42620870270683,-9.78045078598061 -36.42618927883704,-9.78066360786851 -36.42618923057268,-9.78067241633718 -36.42618659205445,-9.78070554923574 -36.42618279901942,-9.78073984366536 -36.42617479050354,-9.78078217118151 -36.42616632123553,-9.78080260974082 -36.42614341074600,-9.78084017163957 -36.42612250606604,-9.78086711756572 -36.42610229669716,-9.78089417812323 -36.42608169743297,-9.78091988237986 -36.42606742620312,-9.78093807385073 -36.42599894010611,-9.78102626681009 -36.42586791533979,-9.78117869321807 -36.42583277104447,-9.78121697464802 -36.42580727765594,-9.78124439791945 -36.42578287835494,-9.78127263273856 -36.42575898908504,-9.78130038444560 -36.42573718845957,-9.78132991740413 -36.42571785733395,-9.78135946964606 -36.42570004927269,-9.78138971484404 -36.42568605840369,-9.78142231529856 -36.42567505284314,-9.78145681892685 -36.42565538425454,-9.78152693330703 -36.42564654722840,-9.78156247956355 -36.42563796503195,-9.78159584677357 -36.42563012175440,-9.78164247227087 -36.42562419406762,-9.78167874662008 -36.42562133439199,-9.78170298446374 -36.42561269658501,-9.78175055726307 -36.42560630414912,-9.78178408132080 -36.42560161896177,-9.78181874727951 -36.42559765685315,-9.78185328648244 -36.42559403346818,-9.78188801030614 -36.42559157732987,-9.78192552089479 -36.42559038736606,-9.78195043489921 -36.42559170452467,-9.78199636741589 -36.42559393064309,-9.78203032585168 -36.42559756514930,-9.78206407431066 -36.42559869284362,-9.78210009903992 -36.42560045356832,-9.78213427458451 -36.42560066578424,-9.78217033374229 -36.42560250820532,-9.78220672641212 -36.42560295263655,-9.78224395572130 -36.42560257038663,-9.78228001067182 -36.42559859264194,-9.78231542420976 -36.42559115082141,-9.78234909507291 -36.42557880437353,-9.78238227909709 -36.42556472371231,-9.78241303404982 -36.42554755468665,-9.78244268677824 -36.42553110187094,-9.78247300516726 -36.42548872032803,-9.78253521738911 -36.42547669000691,-9.78255299861904 -36.42544918510131,-9.78258259265802 -36.42542210124307,-9.78260953400176 -36.42539340812335,-9.78263540324693 -36.42536514152752,-9.78265809513542 -36.42533419002386,-9.78267922307891 -36.42530057123673,-9.78269843280792 -36.42526643705698,-9.78271358938385 -36.42523291694482,-9.78272727665941 -36.42519842054952,-9.78273983526023 -36.42516573470381,-9.78275047184551 -36.42436318706327,-9.78300404405602 -36.42358099736205,-9.78325466584582 -36.42335093847743,-9.78332883398126 -36.42333869544925,-9.78333489262692 -36.42330479354497,-9.78334493337393 -36.42327123659544,-9.78335550184059 -36.42323797624307,-9.78336482299961 -36.42320612060045,-9.78336989903515 -36.42318031734404,-9.78337406674872 -36.42317888097416,-9.78336644479042 -36.42317967066509,-9.78333233974527 -36.42317668843747,-9.78329897823647 -36.42317443349626,-9.78326421353893 -36.42315158095520,-9.78279894750221 -36.42315098934975,-9.78279320029504 -36.42314461944955,-9.78274572441355 -36.42313954134078,-9.78268199334586 -36.42312953198769,-9.78260535432895 -36.42294510266000,-9.78162833824068 -36.42279888938946,-9.78082285217947 -36.42267901379985,-9.78026506587575 -36.42267901379985,-9.78026506587575
          </coordinates>
        </LinearRing>
      </outerBoundaryIs>
    </Polygon>
  </Placemark>
</Document>
</kml>
