<?xml version="1.0" encoding="UTF-8"?>
<kml xmlns="http://www.opengis.net/kml/2.2" xmlns:gx="http://www.google.com/kml/ext/2.2" xmlns:kml="http://www.opengis.net/kml/2.2" xmlns:atom="http://www.w3.org/2005/Atom">
<Document>
  <name>06.kml</name>
  <StyleMap id="FFFF0000">
    <Pair>
      <key>normal</key>
      <styleUrl>#s_FFFF0000</styleUrl>
    </Pair>
    <Pair>
      <key>highlight</key>
      <styleUrl>#s_FFFF0000_hl</styleUrl>
    </Pair>
  </StyleMap>
  <Style id="s_FFFF0000">
   <IconStyle>
      <scale>1.1</scale>
      <Icon>
        <href>http://maps.google.com/mapfiles/kml/pushpin/agrocad.png</href>
      </Icon>
      <hotSpot x="20" y="2" xunits="pixels" yunits="pixels"/>
    </IconStyle>
    <LineStyle>
      <color>FFFF0000</color>
      <width>1</width>
    </LineStyle>
    <PolyStyle>
      <color>40ffffff</color>
      <fill>1</fill>
    </PolyStyle>
  </Style>
  <Style id="s_FFFF0000_hl">
    <IconStyle>
      <scale>1.3</scale>
      <Icon>
        <href>http://maps.google.com/mapfiles/kml/pushpin/agrocad.png</href>
      </Icon>
      <hotSpot x="20" y="2" xunits="pixels" yunits="pixels"/>
    </IconStyle>
    <LineStyle>
      <color>ff000000</color>
      <width>1</width>
    </LineStyle>
    <PolyStyle>
      <color>40ffffff</color>
      <fill>1</fill>
    </PolyStyle>
  </Style>
  <Placemark>
    <name>AgroCAD: 19C48</name>
    <styleUrl>FFFF0000</styleUrl>
    <Polygon>
      <outerBoundaryIs>
        <LinearRing>
          <coordinates>
           -36.42909912596287,-9.78713833776970 -36.42895874988450,-9.78689959286202 -36.42895247841906,-9.78689064078797 -36.42893787207928,-9.78686456124987 -36.42892572355640,-9.78683839481234 -36.42891391415049,-9.78681163361113 -36.42890844344434,-9.78678445160103 -36.42891602055470,-9.78675572937698 -36.42893211199549,-9.78673258439965 -36.42895512352082,-9.78671292445566 -36.42897908819268,-9.78668984666676 -36.42900693713941,-9.78666794698299 -36.42903294379288,-9.78664513324590 -36.42905996325647,-9.78662160483644 -36.42908798924575,-9.78659820225059 -36.42911636712705,-9.78657626406649 -36.42914575381400,-9.78655339459160 -36.42917477911311,-9.78653035163013 -36.42920283385226,-9.78650971938400 -36.42937754368737,-9.78636697462530 -36.42938268807391,-9.78636081194468 -36.42941503120391,-9.78633567627736 -36.42943155014523,-9.78632321473567 -36.42947239096610,-9.78628226034133 -36.42946363170244,-9.78625142172081 -36.42944366713965,-9.78622564657576 -36.42942218771048,-9.78620006731156 -36.42939780888948,-9.78617206389661 -36.42937335809437,-9.78614423199272 -36.42934992384957,-9.78611782590064 -36.42932587679691,-9.78609213099382 -36.42930370009035,-9.78606588604803 -36.42928265884244,-9.78603861542259 -36.42904953661061,-9.78578016832550 -36.42873391426433,-9.78541537102157 -36.42850006364227,-9.78515396457930 -36.42835620930791,-9.78498653489475 -36.42834462787035,-9.78497283043420 -36.42832147606438,-9.78494467618688 -36.42830650734314,-9.78492570905709 -36.42828164463186,-9.78488563854477 -36.42826310041086,-9.78485599349465 -36.42824897322466,-9.78482566432955 -36.42823950132986,-9.78479411621276 -36.42823459346067,-9.78476123920399 -36.42823198613714,-9.78472887011548 -36.42823466220642,-9.78469653293373 -36.42823528896876,-9.78466355194621 -36.42823747239493,-9.78463141302364 -36.42823717671613,-9.78460129519717 -36.42823803137625,-9.78456946305899 -36.42824939590221,-9.78429609019029 -36.42826816821242,-9.78400484508227 -36.42827492211399,-9.78384390553771 -36.42828431173598,-9.78367616317158 -36.42829185281237,-9.78356837869221 -36.42832671690205,-9.78339921435763 -36.42837249465156,-9.78317114117901 -36.42842858007236,-9.78290342455986 -36.42846460266935,-9.78271081516886 -36.42852991291762,-9.78238412892467 -36.42853126119245,-9.78236696007857 -36.42853622384553,-9.78233195511561 -36.42854438724987,-9.78230098836228 -36.42855242620910,-9.78227307397826 -36.42856057931933,-9.78224853225590 -36.42857164809777,-9.78224108883489 -36.42859351749255,-9.78224948011321 -36.42862207849989,-9.78226035989633 -36.42864996606563,-9.78227256712323 -36.42866943536991,-9.78228352384342 -36.42868763485509,-9.78233524692708 -36.42868594197776,-9.78243069588896 -36.42869035724770,-9.78252525996506 -36.42869984579558,-9.78263143646999 -36.42871458239868,-9.78274798329776 -36.42873067249116,-9.78286881745954 -36.42876970873456,-9.78313276947891 -36.42878640696203,-9.78326108552981 -36.42880128818445,-9.78337763196206 -36.42881454996222,-9.78349646957390 -36.42882380099442,-9.78360066313642 -36.42883326473180,-9.78371178517353 -36.42883967144317,-9.78379739318637 -36.42886149088802,-9.78391216927380 -36.42889617019962,-9.78402401095197 -36.42892731281424,-9.78410539214114 -36.42895892222619,-9.78418011670008 -36.42899297977936,-9.78425554270597 -36.42903115455322,-9.78434253333863 -36.42907709632966,-9.78444872420321 -36.42913438057730,-9.78456577542309 -36.42919713174272,-9.78468681569328 -36.42926523584554,-9.78481245295929 -36.42933484267267,-9.78494640608430 -36.42940069753127,-9.78508035486709 -36.42945053102620,-9.78520472557106 -36.42948747711578,-9.78531864823466 -36.42953368242689,-9.78546854995956 -36.42955784733839,-9.78555099556381 -36.42960960981002,-9.78571666186243 -36.42965694068312,-9.78585507753856 -36.42971442574092,-9.78600736264843 -36.42976000907292,-9.78615691017364 -36.42979128180456,-9.78626056887460 -36.42981375821931,-9.78633233962983 -36.42983698799976,-9.78641986223360 -36.42986525369135,-9.78652941991099 -36.42988816404415,-9.78664434418544 -36.42991446625448,-9.78675919060269 -36.42994351243538,-9.78688266406115 -36.42997480426462,-9.78700210017779 -36.43001523104441,-9.78710889874034 -36.43006663833850,-9.78720668768988 -36.43012981300221,-9.78730181254850 -36.43020244882497,-9.78739353665926 -36.43034526574247,-9.78756125605130 -36.43042116789867,-9.78764165294427 -36.43049730713388,-9.78772297227663 -36.43057239817192,-9.78780254575427 -36.43064880169685,-9.78788668059041 -36.43072802389298,-9.78797131060073 -36.43079638847058,-9.78804958012920 -36.43083883046943,-9.78810349159012 -36.43085374887266,-9.78812293189515 -36.43085711152263,-9.78813347002542 -36.43081449414530,-9.78813975021145 -36.43025620472141,-9.78820802074780 -36.43024112633572,-9.78820978910271 -36.43020608113586,-9.78821453148911 -36.43017188936964,-9.78821865176630 -36.43013818315167,-9.78822444604550 -36.43010860487057,-9.78823028321849 -36.43007582077185,-9.78823357526673 -36.43004418448371,-9.78823028815481 -36.43001572566886,-9.78822813991392 -36.42999179875042,-9.78821370753973 -36.42996549960163,-9.78819986565780 -36.42993977086785,-9.78818248048520 -36.42991496624450,-9.78816350375014 -36.42968793786069,-9.78797848679459 -36.42968131939749,-9.78797244164308 -36.42965258552042,-9.78794955563954 -36.42962414786374,-9.78792455811211 -36.42959771272732,-9.78789889695418 -36.42957105147924,-9.78787548921060 -36.42954303332511,-9.78785217019686 -36.42951813647317,-9.78782648077389 -36.42948704593365,-9.78779075944188 -36.42947189957111,-9.78777255187974 -36.42944460505576,-9.78773435529360 -36.42942600462606,-9.78770393836338 -36.42940638255137,-9.78767325491274 -36.42932419645376,-9.78752664010359 -36.42922208491651,-9.78735149324017 -36.42909912596287,-9.78713833776970 -36.42909912596287,-9.78713833776970
          </coordinates>
        </LinearRing>
      </outerBoundaryIs>
    </Polygon>
  </Placemark>
</Document>
</kml>
