<?xml version="1.0" encoding="UTF-8"?>
<kml xmlns="http://www.opengis.net/kml/2.2" xmlns:gx="http://www.google.com/kml/ext/2.2" xmlns:kml="http://www.opengis.net/kml/2.2" xmlns:atom="http://www.w3.org/2005/Atom">
<Document>
  <name>03.kml</name>
  <StyleMap id="FFFF0000">
    <Pair>
      <key>normal</key>
      <styleUrl>#s_FFFF0000</styleUrl>
    </Pair>
    <Pair>
      <key>highlight</key>
      <styleUrl>#s_FFFF0000_hl</styleUrl>
    </Pair>
  </StyleMap>
  <Style id="s_FFFF0000">
   <IconStyle>
      <scale>1.1</scale>
      <Icon>
        <href>http://maps.google.com/mapfiles/kml/pushpin/agrocad.png</href>
      </Icon>
      <hotSpot x="20" y="2" xunits="pixels" yunits="pixels"/>
    </IconStyle>
    <LineStyle>
      <color>FFFF0000</color>
      <width>1</width>
    </LineStyle>
    <PolyStyle>
      <color>40ffffff</color>
      <fill>1</fill>
    </PolyStyle>
  </Style>
  <Style id="s_FFFF0000_hl">
    <IconStyle>
      <scale>1.3</scale>
      <Icon>
        <href>http://maps.google.com/mapfiles/kml/pushpin/agrocad.png</href>
      </Icon>
      <hotSpot x="20" y="2" xunits="pixels" yunits="pixels"/>
    </IconStyle>
    <LineStyle>
      <color>ff000000</color>
      <width>1</width>
    </LineStyle>
    <PolyStyle>
      <color>40ffffff</color>
      <fill>1</fill>
    </PolyStyle>
  </Style>
  <Placemark>
    <name>AgroCAD: 19C4A</name>
    <styleUrl>FFFF0000</styleUrl>
    <Polygon>
      <outerBoundaryIs>
        <LinearRing>
          <coordinates>
           -36.42624446710303,-9.77990301560065 -36.42642541577107,-9.77988466332405 -36.42680320708161,-9.77979966583868 -36.42793994702192,-9.77949345472356 -36.42799312278790,-9.77950622267578 -36.42802324052619,-9.77952485509305 -36.42808214091083,-9.77960826842552 -36.42810023700705,-9.77965397712603 -36.42812749719860,-9.77971694526978 -36.42816163321007,-9.77980002603818 -36.42819707325992,-9.77990752699122 -36.42822508073601,-9.78000509284992 -36.42824136108443,-9.78005410485891 -36.42825706244320,-9.78009844693449 -36.42827678178767,-9.78015382466788 -36.42829428496357,-9.78021378685505 -36.42833515547000,-9.78032484760728 -36.42836188310709,-9.78039428610884 -36.42839474163717,-9.78049726578815 -36.42842065819963,-9.78057994717126 -36.42843878527412,-9.78064735892850 -36.42846438624228,-9.78072768308729 -36.42849527377948,-9.78081757211058 -36.42851800957871,-9.78088787119575 -36.42854226637156,-9.78096117973399 -36.42855124724402,-9.78100810460582 -36.42855839844762,-9.78103228967115 -36.42858684548602,-9.78111515342321 -36.42861614826558,-9.78121311102891 -36.42863322270733,-9.78128048866174 -36.42865562460460,-9.78142461309733 -36.42866606212821,-9.78153794464984 -36.42867236637492,-9.78161615798825 -36.42867702826068,-9.78169662013988 -36.42867775860133,-9.78177133547778 -36.42867886598420,-9.78185993622675 -36.42867746747761,-9.78193670233847 -36.42867544617149,-9.78201595970513 -36.42867390223374,-9.78208953978946 -36.42867369080104,-9.78216737845076 -36.42867335006716,-9.78223531071193 -36.42866905704746,-9.78225052173886 -36.42858674497429,-9.78220688883435 -36.42852488558864,-9.78217631469315 -36.42832213267411,-9.78206895939616 -36.42802226307489,-9.78190851147807 -36.42785268885813,-9.78181325316132 -36.42761320533184,-9.78168096448654 -36.42715110517034,-9.78142363191134 -36.42660367630534,-9.78112416660138 -36.42652251077147,-9.78108309067663 -36.42643571491308,-9.78103061220364 -36.42633237386985,-9.78095927781870 -36.42624811662510,-9.78089266311149 -36.42623743206293,-9.78088577748077 -36.42621900079443,-9.78086814680456 -36.42621312313382,-9.78085134160578 -36.42621357017219,-9.78077250798601 -36.42622447323415,-9.78063003853242 -36.42623925967829,-9.78045538138248 -36.42623808479327,-9.78000437293708 -36.42624230152859,-9.77996413602752 -36.42624081904124,-9.77995755563929 -36.42623788686767,-9.77993748537060 -36.42623829984678,-9.77991765228423 -36.42624446710303,-9.77990301560065 -36.42624446710303,-9.77990301560065
          </coordinates>
        </LinearRing>
      </outerBoundaryIs>
    </Polygon>
  </Placemark>
</Document>
</kml>
