<?xml version="1.0" encoding="UTF-8"?>
<kml xmlns="http://www.opengis.net/kml/2.2" xmlns:gx="http://www.google.com/kml/ext/2.2" xmlns:kml="http://www.opengis.net/kml/2.2" xmlns:atom="http://www.w3.org/2005/Atom">
<Document>
  <name>10.kml</name>
  <StyleMap id="FFFF0000">
    <Pair>
      <key>normal</key>
      <styleUrl>#s_FFFF0000</styleUrl>
    </Pair>
    <Pair>
      <key>highlight</key>
      <styleUrl>#s_FFFF0000_hl</styleUrl>
    </Pair>
  </StyleMap>
  <Style id="s_FFFF0000">
   <IconStyle>
      <scale>1.1</scale>
      <Icon>
        <href>http://maps.google.com/mapfiles/kml/pushpin/agrocad.png</href>
      </Icon>
      <hotSpot x="20" y="2" xunits="pixels" yunits="pixels"/>
    </IconStyle>
    <LineStyle>
      <color>FFFF0000</color>
      <width>1</width>
    </LineStyle>
    <PolyStyle>
      <color>40ffffff</color>
      <fill>1</fill>
    </PolyStyle>
  </Style>
  <Style id="s_FFFF0000_hl">
    <IconStyle>
      <scale>1.3</scale>
      <Icon>
        <href>http://maps.google.com/mapfiles/kml/pushpin/agrocad.png</href>
      </Icon>
      <hotSpot x="20" y="2" xunits="pixels" yunits="pixels"/>
    </IconStyle>
    <LineStyle>
      <color>ff000000</color>
      <width>1</width>
    </LineStyle>
    <PolyStyle>
      <color>40ffffff</color>
      <fill>1</fill>
    </PolyStyle>
  </Style>
  <Placemark>
    <name>AgroCAD: 19C46</name>
    <styleUrl>FFFF0000</styleUrl>
    <Polygon>
      <outerBoundaryIs>
        <LinearRing>
          <coordinates>
           -36.43506612698777,-9.79224314502739 -36.43558659824264,-9.78976532307569 -36.43649402819889,-9.79078878634313 -36.43653194686338,-9.79083746174377 -36.43654450681370,-9.79087444349603 -36.43654870038754,-9.79090404134087 -36.43654551503108,-9.79093886856111 -36.43653778552780,-9.79096841390418 -36.43652882719095,-9.79100352884860 -36.43652204451534,-9.79103895955800 -36.43651467073691,-9.79107298211798 -36.43650706701319,-9.79110445494655 -36.43649993596341,-9.79113198897315 -36.43649610737961,-9.79115556879346 -36.43648891768434,-9.79118566634771 -36.43648215403156,-9.79121761162812 -36.43647608457999,-9.79125149437194 -36.43646877578824,-9.79128883162863 -36.43645298607832,-9.79136369708502 -36.43644653895540,-9.79140160755938 -36.43643675573005,-9.79143728400510 -36.43643014933080,-9.79147339641170 -36.43642333988536,-9.79150953619012 -36.43641266516678,-9.79154536290598 -36.43640546842487,-9.79158056556458 -36.43639694927659,-9.79161094493480 -36.43639099264142,-9.79164474362309 -36.43638682780631,-9.79168096537577 -36.43637837960419,-9.79171861431856 -36.43636940038425,-9.79175533091989 -36.43636569231219,-9.79178823947991 -36.43636095656765,-9.79181787223460 -36.43635402037410,-9.79184937822584 -36.43635986449659,-9.79188469531010 -36.43636831791690,-9.79191762958656 -36.43637761656830,-9.79195725639952 -36.43638510681685,-9.79198864562963 -36.43639696448898,-9.79203064506381 -36.43641023581947,-9.79207120299504 -36.43642090988941,-9.79210951593480 -36.43643599611374,-9.79214753314164 -36.43644845771735,-9.79218656525725 -36.43646406478155,-9.79222570094998 -36.43647863366727,-9.79226197105397 -36.43649280363008,-9.79229349163889 -36.43650988157520,-9.79233851570434 -36.43652551131857,-9.79237011359685 -36.43653891912328,-9.79240015927186 -36.43655089067912,-9.79242139432673 -36.43657710066962,-9.79247449157139 -36.43659574735415,-9.79250292156404 -36.43661014652030,-9.79252733064008 -36.43662722561440,-9.79255138517496 -36.43664149437742,-9.79257701146918 -36.43665349021013,-9.79260399524091 -36.43666314053251,-9.79263469503616 -36.43666353190792,-9.79266468735059 -36.43665932464798,-9.79269465013350 -36.43664777790928,-9.79272875407221 -36.43663826435624,-9.79276042941968 -36.43663443520861,-9.79278952023307 -36.43662584201241,-9.79282482758759 -36.43662186322897,-9.79285931016032 -36.43660961453146,-9.79289144090845 -36.43659894215026,-9.79292503261143 -36.43658896968643,-9.79296945527182 -36.43657504537891,-9.79300921928797 -36.43656287489092,-9.79304921139366 -36.43655586037548,-9.79309107051385 -36.43654305553231,-9.79314384662908 -36.43654504880722,-9.79317104109304 -36.43654403796589,-9.79319600791355 -36.43654478703890,-9.79321201195265 -36.43654202828446,-9.79324768753554 -36.43654286279137,-9.79328427431216 -36.43654507360319,-9.79331454448382 -36.43654276576560,-9.79333413126117 -36.43655592250918,-9.79340377961806 -36.43655840601234,-9.79347330352971 -36.43655607939152,-9.79350807585801 -36.43652883480917,-9.79352513701939 -36.43650111035097,-9.79353364872918 -36.43647038091814,-9.79354384569032 -36.43643734884793,-9.79355387967567 -36.43640448703053,-9.79356126015484 -36.43637195559765,-9.79356496558443 -36.43633696550832,-9.79356880646006 -36.43632375133031,-9.79356867199335 -36.43621835491082,-9.79357255552354 -36.43618435964123,-9.79357642308185 -36.43614997055033,-9.79357471335964 -36.43611793068560,-9.79356499469419 -36.43609250999079,-9.79355696173708 -36.43606369014449,-9.79354600940659 -36.43603503905520,-9.79352633082879 -36.43600550578597,-9.79350272328007 -36.43598158461623,-9.79347463554478 -36.43595691356515,-9.79344528582866 -36.43593191079100,-9.79341504565442 -36.43590466145875,-9.79338384939603 -36.43587627605113,-9.79335321275489 -36.43582477604610,-9.79328682101702 -36.43580059808731,-9.79325324752901 -36.43577608785331,-9.79322114639810 -36.43575256278734,-9.79318827249893 -36.43572822176972,-9.79315471082812 -36.43570493618703,-9.79311930275179 -36.43568266655578,-9.79308578913813 -36.43563820360782,-9.79301772217269 -36.43561361466230,-9.79298567829931 -36.43559259272313,-9.79294859021906 -36.43557609783987,-9.79292373073203 -36.43555942728762,-9.79289653892581 -36.43554670076408,-9.79287470339248 -36.43553219868603,-9.79284665750278 -36.43551185830418,-9.79280950972393 -36.43549683141680,-9.79277888901710 -36.43549318342650,-9.79276927452794 -36.43545716645709,-9.79269312471067 -36.43542942245159,-9.79264384522606 -36.43540970599573,-9.79260809519023 -36.43537825107785,-9.79253781940355 -36.43536121389300,-9.79250648339356 -36.43534600886938,-9.79247788758622 -36.43532948488082,-9.79244754083929 -36.43530658485729,-9.79242049904047 -36.43528423084624,-9.79239451850156 -36.43526213722594,-9.79237165321123 -36.43522309787481,-9.79232756791882 -36.43519834952468,-9.79230467818484 -36.43515183278020,-9.79227103555528 -36.43510667048210,-9.79226071723667 -36.43507701473099,-9.79224797075990 -36.43506612698777,-9.79224314502739 -36.43506612698777,-9.79224314502739
          </coordinates>
        </LinearRing>
      </outerBoundaryIs>
    </Polygon>
  </Placemark>
</Document>
</kml>
