<?xml version="1.0" encoding="UTF-8"?>
<kml xmlns="http://www.opengis.net/kml/2.2" xmlns:gx="http://www.google.com/kml/ext/2.2" xmlns:kml="http://www.opengis.net/kml/2.2" xmlns:atom="http://www.w3.org/2005/Atom">
<Document>
  <name>01.kml</name>
  <StyleMap id="FFFF0000">
    <Pair>
      <key>normal</key>
      <styleUrl>#s_FFFF0000</styleUrl>
    </Pair>
    <Pair>
      <key>highlight</key>
      <styleUrl>#s_FFFF0000_hl</styleUrl>
    </Pair>
  </StyleMap>
  <Style id="s_FFFF0000">
   <IconStyle>
      <scale>1.1</scale>
      <Icon>
        <href>http://maps.google.com/mapfiles/kml/pushpin/agrocad.png</href>
      </Icon>
      <hotSpot x="20" y="2" xunits="pixels" yunits="pixels"/>
    </IconStyle>
    <LineStyle>
      <color>FFFF0000</color>
      <width>1</width>
    </LineStyle>
    <PolyStyle>
      <color>40ffffff</color>
      <fill>1</fill>
    </PolyStyle>
  </Style>
  <Style id="s_FFFF0000_hl">
    <IconStyle>
      <scale>1.3</scale>
      <Icon>
        <href>http://maps.google.com/mapfiles/kml/pushpin/agrocad.png</href>
      </Icon>
      <hotSpot x="20" y="2" xunits="pixels" yunits="pixels"/>
    </IconStyle>
    <LineStyle>
      <color>ff000000</color>
      <width>1</width>
    </LineStyle>
    <PolyStyle>
      <color>40ffffff</color>
      <fill>1</fill>
    </PolyStyle>
  </Style>
  <Placemark>
    <name>AgroCAD: 19C45</name>
    <styleUrl>FFFF0000</styleUrl>
    <Polygon>
      <outerBoundaryIs>
        <LinearRing>
          <coordinates>
           -36.42627440088042,-9.77984451701769 -36.42624419677633,-9.77984084175965 -36.42622661904788,-9.77982901590807 -36.42621235716576,-9.77980840390249 -36.42620106625763,-9.77978523744923 -36.42619211792402,-9.77976128106737 -36.42618446791271,-9.77973895334567 -36.42617799008977,-9.77971776514699 -36.42617481684775,-9.77970602967189 -36.42608508215133,-9.77940763067720 -36.42608110421018,-9.77939410342769 -36.42606247761442,-9.77933197029402 -36.42605241904418,-9.77929554864297 -36.42603945880798,-9.77925700498701 -36.42602677097541,-9.77922073954199 -36.42601360245662,-9.77918461358615 -36.42599839974936,-9.77914746641007 -36.42597609129233,-9.77909205255073 -36.42596273952042,-9.77905548741878 -36.42594641668746,-9.77900521430010 -36.42592397525037,-9.77894261011446 -36.42591675844239,-9.77892330158660 -36.42588206015008,-9.77882171145066 -36.42586657871869,-9.77878065121657 -36.42585141016442,-9.77874093266734 -36.42584095160672,-9.77871180780646 -36.42557444864262,-9.77789303088521 -36.42555374572340,-9.77782428334728 -36.42553211170139,-9.77775046010983 -36.42551181682252,-9.77768167872098 -36.42549969133648,-9.77762945639716 -36.42548911793042,-9.77759654386669 -36.42548320672498,-9.77757530400862 -36.42528160735881,-9.77693830593392 -36.42527152362180,-9.77690162437887 -36.42526111627617,-9.77686607370699 -36.42524485951849,-9.77681114628657 -36.42522550208577,-9.77674482591423 -36.42520368738855,-9.77667720405280 -36.42518129109580,-9.77660870288374 -36.42515578132470,-9.77653874071073 -36.42512943037946,-9.77646890999693 -36.42508504990339,-9.77636561432114 -36.42505405363601,-9.77630157137506 -36.42502419778487,-9.77623780266459 -36.42499244675988,-9.77617152321160 -36.42495947197501,-9.77610305351919 -36.42492906939823,-9.77603587705652 -36.42490057673393,-9.77596841672006 -36.42486316323151,-9.77589436580070 -36.42482717231761,-9.77581465637849 -36.42479049560622,-9.77572755790477 -36.42474986738947,-9.77563493452763 -36.42470376376149,-9.77553604220221 -36.42466161375373,-9.77545011247775 -36.42463184764868,-9.77538057770840 -36.42460557449672,-9.77531190529376 -36.42457607542997,-9.77523620689100 -36.42454293470142,-9.77515585776746 -36.42451243612985,-9.77507995458513 -36.42448560010830,-9.77501471992346 -36.42445620666958,-9.77494402664953 -36.42442873964063,-9.77487552647436 -36.42440219558894,-9.77480883518041 -36.42437400776925,-9.77474332919636 -36.42432062028586,-9.77462095786421 -36.42340785632359,-9.77262555078107 -36.42341838548254,-9.77261700744858 -36.42375882948982,-9.77242818832490 -36.42427954667965,-9.77214773949780 -36.42436712904260,-9.77222206273557 -36.42476937819669,-9.77258973462566 -36.42514539289404,-9.77293019738779 -36.42575444105391,-9.77348799122588 -36.42619099110443,-9.77387950423809 -36.42623612563958,-9.77391730782721 -36.42624956921846,-9.77392816801798 -36.42628047034300,-9.77395758454971 -36.42631203967361,-9.77398469894837 -36.42634235420739,-9.77401119458438 -36.42637200685571,-9.77403853738581 -36.42646437491473,-9.77412097743051 -36.42651385952947,-9.77417101455519 -36.42657946662866,-9.77424218094467 -36.42663711241447,-9.77430796520694 -36.42668907881112,-9.77437918084407 -36.42673111669330,-9.77445927954155 -36.42676899837507,-9.77454687861967 -36.42680453770744,-9.77463722808190 -36.42683629348427,-9.77473163301482 -36.42686617836762,-9.77483520547398 -36.42692054504094,-9.77503109193097 -36.42694658012874,-9.77513156506040 -36.42697031181482,-9.77522976893593 -36.42698987968709,-9.77533050532125 -36.42701619269175,-9.77545591718305 -36.42704115853551,-9.77558495306521 -36.42709528098184,-9.77585511606288 -36.42712860620719,-9.77599046508760 -36.42716544370854,-9.77613101578775 -36.42720817850714,-9.77626980242433 -36.42725878341305,-9.77640380735966 -36.42731277610124,-9.77653404274351 -36.42736719777273,-9.77666408252534 -36.42742395725336,-9.77679831936029 -36.42747768132857,-9.77691919286533 -36.42753249764204,-9.77703211061525 -36.42758828760433,-9.77715031493364 -36.42764988026292,-9.77727164455549 -36.42771455225502,-9.77739758216340 -36.42778085826444,-9.77752154171189 -36.42784895081899,-9.77764192494589 -36.42798568322100,-9.77787959120514 -36.42811977538829,-9.77811757448930 -36.42819022962303,-9.77824333541686 -36.42828399446456,-9.77841694131709 -36.42834921802894,-9.77854415918896 -36.42841078414318,-9.77866670914533 -36.42845207923719,-9.77874492017081 -36.42852865875730,-9.77888381054972 -36.42857772713409,-9.77897158509979 -36.42862399810410,-9.77906370070980 -36.42866778450839,-9.77915140881688 -36.42868195780549,-9.77920397519051 -36.42867687815837,-9.77922003565213 -36.42678558978493,-9.77972950712819 -36.42627440088042,-9.77984451701769 -36.42627440088042,-9.77984451701769
          </coordinates>
        </LinearRing>
      </outerBoundaryIs>
    </Polygon>
  </Placemark>
</Document>
</kml>
