<?xml version="1.0" encoding="UTF-8"?>
<kml xmlns="http://www.opengis.net/kml/2.2" xmlns:gx="http://www.google.com/kml/ext/2.2" xmlns:kml="http://www.opengis.net/kml/2.2" xmlns:atom="http://www.w3.org/2005/Atom">
<Document>
  <name>08.kml</name>
  <StyleMap id="FFFF0000">
    <Pair>
      <key>normal</key>
      <styleUrl>#s_FFFF0000</styleUrl>
    </Pair>
    <Pair>
      <key>highlight</key>
      <styleUrl>#s_FFFF0000_hl</styleUrl>
    </Pair>
  </StyleMap>
  <Style id="s_FFFF0000">
   <IconStyle>
      <scale>1.1</scale>
      <Icon>
        <href>http://maps.google.com/mapfiles/kml/pushpin/agrocad.png</href>
      </Icon>
      <hotSpot x="20" y="2" xunits="pixels" yunits="pixels"/>
    </IconStyle>
    <LineStyle>
      <color>FFFF0000</color>
      <width>1</width>
    </LineStyle>
    <PolyStyle>
      <color>40ffffff</color>
      <fill>1</fill>
    </PolyStyle>
  </Style>
  <Style id="s_FFFF0000_hl">
    <IconStyle>
      <scale>1.3</scale>
      <Icon>
        <href>http://maps.google.com/mapfiles/kml/pushpin/agrocad.png</href>
      </Icon>
      <hotSpot x="20" y="2" xunits="pixels" yunits="pixels"/>
    </IconStyle>
    <LineStyle>
      <color>ff000000</color>
      <width>1</width>
    </LineStyle>
    <PolyStyle>
      <color>40ffffff</color>
      <fill>1</fill>
    </PolyStyle>
  </Style>
  <Placemark>
    <name>AgroCAD: 19C4E</name>
    <styleUrl>FFFF0000</styleUrl>
    <Polygon>
      <outerBoundaryIs>
        <LinearRing>
          <coordinates>
           -36.42893743901380,-9.78407882451029 -36.42894271681934,-9.78408208452084 -36.42894799460061,-9.78408534456761 -36.42895327233320,-9.78408860468689 -36.42895854999271,-9.78409186491495 -36.42896382755476,-9.78409512528806 -36.42896910499492,-9.78409838584253 -36.42897438228883,-9.78410164661461 -36.42897965941208,-9.78410490764059 -36.42898493634028,-9.78410816895677 -36.42899021304902,-9.78411143059940 -36.42899548951391,-9.78411469260478 -36.42900076571055,-9.78411795500918 -36.42900604161454,-9.78412121784888 -36.42901131720151,-9.78412448116016 -36.42901659244703,-9.78412774497932 -36.42902186732673,-9.78413100934261 -36.42902714181618,-9.78413427428632 -36.42903241589102,-9.78413753984673 -36.42903768952683,-9.78414080606013 -36.42904296269922,-9.78414407296279 -36.42904823538380,-9.78414734059100 -36.42905350755615,-9.78415060898103 -36.42905877919190,-9.78415387816916 -36.42906405026665,-9.78415714819165 -36.42906932075599,-9.78416041908483 -36.42907459063553,-9.78416369088495 -36.42907985988088,-9.78416696362829 -36.42908512846763,-9.78417023735111 -36.42909039637140,-9.78417351208974 -36.42909566356778,-9.78417678788043 -36.42910093003237,-9.78418006475944 -36.42910619574079,-9.78418334276309 -36.42911146066863,-9.78418662192763 -36.42911672479149,-9.78418990228937 -36.42912198808500,-9.78419318388456 -36.42912725052472,-9.78419646674950 -36.42913251208630,-9.78419975092045 -36.42913777274531,-9.78420303643371 -36.42914303247737,-9.78420632332554 -36.42914829125807,-9.78420961163225 -36.42915354906302,-9.78421290139008 -36.42915880586784,-9.78421619263536 -36.42916406164811,-9.78421948540431 -36.42916931637943,-9.78422277973327 -36.42917457003742,-9.78422607565847 -36.42917982259769,-9.78422937321622 -36.42918507403582,-9.78423267244281 -36.42919032432743,-9.78423597337447 -36.42919557344811,-9.78423927604752 -36.42920082137348,-9.78424258049824 -36.42920606807914,-9.78424588676290 -36.42921131354068,-9.78424919487778 -36.42921655773372,-9.78425250487917 -36.42922180063384,-9.78425581680333 -36.42922704221667,-9.78425913068656 -36.42923228245780,-9.78426244656513 -36.42923752133283,-9.78426576447531 -36.42924275881737,-9.78426908445341 -36.42924799488703,-9.78427240653567 -36.42925322951741,-9.78427573075842 -36.42925846268410,-9.78427905715790 -36.42926369436271,-9.78428238577039 -36.42926892452885,-9.78428571663219 -36.42927415315812,-9.78428904977958 -36.42927938022612,-9.78429238524882 -36.42928460570847,-9.78429572307621 -36.42928982958074,-9.78429906329802 -36.42929505181856,-9.78430240595053 -36.42930027239752,-9.78430575107002 -36.42930549129324,-9.78430909869277 -36.42931070848130,-9.78431244885506 -36.42931592393733,-9.78431580159318 -36.42932113763692,-9.78431915694342 -36.42932634955566,-9.78432251494202 -36.42933155966918,-9.78432587562528 -36.42933676795306,-9.78432923902949 -36.42934197438292,-9.78433260519093 -36.42934717893437,-9.78433597414586 -36.42935238158298,-9.78433934593056 -36.42935758230436,-9.78434272058135 -36.42936278107416,-9.78434609813447 -36.42936797786794,-9.78434947862622 -36.42937317266130,-9.78435286209286 -36.42937836542987,-9.78435624857070 -36.42938355614923,-9.78435963809598 -36.42938874479501,-9.78436303070502 -36.42939393134280,-9.78436642643407 -36.42939911576819,-9.78436982531945 -36.42940429804678,-9.78437322739739 -36.42940947815421,-9.78437663270419 -36.42941465606606,-9.78438004127615 -36.42941983175792,-9.78438345314953 -36.42942500520542,-9.78438686836060 -36.42943017638415,-9.78439028694566 -36.42943534526972,-9.78439370894098 -36.42944051183771,-9.78439713438285 -36.42944567606376,-9.78440056330755 -36.42945083792344,-9.78440399575134 -36.42945599739239,-9.78440743175053 -36.42946115444617,-9.78441087134137 -36.42946630906041,-9.78441431456016 -36.42947146120483,-9.78441776145174 -36.42947661083058,-9.78442121208771 -36.42948175788531,-9.78442466654504 -36.42948690231651,-9.78442812490063 -36.42949204407182,-9.78443158723139 -36.42949718309878,-9.78443505361423 -36.42950231934496,-9.78443852412608 -36.42950745275796,-9.78444199884387 -36.42951258328532,-9.78444547784448 -36.42951771087462,-9.78444896120484 -36.42952283547346,-9.78445244900188 -36.42952795702937,-9.78445594131250 -36.42953307548996,-9.78445943821362 -36.42953819080278,-9.78446293978216 -36.42954330291540,-9.78446644609505 -36.42954841177541,-9.78446995722917 -36.42955351733038,-9.78447347326146 -36.42955861952787,-9.78447699426885 -36.42956371831547,-9.78448052032821 -36.42956881364074,-9.78448405151650 -36.42957390545124,-9.78448758791062 -36.42957899369456,-9.78449112958749 -36.42958407831828,-9.78449467662401 -36.42958915926997,-9.78449822909712 -36.42959423649717,-9.78450178708373 -36.42959930994751,-9.78450535066074 -36.42960437956852,-9.78450891990508 -36.42960944530778,-9.78451249489367 -36.42961450711287,-9.78451607570341 -36.42961956493136,-9.78451966241123 -36.42962461871080,-9.78452325509405 -36.42962966839881,-9.78452685382877 -36.42963471394292,-9.78453045869232 -36.42963975529073,-9.78453406976161 -36.42964479238946,-9.78453768711391 -36.42964982509125,-9.78454131092358 -36.42965485302383,-9.78454494159410 -36.42965987578255,-9.78454857956208 -36.42966489296276,-9.78455222526406 -36.42966990415985,-9.78455587913662 -36.42967490896913,-9.78455954161630 -36.42967990698598,-9.78456321313968 -36.42968489780577,-9.78456689414331 -36.42968988102383,-9.78457058506378 -36.42969485623555,-9.78457428633761 -36.42969982303625,-9.78457799840141 -36.42970478102130,-9.78458172169171 -36.42970972978607,-9.78458545664508 -36.42971466892590,-9.78458920369808 -36.42971959803616,-9.78459296328729 -36.42972451671221,-9.78459673584927 -36.42972942454938,-9.78460052182057 -36.42973432114305,-9.78460432163777 -36.42973920608858,-9.78460813573742 -36.42974407898131,-9.78461196455609 -36.42974893941661,-9.78461580853033 -36.42975378698982,-9.78461966809672 -36.42975862129631,-9.78462354369183 -36.42976344193145,-9.78462743575220 -36.42976824849057,-9.78463134471441 -36.42977304056903,-9.78463527101501 -36.42977781776221,-9.78463921509057 -36.42978257966545,-9.78464317737767 -36.42978732587411,-9.78464715831284 -36.42979205598353,-9.78465115833268 -36.42979676958909,-9.78465517787373 -36.42980146630976,-9.78465921731774 -36.42980614589735,-9.78466327673809 -36.42981080815007,-9.78466735610044 -36.42981545286620,-9.78467145537032 -36.42982007984401,-9.78467557451330 -36.42982468888177,-9.78467971349491 -36.42982927977775,-9.78468387228071 -36.42983385233021,-9.78468805083624 -36.42983840633740,-9.78469224912703 -36.42984294159764,-9.78469646711866 -36.42984745790916,-9.78470070477664 -36.42985195507023,-9.78470496206653 -36.42985643287913,-9.78470923895389 -36.42986089113414,-9.78471353540424 -36.42986532963349,-9.78471785138314 -36.42986974820478,-9.78472218683526 -36.42987414711985,-9.78472654138871 -36.42987852699570,-9.78473091442564 -36.42988288845835,-9.78473530532181 -36.42988723213390,-9.78473971345288 -36.42989155864837,-9.78474413819463 -36.42989586862781,-9.78474857892273 -36.42990016269826,-9.78475303501294 -36.42990444148580,-9.78475750584095 -36.42990870561647,-9.78476199078249 -36.42991295571631,-9.78476648921328 -36.42991719241138,-9.78477100050904 -36.42992141632771,-9.78477552404551 -36.42992562809137,-9.78478005919835 -36.42992982832843,-9.78478460534335 -36.42993401766490,-9.78478916185619 -36.42993819672684,-9.78479372811260 -36.42994236614032,-9.78479830348827 -36.42994652653138,-9.78480288735897 -36.42995067852606,-9.78480747910038 -36.42995482275042,-9.78481207808824 -36.42995895983051,-9.78481668369827 -36.42996309039239,-9.78482129530617 -36.42996721506209,-9.78482591228768 -36.42997133446566,-9.78483053401849 -36.42997544922919,-9.78483515987437 -36.42997955997868,-9.78483978923099 -36.42998366734022,-9.78484442146408 -36.42998777193982,-9.78484905594938 -36.42999187440357,-9.78485369206258 -36.42999597535750,-9.78485832917942 -36.43000007543675,-9.78486296667083 -36.43000417540385,-9.78486760384077 -36.43000827611530,-9.78487223994378 -36.43001237842972,-9.78487687423329 -36.43001648320582,-9.78488150596267 -36.43002059130224,-9.78488613438535 -36.43002470357764,-9.78489075875473 -36.43002882089069,-9.78489537832419 -36.43003294410006,-9.78489999234716 -36.43003707406441,-9.78490460007702 -36.43004121164238,-9.78490920076719 -36.43004535769268,-9.78491379367107 -36.43004951307394,-9.78491837804207 -36.43005367864483,-9.78492295313357 -36.43005785526402,-9.78492751819899 -36.43006204379017,-9.78493207249173 -36.43006624508194,-9.78493661526520 -36.43007045999800,-9.78494114577279 -36.43007468939702,-9.78494566326791 -36.43007893413765,-9.78495016700397 -36.43008319507855,-9.78495465623436 -36.43008747307840,-9.78495913021247 -36.43009176899586,-9.78496358819174 -36.43009608368960,-9.78496802942554 -36.43010041801826,-9.78497245316730 -36.43010477284053,-9.78497685867040 -36.43010914901506,-9.78498124518825 -36.43011354730459,-9.78498561197351 -36.43011796806764,-9.78498995827550 -36.43012241155627,-9.78499428334285 -36.43012687802254,-9.78499858642404 -36.43013136771851,-9.78500286676765 -36.43013588089624,-9.78500712362219 -36.43014041780779,-9.78501135623623 -36.43014497870523,-9.78501556385830 -36.43014956384059,-9.78501974573694 -36.43015417346596,-9.78502390112070 -36.43015880783339,-9.78502802925811 -36.43016346719495,-9.78503212939772 -36.43016815180266,-9.78503620078808 -36.43017286190862,-9.78504024267772 -36.43017759776487,-9.78504425431518 -36.43018235962350,-9.78504823494901 -36.43018714773654,-9.78505218382774 -36.43019196235603,-9.78505610019993 -36.43019680373408,-9.78505998331410 -36.43020167212273,-9.78506383241881 -36.43020656777403,-9.78506764676260 -36.43021149094003,-9.78507142559400 -36.43021644187282,-9.78507516816155 -36.43022142082444,-9.78507887371380 -36.43022642804695,-9.78508254149931 -36.43023146379241,-9.78508617076659 -36.43023652831288,-9.78508976076419 -36.43024162186041,-9.78509331074065 -36.43024674468709,-9.78509681994453 -36.43025189704495,-9.78510028762434 -36.43025707918605,-9.78510371302866 -36.43026229130664,-9.78510709537028 -36.43026753334123,-9.78511043369466 -36.43027280514774,-9.78511372699824 -36.43027810658407,-9.78511697427740 -36.43028343750812,-9.78512017452860 -36.43028879777779,-9.78512332674823 -36.43029418725098,-9.78512642993275 -36.43029960578559,-9.78512948307853 -36.43030505323951,-9.78513248518202 -36.43031052947066,-9.78513543523965 -36.43031603433693,-9.78513833224782 -36.43032156769622,-9.78514117520296 -36.43032712940645,-9.78514396310147 -36.43033271932547,-9.78514669493981 -36.43033833731123,-9.78514936971437 -36.43034398322159,-9.78515198642158 -36.43034965691448,-9.78515454405787 -36.43035535824779,-9.78515704161964 -36.43036108707942,-9.78515947810332 -36.43036684326726,-9.78516185250533 -36.43037262666921,-9.78516416382210 -36.43037843714318,-9.78516641105004 -36.43038427454707,-9.78516859318555 -36.43039013873876,-9.78517070922509 -36.43039602957617,-9.78517275816506 -36.43040194691586,-9.78517473899848 -36.43040789033513,-9.78517665000307 -36.43041385878847,-9.78517848786139 -36.43041985114623,-9.78518024904042 -36.43042586627874,-9.78518193000711 -36.43043190305630,-9.78518352722839 -36.43043796034925,-9.78518503717122 -36.43044403702790,-9.78518645630255 -36.43045013196257,-9.78518778108933 -36.43045624402360,-9.78518900799852 -36.43046237208128,-9.78519013349703 -36.43046851500596,-9.78519115405186 -36.43047467166794,-9.78519206612993 -36.43048084093756,-9.78519286619818 -36.43048702168511,-9.78519355072358 -36.43049321278094,-9.78519411617307 -36.43049941309535,-9.78519455901361 -36.43050562149014,-9.78519487575636 -36.43051183642966,-9.78519506497834 -36.43051805581964,-9.78519512815960 -36.43052427752390,-9.78519506699790 -36.43053049940632,-9.78519488319111 -36.43053671933073,-9.78519457843701 -36.43054293516095,-9.78519415443343 -36.43054914476085,-9.78519361287816 -36.43055534599426,-9.78519295546902 -36.43056153672502,-9.78519218390385 -36.43056771481699,-9.78519129988043 -36.43057387813398,-9.78519030509660 -36.43058002453987,-9.78518920125018 -36.43058615189847,-9.78518799003894 -36.43059225801682,-9.78518667304303 -36.43059833956729,-9.78518524949312 -36.43060439217612,-9.78518371645347 -36.43061041143036,-9.78518207090730 -36.43061639291709,-9.78518030983785 -36.43062233222337,-9.78517843022834 -36.43062822493630,-9.78517642906201 -36.43063406664293,-9.78517430332211 -36.43063985293033,-9.78517204999184 -36.43064557938560,-9.78516966605449 -36.43065124159580,-9.78516714849322 -36.43065683535858,-9.78516449458628 -36.43066236023791,-9.78516170688676 -36.43066781904805,-9.78515879250002 -36.43067321470985,-9.78515575868079 -36.43067855014424,-9.78515261268382 -36.43068382827210,-9.78514936176384 -36.43068905201434,-9.78514601317559 -36.43069422429182,-9.78514257417380 -36.43069934802548,-9.78513905201322 -36.43070442613620,-9.78513545394857 -36.43070946154488,-9.78513178723457 -36.43071445717242,-9.78512805912602 -36.43071941593972,-9.78512427687759 -36.43072434076768,-9.78512044774403 -36.43072923457721,-9.78511657898010 -36.43073410028919,-9.78511267784052 -36.43073894082368,-9.78510875157769 -36.43074375848377,-9.78510480574595 -36.43074855386766,-9.78510084120744 -36.43075332728158,-9.78509685802064 -36.43075807903172,-9.78509285624406 -36.43076280942432,-9.78508883593617 -36.43076751876556,-9.78508479715546 -36.43077220736167,-9.78508073996042 -36.43077687551887,-9.78507666440951 -36.43078152354336,-9.78507257056123 -36.43078615174134,-9.78506845847408 -36.43079076041906,-9.78506432820652 -36.43079534988269,-9.78506017981706 -36.43079992043848,-9.78505601336417 -36.43080447239262,-9.78505182890634 -36.43080900605131,-9.78504762650205 -36.43081352172078,-9.78504340620978 -36.43081801970724,-9.78503916808804 -36.43082250031691,-9.78503491219529 -36.43082696385599,-9.78503063859001 -36.43083141063069,-9.78502634733071 -36.43083584097198,-9.78502203855803 -36.43084025529480,-9.78501771269182 -36.43084465403199,-9.78501337021127 -36.43084903761635,-9.78500901159551 -36.43085340648073,-9.78500463732370 -36.43085776105793,-9.78500024787501 -36.43086210178079,-9.78499584372859 -36.43086642908212,-9.78499142536360 -36.43087074339474,-9.78498699325919 -36.43087504515147,-9.78498254789453 -36.43087933478515,-9.78497808974877 -36.43088361272858,-9.78497361930106 -36.43088787941460,-9.78496913703057 -36.43089213527602,-9.78496464341645 -36.43089638074565,-9.78496013893787 -36.43090061625634,-9.78495562407398 -36.43090484224089,-9.78495109930392 -36.43090905913212,-9.78494656510688 -36.43091326736287,-9.78494202196199 -36.43091746736594,-9.78493747034842 -36.43092165957418,-9.78493291074532 -36.43092584442039,-9.78492834363185 -36.43093002233739,-9.78492376948718 -36.43093419375802,-9.78491918879045 -36.43093835911509,-9.78491460202082 -36.43094251884141,-9.78491000965746 -36.43094667336983,-9.78490541217953 -36.43095082313313,-9.78490081006616 -36.43095496856417,-9.78489620379653 -36.43095911009577,-9.78489159384978 -36.43096324816074,-9.78488698070510 -36.43096738319191,-9.78488236484160 -36.43097151562204,-9.78487774673826 -36.43097564587974,-9.78487312685142 -36.43097977438587,-9.78486850559557 -36.43098390156043,-9.78486388338067 -36.43098802782341,-9.78485926061667 -36.43099215359484,-9.78485463771356 -36.43099627929471,-9.78485001508127 -36.43100040534303,-9.78484539312975 -36.43100453215981,-9.78484077226896 -36.43100866016506,-9.78483615290886 -36.43101278977876,-9.78483153545941 -36.43101692142093,-9.78482692033057 -36.43102105551158,-9.78482230793228 -36.43102519247072,-9.78481769867450 -36.43102933271836,-9.78481309296719 -36.43103347667449,-9.78480849122031 -36.43103762475912,-9.78480389384381 -36.43104177739226,-9.78479930124764 -36.43104593499392,-9.78479471384177 -36.43105009798409,-9.78479013203613 -36.43105426678277,-9.78478555624071 -36.43105844181002,-9.78478098686544 -36.43106262348579,-9.78477642432030 -36.43106681223009,-9.78477186901522 -36.43107100846296,-9.78476732136017 -36.43107521260437,-9.78476278176508 -36.43107942507435,-9.78475825063995 -36.43108364629289,-9.78475372839471 -36.43108787668001,-9.78474921543931 -36.43109211665571,-9.78474471218371 -36.43109636663999,-9.78474021903788 -36.43110062705286,-9.78473573641175 -36.43110489831433,-9.78473126471530 -36.43110918084441,-9.78472680435847 -36.43111347506309,-9.78472235575122 -36.43111778139039,-9.78471791930351 -36.43112210024631,-9.78471349542529 -36.43112643205086,-9.78470908452651 -36.43113077722404,-9.78470468701713 -36.43113513618585,-9.78470030330711 -36.43113950935632,-9.78469593380641 -36.43114389715542,-9.78469157892492 -36.43114829987041,-9.78468723894415 -36.43115271733871,-9.78468291371002 -36.43115714930253,-9.78467860297630 -36.43116159550411,-9.78467430649676 -36.43116605568566,-9.78467002402519 -36.43117052958938,-9.78466575531537 -36.43117501695749,-9.78466150012107 -36.43117951753221,-9.78465725819607 -36.43118403105577,-9.78465302929414 -36.43118855727035,-9.78464881316907 -36.43119309591821,-9.78464460957461 -36.43119764674155,-9.78464041826459 -36.43120220948257,-9.78463623899273 -36.43120678388350,-9.78463207151284 -36.43121136968656,-9.78462791557870 -36.43121596663396,-9.78462377094406 -36.43122057446793,-9.78461963736273 -36.43122519293065,-9.78461551458847 -36.43122982176438,-9.78461140237503 -36.43123446071132,-9.78460730047624 -36.43123910951368,-9.78460320864585 -36.43124376791366,-9.78459912663764 -36.43124843565350,-9.78459505420539 -36.43125311247544,-9.78459099110288 -36.43125779812164,-9.78458693708388 -36.43126249233436,-9.78458289190215 -36.43126719485578,-9.78457885531151 -36.43127190542815,-9.78457482706572 -36.43127662379367,-9.78457080691853 -36.43128134969457,-9.78456679462375 -36.43128608287303,-9.78456278993516 -36.43129082307132,-9.78455879260651 -36.43129557003162,-9.78455480239160 -36.43130032349616,-9.78455081904420 -36.43130508320711,-9.78454684231808 -36.43130984890677,-9.78454287196704 -36.43131462033730,-9.78453890774482 -36.43131939724092,-9.78453494940524 -36.43132417935986,-9.78453099670205 -36.43132896643634,-9.78452704938904 -36.43133375821255,-9.78452310721999 -36.43133855443072,-9.78451916994866 -36.43134335483309,-9.78451523732883 -36.43134815916184,-9.78451130911430 -36.43135296715921,-9.78450738505884 -36.43135777856740,-9.78450346491621 -36.43136259312864,-9.78449954844019 -36.43136741058513,-9.78449563538458 -36.43137223067910,-9.78449172550315 -36.43137705315276,-9.78448781854966 -36.43138187774834,-9.78448391427791 -36.43138670420802,-9.78448001244167 -36.43139153227406,-9.78447611279471 -36.43139636168864,-9.78447221509080 -36.43140119219400,-9.78446831908375 -36.43140602353235,-9.78446442452732 -36.43141085545617,-9.78446053118478 -36.43141568785728,-9.78445663894841 -36.43142052072805,-9.78445274780345 -36.43142535406299,-9.78444885773720 -36.43143018785662,-9.78444496873701 -36.43143502210352,-9.78444108079015 -36.43143985679820,-9.78443719388393 -36.43144469193521,-9.78443330800567 -36.43144952750906,-9.78442942314269 -36.43145436351433,-9.78442553928226 -36.43145919994553,-9.78442165641173 -36.43146403679720,-9.78441777451837 -36.43146887406390,-9.78441389358953 -36.43147371174014,-9.78441001361247 -36.43147854982048,-9.78440613457454 -36.43148338829944,-9.78440225646302 -36.43148822717157,-9.78439837926522 -36.43149306643138,-9.78439450296847 -36.43149790607346,-9.78439062756006 -36.43150274609231,-9.78438675302730 -36.43150758648248,-9.78438287935751 -36.43151242723849,-9.78437900653798 -36.43151726835492,-9.78437513455603 -36.43152210982626,-9.78437126339896 -36.43152695164707,-9.78436739305408 -36.43153179381189,-9.78436352350871 -36.43153663631525,-9.78435965475014 -36.43154147915171,-9.78435578676568 -36.43154632231578,-9.78435191954266 -36.43155116580202,-9.78434805306834 -36.43155600960493,-9.78434418733010 -36.43156085371909,-9.78434032231519 -36.43156569813902,-9.78433645801093 -36.43157054285926,-9.78433259440463 -36.43157538787435,-9.78432873148361 -36.43158023317883,-9.78432486923517 -36.43158507876723,-9.78432100764662 -36.43158992463409,-9.78431714670526 -36.43159477077395,-9.78431328639840 -36.43159961718136,-9.78430942671336 -36.43160446385083,-9.78430556763743 -36.43160931077691,-9.78430170915794 -36.43161415795415,-9.78429785126217 -36.43161900537708,-9.78429399393746 -36.43162385304024,-9.78429013717108 -36.43162870093815,-9.78428628095038 -36.43163354906537,-9.78428242526263 -36.43163839741645,-9.78427857009516 -36.43164324598589,-9.78427471543529 -36.43164809476825,-9.78427086127028 -36.43165294375806,-9.78426700758748 -36.43165779294987,-9.78426315437420 -36.43166264233821,-9.78425930161772 -36.43166749191762,-9.78425544930537 -36.43167234168263,-9.78425159742445 -36.43167719162779,-9.78424774596226 -36.43168204174763,-9.78424389490613 -36.43168689203670,-9.78424004424335 -36.43169174248950,-9.78423619396121 -36.43169659310063,-9.78423234404707 -36.43170144386457,-9.78422849448820 -36.43170629477590,-9.78422464527191 -36.43171114582911,-9.78422079638553 -36.43171599701880,-9.78421694781633 -36.43172084833945,-9.78421309955165 -36.43172569978564,-9.78420925157879 -36.43173055135188,-9.78420540388505 -36.43173540303273,-9.78420155645776 -36.43174025482271,-9.78419770928420 -36.43174510671637,-9.78419386235169 -36.43174995870825,-9.78419001564754 -36.43175481079286,-9.78418616915905 -36.43175966296477,-9.78418232287355 -36.43176451521851,-9.78417847677832 -36.43176936754860,-9.78417463086066 -36.43177421994961,-9.78417078510792 -36.43177907241604,-9.78416693950739 -36.43178392494248,-9.78416309404637 -36.43178877752340,-9.78415924871218 -36.43179363015339,-9.78415540349209 -36.43179848282698,-9.78415155837346 -36.43180333553870,-9.78414771334357 -36.43180818828307,-9.78414386838974 -36.43181304105465,-9.78414002349926 -36.43181789384799,-9.78413617865946 -36.43182274665758,-9.78413233385764 -36.43182759947801,-9.78412848908110 -36.43183245230379,-9.78412464431715 -36.43185020603798,-9.78414968005236 -36.43188357676847,-9.78419580038224 -36.43193100447238,-9.78426194574147 -36.43199052480836,-9.78433694148557 -36.43205792183139,-9.78442377993491 -36.43213414907568,-9.78452139116362 -36.43221278745294,-9.78462090613196 -36.43229493174152,-9.78471979181240 -36.43237585255078,-9.78481850488240 -36.43245147290100,-9.78491581148074 -36.43252614249372,-9.78500916977299 -36.43266264140009,-9.78518165817919 -36.43272863737998,-9.78526491446689 -36.43279774006533,-9.78534759850959 -36.43286690108914,-9.78542925423623 -36.43293540413539,-9.78550822709526 -36.43300184316625,-9.78558853146508 -36.43307045377130,-9.78566685880853 -36.43313882987462,-9.78573710441040 -36.43319803148851,-9.78579916047552 -36.43325936897113,-9.78586200266475 -36.43332129802943,-9.78592686585717 -36.43338269960441,-9.78599080418606 -36.43343812046801,-9.78604924299706 -36.43350261298318,-9.78611969226279 -36.43356818650298,-9.78619471433154 -36.43363477637082,-9.78626887910670 -36.43373350974012,-9.78637666124600 -36.43387618734735,-9.78654136935347 -36.43391602796822,-9.78658777719079 -36.43400494985589,-9.78669357591911 -36.43405839374820,-9.78675621766518 -36.43416099093999,-9.78688154341764 -36.43423426507780,-9.78697025323915 -36.43430832716255,-9.78705360857893 -36.43437858486699,-9.78713411607825 -36.43443838921276,-9.78720428337403 -36.43450346173419,-9.78727908771901 -36.43453539934658,-9.78731322814823 -36.43454210523118,-9.78732391301911 -36.43456164196980,-9.78734393908813 -36.43455654457295,-9.78736582584622 -36.43455121605060,-9.78740000502740 -36.43453809002386,-9.78744282938547 -36.43452397343377,-9.78748931666644 -36.43450837659910,-9.78753469535754 -36.43449019007775,-9.78757852068187 -36.43447244297902,-9.78762407169784 -36.43445459570225,-9.78766811835805 -36.43443715232029,-9.78771331026606 -36.43442051092131,-9.78775857173816 -36.43440885994323,-9.78780655315626 -36.43440073298402,-9.78785326063549 -36.43439536742262,-9.78790214605130 -36.43438999416075,-9.78795024699077 -36.43438459827896,-9.78799650247732 -36.43438156877859,-9.78804491323168 -36.43437726830783,-9.78809095607562 -36.43436989944483,-9.78813784335569 -36.43436408087655,-9.78818502354819 -36.43435799114008,-9.78823182500070 -36.43434987780305,-9.78827752998938 -36.43433894882303,-9.78832235924352 -36.43432885276631,-9.78836875995664 -36.43430449989762,-9.78845711036460 -36.43427303844369,-9.78853886123630 -36.43425556256393,-9.78857973350848 -36.43423576683074,-9.78862112729066 -36.43421729762739,-9.78865933916072 -36.43419777947172,-9.78869757862599 -36.43418040589228,-9.78873364979251 -36.43416647705463,-9.78875729043447 -36.43414528554386,-9.78879342315483 -36.43412455384881,-9.78883004396926 -36.43410136642658,-9.78886487902664 -36.43408275531981,-9.78889574065903 -36.43405796654731,-9.78892642288530 -36.43403084518852,-9.78895474802136 -36.43400309149297,-9.78898242172898 -36.43397661971674,-9.78900583154924 -36.43394700819414,-9.78902834751180 -36.43391260422893,-9.78905095696375 -36.43387876832524,-9.78907350093523 -36.43384390165542,-9.78909620812511 -36.43380860970849,-9.78911797743987 -36.43377451574306,-9.78913704236105 -36.43373945899158,-9.78915689038849 -36.43367120061673,-9.78919671066513 -36.43361591347480,-9.78923567445243 -36.43357560788484,-9.78926659439394 -36.43354552047929,-9.78929024259896 -36.43351758426835,-9.78931532988980 -36.43349035394345,-9.78934082836589 -36.43346155173886,-9.78936462872312 -36.43343337520160,-9.78939049569572 -36.43340562317485,-9.78941372867982 -36.43337515553905,-9.78943668903448 -36.43334275397229,-9.78946227508201 -36.43331084304837,-9.78948547253684 -36.43327435261024,-9.78950866133484 -36.43324537349024,-9.78952958695703 -36.43321532419571,-9.78954602160003 -36.43318361639381,-9.78955905821728 -36.43315498727700,-9.78956898592574 -36.43311849382036,-9.78957948261806 -36.43308199557951,-9.78959038924671 -36.43303440275575,-9.78960075831373 -36.43299759137500,-9.78960657117214 -36.43296203443513,-9.78961442502235 -36.43292330685882,-9.78962055117425 -36.43288467433143,-9.78962589303220 -36.43286001167596,-9.78962830300194 -36.43280957064258,-9.78963160288575 -36.43277252087626,-9.78963218460001 -36.43273441912800,-9.78963296205385 -36.43269749366484,-9.78963054009192 -36.43265934339757,-9.78962705619528 -36.43262108534939,-9.78962310123739 -36.43259474649460,-9.78961969401255 -36.43254687983780,-9.78960845574382 -36.43251232216637,-9.78959707354420 -36.43247703906946,-9.78958518944397 -36.43244208786982,-9.78957201467920 -36.43240724478937,-9.78955998493874 -36.43237164622338,-9.78954625257936 -36.43233677309306,-9.78953329585322 -36.43230291151642,-9.78951872883623 -36.43226648713588,-9.78950601954571 -36.43222885413385,-9.78949477033766 -36.43219384019068,-9.78948247892111 -36.43215837263757,-9.78947272744432 -36.43212184215354,-9.78945971070604 -36.43208475215935,-9.78944789097722 -36.43205291776600,-9.78943734117865 -36.43201949651290,-9.78942672416428 -36.43198875247600,-9.78941711079759 -36.43195744028481,-9.78940473539216 -36.43192768804455,-9.78939253447936 -36.43189962079659,-9.78938367163257 -36.43186841630011,-9.78937175936460 -36.43183757583624,-9.78935885087004 -36.43181017151124,-9.78934715989996 -36.43178930008911,-9.78933375818711 -36.43176201562433,-9.78931697615678 -36.43174255139734,-9.78929780984509 -36.43164767856592,-9.78914450329058 -36.43163174914668,-9.78911817265364 -36.43160997711292,-9.78908668271687 -36.43158907293430,-9.78905657848935 -36.43156877950241,-9.78902416303102 -36.43154868932553,-9.78899172967424 -36.43152606476820,-9.78896055150285 -36.43150697188300,-9.78893123088306 -36.43148618098607,-9.78890028930466 -36.43146518567634,-9.78886947781368 -36.43144360875177,-9.78883796804231 -36.43142034662228,-9.78880860404511 -36.43139969967037,-9.78878059734805 -36.43138118314317,-9.78875394562203 -36.43125441612562,-9.78858394279957 -36.43124182072615,-9.78857034454433 -36.43121927455444,-9.78853898106513 -36.43119846194021,-9.78850688439136 -36.43117624715619,-9.78847756758680 -36.43115560073443,-9.78844883044330 -36.43113193572972,-9.78842144696828 -36.43110701812944,-9.78839302569410 -36.43108468382076,-9.78836355648227 -36.43106073047949,-9.78833340109074 -36.43103781995623,-9.78830624705669 -36.43101577298169,-9.78827865367912 -36.43099676922159,-9.78825277494136 -36.43097369823061,-9.78822637690708 -36.43095401380077,-9.78820143905522 -36.43093192336055,-9.78817675039914 -36.43091033443971,-9.78815297204468 -36.43088849889438,-9.78812649585458 -36.43086683685055,-9.78809901360833 -36.43084453776899,-9.78807259040315 -36.43082133264456,-9.78804659706763 -36.43079847662658,-9.78802018688355 -36.43048307970680,-9.78768940648359 -36.43040618443585,-9.78761003230326 -36.43034611957349,-9.78753913569751 -36.43029606116292,-9.78748095350654 -36.43023281497593,-9.78740973921756 -36.43016167438784,-9.78732125521337 -36.43010406890381,-9.78723654268601 -36.43005869550548,-9.78715884888855 -36.43002364904504,-9.78707968762041 -36.42999574981732,-9.78700141991980 -36.42997246841669,-9.78692143828549 -36.42995062251118,-9.78683152544827 -36.42992885853228,-9.78673793519401 -36.42991014150526,-9.78665320382327 -36.42989111320647,-9.78657298669348 -36.42987192016075,-9.78648347238396 -36.42984886466573,-9.78639418758374 -36.42982622541844,-9.78630295454544 -36.42979973453231,-9.78621452012280 -36.42976634415126,-9.78611021438464 -36.42972976930430,-9.78599996266740 -36.42969157902884,-9.78589828440886 -36.42965504909123,-9.78579994616074 -36.42962214669718,-9.78569626561393 -36.42959018286778,-9.78559328438713 -36.42956035692200,-9.78549245966688 -36.42953097647919,-9.78539070884191 -36.42949781887844,-9.78528231803482 -36.42944111764273,-9.78512631255042 -36.42938893058452,-9.78501782169882 -36.42933206473729,-9.78490521533328 -36.42929172463276,-9.78482918856952 -36.42920890038223,-9.78467146073319 -36.42915379193010,-9.78456281765016 -36.42911744682056,-9.78449193953391 -36.42905631126418,-9.78435309823534 -36.42901620744491,-9.78425958092874 -36.42897109631717,-9.78416123479718 -36.42893743901380,-9.78407882451029 -36.42893743901380,-9.78407882451029
          </coordinates>
        </LinearRing>
      </outerBoundaryIs>
    </Polygon>
  </Placemark>
</Document>
</kml>
