<?xml version="1.0" encoding="UTF-8"?>
<kml xmlns="http://www.opengis.net/kml/2.2" xmlns:gx="http://www.google.com/kml/ext/2.2" xmlns:kml="http://www.opengis.net/kml/2.2" xmlns:atom="http://www.w3.org/2005/Atom">
<Document>
  <name>04.kml</name>
  <StyleMap id="FFFF4000">
    <Pair>
      <key>normal</key>
      <styleUrl>#s_FFFF4000</styleUrl>
    </Pair>
    <Pair>
      <key>highlight</key>
      <styleUrl>#s_FFFF4000_hl</styleUrl>
    </Pair>
  </StyleMap>
  <Style id="s_FFFF4000">
   <IconStyle>
      <scale>1.1</scale>
      <Icon>
        <href>http://maps.google.com/mapfiles/kml/pushpin/agrocad.png</href>
      </Icon>
      <hotSpot x="20" y="2" xunits="pixels" yunits="pixels"/>
    </IconStyle>
    <LineStyle>
      <color>FFFF4000</color>
      <width>1</width>
    </LineStyle>
    <PolyStyle>
      <color>40ffffff</color>
      <fill>1</fill>
    </PolyStyle>
  </Style>
  <Style id="s_FFFF4000_hl">
    <IconStyle>
      <scale>1.3</scale>
      <Icon>
        <href>http://maps.google.com/mapfiles/kml/pushpin/agrocad.png</href>
      </Icon>
      <hotSpot x="20" y="2" xunits="pixels" yunits="pixels"/>
    </IconStyle>
    <LineStyle>
      <color>ff000000</color>
      <width>1</width>
    </LineStyle>
    <PolyStyle>
      <color>40ffffff</color>
      <fill>1</fill>
    </PolyStyle>
  </Style>
  <Placemark>
    <name>AgroCAD: 1E1DF</name>
    <styleUrl>FFFF4000</styleUrl>
    <Polygon>
      <outerBoundaryIs>
        <LinearRing>
          <coordinates>
           -36.36272637702552,-9.78921509451985 -36.36666374472504,-9.78678385304333 -36.36667074215754,-9.78679333382423 -36.36683959300134,-9.78768586809363 -36.36696345604864,-9.78839019498331 -36.36694278645233,-9.78840232945447 -36.36691549284644,-9.78841652391106 -36.36582038717890,-9.78913507983555 -36.36366239735234,-9.79050027304244 -36.36364426242025,-9.79047887440458 -36.36362554503764,-9.79045299508318 -36.36306111129463,-9.78967404347718 -36.36272637702552,-9.78921509451985 -36.36272637702552,-9.78921509451985 -36.36272637702552,-9.78921509451985
          </coordinates>
        </LinearRing>
      </outerBoundaryIs>
    </Polygon>
  </Placemark>
</Document>
</kml>
