<?xml version="1.0" encoding="UTF-8"?>
<kml xmlns="http://www.opengis.net/kml/2.2" xmlns:gx="http://www.google.com/kml/ext/2.2" xmlns:kml="http://www.opengis.net/kml/2.2" xmlns:atom="http://www.w3.org/2005/Atom">
<Document>
  <name>13.kml</name>
  <StyleMap id="FFFF4000">
    <Pair>
      <key>normal</key>
      <styleUrl>#s_FFFF4000</styleUrl>
    </Pair>
    <Pair>
      <key>highlight</key>
      <styleUrl>#s_FFFF4000_hl</styleUrl>
    </Pair>
  </StyleMap>
  <Style id="s_FFFF4000">
   <IconStyle>
      <scale>1.1</scale>
      <Icon>
        <href>http://maps.google.com/mapfiles/kml/pushpin/agrocad.png</href>
      </Icon>
      <hotSpot x="20" y="2" xunits="pixels" yunits="pixels"/>
    </IconStyle>
    <LineStyle>
      <color>FFFF4000</color>
      <width>1</width>
    </LineStyle>
    <PolyStyle>
      <color>40ffffff</color>
      <fill>1</fill>
    </PolyStyle>
  </Style>
  <Style id="s_FFFF4000_hl">
    <IconStyle>
      <scale>1.3</scale>
      <Icon>
        <href>http://maps.google.com/mapfiles/kml/pushpin/agrocad.png</href>
      </Icon>
      <hotSpot x="20" y="2" xunits="pixels" yunits="pixels"/>
    </IconStyle>
    <LineStyle>
      <color>ff000000</color>
      <width>1</width>
    </LineStyle>
    <PolyStyle>
      <color>40ffffff</color>
      <fill>1</fill>
    </PolyStyle>
  </Style>
  <Placemark>
    <name>AgroCAD: 1A8C9</name>
    <styleUrl>FFFF4000</styleUrl>
    <Polygon>
      <outerBoundaryIs>
        <LinearRing>
          <coordinates>
           -36.20680682290212,-9.70742722371751 -36.20679733164553,-9.70740402834872 -36.20750814665454,-9.70707807229110 -36.20807240429487,-9.70676322835448 -36.20808145218457,-9.70676690495928 -36.20810599598387,-9.70679953032457 -36.20813880335897,-9.70685744265681 -36.20823832643627,-9.70704439887739 -36.20824149974788,-9.70709966760360 -36.20822151683658,-9.70717396232854 -36.20820966366048,-9.70724111259572 -36.20818687097527,-9.70735684795103 -36.20818355370778,-9.70737300721635 -36.20820565498728,-9.70748127133028 -36.20825901687207,-9.70761501002801 -36.20833784249498,-9.70788946542702 -36.20836857564959,-9.70797858506815 -36.20838029121279,-9.70802551696711 -36.20837999263809,-9.70806154247269 -36.20836460920798,-9.70809204072381 -36.20835053871978,-9.70818319671751 -36.20837966340078,-9.70832034049687 -36.20841194533988,-9.70836864111426 -36.20865155927120,-9.70837539956686 -36.20866422837589,-9.70838030664111 -36.20867599374039,-9.70842123429206 -36.20867202425881,-9.70846203358700 -36.20863791487390,-9.70848817583403 -36.20851996131648,-9.70855326482770 -36.20827440096318,-9.70867976110204 -36.20801356938257,-9.70889620236401 -36.20775308593676,-9.70907061359905 -36.20761804743045,-9.70915237577916 -36.20753890514135,-9.70920817361369 -36.20743088809025,-9.70924271947307 -36.20723156244434,-9.70926751303479 -36.20714593457514,-9.70922958526618 -36.20707140379454,-9.70902121599695 -36.20701992989933,-9.70880582935934 -36.20701312701354,-9.70838544832239 -36.20694744510923,-9.70820477270632 -36.20698682197132,-9.70820029039053 -36.20700454659643,-9.70817941878642 -36.20701739986653,-9.70816211021052 -36.20702425605074,-9.70813814757006 -36.20701346949063,-9.70805219303107 -36.20699271563373,-9.70785447064640 -36.20693137737233,-9.70773387700540 -36.20680682290212,-9.70742722371751 -36.20680682290212,-9.70742722371751 -36.20680682290212,-9.70742722371751
          </coordinates>
        </LinearRing>
      </outerBoundaryIs>
    </Polygon>
  </Placemark>
</Document>
</kml>
