<?xml version="1.0" encoding="UTF-8"?>
<kml xmlns="http://www.opengis.net/kml/2.2" xmlns:gx="http://www.google.com/kml/ext/2.2" xmlns:kml="http://www.opengis.net/kml/2.2" xmlns:atom="http://www.w3.org/2005/Atom">
<Document>
  <name>11.kml</name>
  <StyleMap id="FFFF4000">
    <Pair>
      <key>normal</key>
      <styleUrl>#s_FFFF4000</styleUrl>
    </Pair>
    <Pair>
      <key>highlight</key>
      <styleUrl>#s_FFFF4000_hl</styleUrl>
    </Pair>
  </StyleMap>
  <Style id="s_FFFF4000">
   <IconStyle>
      <scale>1.1</scale>
      <Icon>
        <href>http://maps.google.com/mapfiles/kml/pushpin/agrocad.png</href>
      </Icon>
      <hotSpot x="20" y="2" xunits="pixels" yunits="pixels"/>
    </IconStyle>
    <LineStyle>
      <color>FFFF4000</color>
      <width>1</width>
    </LineStyle>
    <PolyStyle>
      <color>40ffffff</color>
      <fill>1</fill>
    </PolyStyle>
  </Style>
  <Style id="s_FFFF4000_hl">
    <IconStyle>
      <scale>1.3</scale>
      <Icon>
        <href>http://maps.google.com/mapfiles/kml/pushpin/agrocad.png</href>
      </Icon>
      <hotSpot x="20" y="2" xunits="pixels" yunits="pixels"/>
    </IconStyle>
    <LineStyle>
      <color>ff000000</color>
      <width>1</width>
    </LineStyle>
    <PolyStyle>
      <color>40ffffff</color>
      <fill>1</fill>
    </PolyStyle>
  </Style>
  <Placemark>
    <name>AgroCAD: 1A8D3</name>
    <styleUrl>FFFF4000</styleUrl>
    <Polygon>
      <outerBoundaryIs>
        <LinearRing>
          <coordinates>
           -36.20887609146620,-9.70961779366581 -36.20898674335101,-9.70955744879942 -36.20927516007162,-9.70937185553594 -36.20942721338782,-9.70928182486043 -36.20964455234674,-9.70920133351376 -36.20998696290954,-9.70907322409533 -36.21035146343466,-9.70890866589659 -36.21077336351538,-9.70868272702680 -36.21108392848100,-9.70845347820147 -36.21130089650650,-9.70827150357991 -36.21155628811481,-9.70812707082896 -36.21178870230702,-9.70798004873822 -36.21183279151202,-9.70799121638541 -36.21185967455112,-9.70803376837325 -36.21189041924893,-9.70808505860182 -36.21195801024462,-9.70818168409735 -36.21201096245893,-9.70829200107085 -36.21205195392493,-9.70845806406824 -36.21207874890205,-9.70858438055006 -36.21209316179373,-9.70874422232804 -36.21205015013253,-9.70896844670465 -36.21199308104252,-9.70913611257683 -36.21192309534863,-9.70925563578040 -36.21180427686761,-9.70942520027254 -36.21164373641861,-9.70922453685401 -36.21156648831922,-9.70934400076018 -36.21151258536451,-9.70942162219445 -36.21118071428230,-9.70988487970002 -36.21146201432980,-9.71012015378780 -36.21141721390491,-9.71019484702046 -36.21129992335859,-9.71032599373379 -36.21119478626918,-9.71045123478290 -36.21107487089009,-9.71060697911639 -36.21096604279219,-9.71073939555910 -36.21073141268958,-9.71093443572853 -36.21051461144847,-9.71109599491018 -36.21033427078826,-9.71123983723286 -36.21009732693595,-9.71149490454153 -36.20995574808894,-9.71163545989073 -36.20978939417425,-9.71184426621666 -36.20973983116935,-9.71190931275156 -36.20957155144914,-9.71176623001452 -36.20936034992042,-9.71154413602302 -36.20948622375713,-9.71139985006820 -36.20959146494043,-9.71111608757903 -36.20963002539273,-9.71084499138168 -36.20964775410853,-9.71045843573233 -36.20962906464684,-9.71037661988869 -36.20932688746052,-9.71032371597950 -36.20893287722021,-9.71112752793608 -36.20838012330299,-9.71063784142812 -36.20887609146620,-9.70961779366581 -36.20887609146620,-9.70961779366581 -36.20887609146620,-9.70961779366581
          </coordinates>
        </LinearRing>
      </outerBoundaryIs>
    </Polygon>
  </Placemark>
</Document>
</kml>
