<?xml version="1.0" encoding="UTF-8"?>
<kml xmlns="http://www.opengis.net/kml/2.2" xmlns:gx="http://www.google.com/kml/ext/2.2" xmlns:kml="http://www.opengis.net/kml/2.2" xmlns:atom="http://www.w3.org/2005/Atom">
<Document>
  <name>1002.kml</name>
  <StyleMap id="FFFF4000">
    <Pair>
      <key>normal</key>
      <styleUrl>#s_FFFF4000</styleUrl>
    </Pair>
    <Pair>
      <key>highlight</key>
      <styleUrl>#s_FFFF4000_hl</styleUrl>
    </Pair>
  </StyleMap>
  <Style id="s_FFFF4000">
   <IconStyle>
      <scale>1.1</scale>
      <Icon>
        <href>http://maps.google.com/mapfiles/kml/pushpin/agrocad.png</href>
      </Icon>
      <hotSpot x="20" y="2" xunits="pixels" yunits="pixels"/>
    </IconStyle>
    <LineStyle>
      <color>FFFF4000</color>
      <width>1</width>
    </LineStyle>
    <PolyStyle>
      <color>40ffffff</color>
      <fill>1</fill>
    </PolyStyle>
  </Style>
  <Style id="s_FFFF4000_hl">
    <IconStyle>
      <scale>1.3</scale>
      <Icon>
        <href>http://maps.google.com/mapfiles/kml/pushpin/agrocad.png</href>
      </Icon>
      <hotSpot x="20" y="2" xunits="pixels" yunits="pixels"/>
    </IconStyle>
    <LineStyle>
      <color>ff000000</color>
      <width>1</width>
    </LineStyle>
    <PolyStyle>
      <color>40ffffff</color>
      <fill>1</fill>
    </PolyStyle>
  </Style>
  <Placemark>
    <name>AgroCAD: 8F92</name>
    <styleUrl>FFFF4000</styleUrl>
    <Polygon>
      <outerBoundaryIs>
        <LinearRing>
          <coordinates>
           -36.20547220222448,-9.77025756146312 -36.20802945399823,-9.77231940196935 -36.20802127487282,-9.77232767182091 -36.20520473285099,-9.77517541295757 -36.20275352665121,-9.77320428363565 -36.20274568861731,-9.77316855656447 -36.20275523898548,-9.77314139928863 -36.20277916433032,-9.77310978395143 -36.20282722704415,-9.77306097048644 -36.20286204874553,-9.77302687895383 -36.20289565838045,-9.77299506465220 -36.20293718530951,-9.77295664661951 -36.20299413926940,-9.77290856433285 -36.20302675579187,-9.77288057424483 -36.20312836782206,-9.77278516549231 -36.20319530246585,-9.77272155619608 -36.20325291688311,-9.77265416514917 -36.20331109560386,-9.77258684227812 -36.20337626575466,-9.77250779266951 -36.20344564503632,-9.77242079520919 -36.20351578406844,-9.77233392961209 -36.20358509009142,-9.77225030559398 -36.20365020577479,-9.77216634961932 -36.20371351017707,-9.77208777545013 -36.20377675349859,-9.77201540125301 -36.20383184822035,-9.77195303469759 -36.20387908907151,-9.77189017493160 -36.20392077989045,-9.77182274055651 -36.20396458854775,-9.77175343894876 -36.20401200983335,-9.77168697912284 -36.20406214274400,-9.77162510315443 -36.20411351470785,-9.77156769998191 -36.20416308604666,-9.77151671802218 -36.20421109611869,-9.77147389143773 -36.20426312038034,-9.77144059303303 -36.20431953399981,-9.77141633092650 -36.20437790867153,-9.77139653374944 -36.20443838880922,-9.77137823146034 -36.20450102117577,-9.77135936068138 -36.20456378327145,-9.77133918157306 -36.20462693596107,-9.77131470855690 -36.20469026167430,-9.77128737632444 -36.20474903912062,-9.77125495726251 -36.20480319461899,-9.77121525280289 -36.20485217917138,-9.77116735004881 -36.20489690916805,-9.77111087171861 -36.20493936107268,-9.77104623088067 -36.20498194781853,-9.77097747648028 -36.20501801520999,-9.77090823579229 -36.20505671676638,-9.77083208924091 -36.20509887598104,-9.77074978679651 -36.20514268981253,-9.77066503321824 -36.20518727383794,-9.77058387434934 -36.20523343215483,-9.77050556267870 -36.20528101794245,-9.77042436230403 -36.20532695828743,-9.77035074819845 -36.20537251107870,-9.77029608148840 -36.20541280678508,-9.77026491393567 -36.20547220222448,-9.77025756146312
          </coordinates>
        </LinearRing>
      </outerBoundaryIs>
    </Polygon>
  </Placemark>
</Document>
</kml>
