<?xml version="1.0" encoding="UTF-8"?>
<kml xmlns="http://www.opengis.net/kml/2.2" xmlns:gx="http://www.google.com/kml/ext/2.2" xmlns:kml="http://www.opengis.net/kml/2.2" xmlns:atom="http://www.w3.org/2005/Atom">
<Document>
  <name>1002.kml</name>
  <StyleMap id="FFFF4000">
    <Pair>
      <key>normal</key>
      <styleUrl>#s_FFFF4000</styleUrl>
    </Pair>
    <Pair>
      <key>highlight</key>
      <styleUrl>#s_FFFF4000_hl</styleUrl>
    </Pair>
  </StyleMap>
  <Style id="s_FFFF4000">
   <IconStyle>
      <scale>1.1</scale>
      <Icon>
        <href>http://maps.google.com/mapfiles/kml/pushpin/agrocad.png</href>
      </Icon>
      <hotSpot x="20" y="2" xunits="pixels" yunits="pixels"/>
    </IconStyle>
    <LineStyle>
      <color>FFFF4000</color>
      <width>1</width>
    </LineStyle>
    <PolyStyle>
      <color>40ffffff</color>
      <fill>1</fill>
    </PolyStyle>
  </Style>
  <Style id="s_FFFF4000_hl">
    <IconStyle>
      <scale>1.3</scale>
      <Icon>
        <href>http://maps.google.com/mapfiles/kml/pushpin/agrocad.png</href>
      </Icon>
      <hotSpot x="20" y="2" xunits="pixels" yunits="pixels"/>
    </IconStyle>
    <LineStyle>
      <color>ff000000</color>
      <width>1</width>
    </LineStyle>
    <PolyStyle>
      <color>40ffffff</color>
      <fill>1</fill>
    </PolyStyle>
  </Style>
  <Placemark>
    <name>AgroCAD: 8EC5</name>
    <styleUrl>FFFF4000</styleUrl>
    <Polygon>
      <outerBoundaryIs>
        <LinearRing>
          <coordinates>
           -36.21331566982513,-9.70424520010602 -36.21329759180426,-9.70421347898595 -36.21328807541325,-9.70417749586000 -36.21330479430859,-9.70414471372338 -36.21333204377069,-9.70411633429115 -36.21336230169314,-9.70409077413051 -36.21338901039513,-9.70407069436599 -36.21354767820527,-9.70392710535648 -36.21378589060091,-9.70372828266803 -36.21429074335801,-9.70332968975490 -36.21509453845690,-9.70265786217940 -36.21576172163775,-9.70209662465933 -36.21582812157038,-9.70204098098466 -36.21588832721415,-9.70198823339753 -36.21595349947366,-9.70192702639922 -36.21601014372415,-9.70187699960111 -36.21604774270148,-9.70185055309251 -36.21609938809425,-9.70185462660020 -36.21615244294897,-9.70189997944586 -36.21622476276932,-9.70198071316264 -36.21630138078282,-9.70206979174165 -36.21638981188171,-9.70218149247445 -36.21647185295183,-9.70228748715843 -36.21657777105238,-9.70241892985771 -36.21663350623540,-9.70248898888821 -36.21672426801774,-9.70259243309997 -36.21680636627974,-9.70268116147442 -36.21688359368273,-9.70278465585297 -36.21696631590110,-9.70289242106559 -36.21705988589734,-9.70301439151313 -36.21715249173604,-9.70312883081999 -36.21724513323247,-9.70323819265005 -36.21732571654031,-9.70332982385568 -36.21738534427899,-9.70339691198915 -36.21759432959623,-9.70363706866199 -36.21765935214807,-9.70371894666721 -36.21786063728276,-9.70398460484270 -36.21794800944330,-9.70409793306900 -36.21804333243097,-9.70421640084065 -36.21811124194719,-9.70429682469659 -36.21816287510490,-9.70436009244878 -36.21821069623948,-9.70441491689892 -36.21824877374728,-9.70445956967609 -36.21830685590732,-9.70452289211537 -36.21845140585794,-9.70466356176519 -36.21859065367982,-9.70478675377941 -36.21862182308791,-9.70480558100335 -36.21858462765227,-9.70482187896376 -36.21852616460748,-9.70484185077801 -36.21838357551104,-9.70488289197486 -36.21810294243088,-9.70495395837918 -36.21775810006122,-9.70503886533020 -36.21742343124603,-9.70511872439940 -36.21711840706924,-9.70520097060209 -36.21682471316022,-9.70528489603987 -36.21660131154762,-9.70534101134543 -36.21646161635272,-9.70537604722744 -36.21636280013682,-9.70540194387484 -36.21624125637858,-9.70542771825781 -36.21608063405004,-9.70545898985491 -36.21590678469694,-9.70549426122584 -36.21571542260441,-9.70553521916913 -36.21553509605109,-9.70557603520890 -36.21535808681178,-9.70561823153445 -36.21518344426908,-9.70566007847053 -36.21502803083278,-9.70570282092938 -36.21488320772969,-9.70574024883313 -36.21475318130468,-9.70576967012151 -36.21472983189703,-9.70577458476881 -36.21468741128510,-9.70578322004182 -36.21464550389588,-9.70578615720031 -36.21460471385939,-9.70577855734531 -36.21456882812550,-9.70576049820738 -36.21453595854847,-9.70573280719291 -36.21450584925104,-9.70569984345051 -36.21447294855060,-9.70566215501592 -36.21445618398987,-9.70564057070587 -36.21400027846315,-9.70503133464882 -36.21331566982513,-9.70424520010602
          </coordinates>
        </LinearRing>
      </outerBoundaryIs>
    </Polygon>
  </Placemark>
</Document>
</kml>
