<?xml version="1.0" encoding="UTF-8"?>
<kml xmlns="http://www.opengis.net/kml/2.2" xmlns:gx="http://www.google.com/kml/ext/2.2" xmlns:kml="http://www.opengis.net/kml/2.2" xmlns:atom="http://www.w3.org/2005/Atom">
<Document>
  <name>1004.kml</name>
  <StyleMap id="FFFF4000">
    <Pair>
      <key>normal</key>
      <styleUrl>#s_FFFF4000</styleUrl>
    </Pair>
    <Pair>
      <key>highlight</key>
      <styleUrl>#s_FFFF4000_hl</styleUrl>
    </Pair>
  </StyleMap>
  <Style id="s_FFFF4000">
   <IconStyle>
      <scale>1.1</scale>
      <Icon>
        <href>http://maps.google.com/mapfiles/kml/pushpin/agrocad.png</href>
      </Icon>
      <hotSpot x="20" y="2" xunits="pixels" yunits="pixels"/>
    </IconStyle>
    <LineStyle>
      <color>FFFF4000</color>
      <width>1</width>
    </LineStyle>
    <PolyStyle>
      <color>40ffffff</color>
      <fill>1</fill>
    </PolyStyle>
  </Style>
  <Style id="s_FFFF4000_hl">
    <IconStyle>
      <scale>1.3</scale>
      <Icon>
        <href>http://maps.google.com/mapfiles/kml/pushpin/agrocad.png</href>
      </Icon>
      <hotSpot x="20" y="2" xunits="pixels" yunits="pixels"/>
    </IconStyle>
    <LineStyle>
      <color>ff000000</color>
      <width>1</width>
    </LineStyle>
    <PolyStyle>
      <color>40ffffff</color>
      <fill>1</fill>
    </PolyStyle>
  </Style>
  <Placemark>
    <name>AgroCAD: 8EC4</name>
    <styleUrl>FFFF4000</styleUrl>
    <Polygon>
      <outerBoundaryIs>
        <LinearRing>
          <coordinates>
           -36.20991793535540,-9.70581128461679 -36.20991360608142,-9.70580076513185 -36.20995364825336,-9.70579609771376 -36.21005841970053,-9.70578333409112 -36.21089034472974,-9.70568099215555 -36.21093875095811,-9.70567410935191 -36.21098420376249,-9.70567017573209 -36.21102967021663,-9.70566968774229 -36.21107242552252,-9.70566801819152 -36.21111754459178,-9.70567399379721 -36.21115687091780,-9.70569740375440 -36.21118745765334,-9.70573546359824 -36.21120609718479,-9.70578141800693 -36.21121429503875,-9.70583110989076 -36.21121688190625,-9.70586343203323 -36.21120426137955,-9.70586993192466 -36.21117099134560,-9.70589001163752 -36.21113255227644,-9.70590971862982 -36.21109290126864,-9.70593102870786 -36.21105047903770,-9.70595178300916 -36.21101358960956,-9.70597234406110 -36.21097511911624,-9.70599754365902 -36.21093932120701,-9.70602848794647 -36.21090502109165,-9.70606375344932 -36.21087339484480,-9.70609950307128 -36.21084500654387,-9.70613540694252 -36.21080947862843,-9.70616171365881 -36.21076334832439,-9.70617796367093 -36.21072204235778,-9.70619754599896 -36.21068798173778,-9.70622530826258 -36.21064963459466,-9.70625732789583 -36.21061411464991,-9.70629225111986 -36.21057876953005,-9.70632838317417 -36.21054293575296,-9.70636624048574 -36.21050571044162,-9.70640378258143 -36.21046831371268,-9.70644012793688 -36.21043098593618,-9.70647682872508 -36.21039049393938,-9.70651390729643 -36.21034845456180,-9.70654933976819 -36.21030365683688,-9.70658473200720 -36.21026315493610,-9.70661794210204 -36.21021952958686,-9.70664611769605 -36.21019074750014,-9.70666385587249 -36.21013337916881,-9.70649007839790 -36.21007558097534,-9.70632182115694 -36.21002141709125,-9.70615763562446 -36.20991793535540,-9.70581128461679
          </coordinates>
        </LinearRing>
      </outerBoundaryIs>
    </Polygon>
  </Placemark>
</Document>
</kml>
