<?xml version="1.0" encoding="UTF-8"?>
<kml xmlns="http://www.opengis.net/kml/2.2" xmlns:gx="http://www.google.com/kml/ext/2.2" xmlns:kml="http://www.opengis.net/kml/2.2" xmlns:atom="http://www.w3.org/2005/Atom">
<Document>
  <name>1003.kml</name>
  <StyleMap id="FFFF4000">
    <Pair>
      <key>normal</key>
      <styleUrl>#s_FFFF4000</styleUrl>
    </Pair>
    <Pair>
      <key>highlight</key>
      <styleUrl>#s_FFFF4000_hl</styleUrl>
    </Pair>
  </StyleMap>
  <Style id="s_FFFF4000">
   <IconStyle>
      <scale>1.1</scale>
      <Icon>
        <href>http://maps.google.com/mapfiles/kml/pushpin/agrocad.png</href>
      </Icon>
      <hotSpot x="20" y="2" xunits="pixels" yunits="pixels"/>
    </IconStyle>
    <LineStyle>
      <color>FFFF4000</color>
      <width>1</width>
    </LineStyle>
    <PolyStyle>
      <color>40ffffff</color>
      <fill>1</fill>
    </PolyStyle>
  </Style>
  <Style id="s_FFFF4000_hl">
    <IconStyle>
      <scale>1.3</scale>
      <Icon>
        <href>http://maps.google.com/mapfiles/kml/pushpin/agrocad.png</href>
      </Icon>
      <hotSpot x="20" y="2" xunits="pixels" yunits="pixels"/>
    </IconStyle>
    <LineStyle>
      <color>ff000000</color>
      <width>1</width>
    </LineStyle>
    <PolyStyle>
      <color>40ffffff</color>
      <fill>1</fill>
    </PolyStyle>
  </Style>
  <Placemark>
    <name>AgroCAD: 8EC6</name>
    <styleUrl>FFFF4000</styleUrl>
    <Polygon>
      <outerBoundaryIs>
        <LinearRing>
          <coordinates>
           -36.21128097783351,-9.70455922886667 -36.21127428882424,-9.70445261926554 -36.21126783800570,-9.70434702643940 -36.21124849502860,-9.70411967752080 -36.21124158769074,-9.70407591753075 -36.21123938413679,-9.70402786480144 -36.21123668221394,-9.70397648276973 -36.21123444646717,-9.70392465806061 -36.21123360310448,-9.70387421194977 -36.21123343868886,-9.70382537344246 -36.21123138570454,-9.70377588369641 -36.21122827857859,-9.70372360133807 -36.21122718293907,-9.70367108959459 -36.21122226611253,-9.70361825079877 -36.21122109979227,-9.70355304869872 -36.21121910262063,-9.70351277147635 -36.21121782250139,-9.70346075049349 -36.21121886048586,-9.70341182522771 -36.21122553709090,-9.70334734676943 -36.21123258947029,-9.70329739107003 -36.21125539979806,-9.70325421082786 -36.21128512680146,-9.70321829778817 -36.21132727577239,-9.70319224019426 -36.21137467219048,-9.70317026993132 -36.21142468600778,-9.70315389795189 -36.21147526918827,-9.70313919283016 -36.21152659564138,-9.70312683581080 -36.21157948952611,-9.70311424691571 -36.21163325056642,-9.70310171529131 -36.21168570947831,-9.70309094585624 -36.21173619163787,-9.70307765804581 -36.21178720544076,-9.70306683840755 -36.21183943556969,-9.70305670715129 -36.21189264475848,-9.70304620492732 -36.21194442116370,-9.70303868576948 -36.21199596306794,-9.70303153684926 -36.21204618494365,-9.70302818920120 -36.21209222402796,-9.70303370553989 -36.21213278782881,-9.70305165615732 -36.21217317822232,-9.70307885252916 -36.21221139060578,-9.70311273070717 -36.21224736428608,-9.70314740428175 -36.21228166328481,-9.70318471538430 -36.21231658786385,-9.70322043190006 -36.21235169892155,-9.70325575214166 -36.21238732543952,-9.70329252841434 -36.21242340782251,-9.70333053423220 -36.21244194364163,-9.70335255162149 -36.21255405831671,-9.70347215139128 -36.21268602829077,-9.70361412745784 -36.21289974886455,-9.70383287066564 -36.21311480568883,-9.70405757079300 -36.21330301482208,-9.70427445293569 -36.21397128574705,-9.70505399996646 -36.21444130994087,-9.70567394622237 -36.21446433734529,-9.70569999772342 -36.21450221036249,-9.70574524890893 -36.21453454608382,-9.70578118004014 -36.21454920803226,-9.70579806099888 -36.21433469786357,-9.70583736943822 -36.21397066741903,-9.70590983673975 -36.21392586534728,-9.70591891504889 -36.21387994885953,-9.70592853415649 -36.21383587158186,-9.70593761204628 -36.21378788488370,-9.70594738389245 -36.21374088662726,-9.70595722450796 -36.21369327659544,-9.70596753510415 -36.21364561800291,-9.70597613486209 -36.21359976248820,-9.70598473442612 -36.21355550367123,-9.70599256551929 -36.21350951254001,-9.70599888055353 -36.21346386358361,-9.70600784517990 -36.21341999504437,-9.70601354429899 -36.21337563583386,-9.70602016057393 -36.21332968123051,-9.70602629217061 -36.21328355081749,-9.70603392165307 -36.21323777895503,-9.70604044144593 -36.21319166180458,-9.70604588605118 -36.21314545403564,-9.70605333172305 -36.21310042774691,-9.70605974897277 -36.21305475891585,-9.70606749134703 -36.21301066380829,-9.70607412202786 -36.21296237660211,-9.70608225719907 -36.21291334362083,-9.70608942807409 -36.21286390881696,-9.70609848824320 -36.21281590861959,-9.70610704679773 -36.21276945997880,-9.70611688774535 -36.21272246178005,-9.70612566449749 -36.21267294974038,-9.70613449845595 -36.21262641476727,-9.70614366851954 -36.21258224768355,-9.70615295541699 -36.21253706333730,-9.70616242139925 -36.21248948366266,-9.70617187798591 -36.21244565637056,-9.70618167022311 -36.21239745124408,-9.70619174864509 -36.21234927688885,-9.70620363492252 -36.21231954860328,-9.70620810183103 -36.21214754677687,-9.70624603520951 -36.21189787790920,-9.70630087758811 -36.21152702272136,-9.70638270585015 -36.21148452458888,-9.70639152674558 -36.21143766036268,-9.70639950649834 -36.21139229760707,-9.70640377459828 -36.21135187960503,-9.70639638066171 -36.21131633310684,-9.70637125402098 -36.21128986704434,-9.70633616621458 -36.21127520161408,-9.70629421512450 -36.21126516844369,-9.70624978348263 -36.21125942959400,-9.70620307467445 -36.21125636916693,-9.70615645552471 -36.21125745109406,-9.70610659156561 -36.21125859822336,-9.70605861379714 -36.21126064228707,-9.70601086712813 -36.21126071613344,-9.70594829392583 -36.21126097522370,-9.70591090380836 -36.21126182776495,-9.70586014050430 -36.21125840512494,-9.70579508157362 -36.21125652833786,-9.70575764721964 -36.21125833751899,-9.70569919003487 -36.21126282547041,-9.70565178634626 -36.21126682617769,-9.70561706720049 -36.21127217885444,-9.70556134360335 -36.21127651591321,-9.70551466713159 -36.21127918477046,-9.70546889864579 -36.21128151476491,-9.70542118221910 -36.21128343009449,-9.70537159909822 -36.21128358341702,-9.70532217110028 -36.21128336522392,-9.70527471752713 -36.21128357970467,-9.70522693917420 -36.21128602390850,-9.70517919775804 -36.21128866839113,-9.70513112532326 -36.21129019466181,-9.70508411282180 -36.21129215493806,-9.70503330907407 -36.21129458098282,-9.70498597149339 -36.21129338218295,-9.70493569740821 -36.21129450134100,-9.70490783050158 -36.21128878250122,-9.70477277178944 -36.21128624445493,-9.70465675552330 -36.21128097783351,-9.70455922886667
          </coordinates>
        </LinearRing>
      </outerBoundaryIs>
    </Polygon>
  </Placemark>
</Document>
</kml>
