<?xml version="1.0" encoding="UTF-8"?>
<kml xmlns="http://www.opengis.net/kml/2.2" xmlns:gx="http://www.google.com/kml/ext/2.2" xmlns:kml="http://www.opengis.net/kml/2.2" xmlns:atom="http://www.w3.org/2005/Atom">
<Document>
  <name>1006.kml</name>
  <StyleMap id="FFFF4000">
    <Pair>
      <key>normal</key>
      <styleUrl>#s_FFFF4000</styleUrl>
    </Pair>
    <Pair>
      <key>highlight</key>
      <styleUrl>#s_FFFF4000_hl</styleUrl>
    </Pair>
  </StyleMap>
  <Style id="s_FFFF4000">
   <IconStyle>
      <scale>1.1</scale>
      <Icon>
        <href>http://maps.google.com/mapfiles/kml/pushpin/agrocad.png</href>
      </Icon>
      <hotSpot x="20" y="2" xunits="pixels" yunits="pixels"/>
    </IconStyle>
    <LineStyle>
      <color>FFFF4000</color>
      <width>1</width>
    </LineStyle>
    <PolyStyle>
      <color>40ffffff</color>
      <fill>1</fill>
    </PolyStyle>
  </Style>
  <Style id="s_FFFF4000_hl">
    <IconStyle>
      <scale>1.3</scale>
      <Icon>
        <href>http://maps.google.com/mapfiles/kml/pushpin/agrocad.png</href>
      </Icon>
      <hotSpot x="20" y="2" xunits="pixels" yunits="pixels"/>
    </IconStyle>
    <LineStyle>
      <color>ff000000</color>
      <width>1</width>
    </LineStyle>
    <PolyStyle>
      <color>40ffffff</color>
      <fill>1</fill>
    </PolyStyle>
  </Style>
  <Placemark>
    <name>AgroCAD: 8EC3</name>
    <styleUrl>FFFF4000</styleUrl>
    <Polygon>
      <outerBoundaryIs>
        <LinearRing>
          <coordinates>
           -36.20789327037921,-9.70581219088731 -36.20777972634239,-9.70566457573704 -36.20769492764563,-9.70552563304326 -36.20771850674987,-9.70549824131911 -36.20774715571826,-9.70546691670354 -36.20777731311858,-9.70543605016667 -36.20780834144857,-9.70540407655753 -36.20783936128442,-9.70537054169329 -36.20790036374753,-9.70530192706888 -36.20793228946773,-9.70527004987171 -36.20796688657868,-9.70523878060471 -36.20800116803875,-9.70520701449584 -36.20803483678201,-9.70517457308982 -36.20806814111352,-9.70514336187631 -36.20810250594085,-9.70510972534396 -36.20813920863070,-9.70507799746419 -36.20817526905754,-9.70504370447465 -36.20821071401939,-9.70501046037399 -36.20824481271551,-9.70497732142210 -36.20827991270451,-9.70494382202703 -36.20831599758072,-9.70491173104010 -36.20834953064551,-9.70488781470815 -36.20838037774172,-9.70488015685114 -36.20840843361543,-9.70488209488208 -36.20843443091800,-9.70489497544715 -36.20845986195786,-9.70492333557973 -36.20848506734573,-9.70495938599385 -36.20850698210454,-9.70500075685673 -36.20852618281137,-9.70504429991459 -36.20854658470051,-9.70508854897660 -36.20856585128623,-9.70513477824854 -36.20858464341909,-9.70518212381883 -36.20860254497057,-9.70523021682672 -36.20861942676334,-9.70527791443089 -36.20863740591689,-9.70532388902308 -36.20865689897576,-9.70537040878489 -36.20867515220143,-9.70541681439988 -36.20869804355756,-9.70546038876527 -36.20872186731502,-9.70550459099543 -36.20874547934413,-9.70554804260473 -36.20877764382782,-9.70558672299856 -36.20881232815695,-9.70561856006445 -36.20885164774762,-9.70564480214181 -36.20889300292948,-9.70566344923444 -36.20893476279796,-9.70567798208958 -36.20895852319601,-9.70568732738058 -36.20907151840637,-9.70572306697783 -36.20926967092763,-9.70578793863762 -36.20931254527083,-9.70580204193332 -36.20935623051677,-9.70581816692782 -36.20939578832746,-9.70583437122994 -36.20937928613424,-9.70584357683567 -36.20933816774519,-9.70586144087776 -36.20929865785271,-9.70588284138282 -36.20925709850148,-9.70590476556860 -36.20921583972913,-9.70592907098789 -36.20917408347720,-9.70595281403641 -36.20913484001008,-9.70597694552889 -36.20909710775506,-9.70600029953958 -36.20905987383110,-9.70602436051478 -36.20902252606413,-9.70605160213252 -36.20898593144500,-9.70607954685536 -36.20895035496083,-9.70610910653078 -36.20891465139783,-9.70613835568761 -36.20888035992008,-9.70617054600233 -36.20885983984174,-9.70618952546541 -36.20882693456095,-9.70621975836161 -36.20879305348844,-9.70624963141035 -36.20875603113520,-9.70627948817616 -36.20871738720688,-9.70630882252151 -36.20867950741465,-9.70633839210018 -36.20864079198266,-9.70636656236554 -36.20860297753977,-9.70639512831659 -36.20856534276591,-9.70642348357920 -36.20852726408748,-9.70645275144904 -36.20848983082014,-9.70648130550104 -36.20845309885521,-9.70650941225193 -36.20841342992641,-9.70653643751595 -36.20837436439403,-9.70656575300196 -36.20834131659532,-9.70659202272328 -36.20829377050152,-9.70662521330670 -36.20824325408058,-9.70653705897920 -36.20810903090802,-9.70625633358031 -36.20804595958509,-9.70612485512816 -36.20801681663747,-9.70605916802299 -36.20795737906444,-9.70592962259401 -36.20789327037921,-9.70581219088731
          </coordinates>
        </LinearRing>
      </outerBoundaryIs>
    </Polygon>
  </Placemark>
</Document>
</kml>
