<?xml version="1.0" encoding="UTF-8"?>
<kml xmlns="http://www.opengis.net/kml/2.2" xmlns:gx="http://www.google.com/kml/ext/2.2" xmlns:kml="http://www.opengis.net/kml/2.2" xmlns:atom="http://www.w3.org/2005/Atom">
<Document>
  <name>3027.kml</name>
  <StyleMap id="FFFF4000">
    <Pair>
      <key>normal</key>
      <styleUrl>#s_FFFF4000</styleUrl>
    </Pair>
    <Pair>
      <key>highlight</key>
      <styleUrl>#s_FFFF4000_hl</styleUrl>
    </Pair>
  </StyleMap>
  <Style id="s_FFFF4000">
   <IconStyle>
      <scale>1.1</scale>
      <Icon>
        <href>http://maps.google.com/mapfiles/kml/pushpin/agrocad.png</href>
      </Icon>
      <hotSpot x="20" y="2" xunits="pixels" yunits="pixels"/>
    </IconStyle>
    <LineStyle>
      <color>FFFF4000</color>
      <width>1</width>
    </LineStyle>
    <PolyStyle>
      <color>40ffffff</color>
      <fill>1</fill>
    </PolyStyle>
  </Style>
  <Style id="s_FFFF4000_hl">
    <IconStyle>
      <scale>1.3</scale>
      <Icon>
        <href>http://maps.google.com/mapfiles/kml/pushpin/agrocad.png</href>
      </Icon>
      <hotSpot x="20" y="2" xunits="pixels" yunits="pixels"/>
    </IconStyle>
    <LineStyle>
      <color>ff000000</color>
      <width>1</width>
    </LineStyle>
    <PolyStyle>
      <color>40ffffff</color>
      <fill>1</fill>
    </PolyStyle>
  </Style>
  <Placemark>
    <name>AgroCAD: 92C3</name>
    <styleUrl>FFFF4000</styleUrl>
    <Polygon>
      <outerBoundaryIs>
        <LinearRing>
          <coordinates>
           -36.24926189332604,-9.73893567542427 -36.24925009149012,-9.73895310572542 -36.24922694121745,-9.73897497229202 -36.24920098971311,-9.73899582098828 -36.24917451165071,-9.73901837486735 -36.24916058602894,-9.73903040310788 -36.24860094338981,-9.73950401917311 -36.24806501501493,-9.73995076630071 -36.24749005709781,-9.74043393316506 -36.24707079760037,-9.74079132406851 -36.24671070730531,-9.74109038978373 -36.24657869266595,-9.74120333838963 -36.24652271178844,-9.74125243579248 -36.24651069889240,-9.74126092613006 -36.24650182241270,-9.74126925975186 -36.24648814945105,-9.74128028903325 -36.24648236861715,-9.74128380812433 -36.24646779540468,-9.74128614074115 -36.24646363292300,-9.74128008927699 -36.24646008657796,-9.74126730594126 -36.24646411652687,-9.74117948785128 -36.24646813606198,-9.74116163181215 -36.24648071391478,-9.74110932005577 -36.24650016624352,-9.74105878429331 -36.24651165807524,-9.74103343174213 -36.24658697600613,-9.74091361944994 -36.24660140824924,-9.74089530349124 -36.24665898313708,-9.74080871021192 -36.24668432994840,-9.74078062022685 -36.24670888653228,-9.74075537025585 -36.24673376593985,-9.74072948297134 -36.24675937210231,-9.74070274135601 -36.24678435828875,-9.74067294816740 -36.24680986719506,-9.74064158307069 -36.24683252892401,-9.74061139840715 -36.24685439643720,-9.74058214472550 -36.24687642863454,-9.74055218072187 -36.24689916370820,-9.74052119676917 -36.24691817324496,-9.74050212240012 -36.24698983060002,-9.74041679379201 -36.24700015170280,-9.74040843430197 -36.24702149498016,-9.74038501592336 -36.24704675535556,-9.74035764105287 -36.24707057668551,-9.74032722614116 -36.24709229941357,-9.74030308053002 -36.24711313184747,-9.74027710167126 -36.24713292024021,-9.74025065917234 -36.24715558356136,-9.74021355531060 -36.24716547096888,-9.74019432118229 -36.24717946734011,-9.74015163620330 -36.24718361042774,-9.74013038834537 -36.24718568432125,-9.74008735025979 -36.24717755782185,-9.74005468480327 -36.24716707854984,-9.74002015991639 -36.24715675908927,-9.73998868971558 -36.24714610688965,-9.73995657476872 -36.24713500486846,-9.73992539524526 -36.24712886066329,-9.73989213367278 -36.24712466871343,-9.73986035247784 -36.24712368117445,-9.73982681288498 -36.24712337516788,-9.73979406056890 -36.24712328922699,-9.73976024701795 -36.24712477017407,-9.73972539638973 -36.24712863804662,-9.73968999096102 -36.24713060450655,-9.73965675684988 -36.24713603793431,-9.73963130592937 -36.24714710758975,-9.73955635743743 -36.24715584073296,-9.73952320030020 -36.24716580723683,-9.73949006372196 -36.24716960556828,-9.73946832087284 -36.24717902599768,-9.73943441811452 -36.24718937910031,-9.73939961740878 -36.24720235384469,-9.73936385092022 -36.24721450085824,-9.73932841431181 -36.24722681970660,-9.73929363172934 -36.24724076544428,-9.73926390161122 -36.24725956964029,-9.73920872160451 -36.24729287594315,-9.73912459935758 -36.24730422264246,-9.73909328656812 -36.24731858462960,-9.73907760897625 -36.24749378966590,-9.73872391321958 -36.24750829984489,-9.73869740188965 -36.24759233988108,-9.73849404074915 -36.24761674408548,-9.73843400839892 -36.24764356430296,-9.73837500562683 -36.24767331245061,-9.73831561459828 -36.24770387182160,-9.73825019632688 -36.24772993197416,-9.73819068268522 -36.24775328349331,-9.73813334944640 -36.24777893506195,-9.73807061815277 -36.24780237070300,-9.73800736731429 -36.24782418097989,-9.73794338233963 -36.24784233477428,-9.73787847438068 -36.24786083275502,-9.73781096674252 -36.24788102510022,-9.73773955658706 -36.24789161430943,-9.73769958455668 -36.24800890692648,-9.73735404166649 -36.24803004373550,-9.73729624321281 -36.24806822001983,-9.73719278188852 -36.24808641157524,-9.73713963914842 -36.24812460630155,-9.73703630313282 -36.24814921156586,-9.73696275093787 -36.24816690496702,-9.73689065908402 -36.24818385477011,-9.73682590475029 -36.24819691438876,-9.73677454965550 -36.24820836991180,-9.73672552743470 -36.24822255334221,-9.73667269756767 -36.24823421256941,-9.73662947352370 -36.24824586146270,-9.73660161628301 -36.24826807271061,-9.73658781107522 -36.24828529034865,-9.73658728514886 -36.24829905403475,-9.73660220726729 -36.24926189332604,-9.73893567542427 -36.24926189332604,-9.73893567542427
          </coordinates>
        </LinearRing>
      </outerBoundaryIs>
    </Polygon>
  </Placemark>
</Document>
</kml>
