<?xml version="1.0" encoding="UTF-8"?>
<kml xmlns="http://www.opengis.net/kml/2.2" xmlns:gx="http://www.google.com/kml/ext/2.2" xmlns:kml="http://www.opengis.net/kml/2.2" xmlns:atom="http://www.w3.org/2005/Atom">
<Document>
  <name>3005.kml</name>
  <StyleMap id="FFFF4000">
    <Pair>
      <key>normal</key>
      <styleUrl>#s_FFFF4000</styleUrl>
    </Pair>
    <Pair>
      <key>highlight</key>
      <styleUrl>#s_FFFF4000_hl</styleUrl>
    </Pair>
  </StyleMap>
  <Style id="s_FFFF4000">
   <IconStyle>
      <scale>1.1</scale>
      <Icon>
        <href>http://maps.google.com/mapfiles/kml/pushpin/agrocad.png</href>
      </Icon>
      <hotSpot x="20" y="2" xunits="pixels" yunits="pixels"/>
    </IconStyle>
    <LineStyle>
      <color>FFFF4000</color>
      <width>1</width>
    </LineStyle>
    <PolyStyle>
      <color>40ffffff</color>
      <fill>1</fill>
    </PolyStyle>
  </Style>
  <Style id="s_FFFF4000_hl">
    <IconStyle>
      <scale>1.3</scale>
      <Icon>
        <href>http://maps.google.com/mapfiles/kml/pushpin/agrocad.png</href>
      </Icon>
      <hotSpot x="20" y="2" xunits="pixels" yunits="pixels"/>
    </IconStyle>
    <LineStyle>
      <color>ff000000</color>
      <width>1</width>
    </LineStyle>
    <PolyStyle>
      <color>40ffffff</color>
      <fill>1</fill>
    </PolyStyle>
  </Style>
  <Placemark>
    <name>AgroCAD: 953B</name>
    <styleUrl>FFFF4000</styleUrl>
    <Polygon>
      <outerBoundaryIs>
        <LinearRing>
          <coordinates>
           -36.26290644230262,-9.76325882646766 -36.26015294061958,-9.76521400706898 -36.26152523886494,-9.76859257977795 -36.26177780205998,-9.76921673282229 -36.26189519387089,-9.76951148526185 -36.26194118292177,-9.76962814928267 -36.26197875376978,-9.76971637842472 -36.26204405785607,-9.76986819095554 -36.26210134178684,-9.77002068239233 -36.26212161173893,-9.77007301796431 -36.26213388285985,-9.77007338582553 -36.26216034819704,-9.77005391762894 -36.26220692405505,-9.77001080627854 -36.26228387153702,-9.76996222256170 -36.26236010001793,-9.76992777191295 -36.26242871686244,-9.76988673213090 -36.26247670171613,-9.76984018317623 -36.26252563875355,-9.76977674768772 -36.26255500356947,-9.76971718946078 -36.26258120295946,-9.76965073447295 -36.26261019583307,-9.76957346778050 -36.26264248692027,-9.76949802594733 -36.26266960213556,-9.76943459682840 -36.26268949314768,-9.76935608280803 -36.26269679570619,-9.76928890886058 -36.26269190319923,-9.76920825864357 -36.26267956226508,-9.76914257458244 -36.26266478959225,-9.76907744727941 -36.26264357467120,-9.76898389824857 -36.26263065037169,-9.76888233357217 -36.26263421932242,-9.76880214718608 -36.26265407392340,-9.76871243008400 -36.26268348335925,-9.76863046723866 -36.26271537689102,-9.76855294633451 -36.26273277315384,-9.76850720624089 -36.26275472034172,-9.76844382323526 -36.26277318745486,-9.76837848448626 -36.26278748288350,-9.76830001153432 -36.26279381980108,-9.76823144989242 -36.26280040697807,-9.76816073609997 -36.26281029388650,-9.76801131013555 -36.26281374445915,-9.76797509257545 -36.26281446317411,-9.76796919973483 -36.26282321059870,-9.76788565572859 -36.26283711889894,-9.76778538211862 -36.26286179815528,-9.76765927394446 -36.26289228907769,-9.76756134216959 -36.26292883212221,-9.76747982365151 -36.26297217860525,-9.76740733833428 -36.26302376795901,-9.76734159220641 -36.26307084473185,-9.76728687858515 -36.26311529099787,-9.76723888469012 -36.26323066218957,-9.76711544515721 -36.26330371116572,-9.76704394631411 -36.26338614590674,-9.76697480513524 -36.26348706692607,-9.76689700343226 -36.26357772895290,-9.76684104718241 -36.26367302503761,-9.76679353092637 -36.26376116454272,-9.76674789439575 -36.26385724517404,-9.76670040278181 -36.26397538588339,-9.76664266068382 -36.26405191641314,-9.76660451097205 -36.26412267972093,-9.76656378642358 -36.26418381970638,-9.76652097362360 -36.26422076141972,-9.76647973129438 -36.26422225554153,-9.76644590672063 -36.26420961450222,-9.76640044673771 -36.26418438962905,-9.76633437030338 -36.26414629706554,-9.76624336858680 -36.26410479046747,-9.76614612585712 -36.26406050134254,-9.76604516163010 -36.26402419678531,-9.76596101156818 -36.26297966005901,-9.76344502258373 -36.26290644230262,-9.76325882646766
          </coordinates>
        </LinearRing>
      </outerBoundaryIs>
    </Polygon>
  </Placemark>
</Document>
</kml>
