<?xml version="1.0" encoding="UTF-8"?>
<kml xmlns="http://www.opengis.net/kml/2.2" xmlns:gx="http://www.google.com/kml/ext/2.2" xmlns:kml="http://www.opengis.net/kml/2.2" xmlns:atom="http://www.w3.org/2005/Atom">
<Document>
  <name>3006.kml</name>
  <StyleMap id="FFFF4000">
    <Pair>
      <key>normal</key>
      <styleUrl>#s_FFFF4000</styleUrl>
    </Pair>
    <Pair>
      <key>highlight</key>
      <styleUrl>#s_FFFF4000_hl</styleUrl>
    </Pair>
  </StyleMap>
  <Style id="s_FFFF4000">
   <IconStyle>
      <scale>1.1</scale>
      <Icon>
        <href>http://maps.google.com/mapfiles/kml/pushpin/agrocad.png</href>
      </Icon>
      <hotSpot x="20" y="2" xunits="pixels" yunits="pixels"/>
    </IconStyle>
    <LineStyle>
      <color>FFFF4000</color>
      <width>1</width>
    </LineStyle>
    <PolyStyle>
      <color>40ffffff</color>
      <fill>1</fill>
    </PolyStyle>
  </Style>
  <Style id="s_FFFF4000_hl">
    <IconStyle>
      <scale>1.3</scale>
      <Icon>
        <href>http://maps.google.com/mapfiles/kml/pushpin/agrocad.png</href>
      </Icon>
      <hotSpot x="20" y="2" xunits="pixels" yunits="pixels"/>
    </IconStyle>
    <LineStyle>
      <color>ff000000</color>
      <width>1</width>
    </LineStyle>
    <PolyStyle>
      <color>40ffffff</color>
      <fill>1</fill>
    </PolyStyle>
  </Style>
  <Placemark>
    <name>AgroCAD: 9538</name>
    <styleUrl>FFFF4000</styleUrl>
    <Polygon>
      <outerBoundaryIs>
        <LinearRing>
          <coordinates>
           -36.26293811528454,-9.76323633611166 -36.26301511463257,-9.76342234207645 -36.26403143010904,-9.76588205346322 -36.26406520754247,-9.76596052846508 -36.26409194403417,-9.76602424375030 -36.26412168376930,-9.76610173263052 -36.26414958073962,-9.76616594773854 -36.26417723155947,-9.76623045433345 -36.26420366672950,-9.76629516216654 -36.26423297826664,-9.76637392323671 -36.26426369061352,-9.76643142514107 -36.26427561722515,-9.76643321983608 -36.26430098527204,-9.76641621636985 -36.26434841925686,-9.76637514213105 -36.26441335346469,-9.76632186401407 -36.26448108634598,-9.76627272636138 -36.26454577265278,-9.76623091373837 -36.26464202556317,-9.76618290638861 -36.26472348701205,-9.76615585909803 -36.26479116850402,-9.76614112522650 -36.26485333845206,-9.76612823642871 -36.26499701750135,-9.76606546214955 -36.26504295742596,-9.76602604036212 -36.26511143517714,-9.76593375041773 -36.26517477948589,-9.76582121322682 -36.26523323624708,-9.76570410723319 -36.26528042426416,-9.76560038684943 -36.26531493153454,-9.76548585744760 -36.26535026870528,-9.76536300956114 -36.26537814642914,-9.76525772545884 -36.26540015893368,-9.76517045960697 -36.26542917891906,-9.76507771657035 -36.26546723745911,-9.76500048121305 -36.26552196409452,-9.76493401970732 -36.26558966643819,-9.76488103484173 -36.26566212079454,-9.76483564224704 -36.26574173887611,-9.76479858106330 -36.26581084293909,-9.76477321767212 -36.26590699939388,-9.76474578625413 -36.26601702322286,-9.76473049412626 -36.26611740933847,-9.76473425433091 -36.26623795772307,-9.76474648947778 -36.26632909973795,-9.76475732710290 -36.26642915401430,-9.76476009227738 -36.26651213604839,-9.76476045593499 -36.26659751003414,-9.76475463200076 -36.26669266751051,-9.76472525466534 -36.26677252032339,-9.76469145916175 -36.26686775166459,-9.76464378478222 -36.26696853325424,-9.76458066566399 -36.26704011967662,-9.76453049264656 -36.26708043866398,-9.76447804789695 -36.26708988249981,-9.76440490599055 -36.26706757728512,-9.76433289501215 -36.26703984051302,-9.76425681420663 -36.26700223189655,-9.76416816090733 -36.26695667124954,-9.76405332910119 -36.26691654596129,-9.76395338430342 -36.26686077335571,-9.76381775001327 -36.26584624488506,-9.76132986175669 -36.26578846336413,-9.76121233232271 -36.26293811528454,-9.76323633611166
          </coordinates>
        </LinearRing>
      </outerBoundaryIs>
    </Polygon>
  </Placemark>
</Document>
</kml>
