<?xml version="1.0" encoding="UTF-8"?>
<kml xmlns="http://www.opengis.net/kml/2.2" xmlns:gx="http://www.google.com/kml/ext/2.2" xmlns:kml="http://www.opengis.net/kml/2.2" xmlns:atom="http://www.w3.org/2005/Atom">
<Document>
  <name>1019.kml</name>
  <StyleMap id="FF0040FF">
    <Pair>
      <key>normal</key>
      <styleUrl>#s_FF0040FF</styleUrl>
    </Pair>
    <Pair>
      <key>highlight</key>
      <styleUrl>#s_FF0040FF_hl</styleUrl>
    </Pair>
  </StyleMap>
  <Style id="s_FF0040FF">
   <IconStyle>
      <scale>1.1</scale>
      <Icon>
        <href>http://maps.google.com/mapfiles/kml/pushpin/agrocad.png</href>
      </Icon>
      <hotSpot x="20" y="2" xunits="pixels" yunits="pixels"/>
    </IconStyle>
    <LineStyle>
      <color>FF0040FF</color>
      <width>1</width>
    </LineStyle>
    <PolyStyle>
      <color>40ffffff</color>
      <fill>1</fill>
    </PolyStyle>
  </Style>
  <Style id="s_FF0040FF_hl">
    <IconStyle>
      <scale>1.3</scale>
      <Icon>
        <href>http://maps.google.com/mapfiles/kml/pushpin/agrocad.png</href>
      </Icon>
      <hotSpot x="20" y="2" xunits="pixels" yunits="pixels"/>
    </IconStyle>
    <LineStyle>
      <color>ff000000</color>
      <width>1</width>
    </LineStyle>
    <PolyStyle>
      <color>40ffffff</color>
      <fill>1</fill>
    </PolyStyle>
  </Style>
  <Placemark>
    <name>AgroCAD: 83B6</name>
    <styleUrl>FF0040FF</styleUrl>
    <Polygon>
      <outerBoundaryIs>
        <LinearRing>
          <coordinates>
           -36.32380909153056,-9.81134698856865 -36.32605639224647,-9.81077991315297 -36.32762270837017,-9.81038666277475 -36.32774753016529,-9.81079679190172 -36.32791899455887,-9.81154694964346 -36.32796173310350,-9.81176064269632 -36.32796457411132,-9.81178337081335 -36.32799164109481,-9.81185106333166 -36.32802592496492,-9.81195391651106 -36.32802740828989,-9.81209549308047 -36.32798558431632,-9.81223978830598 -36.32751923438867,-9.81253655626610 -36.32715358407669,-9.81277315339312 -36.32670248416266,-9.81313832931947 -36.32627569394279,-9.81345842181339 -36.32610960076993,-9.81352070670727 -36.32608889728927,-9.81352070670296 -36.32609544180545,-9.81334984696363 -36.32609302267301,-9.81330419414598 -36.32607900507601,-9.81320453298427 -36.32594391263563,-9.81302440966672 -36.32584678868286,-9.81292983510280 -36.32572409722420,-9.81284804076122 -36.32469502573095,-9.81203338460873 -36.32380909153055,-9.81134698856865 -36.32380909153056,-9.81134698856865
          </coordinates>
        </LinearRing>
      </outerBoundaryIs>
    </Polygon>
  </Placemark>
</Document>
</kml>
