<?xml version="1.0" encoding="UTF-8"?>
<kml xmlns="http://www.opengis.net/kml/2.2" xmlns:gx="http://www.google.com/kml/ext/2.2" xmlns:kml="http://www.opengis.net/kml/2.2" xmlns:atom="http://www.w3.org/2005/Atom">
<Document>
  <name>1026.kml</name>
  <StyleMap id="FFFF4000">
    <Pair>
      <key>normal</key>
      <styleUrl>#s_FFFF4000</styleUrl>
    </Pair>
    <Pair>
      <key>highlight</key>
      <styleUrl>#s_FFFF4000_hl</styleUrl>
    </Pair>
  </StyleMap>
  <Style id="s_FFFF4000">
   <IconStyle>
      <scale>1.1</scale>
      <Icon>
        <href>http://maps.google.com/mapfiles/kml/pushpin/agrocad.png</href>
      </Icon>
      <hotSpot x="20" y="2" xunits="pixels" yunits="pixels"/>
    </IconStyle>
    <LineStyle>
      <color>FFFF4000</color>
      <width>1</width>
    </LineStyle>
    <PolyStyle>
      <color>40ffffff</color>
      <fill>1</fill>
    </PolyStyle>
  </Style>
  <Style id="s_FFFF4000_hl">
    <IconStyle>
      <scale>1.3</scale>
      <Icon>
        <href>http://maps.google.com/mapfiles/kml/pushpin/agrocad.png</href>
      </Icon>
      <hotSpot x="20" y="2" xunits="pixels" yunits="pixels"/>
    </IconStyle>
    <LineStyle>
      <color>ff000000</color>
      <width>1</width>
    </LineStyle>
    <PolyStyle>
      <color>40ffffff</color>
      <fill>1</fill>
    </PolyStyle>
  </Style>
  <Placemark>
    <name>AgroCAD: 93B4</name>
    <styleUrl>FFFF4000</styleUrl>
    <Polygon>
      <outerBoundaryIs>
        <LinearRing>
          <coordinates>
           -36.32928849178217,-9.82116291142850 -36.32919273936953,-9.82080919376182 -36.32882716718976,-9.81940951255718 -36.32879860242805,-9.81932157925167 -36.32877203036054,-9.81928319930427 -36.32875288533436,-9.81927347387300 -36.32662965021113,-9.82084546495014 -36.32772554260878,-9.82232007722469 -36.32928849178217,-9.82116291142850
          </coordinates>
        </LinearRing>
      </outerBoundaryIs>
    </Polygon>
  </Placemark>
  <Placemark>
    <name>AgroCAD: 93AA</name>
    <styleUrl>FFFF4000</styleUrl>
    <Polygon>
      <outerBoundaryIs>
        <LinearRing>
          <coordinates>
           -36.32644617361848,-9.82326727473410 -36.32769628567651,-9.82234173810763 -36.32660044919888,-9.82086708443523 -36.32623880662197,-9.82113483239419 -36.32535028602110,-9.82179265905954 -36.32644617361848,-9.82326727473410
          </coordinates>
        </LinearRing>
      </outerBoundaryIs>
    </Polygon>
  </Placemark>
  <Placemark>
    <name>AgroCAD: 938E</name>
    <styleUrl>FFFF4000</styleUrl>
    <Polygon>
      <outerBoundaryIs>
        <LinearRing>
          <coordinates>
           -36.32929739077061,-9.82119578503935 -36.32646503483430,-9.82329277251534 -36.32722068203083,-9.82430963651367 -36.32725106538264,-9.82428807286010 -36.32727270942297,-9.82427262359077 -36.32730141043619,-9.82424815410023 -36.32743627866240,-9.82416956364164 -36.32745896034303,-9.82415712053026 -36.32748396968331,-9.82414202924820 -36.32752819205994,-9.82411554540556 -36.32756975288487,-9.82408985895881 -36.32763477830754,-9.82404861303456 -36.32770233106579,-9.82400691021838 -36.32774800488719,-9.82398045920362 -36.32779196867312,-9.82395410520722 -36.32783605636202,-9.82393071144694 -36.32788005988625,-9.82390914158339 -36.32795252709985,-9.82388048181585 -36.32802290444363,-9.82384960890747 -36.32809026738539,-9.82381887532183 -36.32815818723372,-9.82378575328432 -36.32823406403434,-9.82374857594533 -36.32828090389190,-9.82372705636943 -36.32834714246992,-9.82370459364757 -36.32839033031878,-9.82369518131926 -36.32842663985206,-9.82368974168212 -36.32846287973058,-9.82368595256738 -36.32851726444239,-9.82368165816747 -36.32857371311998,-9.82368002516915 -36.32861182483337,-9.82367854624536 -36.32865031123492,-9.82367492155794 -36.32868773067861,-9.82366974656966 -36.32874489450216,-9.82365860374483 -36.32881450790758,-9.82364331334436 -36.32889716515443,-9.82362005456623 -36.32894684752627,-9.82360306450090 -36.32899207303179,-9.82358639987106 -36.32903830717727,-9.82357026815786 -36.32909170431738,-9.82355333491453 -36.32916922056821,-9.82352991039855 -36.32921332563077,-9.82351887485519 -36.32926749830719,-9.82350245986751 -36.32935071684974,-9.82347503433361 -36.32939504591049,-9.82346100801826 -36.32944106040665,-9.82344614242756 -36.32951490971692,-9.82342471704373 -36.32958513484212,-9.82340307471931 -36.32961726619722,-9.82339288115727 -36.32964051568786,-9.82338516371465 -36.32966181182134,-9.82337804017371 -36.32967370174022,-9.82337410072162 -36.32971930249720,-9.82335017822208 -36.32973975484492,-9.82334042008597 -36.32976628692372,-9.82331881918691 -36.32978380681344,-9.82329419122775 -36.32978852056517,-9.82328677955266 -36.32979527048304,-9.82326940005277 -36.32979842222630,-9.82324915930007 -36.32979955808215,-9.82323434441958 -36.32978342514063,-9.82314230245441 -36.32971307437230,-9.82282154430158 -36.32963990733858,-9.82252655032727 -36.32947154410157,-9.82183912140311 -36.32929739077061,-9.82119578503935
          </coordinates>
        </LinearRing>
      </outerBoundaryIs>
    </Polygon>
  </Placemark>
</Document>
</kml>
