<?xml version="1.0" encoding="UTF-8"?>
<kml xmlns="http://www.opengis.net/kml/2.2" xmlns:gx="http://www.google.com/kml/ext/2.2" xmlns:kml="http://www.opengis.net/kml/2.2" xmlns:atom="http://www.w3.org/2005/Atom">
<Document>
  <name>1028.kml</name>
  <StyleMap id="FFFF4000">
    <Pair>
      <key>normal</key>
      <styleUrl>#s_FFFF4000</styleUrl>
    </Pair>
    <Pair>
      <key>highlight</key>
      <styleUrl>#s_FFFF4000_hl</styleUrl>
    </Pair>
  </StyleMap>
  <Style id="s_FFFF4000">
   <IconStyle>
      <scale>1.1</scale>
      <Icon>
        <href>http://maps.google.com/mapfiles/kml/pushpin/agrocad.png</href>
      </Icon>
      <hotSpot x="20" y="2" xunits="pixels" yunits="pixels"/>
    </IconStyle>
    <LineStyle>
      <color>FFFF4000</color>
      <width>1</width>
    </LineStyle>
    <PolyStyle>
      <color>40ffffff</color>
      <fill>1</fill>
    </PolyStyle>
  </Style>
  <Style id="s_FFFF4000_hl">
    <IconStyle>
      <scale>1.3</scale>
      <Icon>
        <href>http://maps.google.com/mapfiles/kml/pushpin/agrocad.png</href>
      </Icon>
      <hotSpot x="20" y="2" xunits="pixels" yunits="pixels"/>
    </IconStyle>
    <LineStyle>
      <color>ff000000</color>
      <width>1</width>
    </LineStyle>
    <PolyStyle>
      <color>40ffffff</color>
      <fill>1</fill>
    </PolyStyle>
  </Style>
  <Placemark>
    <name>AgroCAD: 8F89</name>
    <styleUrl>FFFF4000</styleUrl>
    <Polygon>
      <outerBoundaryIs>
        <LinearRing>
          <coordinates>
           -36.32834283029135,-9.81735545789226 -36.32831517646467,-9.81724058881156 -36.32826695524630,-9.81701414050289 -36.32820130048700,-9.81673051795430 -36.32813909136475,-9.81649357531712 -36.32807594151672,-9.81622589787710 -36.32802443812374,-9.81603354492863 -36.32798089306586,-9.81584410379653 -36.32791229694429,-9.81557067257468 -36.32785707435669,-9.81535872039840 -36.32779966200969,-9.81508607856776 -36.32774798260771,-9.81487115188250 -36.32768448187893,-9.81459324188249 -36.32765599150289,-9.81445325734042 -36.32760001573180,-9.81418993386130 -36.32757477957562,-9.81408713753851 -36.32751908780463,-9.81382595467043 -36.32749163143060,-9.81369038287360 -36.32746364849432,-9.81357740815545 -36.32745579815966,-9.81346222468600 -36.32755496088196,-9.81331543643764 -36.32769921005919,-9.81322566133767 -36.32791598564414,-9.81311636072122 -36.32808520193206,-9.81301877364786 -36.32822759989576,-9.81292033035576 -36.32825083638813,-9.81296130004715 -36.32827417408022,-9.81305307992858 -36.32830295370049,-9.81316425611406 -36.32836443866444,-9.81339995671755 -36.32839654406144,-9.81354999969703 -36.32845295484488,-9.81379501315561 -36.32847715944614,-9.81390632533110 -36.32853900197221,-9.81415143218196 -36.32856813347249,-9.81426997082160 -36.32864499506179,-9.81456213253885 -36.32868746441537,-9.81476738965850 -36.32877033675485,-9.81508404266470 -36.32881873531282,-9.81527540030976 -36.32885573251368,-9.81543895089198 -36.32889362215806,-9.81557337613651 -36.32893688356455,-9.81574519488337 -36.32898685986969,-9.81595291488886 -36.32904765303790,-9.81619017464533 -36.32910585867672,-9.81643743081568 -36.32913740625996,-9.81655200593471 -36.32918342419524,-9.81673308980102 -36.32834283029135,-9.81735545789226
          </coordinates>
        </LinearRing>
      </outerBoundaryIs>
    </Polygon>
  </Placemark>
  <Placemark>
    <name>AgroCAD: 8F81</name>
    <styleUrl>FFFF4000</styleUrl>
    <Polygon>
      <outerBoundaryIs>
        <LinearRing>
          <coordinates>
           -36.32879531143352,-9.81916313785087 -36.32872726812360,-9.81890305800188 -36.32865890735832,-9.81863591518662 -36.32858866703860,-9.81835940210763 -36.32851869729382,-9.81808975305778 -36.32845146266494,-9.81781806582383 -36.32837863976466,-9.81750420402679 -36.32835204519747,-9.81739373496650 -36.32940112207464,-9.81661700728429 -36.33012294066404,-9.81640430020837 -36.33012916866832,-9.81640247385908 -36.33098615972607,-9.81754105233570 -36.32879531143352,-9.81916313785087
          </coordinates>
        </LinearRing>
      </outerBoundaryIs>
    </Polygon>
  </Placemark>
</Document>
</kml>
