<?xml version="1.0" encoding="utf-8" ?>
<kml xmlns="http://www.opengis.net/kml/2.2">
<Document id="root_doc">
<Schema name="BENTO_MOREIRA_TALHAO_1027_ID_255" id="BENTO_MOREIRA_TALHAO_1027_ID_255">
	<SimpleField name="CODE" type="string"></SimpleField>
	<SimpleField name="TALHAO" type="float"></SimpleField>
	<SimpleField name="AREA_TOTAL" type="float"></SimpleField>
	<SimpleField name="FAZENDA" type="float"></SimpleField>
	<SimpleField name="ZONA" type="float"></SimpleField>
	<SimpleField name="FAZ_NOME" type="string"></SimpleField>
</Schema>
<Folder><name>BENTO_MOREIRA_TALHAO_1027_ID_255</name>
  <Placemark id="BENTO_MOREIRA_TALHAO_1027_ID_255.1">
	<Style><LineStyle><color>ff0000ff</color></LineStyle><PolyStyle><fill>0</fill></PolyStyle></Style>
	<ExtendedData><SchemaData schemaUrl="#BENTO_MOREIRA_TALHAO_1027_ID_255">
		<SimpleData name="CODE">256</SimpleData>
		<SimpleData name="TALHAO">1027</SimpleData>
		<SimpleData name="AREA_TOTAL">3.723</SimpleData>
		<SimpleData name="FAZENDA">1506</SimpleData>
		<SimpleData name="ZONA">1</SimpleData>
		<SimpleData name="FAZ_NOME">BENTO MOREIRA</SimpleData>
	</SchemaData></ExtendedData>
      <MultiGeometry><Polygon><outerBoundaryIs><LinearRing><coordinates>-36.0859612487001,-9.66979195266034 -36.0867470890799,-9.669174569003 -36.0862062995514,-9.66851153485272 -36.0854776714287,-9.66757111946033 -36.0854133162057,-9.66760586804092 -36.0854425621329,-9.66767505347792 -36.0855820296712,-9.66789002711385 -36.0856804372907,-9.66807321163176 -36.0857627340373,-9.66830481330681 -36.0857551670283,-9.66852916642516 -36.0857588794354,-9.66874044151482 -36.085803184025,-9.66892335843404 -36.0857224520063,-9.66910535719372 -36.0856602075217,-9.66922165349864 -36.0856459507559,-9.66940126004506 -36.0856457735463,-9.66956041132524 -36.0856262949095,-9.66988699590988 -36.085540277338,-9.67004036860901 -36.0853993670451,-9.67011459351148 -36.0852161339437,-9.67007698304697 -36.0850751526948,-9.67000496163839 -36.0846379372967,-9.66979437498191 -36.0841969155783,-9.66955733648384 -36.0837803306894,-9.6693537075447 -36.0836749499877,-9.66931690222893 -36.0834776168198,-9.66945377944836 -36.0832705219524,-9.66952613337218 -36.0831479424718,-9.66964410273334 -36.0830927139818,-9.66979205364797 -36.0834675387306,-9.66986137395416 -36.0837080304984,-9.67004165970196 -36.0838252970858,-9.67030925488285 -36.0841038942686,-9.67086514436397 -36.0842461594672,-9.67117445613488 -36.0849960678093,-9.6705693178517 -36.0855010572193,-9.67016205403382 -36.0859612487001,-9.66979195266034</coordinates></LinearRing></outerBoundaryIs></Polygon></MultiGeometry>
  </Placemark>
</Folder>
</Document></kml>
