<?xml version="1.0" encoding="utf-8" ?>
<kml xmlns="http://www.opengis.net/kml/2.2">
<Document id="root_doc">
<Schema name="BENTO_MOREIRA_TALHAO_1020_ID_256" id="BENTO_MOREIRA_TALHAO_1020_ID_256">
	<SimpleField name="CODE" type="string"></SimpleField>
	<SimpleField name="TALHAO" type="float"></SimpleField>
	<SimpleField name="AREA_TOTAL" type="float"></SimpleField>
	<SimpleField name="FAZENDA" type="float"></SimpleField>
	<SimpleField name="ZONA" type="float"></SimpleField>
	<SimpleField name="FAZ_NOME" type="string"></SimpleField>
</Schema>
<Folder><name>BENTO_MOREIRA_TALHAO_1020_ID_256</name>
  <Placemark id="BENTO_MOREIRA_TALHAO_1020_ID_256.1">
	<Style><LineStyle><color>ff0000ff</color></LineStyle><PolyStyle><fill>0</fill></PolyStyle></Style>
	<ExtendedData><SchemaData schemaUrl="#BENTO_MOREIRA_TALHAO_1020_ID_256">
		<SimpleData name="CODE">257</SimpleData>
		<SimpleData name="TALHAO">1020</SimpleData>
		<SimpleData name="AREA_TOTAL">4.682</SimpleData>
		<SimpleData name="FAZENDA">1506</SimpleData>
		<SimpleData name="ZONA">1</SimpleData>
		<SimpleData name="FAZ_NOME">BENTO MOREIRA</SimpleData>
	</SchemaData></ExtendedData>
      <MultiGeometry><Polygon><outerBoundaryIs><LinearRing><coordinates>-36.0749946680357,-9.68086565612899 -36.0749049955989,-9.68077328501011 -36.0746793163501,-9.68056171840088 -36.074485834534,-9.68037170852646 -36.0743966890519,-9.68030821535845 -36.0740467946569,-9.68013179832259 -36.0738255512277,-9.679997576725 -36.0736468549464,-9.67983825949901 -36.0733625388202,-9.67945799989582 -36.0732340936759,-9.67926557599639 -36.073073137114,-9.67909505539071 -36.0724486546812,-9.67938060254431 -36.0724672628205,-9.67962502208676 -36.0725002728633,-9.67990323505839 -36.0725184462747,-9.68007511419727 -36.0724287863761,-9.6804149236885 -36.0723688141987,-9.68075553996976 -36.0723304076133,-9.68115334827225 -36.0723751205997,-9.68140025398768 -36.0725057870208,-9.68155736419369 -36.0727129543881,-9.68166139747347 -36.0731489843305,-9.68184470832464 -36.0733836383662,-9.68202169272607 -36.0736260449782,-9.68218356314872 -36.0735420381295,-9.68198175657992 -36.073474535557,-9.68166517046157 -36.0734775593749,-9.68152779279281 -36.073623740274,-9.68128704876185 -36.0739231077368,-9.68105649888154 -36.0743602042724,-9.68084436207898 -36.0746042019166,-9.68081403519759 -36.0749946680357,-9.68086565612899</coordinates></LinearRing></outerBoundaryIs></Polygon></MultiGeometry>
  </Placemark>
</Folder>
</Document></kml>
