<?xml version="1.0" encoding="utf-8" ?>
<kml xmlns="http://www.opengis.net/kml/2.2">
<Document id="root_doc">
<Schema name="BENTO_MOREIRA_TALHAO_1036_ID_267" id="BENTO_MOREIRA_TALHAO_1036_ID_267">
	<SimpleField name="CODE" type="string"></SimpleField>
	<SimpleField name="TALHAO" type="float"></SimpleField>
	<SimpleField name="AREA_TOTAL" type="float"></SimpleField>
	<SimpleField name="FAZENDA" type="float"></SimpleField>
	<SimpleField name="ZONA" type="float"></SimpleField>
	<SimpleField name="FAZ_NOME" type="string"></SimpleField>
</Schema>
<Folder><name>BENTO_MOREIRA_TALHAO_1036_ID_267</name>
  <Placemark id="BENTO_MOREIRA_TALHAO_1036_ID_267.1">
	<Style><LineStyle><color>ff0000ff</color></LineStyle><PolyStyle><fill>0</fill></PolyStyle></Style>
	<ExtendedData><SchemaData schemaUrl="#BENTO_MOREIRA_TALHAO_1036_ID_267">
		<SimpleData name="CODE">268</SimpleData>
		<SimpleData name="TALHAO">1036</SimpleData>
		<SimpleData name="AREA_TOTAL">4.668</SimpleData>
		<SimpleData name="FAZENDA">1506</SimpleData>
		<SimpleData name="ZONA">1</SimpleData>
		<SimpleData name="FAZ_NOME">BENTO MOREIRA</SimpleData>
	</SchemaData></ExtendedData>
      <MultiGeometry><Polygon><outerBoundaryIs><LinearRing><coordinates>-36.0977050981069,-9.65482969121712 -36.0982069269141,-9.65539916919001 -36.0985207744613,-9.65587012139675 -36.0989718801209,-9.656576029902 -36.0992525723756,-9.65703827293418 -36.0994393929828,-9.65734335351822 -36.0995277421201,-9.65746607201947 -36.09963183942,-9.65767307396805 -36.1001445130135,-9.6573030353051 -36.1001303940762,-9.657272293103 -36.0999708368891,-9.65698999542784 -36.099819284388,-9.65676485480396 -36.0995092453138,-9.65623345945543 -36.0992847594488,-9.65585522827468 -36.099150422219,-9.65561983334101 -36.0989006459929,-9.65510424824673 -36.0987657709441,-9.65483021114443 -36.0986315661415,-9.6545374526847 -36.0984689238188,-9.65431506570384 -36.0981665628268,-9.65392535799938 -36.0978023546162,-9.65343757053427 -36.0977802369768,-9.65338066995016 -36.0976738153313,-9.65324304948762 -36.0976256325241,-9.6531920852608 -36.0975226678475,-9.65317837261988 -36.0974240827807,-9.65322619796975 -36.0972865775598,-9.65337376516338 -36.0970686303903,-9.6536322511551 -36.0969858501522,-9.65380883643109 -36.0969739223901,-9.65392699347998 -36.0970192674503,-9.65407872665243 -36.0970732462453,-9.65420824615332 -36.0973692903282,-9.65448926561935 -36.0977050981069,-9.65482969121712</coordinates></LinearRing></outerBoundaryIs></Polygon></MultiGeometry>
  </Placemark>
</Folder>
</Document></kml>
