<?xml version="1.0" encoding="utf-8" ?>
<kml xmlns="http://www.opengis.net/kml/2.2">
<Document id="root_doc">
<Schema name="BENTO_MOREIRA_TALHAO_1002_ID_241" id="BENTO_MOREIRA_TALHAO_1002_ID_241">
	<SimpleField name="CODE" type="string"></SimpleField>
	<SimpleField name="TALHAO" type="float"></SimpleField>
	<SimpleField name="AREA_TOTAL" type="float"></SimpleField>
	<SimpleField name="FAZENDA" type="float"></SimpleField>
	<SimpleField name="ZONA" type="float"></SimpleField>
	<SimpleField name="FAZ_NOME" type="string"></SimpleField>
</Schema>
<Folder><name>BENTO_MOREIRA_TALHAO_1002_ID_241</name>
  <Placemark id="BENTO_MOREIRA_TALHAO_1002_ID_241.1">
	<Style><LineStyle><color>ff0000ff</color></LineStyle><PolyStyle><fill>0</fill></PolyStyle></Style>
	<ExtendedData><SchemaData schemaUrl="#BENTO_MOREIRA_TALHAO_1002_ID_241">
		<SimpleData name="CODE">242</SimpleData>
		<SimpleData name="TALHAO">1002</SimpleData>
		<SimpleData name="AREA_TOTAL">0.580</SimpleData>
		<SimpleData name="FAZENDA">1506</SimpleData>
		<SimpleData name="ZONA">1</SimpleData>
		<SimpleData name="FAZ_NOME">BENTO MOREIRA</SimpleData>
	</SchemaData></ExtendedData>
      <MultiGeometry><Polygon><outerBoundaryIs><LinearRing><coordinates>-36.0994984980734,-9.66856001657778 -36.099417448636,-9.66930936861774 -36.10076164341,-9.66844074516 -36.0994984980734,-9.66856001657778</coordinates></LinearRing></outerBoundaryIs></Polygon></MultiGeometry>
  </Placemark>
</Folder>
</Document></kml>
