<?xml version="1.0" encoding="utf-8" ?>
<kml xmlns="http://www.opengis.net/kml/2.2">
<Document id="root_doc">
<Schema name="BENTO_MOREIRA_TALHAO_1030_ID_261" id="BENTO_MOREIRA_TALHAO_1030_ID_261">
	<SimpleField name="CODE" type="string"></SimpleField>
	<SimpleField name="TALHAO" type="float"></SimpleField>
	<SimpleField name="AREA_TOTAL" type="float"></SimpleField>
	<SimpleField name="FAZENDA" type="float"></SimpleField>
	<SimpleField name="ZONA" type="float"></SimpleField>
	<SimpleField name="FAZ_NOME" type="string"></SimpleField>
</Schema>
<Folder><name>BENTO_MOREIRA_TALHAO_1030_ID_261</name>
  <Placemark id="BENTO_MOREIRA_TALHAO_1030_ID_261.1">
	<Style><LineStyle><color>ff0000ff</color></LineStyle><PolyStyle><fill>0</fill></PolyStyle></Style>
	<ExtendedData><SchemaData schemaUrl="#BENTO_MOREIRA_TALHAO_1030_ID_261">
		<SimpleData name="CODE">262</SimpleData>
		<SimpleData name="TALHAO">1030</SimpleData>
		<SimpleData name="AREA_TOTAL">10.542</SimpleData>
		<SimpleData name="FAZENDA">1506</SimpleData>
		<SimpleData name="ZONA">1</SimpleData>
		<SimpleData name="FAZ_NOME">BENTO MOREIRA</SimpleData>
	</SchemaData></ExtendedData>
      <MultiGeometry><Polygon><outerBoundaryIs><LinearRing><coordinates>-36.0911669170969,-9.66566647456408 -36.0915257602176,-9.6653673015214 -36.0913937993069,-9.66521895140399 -36.0911632801084,-9.66506584471201 -36.0909981373722,-9.66495438185361 -36.0909445001019,-9.66483748404512 -36.0909047132515,-9.664774629739 -36.0906040716502,-9.66449042508395 -36.0902715207993,-9.6642053932069 -36.0900942782869,-9.66397822006962 -36.0898692752054,-9.66348895873563 -36.0898314324206,-9.66332245720525 -36.0898139400367,-9.66317363960002 -36.0897467777503,-9.66295680789989 -36.0896505177596,-9.66270373695633 -36.0895882993249,-9.6625239308687 -36.0895776984509,-9.66234704596696 -36.0895574107941,-9.66218641183589 -36.0894958300522,-9.66199815754447 -36.0894361381451,-9.66170066224518 -36.0893778583106,-9.66153661348941 -36.0893182722572,-9.66137246659725 -36.089299553151,-9.66120171593065 -36.0892306119242,-9.66107579002338 -36.0891449046762,-9.66104314421104 -36.0890104286035,-9.66102551750464 -36.0888043384315,-9.66110661908154 -36.0884967287781,-9.66125687524493 -36.0881449377955,-9.66148781524222 -36.0878246694514,-9.66175089161236 -36.0875439109319,-9.66212830615807 -36.0874892304218,-9.6624285442151 -36.0874004460341,-9.66282473425431 -36.0874532340417,-9.66307825289179 -36.0875794848755,-9.66329096146882 -36.0879104089231,-9.66355878756686 -36.0882698511216,-9.66379060957201 -36.0884688353414,-9.66392122748059 -36.0885947808701,-9.66407144801877 -36.0887560659451,-9.66416708952315 -36.088985021117,-9.66437167487284 -36.0891305596654,-9.66464143896366 -36.0891412577414,-9.66476815076373 -36.0896978934951,-9.6654836644397 -36.0903631001325,-9.66633000122695 -36.0911669170969,-9.66566647456408</coordinates></LinearRing></outerBoundaryIs></Polygon></MultiGeometry>
  </Placemark>
</Folder>
</Document></kml>
