<?xml version="1.0" encoding="utf-8" ?>
<kml xmlns="http://www.opengis.net/kml/2.2">
<Document id="root_doc">
<Schema name="BENTO_MOREIRA_TALHAO_1024_ID_6" id="BENTO_MOREIRA_TALHAO_1024_ID_6">
	<SimpleField name="CODE" type="string"></SimpleField>
	<SimpleField name="TALHAO" type="float"></SimpleField>
	<SimpleField name="AREA_TOTAL" type="float"></SimpleField>
	<SimpleField name="FAZENDA" type="float"></SimpleField>
	<SimpleField name="ZONA" type="float"></SimpleField>
	<SimpleField name="FAZ_NOME" type="string"></SimpleField>
</Schema>
<Folder><name>BENTO_MOREIRA_TALHAO_1024_ID_6</name>
  <Placemark id="BENTO_MOREIRA_TALHAO_1024_ID_6.1">
	<Style><LineStyle><color>ff0000ff</color></LineStyle><PolyStyle><fill>0</fill></PolyStyle></Style>
	<ExtendedData><SchemaData schemaUrl="#BENTO_MOREIRA_TALHAO_1024_ID_6">
		<SimpleData name="CODE">7</SimpleData>
		<SimpleData name="TALHAO">1024</SimpleData>
		<SimpleData name="AREA_TOTAL">8.325</SimpleData>
		<SimpleData name="FAZENDA">1506</SimpleData>
		<SimpleData name="ZONA">1</SimpleData>
		<SimpleData name="FAZ_NOME">BENTO MOREIRA</SimpleData>
	</SchemaData></ExtendedData>
      <MultiGeometry><Polygon><outerBoundaryIs><LinearRing><coordinates>-36.0808416547143,-9.67973699524421 -36.0832264156245,-9.67783690399312 -36.0832033082043,-9.67781929240992 -36.0829017042552,-9.6777879118474 -36.0827140941973,-9.67780284524515 -36.0824564214226,-9.67767089156142 -36.0823045839299,-9.67753911491746 -36.0821144363452,-9.67747832459535 -36.0817939192944,-9.67737544274726 -36.0813163636341,-9.67699866971282 -36.0809892898757,-9.67670763475697 -36.0806269266824,-9.67655930668633 -36.0801644782692,-9.67652773069734 -36.0798463407506,-9.67658142875452 -36.0796180456197,-9.67669584430873 -36.0793505797198,-9.67703981977967 -36.0792072555772,-9.67735306350842 -36.0792394700143,-9.67774512317093 -36.0792847016685,-9.67785345221759 -36.0808416547143,-9.67973699524421</coordinates></LinearRing></outerBoundaryIs></Polygon></MultiGeometry>
  </Placemark>
</Folder>
</Document></kml>
