<?xml version="1.0" encoding="utf-8" ?>
<kml xmlns="http://www.opengis.net/kml/2.2">
<Document id="root_doc">
<Schema name="BENTO_MOREIRA_TALHAO_1002_ID_242" id="BENTO_MOREIRA_TALHAO_1002_ID_242">
	<SimpleField name="CODE" type="string"></SimpleField>
	<SimpleField name="TALHAO" type="float"></SimpleField>
	<SimpleField name="AREA_TOTAL" type="float"></SimpleField>
	<SimpleField name="FAZENDA" type="float"></SimpleField>
	<SimpleField name="ZONA" type="float"></SimpleField>
	<SimpleField name="FAZ_NOME" type="string"></SimpleField>
</Schema>
<Folder><name>BENTO_MOREIRA_TALHAO_1002_ID_242</name>
  <Placemark id="BENTO_MOREIRA_TALHAO_1002_ID_242.1">
	<Style><LineStyle><color>ff0000ff</color></LineStyle><PolyStyle><fill>0</fill></PolyStyle></Style>
	<ExtendedData><SchemaData schemaUrl="#BENTO_MOREIRA_TALHAO_1002_ID_242">
		<SimpleData name="CODE">243</SimpleData>
		<SimpleData name="TALHAO">1002</SimpleData>
		<SimpleData name="AREA_TOTAL">0.202</SimpleData>
		<SimpleData name="FAZENDA">1506</SimpleData>
		<SimpleData name="ZONA">1</SimpleData>
		<SimpleData name="FAZ_NOME">BENTO MOREIRA</SimpleData>
	</SchemaData></ExtendedData>
      <MultiGeometry><Polygon><outerBoundaryIs><LinearRing><coordinates>-36.1005040120832,-9.66426317375076 -36.1012407821854,-9.66443331442518 -36.101299588877,-9.66433698151406 -36.1013033306788,-9.6642472277662 -36.101245563253,-9.66419438500075 -36.100922476914,-9.66410126716814 -36.1007027166115,-9.66409157301398 -36.1005580514994,-9.66421744763575 -36.1005040120832,-9.66426317375076</coordinates></LinearRing></outerBoundaryIs></Polygon></MultiGeometry>
  </Placemark>
</Folder>
</Document></kml>
