<?xml version="1.0" encoding="utf-8" ?>
<kml xmlns="http://www.opengis.net/kml/2.2">
<Document id="root_doc">
<Schema name="BENTO_MOREIRA_TALHAO_1018_ID_244" id="BENTO_MOREIRA_TALHAO_1018_ID_244">
	<SimpleField name="CODE" type="string"></SimpleField>
	<SimpleField name="TALHAO" type="float"></SimpleField>
	<SimpleField name="AREA_TOTAL" type="float"></SimpleField>
	<SimpleField name="FAZENDA" type="float"></SimpleField>
	<SimpleField name="ZONA" type="float"></SimpleField>
	<SimpleField name="FAZ_NOME" type="string"></SimpleField>
</Schema>
<Folder><name>BENTO_MOREIRA_TALHAO_1018_ID_244</name>
  <Placemark id="BENTO_MOREIRA_TALHAO_1018_ID_244.1">
	<Style><LineStyle><color>ff0000ff</color></LineStyle><PolyStyle><fill>0</fill></PolyStyle></Style>
	<ExtendedData><SchemaData schemaUrl="#BENTO_MOREIRA_TALHAO_1018_ID_244">
		<SimpleData name="CODE">245</SimpleData>
		<SimpleData name="TALHAO">1018</SimpleData>
		<SimpleData name="AREA_TOTAL">4.558</SimpleData>
		<SimpleData name="FAZENDA">1506</SimpleData>
		<SimpleData name="ZONA">1</SimpleData>
		<SimpleData name="FAZ_NOME">BENTO MOREIRA</SimpleData>
	</SchemaData></ExtendedData>
      <MultiGeometry><Polygon><outerBoundaryIs><LinearRing><coordinates>-36.0775068273244,-9.68505840156196 -36.0785693559791,-9.6841896166433 -36.0772960629611,-9.682645742427 -36.0757137247835,-9.68391071775958 -36.0756704727078,-9.68395403607915 -36.075675845235,-9.68399632465103 -36.0757251284399,-9.68407085103418 -36.0763172704738,-9.68449729106507 -36.0767753815255,-9.68475848927995 -36.0770623778575,-9.68489522390765 -36.0775068273244,-9.68505840156196</coordinates></LinearRing></outerBoundaryIs></Polygon></MultiGeometry>
  </Placemark>
</Folder>
</Document></kml>
