<?xml version="1.0" encoding="utf-8" ?>
<kml xmlns="http://www.opengis.net/kml/2.2">
<Document id="root_doc">
<Schema name="BENTO_MOREIRA_TALHAO_1034_ID_0" id="BENTO_MOREIRA_TALHAO_1034_ID_0">
	<SimpleField name="CODE" type="string"></SimpleField>
	<SimpleField name="TALHAO" type="float"></SimpleField>
	<SimpleField name="AREA_TOTAL" type="float"></SimpleField>
	<SimpleField name="FAZENDA" type="float"></SimpleField>
	<SimpleField name="ZONA" type="float"></SimpleField>
	<SimpleField name="FAZ_NOME" type="string"></SimpleField>
</Schema>
<Folder><name>BENTO_MOREIRA_TALHAO_1034_ID_0</name>
  <Placemark id="BENTO_MOREIRA_TALHAO_1034_ID_0.1">
	<Style><LineStyle><color>ff0000ff</color></LineStyle><PolyStyle><fill>0</fill></PolyStyle></Style>
	<ExtendedData><SchemaData schemaUrl="#BENTO_MOREIRA_TALHAO_1034_ID_0">
		<SimpleData name="CODE">1</SimpleData>
		<SimpleData name="TALHAO">1034</SimpleData>
		<SimpleData name="AREA_TOTAL">8.739</SimpleData>
		<SimpleData name="FAZENDA">1506</SimpleData>
		<SimpleData name="ZONA">1</SimpleData>
		<SimpleData name="FAZ_NOME">BENTO MOREIRA</SimpleData>
	</SchemaData></ExtendedData>
      <MultiGeometry><Polygon><outerBoundaryIs><LinearRing><coordinates>-36.1014430818294,-9.66075913924356 -36.1011271785144,-9.6599698216491 -36.1013953600881,-9.65990635399185 -36.1012950892854,-9.65965405521318 -36.1010450438333,-9.65897763889482 -36.1006830235835,-9.65827728027789 -36.1006219716331,-9.65821824244306 -36.1005454055203,-9.65819019773616 -36.1005034907044,-9.65812785392147 -36.1005424848922,-9.65806824440658 -36.1003547503425,-9.65776080004992 -36.1001599250238,-9.65733659300563 -36.0989556469498,-9.65820581649314 -36.0990144530238,-9.65823291749311 -36.0990797754011,-9.65835595761496 -36.099143771089,-9.65855722381864 -36.0990894408655,-9.65866504501609 -36.0989814385854,-9.65870070096223 -36.0987348665888,-9.65872495254328 -36.0985824938873,-9.65879034035797 -36.098546223478,-9.6588923829201 -36.0986527140152,-9.6589150488203 -36.0988011098019,-9.65897351874416 -36.0988534175278,-9.65909737603113 -36.0988937059121,-9.65927954473178 -36.0988703873025,-9.65939045499856 -36.0989041843315,-9.6594345822626 -36.098977685118,-9.65947473586752 -36.0990536019946,-9.659509382878 -36.0992218948982,-9.65958552287663 -36.0993817164631,-9.65971760339089 -36.099433105673,-9.65983801997955 -36.0994198490524,-9.65992939435422 -36.0993551555089,-9.66009352094567 -36.099263567952,-9.66030528711427 -36.0992019980015,-9.66041301152835 -36.0990964262228,-9.66048692343585 -36.0989743547274,-9.66053118486089 -36.0988399174668,-9.66053153362877 -36.0987390927328,-9.66060702570586 -36.0987271740629,-9.66069402103881 -36.0986903712801,-9.66087596219321 -36.0987176848998,-9.66105851311276 -36.0987557774314,-9.66118818248853 -36.0987181389877,-9.66129382960416 -36.0987584045682,-9.66142038287277 -36.0988391539859,-9.66150279109047 -36.1014430818294,-9.66075913924356</coordinates></LinearRing></outerBoundaryIs></Polygon></MultiGeometry>
  </Placemark>
</Folder>
</Document></kml>
