<?xml version="1.0" encoding="utf-8" ?>
<kml xmlns="http://www.opengis.net/kml/2.2">
<Document id="root_doc">
<Schema name="BENTO_MOREIRA_TALHAO_1035_ID_266" id="BENTO_MOREIRA_TALHAO_1035_ID_266">
	<SimpleField name="CODE" type="string"></SimpleField>
	<SimpleField name="TALHAO" type="float"></SimpleField>
	<SimpleField name="AREA_TOTAL" type="float"></SimpleField>
	<SimpleField name="FAZENDA" type="float"></SimpleField>
	<SimpleField name="ZONA" type="float"></SimpleField>
	<SimpleField name="FAZ_NOME" type="string"></SimpleField>
</Schema>
<Folder><name>BENTO_MOREIRA_TALHAO_1035_ID_266</name>
  <Placemark id="BENTO_MOREIRA_TALHAO_1035_ID_266.1">
	<Style><LineStyle><color>ff0000ff</color></LineStyle><PolyStyle><fill>0</fill></PolyStyle></Style>
	<ExtendedData><SchemaData schemaUrl="#BENTO_MOREIRA_TALHAO_1035_ID_266">
		<SimpleData name="CODE">267</SimpleData>
		<SimpleData name="TALHAO">1035</SimpleData>
		<SimpleData name="AREA_TOTAL">9.198</SimpleData>
		<SimpleData name="FAZENDA">1506</SimpleData>
		<SimpleData name="ZONA">1</SimpleData>
		<SimpleData name="FAZ_NOME">BENTO MOREIRA</SimpleData>
	</SchemaData></ExtendedData>
      <MultiGeometry><Polygon><outerBoundaryIs><LinearRing><coordinates>-36.0961720785881,-9.65652917863189 -36.0962658648143,-9.65676293568446 -36.0963962530515,-9.65695808795014 -36.0964945713595,-9.6571299281972 -36.0967039354548,-9.65753439928164 -36.0967633394492,-9.65761874671059 -36.0968794456428,-9.65773105737877 -36.0970756262488,-9.65785755165163 -36.0972325946204,-9.65789262603047 -36.0975670746516,-9.65795524436242 -36.097828570309,-9.6580090318047 -36.0982662587787,-9.65806290682364 -36.0984642726212,-9.65809433839921 -36.0988768466562,-9.65816753870259 -36.0989184392138,-9.65818799047185 -36.0996188048783,-9.65768248204403 -36.0995788987249,-9.65759937327364 -36.0994742959485,-9.65742028996044 -36.0993996784698,-9.65732305189779 -36.0992648531315,-9.6571186390289 -36.0990189720244,-9.65672760716313 -36.0986714990828,-9.65618382654586 -36.0983265609374,-9.65565118449424 -36.0980404675039,-9.65531292277456 -36.0978979429709,-9.6551350458373 -36.0974389133654,-9.65461152053994 -36.0970470328862,-9.65428336893607 -36.0969187893704,-9.65439309766315 -36.0968530002896,-9.65451933079799 -36.0967570124544,-9.65475077634822 -36.0967075818365,-9.65490279969821 -36.0966139774699,-9.65506852884899 -36.0966068216603,-9.65526318945945 -36.09660038412,-9.65545606736837 -36.0966525677962,-9.65557780146383 -36.0966250203761,-9.65570664985141 -36.0965124729847,-9.65587481163356 -36.0963382384673,-9.65599738623032 -36.0961983319299,-9.65620090258776 -36.0961719177944,-9.65636065365249 -36.0961720785881,-9.65652917863189</coordinates></LinearRing></outerBoundaryIs></Polygon></MultiGeometry>
  </Placemark>
</Folder>
</Document></kml>
