<?xml version="1.0" encoding="UTF-8"?>
<kml xmlns="http://www.opengis.net/kml/2.2" xmlns:gx="http://www.google.com/kml/ext/2.2" xmlns:kml="http://www.opengis.net/kml/2.2" xmlns:atom="http://www.w3.org/2005/Atom">
<Document>
  <name>5010.kml</name>
  <StyleMap id="FFFF4000">
    <Pair>
      <key>normal</key>
      <styleUrl>#s_FFFF4000</styleUrl>
    </Pair>
    <Pair>
      <key>highlight</key>
      <styleUrl>#s_FFFF4000_hl</styleUrl>
    </Pair>
  </StyleMap>
  <Style id="s_FFFF4000">
   <IconStyle>
      <scale>1.1</scale>
      <Icon>
        <href>http://maps.google.com/mapfiles/kml/pushpin/agrocad.png</href>
      </Icon>
      <hotSpot x="20" y="2" xunits="pixels" yunits="pixels"/>
    </IconStyle>
    <LineStyle>
      <color>FFFF4000</color>
      <width>1</width>
    </LineStyle>
    <PolyStyle>
      <color>40ffffff</color>
      <fill>1</fill>
    </PolyStyle>
  </Style>
  <Style id="s_FFFF4000_hl">
    <IconStyle>
      <scale>1.3</scale>
      <Icon>
        <href>http://maps.google.com/mapfiles/kml/pushpin/agrocad.png</href>
      </Icon>
      <hotSpot x="20" y="2" xunits="pixels" yunits="pixels"/>
    </IconStyle>
    <LineStyle>
      <color>ff000000</color>
      <width>1</width>
    </LineStyle>
    <PolyStyle>
      <color>40ffffff</color>
      <fill>1</fill>
    </PolyStyle>
  </Style>
  <Placemark>
    <name>AgroCAD: 9515</name>
    <styleUrl>FFFF4000</styleUrl>
    <Polygon>
      <outerBoundaryIs>
        <LinearRing>
          <coordinates>
           -36.20060069012093,-9.73589617060446 -36.20043707002410,-9.73599041230509 -36.20038105764802,-9.73602387048327 -36.20032138763273,-9.73606215020519 -36.20028966480737,-9.73608257397182 -36.20022461181174,-9.73612106903140 -36.20019069679403,-9.73614014279375 -36.20015820288214,-9.73615954514215 -36.20009308698635,-9.73619642336594 -36.20002426307772,-9.73623702224740 -36.19998959803259,-9.73625730339826 -36.19991948571446,-9.73630172875708 -36.19984365601315,-9.73634793784076 -36.19976568566881,-9.73639342272145 -36.19972877340425,-9.73641583403872 -36.19967612160723,-9.73644826162161 -36.19966563058926,-9.73645364841057 -36.19966069025549,-9.73645833813563 -36.19966036092046,-9.73645820725532 -36.19966026507227,-9.73645771370144 -36.19965464911685,-9.73646020250063 -36.19962109652387,-9.73648126378435 -36.19957391198103,-9.73650836002080 -36.19954975283321,-9.73652328688429 -36.19950098517148,-9.73655329606517 -36.19945369538323,-9.73658179760662 -36.19940646722620,-9.73661044213142 -36.19936576506957,-9.73663395935585 -36.19934347505742,-9.73664469426152 -36.19932141743378,-9.73665876254372 -36.19927059247819,-9.73668858978048 -36.19924290944832,-9.73670272628758 -36.19918622459054,-9.73673093459501 -36.19916146662334,-9.73674221644704 -36.19864299969463,-9.73704844490076 -36.19863490195081,-9.73705341815726 -36.19860517211776,-9.73707042897668 -36.19858015279728,-9.73708465695307 -36.19852328931380,-9.73711601616790 -36.19846613785555,-9.73714542578704 -36.19843818923798,-9.73715959642127 -36.20028240926479,-9.74025052676599 -36.20037316925951,-9.74040264011357 -36.20037327636629,-9.74040281962396 -36.20040832557615,-9.74038276888880 -36.20254115417515,-9.73912862146627 -36.20253577502686,-9.73911916082172 -36.20252441922489,-9.73909979199761 -36.20249998162732,-9.73905849550900 -36.20246856633502,-9.73901028425029 -36.20243179957377,-9.73895070559278 -36.20241646634883,-9.73891863888088 -36.20238303666849,-9.73885698974306 -36.20236594288039,-9.73882831479548 -36.20234878411987,-9.73880048024141 -36.20231423640261,-9.73874805005611 -36.20229857623120,-9.73872326756066 -36.20227022461688,-9.73867531754404 -36.20224278757687,-9.73862694729566 -36.20221190686979,-9.73857554171997 -36.20219634805176,-9.73854861009456 -36.20216236428615,-9.73849186411440 -36.20214424988306,-9.73846239899693 -36.20212593846812,-9.73843153988390 -36.20210709430015,-9.73839943625439 -36.20206844654731,-9.73833389234822 -36.20204949102542,-9.73830076967237 -36.20201113238669,-9.73823585727572 -36.20199186626408,-9.73820376851764 -36.20195452645963,-9.73813806846366 -36.20193566701781,-9.73810644785957 -36.20191799384941,-9.73807426630391 -36.20188103173949,-9.73801101530137 -36.20186375122645,-9.73798089915682 -36.20182608749682,-9.73792023330413 -36.20178925784344,-9.73785853103713 -36.20177098127093,-9.73782840847739 -36.20173407586566,-9.73776784897934 -36.20169656917371,-9.73770405804738 -36.20166134942405,-9.73763895990163 -36.20164386867550,-9.73760694287407 -36.20161176835456,-9.73754982660845 -36.20158604205366,-9.73750808044445 -36.20157756212997,-9.73749252143612 -36.20156159714176,-9.73746477615546 -36.20154511385798,-9.73743615066450 -36.20151980188096,-9.73739603035351 -36.20148905021101,-9.73734885614786 -36.20147293409146,-9.73732291568679 -36.20143944820548,-9.73726825700208 -36.20140267553571,-9.73720641602245 -36.20138396121335,-9.73717235607053 -36.20134418384151,-9.73710501661951 -36.20132550117287,-9.73707285094194 -36.20130878780955,-9.73704002620623 -36.20127443215230,-9.73698136117628 -36.20123993343835,-9.73692877649868 -36.20122242569394,-9.73690329860833 -36.20119006892978,-9.73685108547639 -36.20115490510755,-9.73679706656493 -36.20113804613217,-9.73676896584535 -36.20110263237149,-9.73671261479747 -36.20107127575491,-9.73665594549825 -36.20104070273845,-9.73659958846617 -36.20102496755873,-9.73657142394966 -36.20099295472613,-9.73651649362566 -36.20097567236067,-9.73648776884139 -36.20095842609225,-9.73645865641818 -36.20092110426160,-9.73639705292081 -36.20090095605844,-9.73636426593870 -36.20087898898673,-9.73633076182180 -36.20085722689335,-9.73629716197257 -36.20081507805156,-9.73623146430771 -36.20079418967821,-9.73619966835275 -36.20075530988493,-9.73613560832205 -36.20071931792070,-9.73607358871725 -36.20070158303524,-9.73604395963977 -36.20068321641409,-9.73601689297591 -36.20066541455689,-9.73599167335554 -36.20060069012093,-9.73589617060446
          </coordinates>
        </LinearRing>
      </outerBoundaryIs>
    </Polygon>
  </Placemark>
  <Placemark>
    <name>AgroCAD: 9513</name>
    <styleUrl>FFFF4000</styleUrl>
    <Polygon>
      <outerBoundaryIs>
        <LinearRing>
          <coordinates>
           -36.20255232887426,-9.73914544132152 -36.20256504991509,-9.73916686598660 -36.20259157589413,-9.73920671499979 -36.20262584825658,-9.73925753744403 -36.20264447534653,-9.73929109492059 -36.20268744850262,-9.73936702902236 -36.20273684460260,-9.73944878484765 -36.20276318566991,-9.73949299373589 -36.20282676908092,-9.73959750819578 -36.20285935623529,-9.73965123043184 -36.20289102975353,-9.73970482487772 -36.20295388880516,-9.73980991022026 -36.20298422665335,-9.73986134764203 -36.20301381068463,-9.73991072275460 -36.20307056424196,-9.74000610074629 -36.20309794838858,-9.74005273398198 -36.20315135594833,-9.74014351979225 -36.20320299648945,-9.74023260032365 -36.20322804982392,-9.74027526189024 -36.20327877976119,-9.74035818064860 -36.20332966770228,-9.74043721947431 -36.20337944600036,-9.74051561292537 -36.20340181797409,-9.74055369404987 -36.20343652653423,-9.74061675050519 -36.20344998516119,-9.74064347620578 -36.20346345298830,-9.74067151616579 -36.20348363517159,-9.74071236015248 -36.20351627194502,-9.74076347052991 -36.20266947664696,-9.74125945458342 -36.20209910637917,-9.74159117648460 -36.20134855995988,-9.74203738307532 -36.20038255424892,-9.74041836930729 -36.20041751862726,-9.74039836710231 -36.20255232887426,-9.73914544132152
          </coordinates>
        </LinearRing>
      </outerBoundaryIs>
    </Polygon>
  </Placemark>
</Document>
</kml>
