<?xml version="1.0" encoding="UTF-8"?>
<kml xmlns="http://www.opengis.net/kml/2.2" xmlns:gx="http://www.google.com/kml/ext/2.2" xmlns:kml="http://www.opengis.net/kml/2.2" xmlns:atom="http://www.w3.org/2005/Atom">
<Document>
  <name>5006.kml</name>
  <StyleMap id="FFFF4000">
    <Pair>
      <key>normal</key>
      <styleUrl>#s_FFFF4000</styleUrl>
    </Pair>
    <Pair>
      <key>highlight</key>
      <styleUrl>#s_FFFF4000_hl</styleUrl>
    </Pair>
  </StyleMap>
  <Style id="s_FFFF4000">
   <IconStyle>
      <scale>1.1</scale>
      <Icon>
        <href>http://maps.google.com/mapfiles/kml/pushpin/agrocad.png</href>
      </Icon>
      <hotSpot x="20" y="2" xunits="pixels" yunits="pixels"/>
    </IconStyle>
    <LineStyle>
      <color>FFFF4000</color>
      <width>1</width>
    </LineStyle>
    <PolyStyle>
      <color>40ffffff</color>
      <fill>1</fill>
    </PolyStyle>
  </Style>
  <Style id="s_FFFF4000_hl">
    <IconStyle>
      <scale>1.3</scale>
      <Icon>
        <href>http://maps.google.com/mapfiles/kml/pushpin/agrocad.png</href>
      </Icon>
      <hotSpot x="20" y="2" xunits="pixels" yunits="pixels"/>
    </IconStyle>
    <LineStyle>
      <color>ff000000</color>
      <width>1</width>
    </LineStyle>
    <PolyStyle>
      <color>40ffffff</color>
      <fill>1</fill>
    </PolyStyle>
  </Style>
  <Placemark>
    <name>AgroCAD: 9318</name>
    <styleUrl>FFFF4000</styleUrl>
    <Polygon>
      <outerBoundaryIs>
        <LinearRing>
          <coordinates>
           -36.20540412842343,-9.73970052242958 -36.20549627007100,-9.73964633542236 -36.20558841169336,-9.73959214838176 -36.20568055329052,-9.73953796130774 -36.20577269486247,-9.73948377420034 -36.20586483640921,-9.73942958705955 -36.20595697793075,-9.73937539988537 -36.20604911942709,-9.73932121267777 -36.20614126089823,-9.73926702543680 -36.20623340234417,-9.73921283816244 -36.20632554376488,-9.73915865085469 -36.20641768516041,-9.73910446351353 -36.20650982653073,-9.73905027613899 -36.20660196787584,-9.73899608873106 -36.20669410919575,-9.73894190128974 -36.20678625049046,-9.73888771381502 -36.20687839175996,-9.73883352630692 -36.20697053300426,-9.73877933876544 -36.20706267422335,-9.73872515119056 -36.20715481541725,-9.73867096358228 -36.20724695658593,-9.73861677594063 -36.20733909772941,-9.73856258826559 -36.20743123884768,-9.73850840055717 -36.20752337994076,-9.73845421281534 -36.20761552100864,-9.73840002504014 -36.20770766205131,-9.73834583723156 -36.20779980306875,-9.73829164938959 -36.20789194406102,-9.73823746151422 -36.20798408502807,-9.73818327360549 -36.20807622596992,-9.73812908566336 -36.20813313740385,-9.73822099045817 -36.20818947275188,-9.73831357128532 -36.20824580812644,-9.73840615211138 -36.20830214352749,-9.73849873293637 -36.20835847895504,-9.73859131376029 -36.20841481440913,-9.73868389458313 -36.20847114988971,-9.73877647540488 -36.20852748539680,-9.73886905622556 -36.20858382093041,-9.73896163704517 -36.20864015649052,-9.73905421786368 -36.20869649207715,-9.73914679868112 -36.20875282769030,-9.73923937949749 -36.20880916332994,-9.73933196031278 -36.20886549899611,-9.73942454112696 -36.20892183468880,-9.73951712194008 -36.20897817040800,-9.73960970275213 -36.20903450615369,-9.73970228356307 -36.20909084192592,-9.73979486437295 -36.20914717772465,-9.73988744518175 -36.20920351354992,-9.73998002598946 -36.20925984940168,-9.74007260679608 -36.20931618527997,-9.74016518760163 -36.20937252118477,-9.74025776840609 -36.20942885711609,-9.74035034920946 -36.20948519307392,-9.74044293001176 -36.20954152905829,-9.74053551081298 -36.20959786506916,-9.74062809161309 -36.20965420110656,-9.74072067241214 -36.20971053717046,-9.74081325321010 -36.20976687326090,-9.74090583400698 -36.20982320937785,-9.74099841480276 -36.20987954552131,-9.74109099559746 -36.20993588169131,-9.74118357639109 -36.20999221788782,-9.74127615718361 -36.21004855411087,-9.74136873797506 -36.21010489036042,-9.74146131876541 -36.21016122663649,-9.74155389955469 -36.21021756293910,-9.74164648034286 -36.21027389926823,-9.74173906112996 -36.21030550255824,-9.74178721239932 -36.21033710585621,-9.74183536366815 -36.21024405285933,-9.74189008781980 -36.21015099983674,-9.74194481193740 -36.21005794678841,-9.74199953602097 -36.20996489371438,-9.74205426007046 -36.20987184061462,-9.74210898408591 -36.20977878748912,-9.74216370806730 -36.20968573433793,-9.74221843201464 -36.20959268116101,-9.74227315592793 -36.20949962795837,-9.74232787980718 -36.20940657473000,-9.74238260365236 -36.20931352147591,-9.74243732746349 -36.20922046819610,-9.74249205124057 -36.20912741489057,-9.74254677498358 -36.20903436155933,-9.74260149869254 -36.20894130820236,-9.74265622236746 -36.20884825481967,-9.74271094600831 -36.20875520141125,-9.74276566961511 -36.20866214797711,-9.74282039318784 -36.20856909451726,-9.74287511672652 -36.20847604103169,-9.74292984023114 -36.20838298752039,-9.74298456370171 -36.20828993398337,-9.74303928713822 -36.20819688042063,-9.74309401054066 -36.20810382683217,-9.74314873390904 -36.20801077321799,-9.74320345724337 -36.20791771957808,-9.74325818054363 -36.20782466591246,-9.74331290380984 -36.20773161222111,-9.74336762704198 -36.20763855850405,-9.74342235024006 -36.20758269723931,-9.74332930456342 -36.20752683600084,-9.74323625888583 -36.20747097478868,-9.74314321320730 -36.20741511360282,-9.74305016752778 -36.20735925244325,-9.74295712184731 -36.20730339130999,-9.74286407616588 -36.20724753020303,-9.74277103048349 -36.20719166912236,-9.74267798480017 -36.20713580806798,-9.74258493911587 -36.20707994703990,-9.74249189343061 -36.20702408603813,-9.74239884774440 -36.20696822506264,-9.74230580205723 -36.20691236411345,-9.74221275636912 -36.20685650319056,-9.74211971068004 -36.20680064229396,-9.74202666499001 -36.20674478142365,-9.74193361929902 -36.20668892057964,-9.74184057360707 -36.20663305976192,-9.74174752791420 -36.20657719897049,-9.74165448222034 -36.20652133820537,-9.74156143652554 -36.20646547746652,-9.74146839082977 -36.20640961675397,-9.74137534513306 -36.20635375606771,-9.74128229943541 -36.20629789540774,-9.74118925373679 -36.20624203477407,-9.74109620803722 -36.20618617416667,-9.74100316233670 -36.20613031358557,-9.74091011663522 -36.20607445303076,-9.74081707093280 -36.20601859250224,-9.74072402522943 -36.20596273200000,-9.74063097952510 -36.20590687152406,-9.74053793381982 -36.20585101107441,-9.74044488811358 -36.20579515065103,-9.74035184240642 -36.20573929025394,-9.74025879669829 -36.20568342988315,-9.74016575098921 -36.20562756953863,-9.74007270527918 -36.20557170922041,-9.73997965956819 -36.20551584892846,-9.73988661385628 -36.20545998866281,-9.73979356814341 -36.20540412842343,-9.73970052242958
          </coordinates>
        </LinearRing>
      </outerBoundaryIs>
    </Polygon>
  </Placemark>
  <Placemark>
    <name>AgroCAD: 9317</name>
    <styleUrl>FFFF4000</styleUrl>
    <Polygon>
      <outerBoundaryIs>
        <LinearRing>
          <coordinates>
           -36.20760722332750,-9.74344077787625 -36.20751485332551,-9.74349509892884 -36.20742248329817,-9.74354941994787 -36.20733011324550,-9.74360374093334 -36.20723774316747,-9.74365806188523 -36.20714537306410,-9.74371238280356 -36.20705300293539,-9.74376670368833 -36.20696063278133,-9.74382102453953 -36.20686826260193,-9.74387534535718 -36.20677589239718,-9.74392966614125 -36.20668352216709,-9.74398398689174 -36.20659115191165,-9.74403830760868 -36.20649878163089,-9.74409262829204 -36.20640641132474,-9.74414694894183 -36.20631404099328,-9.74420126955805 -36.20622167063646,-9.74425559014071 -36.20612930025430,-9.74430991068979 -36.20603692984680,-9.74436423120531 -36.20594455941394,-9.74441855168725 -36.20585218895576,-9.74447287213562 -36.20575981847222,-9.74452719255042 -36.20566744796333,-9.74458151293164 -36.20557507742911,-9.74463583327930 -36.20548270686953,-9.74469015359340 -36.20539033628462,-9.74474447387390 -36.20529796567434,-9.74479879412084 -36.20520559503874,-9.74485311433420 -36.20511322437779,-9.74490743451398 -36.20502085369150,-9.74496175466019 -36.20492848297986,-9.74501607477282 -36.20483611224287,-9.74507039485188 -36.20478025174169,-9.74497734886372 -36.20472439126680,-9.74488430287460 -36.20466853081821,-9.74479125688454 -36.20461267039594,-9.74469821089351 -36.20455680999994,-9.74460516490155 -36.20450094963026,-9.74451211890864 -36.20444508928688,-9.74441907291476 -36.20438922896978,-9.74432602691995 -36.20433336867899,-9.74423298092419 -36.20427750841449,-9.74413993492746 -36.20422164817628,-9.74404688892980 -36.20416578796438,-9.74395384293119 -36.20410992777877,-9.74386079693162 -36.20405406761945,-9.74376775093112 -36.20399820748643,-9.74367470492965 -36.20394234737970,-9.74358165892724 -36.20388648729927,-9.74348861292390 -36.20383062724513,-9.74339556691959 -36.20377476721729,-9.74330252091435 -36.20371890721572,-9.74320947490814 -36.20366304724047,-9.74311642890101 -36.20360718729150,-9.74302338289293 -36.20355132736882,-9.74293033688388 -36.20349546747244,-9.74283729087391 -36.20343960760234,-9.74274424486300 -36.20338374775852,-9.74265119885112 -36.20332788794101,-9.74255815283831 -36.20327202814979,-9.74246510682456 -36.20321616838484,-9.74237206080985 -36.20316030864619,-9.74227901479421 -36.20310444893384,-9.74218596877762 -36.20304858924776,-9.74209292276009 -36.20299272958797,-9.74199987674162 -36.20293686995447,-9.74190683072219 -36.20288101034726,-9.74181378470184 -36.20282515076632,-9.74172073868054 -36.20276929121168,-9.74162769265829 -36.20271343168333,-9.74153464663511 -36.20265757218127,-9.74144160061097 -36.20260171270547,-9.74134855458590 -36.20269408370744,-9.74129423703603 -36.20278645468407,-9.74123991945257 -36.20287882563538,-9.74118560183553 -36.20297119656136,-9.74113128418494 -36.20306356746201,-9.74107696650077 -36.20315593833733,-9.74102264878302 -36.20324830918733,-9.74096833103171 -36.20334068001200,-9.74091401324681 -36.20343305081134,-9.74085969542836 -36.20352542158535,-9.74080537757632 -36.20361779233404,-9.74075105969074 -36.20371016305739,-9.74069674177156 -36.20380253375544,-9.74064242381883 -36.20389490442813,-9.74058810583252 -36.20398727507551,-9.74053378781264 -36.20407964569756,-9.74047946975920 -36.20417201629428,-9.74042515167218 -36.20426438686567,-9.74037083355162 -36.20435675741173,-9.74031651539747 -36.20444912793246,-9.74026219720977 -36.20454149842788,-9.74020787898849 -36.20463386889796,-9.74015356073366 -36.20472623934271,-9.74009924244525 -36.20481860976214,-9.74004492412329 -36.20491098015623,-9.73999060576775 -36.20500335052501,-9.73993628737867 -36.20509572086846,-9.73988196895600 -36.20518809118657,-9.73982765049979 -36.20528046147935,-9.73977333201000 -36.20537283174682,-9.73971901348667 -36.20542869197767,-9.73981205920398 -36.20548455223481,-9.73990510492033 -36.20554041251824,-9.73999815063572 -36.20559627282795,-9.74009119635018 -36.20565213316395,-9.74018424206370 -36.20570799352621,-9.74027728777625 -36.20576385391479,-9.74037033348787 -36.20581971432964,-9.74046337919851 -36.20587557477079,-9.74055642490822 -36.20593143523821,-9.74064947061699 -36.20598729573192,-9.74074251632479 -36.20604315625192,-9.74083556203165 -36.20609901679822,-9.74092860773755 -36.20615487737080,-9.74102165344250 -36.20621073796967,-9.74111469914651 -36.20626659859483,-9.74120774484956 -36.20632245924628,-9.74130079055166 -36.20637831992402,-9.74139383625279 -36.20643418062805,-9.74148688195298 -36.20649004135838,-9.74157992765222 -36.20654590211500,-9.74167297335051 -36.20660176289791,-9.74176601904785 -36.20665762370710,-9.74185906474421 -36.20671348454260,-9.74195211043963 -36.20676934540439,-9.74204515613410 -36.20682520629247,-9.74213820182762 -36.20688106720685,-9.74223124752018 -36.20693692814751,-9.74232429321177 -36.20699278911449,-9.74241733890242 -36.20704865010774,-9.74251038459211 -36.20710451112730,-9.74260343028085 -36.20716037217317,-9.74269647596863 -36.20721623324531,-9.74278952165544 -36.20727209434375,-9.74288256734131 -36.20732795546850,-9.74297561302622 -36.20738381661955,-9.74306865871017 -36.20743967779689,-9.74316170439316 -36.20749553900053,-9.74325475007519 -36.20755140023047,-9.74334779575626 -36.20760722332750,-9.74344077787625
          </coordinates>
        </LinearRing>
      </outerBoundaryIs>
    </Polygon>
  </Placemark>
  <Placemark>
    <name>AgroCAD: 9316</name>
    <styleUrl>FFFF4000</styleUrl>
    <Polygon>
      <outerBoundaryIs>
        <LinearRing>
          <coordinates>
           -36.20257037760967,-9.74136698173732 -36.20262623707692,-9.74146002776587 -36.20268209657044,-9.74155307379348 -36.20273795609026,-9.74164611982014 -36.20279381563636,-9.74173916584588 -36.20284967520876,-9.74183221187065 -36.20290553480743,-9.74192525789450 -36.20296139443239,-9.74201830391739 -36.20301725408364,-9.74211134993934 -36.20307311376116,-9.74220439596036 -36.20312897346499,-9.74229744198042 -36.20318483319510,-9.74239048799956 -36.20324069295151,-9.74248353401773 -36.20329655273419,-9.74257658003498 -36.20335241254316,-9.74266962605126 -36.20340827237843,-9.74276267206661 -36.20346413223999,-9.74285571808102 -36.20351999212784,-9.74294876409447 -36.20357585204198,-9.74304181010700 -36.20363171198241,-9.74313485611856 -36.20368757194913,-9.74322790212919 -36.20374343194214,-9.74332094813886 -36.20379929196145,-9.74341399414758 -36.20385515200704,-9.74350704015537 -36.20391101207894,-9.74360008616220 -36.20396687217712,-9.74369313216810 -36.20402273230161,-9.74378617817303 -36.20407859245239,-9.74387922417702 -36.20413445262946,-9.74397227018007 -36.20419031283282,-9.74406531618216 -36.20424617306249,-9.74415836218332 -36.20430203331844,-9.74425140818351 -36.20435789360069,-9.74434445418277 -36.20441375390925,-9.74443750018106 -36.20446961424410,-9.74453054617841 -36.20452547460524,-9.74462359217481 -36.20458133499269,-9.74471663817026 -36.20463719540643,-9.74480968416477 -36.20469305584648,-9.74490273015831 -36.20474891631282,-9.74499577615092 -36.20480477680548,-9.74508882214256 -36.20471212565256,-9.74514330705946 -36.20461947447414,-9.74519779194259 -36.20452682327022,-9.74525227679192 -36.20443417204080,-9.74530676160748 -36.20434152078588,-9.74536124638926 -36.20424886950548,-9.74541573113726 -36.20415621819956,-9.74547021585147 -36.20406356686815,-9.74552470053188 -36.20397091551124,-9.74557918517853 -36.20387826412884,-9.74563366979139 -36.20378561272094,-9.74568815437046 -36.20369296128752,-9.74574263891575 -36.20360030982862,-9.74579712342724 -36.20350765834422,-9.74585160790496 -36.20341500683431,-9.74590609234889 -36.20332235529891,-9.74596057675904 -36.20322970373802,-9.74601506113538 -36.20313705215161,-9.74606954547794 -36.20304440053971,-9.74612402978672 -36.20295174890232,-9.74617851406171 -36.20285909723942,-9.74623299830292 -36.20276644555101,-9.74628748251031 -36.20267379383713,-9.74634196668393 -36.20258114209774,-9.74639645082376 -36.20254592988111,-9.74635602919684 -36.20247611248972,-9.74627273505392 -36.20240629513123,-9.74618944090600 -36.20233647780566,-9.74610614675311 -36.20226666051300,-9.74602285259525 -36.20219684325324,-9.74593955843239 -36.20212702602638,-9.74585626426457 -36.20205720883243,-9.74577297009175 -36.20198739167140,-9.74568967591397 -36.20192551957529,-9.74561854955402 -36.20186364750436,-9.74554742318988 -36.20180177545862,-9.74547629682160 -36.20173990343804,-9.74540517044912 -36.20167803144266,-9.74533404407249 -36.20161615947245,-9.74526291769170 -36.20155428752740,-9.74519179130675 -36.20148603487533,-9.74511357483505 -36.20141778225382,-9.74503535835825 -36.20134952966289,-9.74495714187636 -36.20128127710252,-9.74487892538938 -36.20121302457273,-9.74480070889731 -36.20114477207351,-9.74472249240016 -36.20107651960486,-9.74464427589790 -36.20100826716678,-9.74456605939055 -36.20094001475925,-9.74448784287810 -36.20087176238231,-9.74440962636058 -36.20080324919715,-9.74433007008076 -36.20073473604309,-9.74425051379593 -36.20066622292012,-9.74417095750608 -36.20059770982822,-9.74409140121121 -36.20052919676741,-9.74401184491133 -36.20046068373770,-9.74393228860642 -36.20039217073907,-9.74385273229650 -36.20032365777154,-9.74377317598156 -36.20025514483507,-9.74369361966161 -36.20018663192971,-9.74361406333664 -36.20011811905542,-9.74353450700665 -36.20004960621222,-9.74345495067165 -36.19998109340011,-9.74337539433164 -36.19991258061908,-9.74329583798661 -36.19984406786913,-9.74321628163656 -36.19980271332746,-9.74316762799251 -36.19976135879721,-9.74311897434668 -36.19972527136578,-9.74307865410602 -36.19973534933932,-9.74306470576787 -36.19978306430751,-9.74301787158458 -36.19984532807368,-9.74297333066336 -36.19990133080972,-9.74293654093998 -36.19999336725831,-9.74288241867561 -36.20008540368176,-9.74282829637789 -36.20017744008007,-9.74277417404682 -36.20026947645321,-9.74272005168242 -36.20036151280125,-9.74266592928468 -36.20045354912411,-9.74261180685359 -36.20054558542183,-9.74255768438916 -36.20063762169440,-9.74250356189139 -36.20072965794183,-9.74244943936028 -36.20082169416411,-9.74239531679583 -36.20091373036123,-9.74234119419804 -36.20100576653322,-9.74228707156691 -36.20109780268007,-9.74223294890244 -36.20118983880177,-9.74217882620463 -36.20128187489831,-9.74212470347351 -36.20137391096971,-9.74207058070903 -36.20146594701598,-9.74201645791122 -36.20155798303708,-9.74196233508006 -36.20165001903305,-9.74190821221557 -36.20174205500387,-9.74185408931775 -36.20183409094954,-9.74179996638659 -36.20192612687007,-9.74174584342210 -36.20201816276545,-9.74169172042427 -36.20211019863568,-9.74163759739311 -36.20220223448078,-9.74158347432863 -36.20229427030071,-9.74152935123080 -36.20238630609551,-9.74147522809964 -36.20247834186516,-9.74142110493514 -36.20257037760967,-9.74136698173732
          </coordinates>
        </LinearRing>
      </outerBoundaryIs>
    </Polygon>
  </Placemark>
</Document>
</kml>
