<?xml version="1.0" encoding="UTF-8"?>
<kml xmlns="http://www.opengis.net/kml/2.2" xmlns:gx="http://www.google.com/kml/ext/2.2" xmlns:kml="http://www.opengis.net/kml/2.2" xmlns:atom="http://www.w3.org/2005/Atom">
<Document>
  <name>5001.kml</name>
  <StyleMap id="FFFF4000">
    <Pair>
      <key>normal</key>
      <styleUrl>#s_FFFF4000</styleUrl>
    </Pair>
    <Pair>
      <key>highlight</key>
      <styleUrl>#s_FFFF4000_hl</styleUrl>
    </Pair>
  </StyleMap>
  <Style id="s_FFFF4000">
   <IconStyle>
      <scale>1.1</scale>
      <Icon>
        <href>http://maps.google.com/mapfiles/kml/pushpin/agrocad.png</href>
      </Icon>
      <hotSpot x="20" y="2" xunits="pixels" yunits="pixels"/>
    </IconStyle>
    <LineStyle>
      <color>FFFF4000</color>
      <width>1</width>
    </LineStyle>
    <PolyStyle>
      <color>40ffffff</color>
      <fill>1</fill>
    </PolyStyle>
  </Style>
  <Style id="s_FFFF4000_hl">
    <IconStyle>
      <scale>1.3</scale>
      <Icon>
        <href>http://maps.google.com/mapfiles/kml/pushpin/agrocad.png</href>
      </Icon>
      <hotSpot x="20" y="2" xunits="pixels" yunits="pixels"/>
    </IconStyle>
    <LineStyle>
      <color>ff000000</color>
      <width>1</width>
    </LineStyle>
    <PolyStyle>
      <color>40ffffff</color>
      <fill>1</fill>
    </PolyStyle>
  </Style>
  <Placemark>
    <name>AgroCAD: 9155</name>
    <styleUrl>FFFF4000</styleUrl>
    <Polygon>
      <outerBoundaryIs>
        <LinearRing>
          <coordinates>
           -36.21401871675650,-9.75965192763235 -36.21396726230778,-9.75959053242597 -36.21391413551886,-9.75947527090248 -36.21635931656393,-9.75797912575055 -36.21814337055621,-9.76093955207130 -36.21776472441454,-9.76111728433239 -36.21762580800812,-9.76121909792824 -36.21747124281384,-9.76141390149496 -36.21731995636304,-9.76159805578828 -36.21714802008109,-9.76179466007512 -36.21713868829856,-9.76180201737798 -36.21712283820694,-9.76181960068372 -36.21697423006971,-9.76198734279084 -36.21681202495647,-9.76213131202134 -36.21668619487365,-9.76224058257528 -36.21656066596788,-9.76232786952615 -36.21639158118861,-9.76241943589363 -36.21612096710179,-9.76208001915160 -36.21566157207352,-9.76153853786161 -36.21497178664036,-9.76076226787055 -36.21456998228758,-9.76031406878814 -36.21412888211354,-9.75981558395399 -36.21411160132825,-9.75978996814137 -36.21408752004973,-9.75975036549917 -36.21405454026432,-9.75970254949052 -36.21401871675650,-9.75965192763235
          </coordinates>
        </LinearRing>
      </outerBoundaryIs>
    </Polygon>
  </Placemark>
  <StyleMap id="FF0040FF">
    <Pair>
      <key>normal</key>
      <styleUrl>#s_FF0040FF</styleUrl>
    </Pair>
    <Pair>
      <key>highlight</key>
      <styleUrl>#s_FF0040FF_hl</styleUrl>
    </Pair>
  </StyleMap>
  <Style id="s_FF0040FF">
   <IconStyle>
      <scale>1.1</scale>
      <Icon>
        <href>http://maps.google.com/mapfiles/kml/pushpin/agrocad.png</href>
      </Icon>
      <hotSpot x="20" y="2" xunits="pixels" yunits="pixels"/>
    </IconStyle>
    <LineStyle>
      <color>FF0040FF</color>
      <width>1</width>
    </LineStyle>
    <PolyStyle>
      <color>40ffffff</color>
      <fill>1</fill>
    </PolyStyle>
  </Style>
  <Style id="s_FF0040FF_hl">
    <IconStyle>
      <scale>1.3</scale>
      <Icon>
        <href>http://maps.google.com/mapfiles/kml/pushpin/agrocad.png</href>
      </Icon>
      <hotSpot x="20" y="2" xunits="pixels" yunits="pixels"/>
    </IconStyle>
    <LineStyle>
      <color>ff000000</color>
      <width>1</width>
    </LineStyle>
    <PolyStyle>
      <color>40ffffff</color>
      <fill>1</fill>
    </PolyStyle>
  </Style>
  <Placemark>
    <name>AgroCAD: 814E</name>
    <styleUrl>FF0040FF</styleUrl>
    <Polygon>
      <outerBoundaryIs>
        <LinearRing>
          <coordinates>
           -36.21641513052517,-9.76244785439788 -36.21657990921665,-9.76235861995397 -36.21670871325378,-9.76226905563039 -36.21683616919229,-9.76215837318618 -36.21700015089028,-9.76201282709952 -36.21715009888094,-9.76184357261962 -36.21716377982576,-9.76182839565721 -36.21717332754531,-9.76182086810650 -36.21734784189425,-9.76162131586434 -36.21749967796124,-9.76143649253619 -36.21765140077844,-9.76124527130089 -36.21778351605566,-9.76114844233884 -36.21815803467554,-9.76097264749712 -36.21816449237144,-9.76097458961025 -36.21893306891225,-9.76224621526410 -36.21900143439542,-9.76235322046196 -36.21857796117803,-9.76278727761665 -36.21786985942407,-9.76340954840415 -36.21745029186897,-9.76369704533270 -36.21641513052517,-9.76244785439788
          </coordinates>
        </LinearRing>
      </outerBoundaryIs>
    </Polygon>
  </Placemark>
  <Placemark>
    <name>AgroCAD: 9156</name>
    <styleUrl>FFFF4000</styleUrl>
    <Polygon>
      <outerBoundaryIs>
        <LinearRing>
          <coordinates>
           -36.21639032473625,-9.75796015239861 -36.21895105926894,-9.75639326467606 -36.21900782649148,-9.75648063653057 -36.21938813782359,-9.75709919419408 -36.21998471052825,-9.75810138467482 -36.22055579385380,-9.75909074618345 -36.21963934946008,-9.76005362778522 -36.21913507566926,-9.76050184517502 -36.21898513406607,-9.76056477864134 -36.21860347635087,-9.76073089073255 -36.21817635246824,-9.76092385332690 -36.21639032473625,-9.75796015239861
          </coordinates>
        </LinearRing>
      </outerBoundaryIs>
    </Polygon>
  </Placemark>
  <Placemark>
    <name>AgroCAD: 814D</name>
    <styleUrl>FF0040FF</styleUrl>
    <Polygon>
      <outerBoundaryIs>
        <LinearRing>
          <coordinates>
           -36.21819450577336,-9.76096029290830 -36.21819631088206,-9.76095454501875 -36.21861834492315,-9.76076388187791 -36.21899955086494,-9.76059796642542 -36.21915486354501,-9.76053277861356 -36.21966479333892,-9.76007953395651 -36.22057632865989,-9.75912181017321 -36.22071701362659,-9.75933463095258 -36.22100626167801,-9.75980599804637 -36.22118632506757,-9.76012496111636 -36.21986541993528,-9.76146763504813 -36.21902386532893,-9.76233022885316 -36.21896165861306,-9.76223142694195 -36.21819450577336,-9.76096029290830
          </coordinates>
        </LinearRing>
      </outerBoundaryIs>
    </Polygon>
  </Placemark>
</Document>
</kml>
