<?xml version="1.0" encoding="utf-8" ?>
<kml xmlns="http://www.opengis.net/kml/2.2">
<Document id="root_doc">
<Schema name="BAIXA_GRANDE_TALHAO_1014_ID_24" id="BAIXA_GRANDE_TALHAO_1014_ID_24">
	<SimpleField name="CODE" type="string"></SimpleField>
	<SimpleField name="TALHAO" type="float"></SimpleField>
	<SimpleField name="AREA_TOTAL" type="float"></SimpleField>
	<SimpleField name="FAZENDA" type="float"></SimpleField>
	<SimpleField name="ZONA" type="float"></SimpleField>
	<SimpleField name="FAZ_NOME" type="string"></SimpleField>
</Schema>
<Folder><name>BAIXA_GRANDE_TALHAO_1014_ID_24</name>
  <Placemark id="BAIXA_GRANDE_TALHAO_1014_ID_24.1">
	<Style><LineStyle><color>ff0000ff</color></LineStyle><PolyStyle><fill>0</fill></PolyStyle></Style>
	<ExtendedData><SchemaData schemaUrl="#BAIXA_GRANDE_TALHAO_1014_ID_24">
		<SimpleData name="CODE">25</SimpleData>
		<SimpleData name="TALHAO">1014</SimpleData>
		<SimpleData name="AREA_TOTAL">16.301</SimpleData>
		<SimpleData name="FAZENDA">2162</SimpleData>
		<SimpleData name="ZONA">1</SimpleData>
		<SimpleData name="FAZ_NOME">BAIXA GRANDE</SimpleData>
	</SchemaData></ExtendedData>
      <MultiGeometry><Polygon><outerBoundaryIs><LinearRing><coordinates>-36.1644477497614,-9.70589355019865 -36.1660697797296,-9.70745458226983 -36.170631471426,-9.70734268040294 -36.1700028985625,-9.70673776394191 -36.1701750215234,-9.70656171133482 -36.166802608874,-9.7035930141462 -36.1667332453839,-9.70353195349527 -36.1644477497614,-9.70589355019865</coordinates></LinearRing></outerBoundaryIs></Polygon></MultiGeometry>
  </Placemark>
</Folder>
</Document></kml>
