<?xml version="1.0" encoding="utf-8" ?>
<kml xmlns="http://www.opengis.net/kml/2.2">
<Document id="root_doc">
<Schema name="BAIXA_GRANDE_TALHAO_1011_ID_21" id="BAIXA_GRANDE_TALHAO_1011_ID_21">
	<SimpleField name="CODE" type="string"></SimpleField>
	<SimpleField name="TALHAO" type="float"></SimpleField>
	<SimpleField name="AREA_TOTAL" type="float"></SimpleField>
	<SimpleField name="FAZENDA" type="float"></SimpleField>
	<SimpleField name="ZONA" type="float"></SimpleField>
	<SimpleField name="FAZ_NOME" type="string"></SimpleField>
</Schema>
<Folder><name>BAIXA_GRANDE_TALHAO_1011_ID_21</name>
  <Placemark id="BAIXA_GRANDE_TALHAO_1011_ID_21.1">
	<Style><LineStyle><color>ff0000ff</color></LineStyle><PolyStyle><fill>0</fill></PolyStyle></Style>
	<ExtendedData><SchemaData schemaUrl="#BAIXA_GRANDE_TALHAO_1011_ID_21">
		<SimpleData name="CODE">22</SimpleData>
		<SimpleData name="TALHAO">1011</SimpleData>
		<SimpleData name="AREA_TOTAL">3.727</SimpleData>
		<SimpleData name="FAZENDA">2162</SimpleData>
		<SimpleData name="ZONA">1</SimpleData>
		<SimpleData name="FAZ_NOME">BAIXA GRANDE</SimpleData>
	</SchemaData></ExtendedData>
      <MultiGeometry><Polygon><outerBoundaryIs><LinearRing><coordinates>-36.1643580825272,-9.70590794116494 -36.1635469266554,-9.7051272823301 -36.1635361975973,-9.70513685234002 -36.1635025160288,-9.70516724295179 -36.163468938958,-9.7051977472128 -36.1634353880192,-9.70522827975928 -36.1634017771184,-9.70525874729249 -36.1633680200974,-9.70528905531886 -36.1633340317422,-9.70531910765255 -36.163299728575,-9.70534880563525 -36.1632650297786,-9.70537804747314 -36.1632298582885,-9.70540672775162 -36.1631977401382,-9.70543196963548 -36.1631687812402,-9.70545388427773 -36.1631431010665,-9.70547260757504 -36.1631170866962,-9.70549087110118 -36.1630907437155,-9.70550866496858 -36.1630640846311,-9.70552598924292 -36.1630371215335,-9.70554284405122 -36.1630059492742,-9.7055615319989 -36.1629783735581,-9.70557738121121 -36.1629465301693,-9.70559492008259 -36.1629183917076,-9.70560976382834 -36.1628859321647,-9.70562615327055 -36.162857277382,-9.70563999066927 -36.162824252937,-9.70565522887256 -36.1627951251993,-9.70566805751891 -36.1627573728433,-9.70568385761017 -36.162727785694,-9.70569560590448 -36.1626894833831,-9.70571004469357 -36.1626509291253,-9.70572380801691 -36.1626078472833,-9.70573841110494 -36.1625645598297,-9.70575240336676 -36.1625211145146,-9.70576590584701 -36.1624775548444,-9.70577904097343 -36.1624339210867,-9.70579193198899 -36.1623902513347,-9.70580470257449 -36.1623465826047,-9.70581747659919 -36.1623029521397,-9.70583037784179 -36.162259387033,-9.70584349540008 -36.1622158849657,-9.70585681734031 -36.1621724375275,-9.70587031366407 -36.1621290359345,-9.70588395443764 -36.1620856710882,-9.70589770979103 -36.1620423336447,-9.70591154990893 -36.161999014079,-9.70592544501948 -36.1619557027484,-9.70593936538043 -36.1619123899568,-9.7059532812634 -36.1618690660194,-9.70596716294525 -36.1618257239625,-9.70598098884719 -36.1617823645503,-9.70599476108217 -36.1617389899136,-9.70600848604897 -36.1616956021615,-9.70602217015189 -36.1616522033844,-9.70603581979993 -36.1616087956568,-9.70604944140596 -36.1615653810419,-9.70606304138532 -36.1615219615889,-9.70607662615704 -36.1614785393433,-9.70609020214062 -36.161462908028,-9.70609508827113 -36.1629083927707,-9.70740587075082 -36.1643580825272,-9.70590794116494</coordinates></LinearRing></outerBoundaryIs></Polygon></MultiGeometry>
  </Placemark>
</Folder>
</Document></kml>
