<?xml version="1.0" encoding="utf-8" ?>
<kml xmlns="http://www.opengis.net/kml/2.2">
<Document id="root_doc">
<Schema name="BAIXA_GRANDE_TALHAO_1030_ID_273" id="BAIXA_GRANDE_TALHAO_1030_ID_273">
	<SimpleField name="CODE" type="string"></SimpleField>
	<SimpleField name="TALHAO" type="float"></SimpleField>
	<SimpleField name="AREA_TOTAL" type="float"></SimpleField>
	<SimpleField name="FAZENDA" type="float"></SimpleField>
	<SimpleField name="ZONA" type="float"></SimpleField>
	<SimpleField name="FAZ_NOME" type="string"></SimpleField>
</Schema>
<Folder><name>BAIXA_GRANDE_TALHAO_1030_ID_273</name>
  <Placemark id="BAIXA_GRANDE_TALHAO_1030_ID_273.1">
	<Style><LineStyle><color>ff0000ff</color></LineStyle><PolyStyle><fill>0</fill></PolyStyle></Style>
	<ExtendedData><SchemaData schemaUrl="#BAIXA_GRANDE_TALHAO_1030_ID_273">
		<SimpleData name="CODE">274</SimpleData>
		<SimpleData name="TALHAO">1030</SimpleData>
		<SimpleData name="AREA_TOTAL">0.407</SimpleData>
		<SimpleData name="FAZENDA">2162</SimpleData>
		<SimpleData name="ZONA">1</SimpleData>
		<SimpleData name="FAZ_NOME">BAIXA GRANDE</SimpleData>
	</SchemaData></ExtendedData>
      <MultiGeometry><Polygon><outerBoundaryIs><LinearRing><coordinates>-36.1917584549642,-9.708578743601 -36.1917203594808,-9.70855549736963 -36.1917045083331,-9.7085455577944 -36.191677147226,-9.70852773087857 -36.1916482394189,-9.70850826694531 -36.1916249187115,-9.70849220866371 -36.1916079139404,-9.70848009857842 -36.1915928456135,-9.70846899771337 -36.1915779340504,-9.70845767562187 -36.1915597462467,-9.70844338341955 -36.1915120299836,-9.7084051874075 -36.191467061404,-9.70836815118841 -36.1914304535066,-9.70833694135655 -36.1914008830024,-9.7083112696373 -36.1913772684818,-9.70829003925935 -36.1913554240734,-9.70826973247297 -36.1913340609587,-9.70824924515813 -36.1913130481155,-9.708228522668 -36.1912921745976,-9.70820733131285 -36.191202766423,-9.70811346785187 -36.1911140546827,-9.70801947766147 -36.1910940621045,-9.70799779752913 -36.1910743794273,-9.70797572954647 -36.1910549804701,-9.7079534143149 -36.1910360116227,-9.70793084685929 -36.1909465426577,-9.70782186279939 -36.1908576749914,-9.70771361061153 -36.1907683913839,-9.70760485296061 -36.1906805240018,-9.70749604993619 -36.1905930702191,-9.70738775708037 -36.1904090524005,-9.70715989517607 -36.1904221343318,-9.70727028502383 -36.1905785206,-9.70755183734993 -36.1909801606712,-9.70806340807607 -36.1911861350878,-9.70842174238653 -36.1914584424605,-9.70883503228911 -36.1917584549642,-9.708578743601</coordinates></LinearRing></outerBoundaryIs></Polygon></MultiGeometry>
  </Placemark>
</Folder>
</Document></kml>
