<?xml version="1.0" encoding="utf-8" ?>
<kml xmlns="http://www.opengis.net/kml/2.2">
<Document id="root_doc">
<Schema name="BAIXA_GRANDE_TALHAO_2301_ID_287" id="BAIXA_GRANDE_TALHAO_2301_ID_287">
	<SimpleField name="CODE" type="string"></SimpleField>
	<SimpleField name="TALHAO" type="float"></SimpleField>
	<SimpleField name="AREA_TOTAL" type="float"></SimpleField>
	<SimpleField name="FAZENDA" type="float"></SimpleField>
	<SimpleField name="ZONA" type="float"></SimpleField>
	<SimpleField name="FAZ_NOME" type="string"></SimpleField>
</Schema>
<Folder><name>BAIXA_GRANDE_TALHAO_2301_ID_287</name>
  <Placemark id="BAIXA_GRANDE_TALHAO_2301_ID_287.1">
	<Style><LineStyle><color>ff0000ff</color></LineStyle><PolyStyle><fill>0</fill></PolyStyle></Style>
	<ExtendedData><SchemaData schemaUrl="#BAIXA_GRANDE_TALHAO_2301_ID_287">
		<SimpleData name="CODE">288</SimpleData>
		<SimpleData name="TALHAO">2301</SimpleData>
		<SimpleData name="AREA_TOTAL">3.630</SimpleData>
		<SimpleData name="FAZENDA">2162</SimpleData>
		<SimpleData name="ZONA">1</SimpleData>
		<SimpleData name="FAZ_NOME">BAIXA GRANDE</SimpleData>
	</SchemaData></ExtendedData>
      <MultiGeometry><Polygon><outerBoundaryIs><LinearRing><coordinates>-36.1805926838845,-9.71377939868858 -36.1799631626099,-9.71382379717406 -36.1800659324315,-9.7138894220477 -36.1801861910411,-9.71398903301719 -36.1804164838787,-9.71421849813068 -36.1807162267952,-9.71448661479759 -36.1808550209046,-9.71456596524106 -36.1810135273804,-9.71463280108319 -36.1810666650246,-9.71465626236843 -36.1811240427813,-9.7147134008787 -36.1812078099756,-9.71478058814312 -36.1812891584404,-9.71480995283584 -36.1813739012008,-9.71481023666509 -36.1814870568423,-9.71483046048761 -36.1815723730439,-9.7148572026162 -36.1816308513442,-9.71484436879066 -36.1817654363608,-9.71478284701794 -36.1819542304864,-9.71468447067424 -36.182134706562,-9.71457612846562 -36.1821748705978,-9.71454934808203 -36.1823000525244,-9.71450423363253 -36.1826211933856,-9.71443228607862 -36.1826954619455,-9.71439995849367 -36.1827373272022,-9.71436607834886 -36.1827739654362,-9.71430609177504 -36.1828366187781,-9.71425823046518 -36.1828629321381,-9.71419729151608 -36.1828615427468,-9.71415058754098 -36.1828086311841,-9.71408247040591 -36.182624213667,-9.71379486585652 -36.1825088609546,-9.7136670291367 -36.1824480456944,-9.71358777430516 -36.1823783991607,-9.71346599495024 -36.1823112287294,-9.71336313506376 -36.1822193572306,-9.71327209645895 -36.1820466063144,-9.71313246125147 -36.1819727020324,-9.71310172531032 -36.1817222948096,-9.71309621628931 -36.1814627149329,-9.7131034413685 -36.181330208044,-9.71305943417306 -36.1811141972307,-9.71300188909758 -36.1811427587871,-9.71310747819678 -36.1811445439112,-9.71327024122067 -36.181121088087,-9.71335334411864 -36.1810664578861,-9.7134522496033 -36.1809909619271,-9.71356309639709 -36.180821892149,-9.71371423494291 -36.1807463881545,-9.71375328345388 -36.1806771947013,-9.71377232942297 -36.1805926838845,-9.71377939868858</coordinates></LinearRing></outerBoundaryIs></Polygon></MultiGeometry>
  </Placemark>
</Folder>
</Document></kml>
