<?xml version="1.0" encoding="utf-8" ?>
<kml xmlns="http://www.opengis.net/kml/2.2">
<Document id="root_doc">
<Schema name="BAIXA_GRANDE_TALHAO_1065_ID_301" id="BAIXA_GRANDE_TALHAO_1065_ID_301">
	<SimpleField name="CODE" type="string"></SimpleField>
	<SimpleField name="TALHAO" type="float"></SimpleField>
	<SimpleField name="AREA_TOTAL" type="float"></SimpleField>
	<SimpleField name="FAZENDA" type="float"></SimpleField>
	<SimpleField name="ZONA" type="float"></SimpleField>
	<SimpleField name="FAZ_NOME" type="string"></SimpleField>
</Schema>
<Folder><name>BAIXA_GRANDE_TALHAO_1065_ID_301</name>
  <Placemark id="BAIXA_GRANDE_TALHAO_1065_ID_301.1">
	<Style><LineStyle><color>ff0000ff</color></LineStyle><PolyStyle><fill>0</fill></PolyStyle></Style>
	<ExtendedData><SchemaData schemaUrl="#BAIXA_GRANDE_TALHAO_1065_ID_301">
		<SimpleData name="CODE">302</SimpleData>
		<SimpleData name="TALHAO">1065</SimpleData>
		<SimpleData name="AREA_TOTAL">1.505</SimpleData>
		<SimpleData name="FAZENDA">2162</SimpleData>
		<SimpleData name="ZONA">1</SimpleData>
		<SimpleData name="FAZ_NOME">BAIXA GRANDE</SimpleData>
	</SchemaData></ExtendedData>
      <MultiGeometry><Polygon><outerBoundaryIs><LinearRing><coordinates>-36.1898563678092,-9.70299195845477 -36.1897469565489,-9.70311139614754 -36.1902680014673,-9.70363194741649 -36.1902745359512,-9.70362565588169 -36.1902810526215,-9.70361934618585 -36.1902875514268,-9.70361301837866 -36.190294032316,-9.70360667250987 -36.1903004952382,-9.7036003086294 -36.1903069401424,-9.70359392678735 -36.190313366978,-9.70358752703393 -36.1903197756943,-9.70358110941952 -36.190326166241,-9.70357467399459 -36.1903325385678,-9.70356822080974 -36.1903388926246,-9.70356174991584 -36.1903452283612,-9.70355526136372 -36.190351545728,-9.70354875520448 -36.1903578446751,-9.70354223148929 -36.1903641251531,-9.7035356902695 -36.1903703871125,-9.70352913159655 -36.1903766305039,-9.70352255552209 -36.1903828552784,-9.70351596209784 -36.190389061387,-9.70350935137568 -36.1903952487807,-9.70350272340763 -36.190401417411,-9.70349607824586 -36.1904075672291,-9.70348941594258 -36.1904136981869,-9.7034827365503 -36.1904198102361,-9.70347604012155 -36.1904259033285,-9.70346932670903 -36.1904319774161,-9.70346259636552 -36.1904380324514,-9.70345584914403 -36.1904440683864,-9.70344908509761 -36.1904500851739,-9.70344230427951 -36.1904560827664,-9.70343550674308 -36.1904620611168,-9.7034286925418 -36.1904680201779,-9.70342186172928 -36.190473959903,-9.7034150143593 -36.1904798802452,-9.70340815048567 -36.1904857811581,-9.70340127016247 -36.1904916625952,-9.70339437344381 -36.1904975245101,-9.70338746038395 -36.1905033668567,-9.70338053103728 -36.1905052403876,-9.70337830053926 -36.1905110568065,-9.70337134975496 -36.1905168535506,-9.70336438281064 -36.1905226305745,-9.70335739976112 -36.1905283878326,-9.70335040066134 -36.1905341252796,-9.70334338556633 -36.1905398428704,-9.70333635453134 -36.1905455405599,-9.70332930761166 -36.1905512183035,-9.70332224486276 -36.1905568760563,-9.70331516634022 -36.1905625137739,-9.70330807209971 -36.1905681314119,-9.70330096219706 -36.1905737289262,-9.70329383668825 -36.1905793062726,-9.70328669562929 -36.1905848634072,-9.7032795390764 -36.1905904002865,-9.70327236708586 -36.1905959168667,-9.70326517971416 -36.1906014131045,-9.70325797701781 -36.1906068889567,-9.70325075905351 -36.1906123443801,-9.70324352587803 -36.1906177793318,-9.70323627754827 -36.1906231937692,-9.70322901412131 -36.1906285876494,-9.70322173565428 -36.1906339609302,-9.70321444220442 -36.1906393135693,-9.70320713382916 -36.1906446455245,-9.70319981058601 -36.1906499567538,-9.70319247253258 -36.1906552472156,-9.70318511972658 -36.1906605168681,-9.70317775222591 -36.1906657656699,-9.7031703700885 -36.1906709935797,-9.70316297337247 -36.1906762005563,-9.703155562136 -36.1906813865588,-9.70314813643741 -36.1906865515465,-9.70314069633511 -36.1906916954786,-9.70313324188769 -36.1906968183146,-9.70312577315377 -36.1907019200143,-9.70311829019214 -36.1907070005376,-9.70311079306162 -36.1907120598444,-9.7031032818213 -36.1907170978949,-9.70309575653019 -36.1907221146496,-9.70308821724754 -36.1907271100688,-9.70308066403269 -36.1907320841134,-9.70307309694502 -36.1907370367442,-9.70306551604415 -36.1907419679222,-9.70305792138963 -36.1907468776086,-9.70305031304133 -36.1907517657649,-9.70304269105904 -36.1907566323524,-9.70303505550274 -36.1907614773329,-9.70302740643251 -36.1907663006684,-9.70301974390858 -36.1907711023209,-9.7030120679912 -36.1907758822525,-9.70300437874076 -36.1907806404257,-9.7029966762178 -36.1907853768031,-9.70298896048289 -36.1907900913473,-9.70298123159676 -36.1907947840212,-9.70297348962024 -36.1907994547881,-9.70296573461419 -36.190804103611,-9.70295796663971 -36.1908087304534,-9.70295018575787 -36.190813335279,-9.7029423920299 -36.1908179180515,-9.70293458551714 -36.1908224787348,-9.70292676628099 -36.190827017293,-9.70291893438299 -36.1908315336904,-9.70291108988477 -36.1908360278916,-9.70290323284805 -36.1908404998611,-9.70289536333464 -36.1908449495637,-9.7028874814065 -36.1908493769645,-9.70287958712557 -36.1908537820286,-9.70287168055406 -36.1908581647213,-9.70286376175412 -36.1908625250082,-9.70285583078808 -36.1908668628549,-9.70284788771835 -36.1908711782274,-9.70283993260741 -36.1908754710916,-9.70283196551787 -36.1908797414138,-9.70282398651241 -36.1908839891605,-9.70281599565381 -36.190888214298,-9.70280799300496 -36.1908924167933,-9.70279997862883 -36.1908965966133,-9.70279195258846 -36.190900753725,-9.70278391494699 -36.1909048880958,-9.7027758657677 -36.1909089996932,-9.70276780511393 -36.1909130884847,-9.70275973304909 -36.1909171544382,-9.70275164963668 -36.1909211975218,-9.70274355494029 -36.1909252177035,-9.70273544902367 -36.1909292149519,-9.70272733195055 -36.1909331892353,-9.70271920378483 -36.1909371405227,-9.70271106459045 -36.1909410687827,-9.70270291443142 -36.1909449739847,-9.70269475337195 -36.1909488560978,-9.70268658147618 -36.1909527150915,-9.70267839880846 -36.1909565509354,-9.70267020543315 -36.1909603635993,-9.70266200141469 -36.1909641530533,-9.70265378681772 -36.1909679192675,-9.70264556170679 -36.1909716622124,-9.70263732614665 -36.1909753818584,-9.70262908020212 -36.1909790781762,-9.70262082393804 -36.1909827511369,-9.70261255741941 -36.1909864007115,-9.70260428071125 -36.1909900268712,-9.70259599387871 -36.1909936295876,-9.70258769698698 -36.1909972088323,-9.70257939010134 -36.1910007645772,-9.70257107328716 -36.1910042967942,-9.70256274660987 -36.1910078054556,-9.70255441013501 -36.1910112905338,-9.70254606392815 -36.1910147520014,-9.70253770805496 -36.191018189831,-9.70252934258122 -36.1910216039958,-9.70252096757273 -36.1910249944687,-9.70251258309539 -36.1910283612232,-9.70250418921517 -36.1910317042327,-9.70249578599811 -36.1910350234709,-9.70248737351036 -36.1910383189118,-9.70247895181807 -36.1910415905294,-9.70247052098754 -36.1910448382979,-9.7024620810851 -36.1910480621918,-9.70245363217714 -36.1910512621858,-9.70244517433018 -36.1910544382546,-9.70243670761073 -36.1910575903733,-9.70242823208542 -36.191060718517,-9.70241974782094 -36.1910638226612,-9.70241125488406 -36.1910669027815,-9.7024027533416 -36.1910699588535,-9.70239424326044 -36.1910729908533,-9.70238572470755 -36.191075998757,-9.70237719774996 -36.1910789825409,-9.70236866245477 -36.1910819421816,-9.70236011888912 -36.1910848776558,-9.70235156712026 -36.1910877889403,-9.70234300721547 -36.1910906760123,-9.70233443924209 -36.1910935388491,-9.70232586326753 -36.191096377428,-9.70231727935929 -36.1910991917269,-9.7023086875849 -36.1911019817235,-9.70230008801201 -36.191104747396,-9.70229148070822 -36.1911074887224,-9.70228286574127 -36.1911102056814,-9.70227424317894 -36.1911128982514,-9.70226561308913 -36.1911155664114,-9.7022569755397 -36.1911182101403,-9.70224833059861 -36.1911208294173,-9.70223967833391 -36.1911234242218,-9.70223101881363 -36.1911259945334,-9.70222235210595 -36.1911285403319,-9.70221367827907 -36.1911310615973,-9.70220499740122 -36.1911335583096,-9.70219630954069 -36.1911360304493,-9.70218761476587 -36.1911384779969,-9.70217891314516 -36.1911409009332,-9.70217020474701 -36.1911432992391,-9.70216148963998 -36.1911456728957,-9.70215276789264 -36.1911480218844,-9.70214403957359 -36.1911503461866,-9.70213530475149 -36.1911526457841,-9.70212656349513 -36.1911549206588,-9.70211781587322 -36.1911571707929,-9.70210906195467 -36.1911593961684,-9.70210030180829 -36.1911615967681,-9.70209153550302 -36.1911637725745,-9.70208276310789 -36.1911659235706,-9.70207398469188 -36.1911680497395,-9.70206520032403 -36.1911701510643,-9.70205641007355 -36.1911722275286,-9.7020476140095 -36.191174279116,-9.70203881220118 -36.1911763058104,-9.70203000471779 -36.1911783075958,-9.70202119162868 -36.1911802844566,-9.70201237300315 -36.1911822363771,-9.70200354891058 -36.191184163342,-9.70199471942045 -36.1911860653361,-9.70198588460221 -36.1911879423444,-9.70197704452539 -36.1911897943523,-9.70196819925949 -36.1911916213451,-9.7019593488742 -36.1911934233084,-9.70195049343907 -36.1911952002281,-9.70194163302381 -36.1911969520902,-9.7019327676982 -36.1911986788809,-9.7019238975319 -36.1912003805867,-9.70191502259473 -36.191202057194,-9.70190614295656 -36.1912037086899,-9.70189725868723 -36.1912053350611,-9.70188836985666 -36.1912069362951,-9.70187947653478 -36.1912085123791,-9.70187057879156 -36.1912100633008,-9.70186167669704 -36.1912115890479,-9.70185277032119 -36.1912130896085,-9.70184385973418 -36.1912145649707,-9.70183494500607 -36.191216015123,-9.70182602620703 -36.191217440054,-9.70181710340721 -36.1912188397523,-9.70180817667685 -36.1912202142071,-9.70179924608615 -36.1912215634075,-9.70179031170541 -36.1912228873428,-9.70178137360492 -36.1912241860028,-9.70177243185502 -36.1912254593771,-9.70176348652606 -36.1912267074558,-9.70175453768841 -36.1912279302289,-9.70174558541249 -36.191229127687,-9.70173662976875 -36.1912302998206,-9.70172767082765 -36.1912314466204,-9.70171870865967 -36.1912325680775,-9.70170974333537 -36.1912336641829,-9.70170077492525 -36.1912347349282,-9.70169180349988 -36.1912357803049,-9.70168282912988 -36.1912368003046,-9.70167385188582 -36.1912377949196,-9.70166487183838 -36.1912387641418,-9.70165588905818 -36.1912397079637,-9.70164690361595 -36.1912406263779,-9.70163791558234 -36.1912415193771,-9.70162892502811 -36.1912423869543,-9.70161993202397 -36.1912432291026,-9.70161093664069 -36.1912440458156,-9.70160193894904 -36.1912448370866,-9.70159293901985 -36.1912456029096,-9.70158393692392 -36.1912463432784,-9.70157493273209 -36.1912470581873,-9.70156592651516 -36.1912477476307,-9.70155691834404 -36.191248411603,-9.70154790828958 -36.1912490500992,-9.70153889642273 -36.1912496631141,-9.70152988281434 -36.191250250643,-9.70152086753534 -36.1912508126812,-9.70151185065672 -36.1912513492243,-9.70150283224936 -36.1912518602681,-9.70149381238426 -36.1912523458086,-9.70148479113237 -36.1912528058419,-9.70147576856471 -36.1912532403644,-9.7014667447522 -36.1912470399693,-9.70143533702018 -36.1907176016487,-9.7020261811196 -36.1899770564172,-9.70285494855273 -36.1898563678092,-9.70299195845477</coordinates></LinearRing></outerBoundaryIs></Polygon></MultiGeometry>
  </Placemark>
</Folder>
</Document></kml>
