<?xml version="1.0" encoding="utf-8" ?>
<kml xmlns="http://www.opengis.net/kml/2.2">
<Document id="root_doc">
<Schema name="BAIXA_GRANDE_TALHAO_1006_ID_96" id="BAIXA_GRANDE_TALHAO_1006_ID_96">
	<SimpleField name="CODE" type="string"></SimpleField>
	<SimpleField name="TALHAO" type="float"></SimpleField>
	<SimpleField name="AREA_TOTAL" type="float"></SimpleField>
	<SimpleField name="FAZENDA" type="float"></SimpleField>
	<SimpleField name="ZONA" type="float"></SimpleField>
	<SimpleField name="FAZ_NOME" type="string"></SimpleField>
</Schema>
<Folder><name>BAIXA_GRANDE_TALHAO_1006_ID_96</name>
  <Placemark id="BAIXA_GRANDE_TALHAO_1006_ID_96.1">
	<Style><LineStyle><color>ff0000ff</color></LineStyle><PolyStyle><fill>0</fill></PolyStyle></Style>
	<ExtendedData><SchemaData schemaUrl="#BAIXA_GRANDE_TALHAO_1006_ID_96">
		<SimpleData name="CODE">97</SimpleData>
		<SimpleData name="TALHAO">1006</SimpleData>
		<SimpleData name="AREA_TOTAL">24.633</SimpleData>
		<SimpleData name="FAZENDA">2162</SimpleData>
		<SimpleData name="ZONA">1</SimpleData>
		<SimpleData name="FAZ_NOME">BAIXA GRANDE</SimpleData>
	</SchemaData></ExtendedData>
      <MultiGeometry><Polygon><outerBoundaryIs><LinearRing><coordinates>-36.1786281506625,-9.70520451997187 -36.1768733246305,-9.70719315486773 -36.1805063519023,-9.70711791619405 -36.1805585106911,-9.70717105166632 -36.1768827391221,-9.70724717583138 -36.1781237830098,-9.70816338030745 -36.1783389508841,-9.70819199891463 -36.1785549583381,-9.7082135097339 -36.1787715668997,-9.7082278890134 -36.1789885374328,-9.70823512087451 -36.1792056304013,-9.7082351973293 -36.1794226061339,-9.70822811828944 -36.1796392250881,-9.70821389156633 -36.1798552481153,-9.70819253286242 -36.1800704367248,-9.70816406575393 -36.1802845533467,-9.70812852166483 -36.1804973615948,-9.70808593983217 -36.1807086265272,-9.70803636726275 -36.1809181149058,-9.70797985868126 -36.1811255954542,-9.70791647646981 -36.1813308391125,-9.70784629059914 -36.1813351221088,-9.70784483934125 -36.181343675925,-9.70784174218335 -36.1813522253825,-9.70783863320139 -36.1813607704645,-9.70783551240141 -36.1813693111545,-9.70783237978942 -36.1813778474359,-9.70782923537158 -36.1813863792921,-9.70782607915393 -36.1813949067065,-9.70782291114265 -36.1814034296626,-9.70781973134389 -36.1814119481438,-9.70781653976376 -36.1814204621336,-9.70781333640853 -36.1814289716155,-9.7078101212844 -36.1814374765729,-9.70780689439763 -36.1814459769892,-9.70780365575444 -36.1814544728481,-9.70780040536115 -36.1814629641329,-9.70779714322408 -36.1814714508272,-9.70779386934958 -36.1814799329146,-9.70779058374393 -36.1814884103785,-9.70778728641363 -36.1814968832024,-9.70778397736498 -36.18150535137,-9.70778065660447 -36.1815138148647,-9.70777732413851 -36.1815222736702,-9.70777397997358 -36.1815307277699,-9.7077706241162 -36.1815391771476,-9.70776725657289 -36.1815476217867,-9.70776387735012 -36.1815560616709,-9.70776048645457 -36.1815644967838,-9.70775708389272 -36.1815729271089,-9.70775366967122 -36.18158135263,-9.70775024379671 -36.1815897733306,-9.70774680627581 -36.1815981891945,-9.70774335711526 -36.1816066002052,-9.70773989632168 -36.1816150063464,-9.70773642390185 -36.1816234076018,-9.70773293986249 -36.1816318039551,-9.70772944421038 -36.1816401953899,-9.70772593695229 -36.18164858189,-9.70772241809504 -36.1816569634391,-9.70771888764548 -36.1816653400209,-9.70771534561043 -36.1816737116192,-9.70771179199681 -36.1816820782176,-9.70770822681149 -36.1816904397999,-9.7077046500614 -36.1816987963499,-9.70770106175351 -36.1817071478514,-9.70769746189477 -36.1817154942881,-9.70769385049217 -36.1817238356439,-9.70769022755274 -36.1817321719024,-9.70768659308349 -36.1817405030476,-9.7076829470915 -36.1817488290633,-9.70767928958383 -36.1817571499332,-9.70767562056761 -36.1817654656412,-9.70767194004996 -36.1817737761712,-9.70766824803801 -36.1817820815071,-9.70766454453895 -36.1817903816326,-9.70766082955997 -36.1817986765317,-9.70765710310828 -36.1818069661882,-9.70765336519113 -36.1818152505862,-9.70764961581574 -36.1818235297094,-9.70764585498942 -36.1818318035418,-9.70764208271947 -36.1818400720673,-9.70763829901324 -36.1818483352699,-9.70763450387803 -36.1818565931335,-9.70763069732127 -36.1818648456421,-9.70762687935031 -36.1818730927796,-9.70762304997258 -36.1818813345301,-9.70761920919552 -36.1818895708775,-9.70761535702658 -36.1818978018058,-9.70761149347324 -36.181906027299,-9.707607618543 -36.1819142473412,-9.70760373224341 -36.1819224619165,-9.70759983458201 -36.1819306710087,-9.70759592556636 -36.1819388746021,-9.70759200520403 -36.1819470726806,-9.70758807350267 -36.1819552652284,-9.70758413046993 -36.1819634522295,-9.70758017611342 -36.1819716336681,-9.70757621044083 -36.1819798095282,-9.7075722334599 -36.1819879797939,-9.70756824517833 -36.1819961444495,-9.70756424560385 -36.182004303479,-9.70756023474426 -36.1820124568666,-9.7075562126073 -36.1820206045964,-9.70755217920083 -36.1820287466527,-9.70754813453268 -36.1820368830195,-9.70754407861068 -36.1820450136813,-9.70754001144274 -36.182053138622,-9.7075359330367 -36.1820612578259,-9.70753184340057 -36.1820693712774,-9.70752774254221 -36.1820774789605,-9.70752363046962 -36.1820855808597,-9.70751950719079 -36.182093676959,-9.70751537271373 -36.1821017672429,-9.70751122704644 -36.1821098516955,-9.70750707019702 -36.1821179303013,-9.70750290217351 -36.1821260030444,-9.70749872298402 -36.1821340699093,-9.70749453263666 -36.1821421308803,-9.70749033113955 -36.1821501859416,-9.70748611850086 -36.1821582350777,-9.70748189472879 -36.1821662782729,-9.70747765983154 -36.1821743155116,-9.7074734138173 -36.1821823467782,-9.70746915669437 -36.1821903720571,-9.70746488847098 -36.1821983913327,-9.70746060915544 -36.1822064045895,-9.70745631875606 -36.1822144118118,-9.70745201728114 -36.1822224129841,-9.70744770473909 -36.1822304080909,-9.70744338113823 -36.1822383971166,-9.707439046487 -36.1822463800458,-9.70743470079379 -36.1822543568629,-9.70743034406707 -36.1822623275524,-9.70742597631526 -36.1822702920989,-9.70742159754688 -36.1822782504868,-9.70741720777039 -36.1822862027008,-9.70741280699438 -36.1822941487254,-9.70740839522736 -36.1823020885451,-9.70740397247789 -36.1823100221446,-9.70739953875458 -36.1823179495083,-9.70739509406602 -36.182325870621,-9.70739063842087 -36.1823337854673,-9.70738617182776 -36.1823416940316,-9.70738169429537 -36.1823495962988,-9.7073772058324 -36.1823574922535,-9.70737270644755 -36.1823653818803,-9.70736819614961 -36.1823732651639,-9.70736367494729 -36.1823811420889,-9.70735914284939 -36.1823890126402,-9.70735459986469 -36.1823968768023,-9.70735004600207 -36.1824047345601,-9.70734548127029 -36.1824125858983,-9.70734090567828 -36.1824204308015,-9.70733631923493 -36.1824282692547,-9.70733172194909 -36.1824361012425,-9.70732711382974 -36.1824439267498,-9.70732249488583 -36.1824517457613,-9.70731786512632 -36.1824595582618,-9.70731322456016 -36.1824673642363,-9.70730857319641 -36.1824751636695,-9.70730391104411 -36.1824829565462,-9.70729923811229 -36.1824907428514,-9.70729455441005 -36.18249852257,-9.70728985994644 -36.1825062956867,-9.70728515473063 -36.1825140621866,-9.70728043877173 -36.1825218220544,-9.70727571207891 -36.1825295752753,-9.70727097466133 -36.182537321834,-9.70726622652822 -36.1825450617156,-9.70726146768881 -36.1825527949051,-9.70725669815229 -36.1825605213873,-9.70725191792796 -36.1825682411473,-9.7072471270251 -36.1825759541701,-9.70724232545302 -36.1825836604408,-9.70723751322102 -36.1825913599443,-9.70723269033846 -36.1825990526657,-9.70722785681475 -36.18260673859,-9.70722301265923 -36.1826144177024,-9.7072181578813 -36.182622089988,-9.70721329249042 -36.1826297554317,-9.70720841649603 -36.1826374140188,-9.70720352990758 -36.1826450657343,-9.7071986327346 -36.1826527105634,-9.70719372498655 -36.1826603484913,-9.70718880667299 -36.182667979503,-9.7071838778035 -36.1826756035839,-9.70717893838762 -36.182683220719,-9.70717398843492 -36.1826908308937,-9.70716902795507 -36.182698434093,-9.70716405695767 -36.1826996627993,-9.70716325220926 -36.182707257877,-9.70715826900586 -36.1827148459475,-9.7071532753058 -36.182722426996,-9.7071482711188 -36.1827300010079,-9.70714325645457 -36.1827375679684,-9.70713823132286 -36.1827451278629,-9.70713319573339 -36.1827526806766,-9.70712814969598 -36.1827602263949,-9.70712309322042 -36.1827677650031,-9.70711802631654 -36.1827752964867,-9.70711294899416 -36.1827828208308,-9.70710786126316 -36.1827903380211,-9.7071027631334 -36.1827978480427,-9.70709765461481 -36.1828053508812,-9.70709253571729 -36.182812846522,-9.70708740645078 -36.1828203349506,-9.70708226682526 -36.1828278161523,-9.70707711685072 -36.1828352901127,-9.70707195653711 -36.1828427568172,-9.7070667858945 -36.1828502162514,-9.70706160493292 -36.1828576684007,-9.70705641366244 -36.1828651132507,-9.70705121209313 -36.1828725507869,-9.70704600023509 -36.1828799809948,-9.70704077809848 -36.1828874038601,-9.70703554569336 -36.1828948193684,-9.70703030302999 -36.1829022275052,-9.70702505011847 -36.1829096282561,-9.70701978696905 -36.1829170216067,-9.70701451359195 -36.1829244075428,-9.7070092299974 -36.1829317860499,-9.70700393619565 -36.1829391571137,-9.706998632197 -36.18294652072,-9.70699331801176 -36.1829538768543,-9.70698799365021 -36.1829612255025,-9.70698265912275 -36.1829685666503,-9.7069773144397 -36.1829759002833,-9.70697195961143 -36.1829832263873,-9.70696659464839 -36.1829905449482,-9.70696121956094 -36.1829978559517,-9.70695583435958 -36.1830051593836,-9.70695043905473 -36.1830124552297,-9.70694503365685 -36.1830197434759,-9.7069396181765 -36.1830270241079,-9.70693419262414 -36.1830342971117,-9.70692875701035 -36.1830415624732,-9.70692331134563 -36.1830488201781,-9.70691785564063 -36.1830560702125,-9.7069123899059 -36.1830633125622,-9.70690691415205 -36.1830705472132,-9.70690142838975 -36.1830777741514,-9.70689593262963 -36.1830849933629,-9.70689042688237 -36.1830922048334,-9.70688491115868 -36.1830994085492,-9.70687938546921 -36.1831066044961,-9.70687384982479 -36.1831137926602,-9.70686830423606 -36.1831209730275,-9.70686274871389 -36.1831281455841,-9.706857183269 -36.1831307237953,-9.70685517883327 -36.1831378857092,-9.70684959991364 -36.1831450397795,-9.70684401109687 -36.1831521859924,-9.70683841239376 -36.1831593243339,-9.70683280381525 -36.1831664547903,-9.70682718537222 -36.1831735773476,-9.70682155707555 -36.183180691992,-9.70681591893621 -36.1831877987097,-9.7068102709651 -36.1831948974869,-9.70680461317323 -36.1832019883098,-9.7067989455716 -36.1832090711647,-9.70679326817117 -36.1832161460377,-9.70678758098301 -36.1832232129153,-9.70678188401815 -36.1832302717835,-9.70677617728765 -36.1832373226287,-9.70677046080258 -36.1832443654372,-9.70676473457406 -36.1832514001954,-9.70675899861321 -36.1832584268895,-9.70675325293119 -36.183265445506,-9.70674749753912 -36.1832724560312,-9.70674173244822 -36.1832794584514,-9.70673595766964 -36.1832864527532,-9.70673017321465 -36.1832934389228,-9.70672437909445 -36.1833004169468,-9.70671857532027 -36.1833073868115,-9.70671276190343 -36.1833143485034,-9.7067069388552 -36.1833213020091,-9.70670110618689 -36.183328247315,-9.70669526390983 -36.1833351844076,-9.70668941203535 -36.1833421132735,-9.70668355057487 -36.1833490338991,-9.70667767953969 -36.1833559462712,-9.70667179894127 -36.1833628503761,-9.70666590879103 -36.1833697462006,-9.70666000910039 -36.1833766337311,-9.70665409988084 -36.1833835129544,-9.70664818114381 -36.1833903838572,-9.70664225290082 -36.1833972464259,-9.7066363151634 -36.1834041006474,-9.70663036794306 -36.1834109465082,-9.70662441125134 -36.1834177839952,-9.70661844509985 -36.183424613095,-9.70661246950013 -36.1834314337944,-9.70660648446381 -36.1834382460801,-9.70660049000251 -36.1834450499388,-9.7065944861279 -36.1834518453575,-9.7065884728516 -36.1834586323228,-9.70658245018528 -36.1834654108216,-9.7065764181407 -36.1834721808407,-9.70657037672953 -36.183478942367,-9.70656432596352 -36.1834856953874,-9.70655826585438 -36.1834924398887,-9.70655219641393 -36.1834991758578,-9.70654611765394 -36.1835059032816,-9.70654002958622 -36.1835126221472,-9.70653393222257 -36.1835193324414,-9.70652782557489 -36.1835260341511,-9.70652170965496 -36.1835327272635,-9.70651558447474 -36.1835394117655,-9.70650945004606 -36.183546087644,-9.70650330638088 -36.1835527548862,-9.7064971534911 -36.1835594134791,-9.7064909913887 -36.1835660634097,-9.70648482008563 -36.1835727046652,-9.70647863959385 -36.1835793372327,-9.70647244992543 -36.1835859610991,-9.70646625109233 -36.1835925762518,-9.70646004310662 -36.1835991826779,-9.70645382598035 -36.1836057803644,-9.70644759972559 -36.1836123692987,-9.70644136435445 -36.1836189494679,-9.70643511987902 -36.1836255208591,-9.70642886631143 -36.1836320834598,-9.70642260366386 -36.1836386372571,-9.70641633194839 -36.1836451822383,-9.70641005117731 -36.1836517183906,-9.70640376136271 -36.1836582457015,-9.70639746251693 -36.1836647641581,-9.70639115465208 -36.1836712737479,-9.70638483778048 -36.1836777744582,-9.70637851191438 -36.1836842662764,-9.70637217706607 -36.1836907491899,-9.70636583324786 -36.183697223186,-9.70635948047205 -36.1837036882522,-9.706353118751 -36.183710144376,-9.70634674809707 -36.1837165915448,-9.70634036852259 -36.1837230297461,-9.70633398004001 -36.1837294589674,-9.70632758266168 -36.1837358791962,-9.70632117640008 -36.18374229042,-9.70631476126761 -36.1837486926264,-9.70630833727677 -36.183755085803,-9.70630190443999 -36.1837614699373,-9.70629546276978 -36.1837678450169,-9.70628901227867 -36.1837742110294,-9.70628255297918 -36.1837805679626,-9.70627608488383 -36.1837869158039,-9.70626960800523 -36.1837932545412,-9.70626312235591 -36.1837995841621,-9.70625662794851 -36.1838059046543,-9.70625012479559 -36.1838122160055,-9.70624361290982 -36.1838185182035,-9.70623709230386 -36.1838248112361,-9.70623056299033 -36.1838310950909,-9.70622402498195 -36.1838373697559,-9.70621747829141 -36.1838436352188,-9.70621092293141 -36.1838498914674,-9.70620435891467 -36.1838561384896,-9.70619778625399 -36.1838623762733,-9.70619120496208 -36.1838686048064,-9.70618461505175 -36.1838748240767,-9.7061780165358 -36.1838810340722,-9.70617140942705 -36.1838872347808,-9.70616479373832 -36.1838934261905,-9.70615816948242 -36.1838996082892,-9.7061515366723 -36.183905781065,-9.70614489532079 -36.1839119445058,-9.70613824544081 -36.1839180985997,-9.70613158704525 -36.1839242433348,-9.70612492014706 -36.183930378699,-9.70611824475916 -36.1839365046806,-9.70611156089457 -36.1839426212675,-9.70610486856623 -36.1839487284479,-9.70609816778714 -36.18395482621,-9.70609145857034 -36.1839609145419,-9.70608474092883 -36.1839669934317,-9.70607801487566 -36.1839730628678,-9.70607128042392 -36.1839754149233,-9.70606866557326 -36.1805217470585,-9.70306348955144 -36.1786281506625,-9.70520451997187</coordinates></LinearRing></outerBoundaryIs></Polygon></MultiGeometry>
  </Placemark>
</Folder>
</Document></kml>
