<?xml version="1.0" encoding="utf-8" ?>
<kml xmlns="http://www.opengis.net/kml/2.2">
<Document id="root_doc">
<Schema name="BAIXA_GRANDE_TALHAO_1021_ID_291" id="BAIXA_GRANDE_TALHAO_1021_ID_291">
	<SimpleField name="CODE" type="string"></SimpleField>
	<SimpleField name="TALHAO" type="float"></SimpleField>
	<SimpleField name="AREA_TOTAL" type="float"></SimpleField>
	<SimpleField name="FAZENDA" type="float"></SimpleField>
	<SimpleField name="ZONA" type="float"></SimpleField>
	<SimpleField name="FAZ_NOME" type="string"></SimpleField>
</Schema>
<Folder><name>BAIXA_GRANDE_TALHAO_1021_ID_291</name>
  <Placemark id="BAIXA_GRANDE_TALHAO_1021_ID_291.1">
	<Style><LineStyle><color>ff0000ff</color></LineStyle><PolyStyle><fill>0</fill></PolyStyle></Style>
	<ExtendedData><SchemaData schemaUrl="#BAIXA_GRANDE_TALHAO_1021_ID_291">
		<SimpleData name="CODE">292</SimpleData>
		<SimpleData name="TALHAO">1021</SimpleData>
		<SimpleData name="AREA_TOTAL">2.853</SimpleData>
		<SimpleData name="FAZENDA">2162</SimpleData>
		<SimpleData name="ZONA">1</SimpleData>
		<SimpleData name="FAZ_NOME">BAIXA GRANDE</SimpleData>
	</SchemaData></ExtendedData>
      <MultiGeometry><Polygon><outerBoundaryIs><LinearRing><coordinates>-36.1770397818582,-9.71287884027079 -36.1770692201071,-9.71292156009184 -36.177088179562,-9.71299539870587 -36.1771218201879,-9.71308850061668 -36.1771583867347,-9.7131405917915 -36.177222827364,-9.71326615691766 -36.1774192154011,-9.71341050690305 -36.1775603806694,-9.71356341519883 -36.1777216557406,-9.71368982194222 -36.177856765066,-9.71379302605514 -36.177912896777,-9.71387793990073 -36.1779542353028,-9.71398655594773 -36.1780011950173,-9.71405968834672 -36.1780758389148,-9.71416621423903 -36.1782081944879,-9.71433031300031 -36.1783253402161,-9.71448950327056 -36.1784275519685,-9.71465492486331 -36.1785174030556,-9.71483974143677 -36.1785883861709,-9.71497512511086 -36.1786558040962,-9.71520119471206 -36.1786498187036,-9.71528313733241 -36.1786953041117,-9.71545614852331 -36.1787182189778,-9.71563380481533 -36.1787125508561,-9.71574497332453 -36.1787049542562,-9.71591327980387 -36.1786714635923,-9.71602276909395 -36.1786702824064,-9.71613946524575 -36.1786628518784,-9.71636060817657 -36.178631683121,-9.71647128761657 -36.1786173209808,-9.71664521138072 -36.1786699477355,-9.7167749741097 -36.1787268162408,-9.71684005354751 -36.1787722868888,-9.71685191945728 -36.1788217726499,-9.71679510001809 -36.1788773032004,-9.71669538095229 -36.1789688298106,-9.71656954525686 -36.1790182088321,-9.71650886573612 -36.1790942225365,-9.71644059463427 -36.1792206748967,-9.71635273125665 -36.1793622938691,-9.7162646305028 -36.1794404896314,-9.71622586350265 -36.179562717118,-9.71614014730451 -36.1796474549285,-9.71602556501508 -36.1796832018746,-9.71594289505835 -36.1796909663285,-9.71585694640279 -36.1796731951302,-9.7158005308224 -36.1796340072724,-9.715706702771 -36.1795497447529,-9.71554612738653 -36.1794160281605,-9.71527200143027 -36.1792274327654,-9.71490316062842 -36.1791140947077,-9.71468923274069 -36.1790406813342,-9.71459286805294 -36.1789552887143,-9.71449988114593 -36.1787969239456,-9.71434059206577 -36.1786521804206,-9.7142132123009 -36.1783787014094,-9.71397663376176 -36.178098006912,-9.71370394962586 -36.1776866485145,-9.71331710651967 -36.1774809122642,-9.71311594765409 -36.1773321144791,-9.71294103602114 -36.177162920709,-9.71276411247829 -36.1771611186632,-9.71276030156979 -36.1770397818582,-9.71287884027079</coordinates></LinearRing></outerBoundaryIs></Polygon></MultiGeometry>
  </Placemark>
</Folder>
</Document></kml>
