<?xml version="1.0" encoding="utf-8" ?>
<kml xmlns="http://www.opengis.net/kml/2.2">
<Document id="root_doc">
<Schema name="BAIXA_GRANDE_TALHAO_2501_ID_290" id="BAIXA_GRANDE_TALHAO_2501_ID_290">
	<SimpleField name="CODE" type="string"></SimpleField>
	<SimpleField name="TALHAO" type="float"></SimpleField>
	<SimpleField name="AREA_TOTAL" type="float"></SimpleField>
	<SimpleField name="FAZENDA" type="float"></SimpleField>
	<SimpleField name="ZONA" type="float"></SimpleField>
	<SimpleField name="FAZ_NOME" type="string"></SimpleField>
</Schema>
<Folder><name>BAIXA_GRANDE_TALHAO_2501_ID_290</name>
  <Placemark id="BAIXA_GRANDE_TALHAO_2501_ID_290.1">
	<Style><LineStyle><color>ff0000ff</color></LineStyle><PolyStyle><fill>0</fill></PolyStyle></Style>
	<ExtendedData><SchemaData schemaUrl="#BAIXA_GRANDE_TALHAO_2501_ID_290">
		<SimpleData name="CODE">291</SimpleData>
		<SimpleData name="TALHAO">2501</SimpleData>
		<SimpleData name="AREA_TOTAL">1.946</SimpleData>
		<SimpleData name="FAZENDA">2162</SimpleData>
		<SimpleData name="ZONA">1</SimpleData>
		<SimpleData name="FAZ_NOME">BAIXA GRANDE</SimpleData>
	</SchemaData></ExtendedData>
      <MultiGeometry><Polygon><outerBoundaryIs><LinearRing><coordinates>-36.184029131277,-9.7097461428743 -36.1839972052118,-9.70969649616501 -36.1838454942852,-9.70943457560573 -36.1836209515661,-9.7090471836591 -36.1834476642403,-9.70877209579747 -36.183210369236,-9.70842923968814 -36.1831302530418,-9.70827901095442 -36.1830855806612,-9.70822227570216 -36.1830971177706,-9.70830266039924 -36.1830855096113,-9.70844831429246 -36.183043249264,-9.70861131125505 -36.1830031819382,-9.70870273758221 -36.1829604096529,-9.70875665514821 -36.18290581576,-9.70883420967482 -36.1827730848519,-9.70896528664148 -36.1826782125417,-9.70904745941682 -36.182449381463,-9.70924014644257 -36.1825808746413,-9.70926673970383 -36.182633232516,-9.70929952938053 -36.1827357550593,-9.70941611248234 -36.1828209538384,-9.70953133147624 -36.182960873136,-9.70979664608981 -36.1831184061712,-9.71007245464614 -36.183123171476,-9.71011109069378 -36.1831244810703,-9.710161477354 -36.1831311945307,-9.71021139173957 -36.1831481710613,-9.7102325076148 -36.1831765877772,-9.71027091016888 -36.1831991664397,-9.71032348120488 -36.1832131663293,-9.7103224816271 -36.1832141661862,-9.71032248082502 -36.1832411659461,-9.71032148167439 -36.1832551658435,-9.71032048119146 -36.1832831662017,-9.71032048135076 -36.1832971659295,-9.71032048097413 -36.1833241664393,-9.71032048102902 -36.1833251662887,-9.71032048113 -36.1833391660095,-9.71032048165502 -36.1833661656172,-9.71032048079571 -36.1833671663772,-9.71032048090406 -36.1833811659288,-9.71032148153551 -36.1834081662786,-9.71032248078857 -36.1834171658423,-9.7103224807992 -36.1834231656804,-9.71032348151908 -36.1834501660238,-9.71032448167227 -36.1834641663256,-9.71032648151274 -36.1834651661752,-9.71032648161333 -36.1834921663582,-9.71032848096816 -36.183506165912,-9.71032948159467 -36.1835331659272,-9.71033248105466 -36.1835341657768,-9.71033248115504 -36.1835481660804,-9.71033448099231 -36.1835751659208,-9.71033848146089 -36.1835891662253,-9.7103404812966 -36.183616166075,-9.71034448085884 -36.1836171659248,-9.71034448095898 -36.1836311662303,-9.71034648079312 -36.1836581659056,-9.71035148136404 -36.1836721660434,-9.71035448130503 -36.1836991657284,-9.71035948096969 -36.1837131658673,-9.7103624809092 -36.1837401662888,-9.71036848159029 -36.1837541662679,-9.71037248073339 -36.1837801659314,-9.71037848130449 -36.1837941659042,-9.71038248134958 -36.183799165904,-9.71038348106042 -36.1838001660908,-9.71038148094309 -36.1838011658648,-9.71037648139618 -36.1838081656277,-9.71034448129436 -36.183810166093,-9.71033448130443 -36.1838181657028,-9.71030248130138 -36.1838201658306,-9.71029448152824 -36.1838211658487,-9.71029348151924 -36.183821166017,-9.71029248141072 -36.1838291654554,-9.7102614815153 -36.1838321657761,-9.71025148072094 -36.1838401662903,-9.71021948072359 -36.1838431655237,-9.71021048093334 -36.1838531657337,-9.71017848113373 -36.1838551660273,-9.71016948125135 -36.1838561660448,-9.71016848124209 -36.1838651662339,-9.71013748145065 -36.1838681654729,-9.71012848075635 -36.1838691662328,-9.71012848086308 -36.1838791662679,-9.71009748116975 -36.1838791655253,-9.71009648105368 -36.1838821656663,-9.71008748126993 -36.1838931655547,-9.71005648077118 -36.1838971655438,-9.71004748108616 -36.1838971657117,-9.71004648097758 -36.1839081654211,-9.7100164814895 -36.1839121655843,-9.71000648079205 -36.1839241660497,-9.7099764814091 -36.1839271654447,-9.70996648150813 -36.1839401657627,-9.7099364813193 -36.1839441657559,-9.70992748072954 -36.1839571660626,-9.70989748144252 -36.1839571662301,-9.70989648133388 -36.1839611662222,-9.70988748074362 -36.1839741656144,-9.70985748144754 -36.183975165463,-9.70985748154622 -36.1839791654538,-9.70984848095548 -36.1839931654413,-9.70981948096916 -36.1839931656087,-9.70981848086049 -36.1839971655908,-9.70980948117263 -36.1840121654228,-9.70978048128313 -36.1840161654112,-9.70977148069138 -36.1840261654033,-9.70975148129377 -36.184029131277,-9.7097461428743</coordinates></LinearRing></outerBoundaryIs></Polygon></MultiGeometry>
  </Placemark>
</Folder>
</Document></kml>
