<?xml version="1.0" encoding="utf-8" ?>
<kml xmlns="http://www.opengis.net/kml/2.2">
<Document id="root_doc">
<Schema name="BAIXA_GRANDE_TALHAO_1020_ID_310" id="BAIXA_GRANDE_TALHAO_1020_ID_310">
	<SimpleField name="CODE" type="string"></SimpleField>
	<SimpleField name="TALHAO" type="float"></SimpleField>
	<SimpleField name="AREA_TOTAL" type="float"></SimpleField>
	<SimpleField name="FAZENDA" type="float"></SimpleField>
	<SimpleField name="ZONA" type="float"></SimpleField>
	<SimpleField name="FAZ_NOME" type="string"></SimpleField>
</Schema>
<Folder><name>BAIXA_GRANDE_TALHAO_1020_ID_310</name>
  <Placemark id="BAIXA_GRANDE_TALHAO_1020_ID_310.1">
	<Style><LineStyle><color>ff0000ff</color></LineStyle><PolyStyle><fill>0</fill></PolyStyle></Style>
	<ExtendedData><SchemaData schemaUrl="#BAIXA_GRANDE_TALHAO_1020_ID_310">
		<SimpleData name="CODE">311</SimpleData>
		<SimpleData name="TALHAO">1020</SimpleData>
		<SimpleData name="AREA_TOTAL">3.732</SimpleData>
		<SimpleData name="FAZENDA">2162</SimpleData>
		<SimpleData name="ZONA">1</SimpleData>
		<SimpleData name="FAZ_NOME">BAIXA GRANDE</SimpleData>
	</SchemaData></ExtendedData>
      <MultiGeometry><Polygon><outerBoundaryIs><LinearRing><coordinates>-36.1747609605339,-9.71639526474525 -36.1748119182342,-9.71628335955002 -36.1750491584783,-9.71606867286856 -36.1743704846583,-9.71553356960747 -36.1742170565509,-9.71567285230229 -36.1736268095187,-9.71624217938276 -36.1731877389114,-9.71666767941439 -36.1731877114508,-9.71673228933916 -36.174859097649,-9.718256659892 -36.1755056284455,-9.71753372264117 -36.1753165389792,-9.7173920142967 -36.1751729620342,-9.71719725102912 -36.1751281767215,-9.71703811086457 -36.175030589918,-9.71686741503066 -36.1749388508305,-9.71672842013838 -36.1747893768337,-9.71656622622934 -36.1747430503265,-9.71648349770413 -36.1747609605339,-9.71639526474525</coordinates></LinearRing></outerBoundaryIs></Polygon></MultiGeometry>
  </Placemark>
</Folder>
</Document></kml>
