<?xml version="1.0" encoding="utf-8" ?>
<kml xmlns="http://www.opengis.net/kml/2.2">
<Document id="root_doc">
<Schema name="BAIXA_GRANDE_TALHAO_1005_ID_283" id="BAIXA_GRANDE_TALHAO_1005_ID_283">
	<SimpleField name="CODE" type="string"></SimpleField>
	<SimpleField name="TALHAO" type="float"></SimpleField>
	<SimpleField name="AREA_TOTAL" type="float"></SimpleField>
	<SimpleField name="FAZENDA" type="float"></SimpleField>
	<SimpleField name="ZONA" type="float"></SimpleField>
	<SimpleField name="FAZ_NOME" type="string"></SimpleField>
</Schema>
<Folder><name>BAIXA_GRANDE_TALHAO_1005_ID_283</name>
  <Placemark id="BAIXA_GRANDE_TALHAO_1005_ID_283.1">
	<Style><LineStyle><color>ff0000ff</color></LineStyle><PolyStyle><fill>0</fill></PolyStyle></Style>
	<ExtendedData><SchemaData schemaUrl="#BAIXA_GRANDE_TALHAO_1005_ID_283">
		<SimpleData name="CODE">284</SimpleData>
		<SimpleData name="TALHAO">1005</SimpleData>
		<SimpleData name="AREA_TOTAL">9.974</SimpleData>
		<SimpleData name="FAZENDA">2162</SimpleData>
		<SimpleData name="ZONA">1</SimpleData>
		<SimpleData name="FAZ_NOME">BAIXA GRANDE</SimpleData>
	</SchemaData></ExtendedData>
      <MultiGeometry><Polygon><outerBoundaryIs><LinearRing><coordinates>-36.1882165887069,-9.7019547075891 -36.1875772197228,-9.70131147822738 -36.1877068829322,-9.70118460791046 -36.1847840394832,-9.69824408079175 -36.1847354123947,-9.69829906514494 -36.1847401927784,-9.69830675402842 -36.1847449625062,-9.69831444942353 -36.1847497215694,-9.6983221513157 -36.1847544699588,-9.69832985969037 -36.1847592076655,-9.69833757453305 -36.1847639346805,-9.69834529582908 -36.1847686509949,-9.69835302356391 -36.1847733565998,-9.69836075772295 -36.1847780514863,-9.69836849829158 -36.1847827356456,-9.69837624525518 -36.1847874090687,-9.69838399859913 -36.1847920717469,-9.69839175830873 -36.1847967236713,-9.6983995243694 -36.1848013648332,-9.69840729676641 -36.1848059952238,-9.69841507548508 -36.1848106148344,-9.69842286051074 -36.1848152236561,-9.6984306518287 -36.1848198216804,-9.69843844942419 -36.1848244088985,-9.69844625328252 -36.1848289853017,-9.69845406338892 -36.1848335508814,-9.69846187972867 -36.1848381056291,-9.69846970228698 -36.184842649536,-9.69847753104907 -36.1848471825936,-9.69848536600016 -36.1848517047933,-9.69849320712545 -36.1848562161266,-9.69850105441014 -36.184860716585,-9.69850890783939 -36.1848652061599,-9.69851676739835 -36.1848696848429,-9.6985246330722 -36.1848741526255,-9.69853250484607 -36.1848786094993,-9.6985403827051 -36.1848830554559,-9.69854826663438 -36.1848874904868,-9.69855615661904 -36.1848919145837,-9.69856405264416 -36.1848963277382,-9.69857195469487 -36.184900729942,-9.69857986275618 -36.1849051211867,-9.69858777681318 -36.1849095014641,-9.69859569685094 -36.184913870766,-9.69860362285446 -36.1849182290839,-9.69861155480877 -36.1849225764097,-9.69861949269892 -36.1849269127353,-9.6986274365099 -36.1849312380523,-9.69863538622667 -36.1849355523527,-9.69864334183427 -36.1849398556282,-9.69865130331764 -36.1849441478708,-9.69865927066173 -36.1849484290723,-9.6986672438515 -36.1849526992246,-9.6986752228719 -36.1849569583198,-9.69868320770785 -36.1849612063497,-9.69869119834425 -36.1849654433062,-9.69869919476603 -36.1849696691815,-9.69870719695807 -36.1849738839675,-9.69871520490525 -36.1849780876562,-9.69872321859245 -36.1849822802398,-9.69873123800454 -36.1849864617103,-9.69873926312635 -36.1849906320597,-9.69874729394273 -36.1849947912803,-9.69875533043852 -36.1849989393641,-9.69876337259852 -36.1850030763033,-9.69877142040756 -36.1850072020901,-9.69877947385041 -36.1850113167168,-9.69878753291187 -36.1850154201755,-9.6987955975767 -36.1850195124584,-9.69880366782971 -36.1850235935579,-9.69881174365561 -36.1850276634663,-9.69881982503918 -36.1850317221758,-9.69882791196511 -36.1850357696788,-9.69883600441815 -36.1850398059676,-9.69884410238302 -36.1850438310346,-9.69885220584441 -36.1850478448722,-9.69886031478702 -36.1850518474729,-9.69886842919551 -36.185055838829,-9.69887654905459 -36.185059818933,-9.69888467434888 -36.1850637877774,-9.69889280506305 -36.1850677453547,-9.69890094118174 -36.1850716916575,-9.6989090826896 -36.1850756266782,-9.69891722957119 -36.1850795504094,-9.6989253818112 -36.1850834628438,-9.69893353939416 -36.1850873639739,-9.6989417023047 -36.1850912537923,-9.69894987052739 -36.1850951322917,-9.6989580440468 -36.1850989994649,-9.69896622284749 -36.1851028553044,-9.69897440691403 -36.185106699803,-9.69898259623089 -36.1851105329534,-9.69899079078267 -36.1851143547484,-9.69899899055387 -36.1851181651808,-9.69900719552899 -36.1851219642433,-9.69901540569255 -36.1851257519288,-9.69902362102904 -36.1851295282302,-9.69903184152289 -36.1851332931402,-9.69904006715864 -36.1851370466518,-9.6990482979207 -36.1851407887579,-9.69905653379356 -36.1851445194514,-9.69906477476163 -36.1851482387254,-9.69907302080937 -36.1851519465726,-9.69908127192118 -36.1851556429862,-9.69908952808147 -36.1851593279591,-9.69909778927467 -36.1851630014845,-9.69910605548517 -36.1851666635553,-9.69911432669733 -36.1851703141646,-9.69912260289553 -36.1851739533055,-9.69913088406416 -36.1851775809713,-9.69913917018756 -36.1851811971549,-9.69914746125009 -36.1851848018496,-9.69915575723604 -36.1851883950486,-9.69916405812979 -36.185191976745,-9.69917236391565 -36.1851955469321,-9.69918067457791 -36.1851991056033,-9.69918899010091 -36.1852026527516,-9.69919731046889 -36.1852061883705,-9.69920563566614 -36.1852097124533,-9.69921396567699 -36.1852132249932,-9.69922230048562 -36.1852167259837,-9.69923064007635 -36.1852202154182,-9.69923898443342 -36.18522369329,-9.69924733354103 -36.1852271595926,-9.69925568738343 -36.1852306143194,-9.69926404594485 -36.185234057464,-9.69927240920946 -36.1852374890197,-9.69928077716152 -36.1852409089802,-9.69928914978518 -36.1852443173389,-9.69929752706462 -36.1852477140894,-9.69930590898404 -36.1852510992254,-9.69931429552762 -36.1852544727403,-9.69932268667946 -36.1852578346279,-9.69933108242374 -36.1852611848818,-9.69933948274461 -36.1852645234956,-9.69934788762619 -36.185267850463,-9.6993562970526 -36.1852711657778,-9.69936471100796 -36.1852744694338,-9.69937312947638 -36.1852777614245,-9.69938155244195 -36.1852810417439,-9.69938997988875 -36.1852843103857,-9.69939841180087 -36.1852875673437,-9.69940684816237 -36.1852908126119,-9.69941528895735 -36.185294046184,-9.69942373416982 -36.185297268054,-9.69943218378385 -36.1853004782158,-9.69944063778347 -36.1853036766633,-9.6994490961527 -36.1853068633905,-9.69945755887558 -36.1853100383913,-9.6994660259361 -36.1853132016597,-9.69947449731831 -36.1853163531898,-9.69948297300616 -36.1853194929757,-9.69949145298365 -36.1853226210112,-9.6994999372348 -36.1853257372907,-9.69950842574351 -36.1853288418082,-9.69951691849382 -36.1853319345578,-9.69952541546963 -36.1853350155336,-9.69953391665491 -36.18533808473,-9.6995424220336 -36.1853411421409,-9.69955093158962 -36.1853441877608,-9.69955944530693 -36.1853472215837,-9.69956796316941 -36.1853502436041,-9.69957648516099 -36.1853532538162,-9.69958501126555 -36.1853562522142,-9.69959354146699 -36.1853592387926,-9.69960207574924 -36.1853622135456,-9.69961061409612 -36.1853651764678,-9.69961915649152 -36.1853681275533,-9.69962770291932 -36.1853710667968,-9.69963625336333 -36.1853739941927,-9.69964480780744 -36.1853769097353,-9.69965336623547 -36.1853798134192,-9.69966192863129 -36.185382705239,-9.69967049497868 -36.1853855851891,-9.69967906526145 -36.1853884532641,-9.69968763946345 -36.1853913094585,-9.69969621756845 -36.1853941537671,-9.69970479956029 -36.1853969861844,-9.69971338542268 -36.1853998067051,-9.69972197513946 -36.1854026153238,-9.69973056869441 -36.1854054120352,-9.69973916607126 -36.1854081968341,-9.69974776725379 -36.1854109697151,-9.69975637222577 -36.1854137306731,-9.69976498097091 -36.1854164797028,-9.69977359347293 -36.1854192167991,-9.69978220971562 -36.1854219419567,-9.69979082968266 -36.1854246551706,-9.69979945335778 -36.1854273564355,-9.69980808072469 -36.1854300457464,-9.69981671176708 -36.1854327230982,-9.69982534646867 -36.1854353884858,-9.69983398481311 -36.1854380419043,-9.69984262678413 -36.1854406833485,-9.69985127236536 -36.1854433128136,-9.69985992154049 -36.1854459302944,-9.69986857429319 -36.1854485357862,-9.69987723060707 -36.1854511292839,-9.69988589046584 -36.1854537107827,-9.6998945538531 -36.1854562802777,-9.69990322075248 -36.185458837764,-9.69991189114765 -36.1854613832368,-9.69992056502218 -36.1854639166913,-9.69992924235973 -36.1854664381227,-9.69993792314386 -36.1854689475262,-9.6999466073582 -36.1854714448972,-9.69995529498634 -36.1854739302308,-9.69996398601186 -36.1854764035224,-9.69997268041835 -36.1854788647673,-9.69998137818942 -36.1854813139609,-9.69999007930856 -36.1854837510985,-9.69999878375939 -36.1854861761755,-9.70000749152546 -36.1854885891873,-9.70001620259031 -36.1854909901295,-9.7000249169375 -36.1854933789974,-9.70003363455054 -36.1854957557865,-9.70004235541299 -36.1854981204924,-9.70005107950835 -36.1855004731105,-9.70005980682015 -36.1855028136365,-9.70006853733194 -36.1855051420658,-9.70007727102714 -36.1855074583942,-9.70008600788933 -36.1855097626173,-9.70009474790198 -36.1855120547305,-9.70010349104857 -36.1855143347298,-9.70011223731259 -36.1855166026106,-9.70012098667755 -36.1855188583689,-9.70012973912685 -36.1855211020002,-9.700138494644 -36.1855233335003,-9.70014725321246 -36.1855255528651,-9.70015601481569 -36.1855277600903,-9.70016477943712 -36.1855299551718,-9.70017354706022 -36.1855321381054,-9.70018231766838 -36.1855343088871,-9.7001910912451 -36.1855364675126,-9.70019986777374 -36.1855386139779,-9.70020864723775 -36.185540748279,-9.70021742962054 -36.1855428704118,-9.70022621490551 -36.1855449803723,-9.70023500307608 -36.1855470781566,-9.70024379411566 -36.1855491637606,-9.70025258800761 -36.1855512371805,-9.70026138473532 -36.1855532984122,-9.7002701842822 -36.185555347452,-9.70027898663161 -36.1855573842959,-9.70028779176691 -36.1855594089401,-9.70029659967149 -36.1855614213808,-9.70030541032872 -36.1855634216141,-9.7003142237219 -36.1855654096363,-9.70032303983444 -36.1855673854436,-9.70033185864967 -36.1855693490323,-9.70034068015088 -36.1855713003988,-9.70034950432148 -36.1855732395392,-9.70035833114475 -36.1855751664499,-9.70036716060406 -36.1855770811273,-9.70037599268268 -36.1855789835678,-9.70038482736396 -36.1855808737678,-9.70039366463118 -36.1855827517237,-9.70040250446769 -36.1855846174319,-9.70041134685675 -36.185586470889,-9.70042019178167 -36.1855883120914,-9.70042903922575 -36.1855901410357,-9.70043788917227 -36.1855919577183,-9.70044674160451 -36.1855937621359,-9.70045559650573 -36.185595554285,-9.70046445385921 -36.1855973341624,-9.70047331364827 -36.1855991017645,-9.7004821758561 -36.185600857088,-9.70049104046599 -36.1856026001297,-9.7004999074612 -36.1856043308863,-9.70050877682495 -36.1856060493545,-9.70051764854052 -36.1856077555309,-9.70052652259113 -36.1856094494125,-9.70053539896003 -36.185611130996,-9.70054427763044 -36.1856128002782,-9.70055315858559 -36.185614457256,-9.70056204180869 -36.1856161019263,-9.70057092728299 -36.1856177342858,-9.70057981499168 -36.1856193543316,-9.70058870491799 -36.1856209620607,-9.70059759704509 -36.1856225574698,-9.70060649135622 -36.1856241405561,-9.70061538783457 -36.1856257113165,-9.7006242864633 -36.1856272697481,-9.70063318722565 -36.185628815848,-9.70064209010476 -36.1856303496131,-9.70065099508384 -36.1856318710407,-9.70065990214606 -36.1856333801278,-9.70066881127458 -36.1856348768716,-9.7006777224526 -36.1856363612692,-9.70068663566327 -36.1856378333179,-9.70069555088976 -36.1856392930149,-9.70070446811519 -36.1856407403573,-9.70071338732278 -36.1856421753425,-9.70072230849561 -36.1856435979678,-9.70073123161687 -36.1856450082305,-9.70074015666972 -36.1856464061279,-9.70074908363725 -36.1856477916573,-9.70075801250262 -36.1856491648162,-9.70076694324896 -36.185650525602,-9.70077587585941 -36.185651874012,-9.70078481031709 -36.1856532100438,-9.7007937466051 -36.1856545336947,-9.7008026847066 -36.1856558449624,-9.70081162460465 -36.1856571438443,-9.70082056628242 -36.185658430338,-9.70082950972298 -36.185659704441,-9.70083845490944 -36.1856609661509,-9.70084740182493 -36.1856622154654,-9.70085635045251 -36.1856634523821,-9.70086530077529 -36.1856646768986,-9.70087425277638 -36.1856658890127,-9.70088320643882 -36.185667088722,-9.70089216174576 -36.1856682760243,-9.70090111868023 -36.1856694509174,-9.70091007722532 -36.1856706133989,-9.70091903736414 -36.1856717634668,-9.70092799907972 -36.1856729011188,-9.70093696235517 -36.1856740263528,-9.70094592717351 -36.1856751391666,-9.70095489351784 -36.1856762395583,-9.70096386137121 -36.1856773275256,-9.70097283071668 -36.1856784030665,-9.70098180153733 -36.185679466179,-9.70099077381616 -36.1856805168611,-9.70099974753625 -36.1856815551109,-9.70100872268068 -36.1856825809262,-9.70101769923242 -36.1856835943053,-9.70102667717457 -36.1856845952461,-9.70103565649018 -36.1856855837468,-9.70104463716222 -36.1856865598055,-9.7010536191738 -36.1856875234204,-9.7010626025079 -36.1856884745897,-9.70107158714756 -36.1856894133116,-9.70108057307584 -36.1856903395842,-9.70108956027573 -36.1856912534058,-9.70109854873025 -36.1856921547747,-9.70110753842242 -36.1856930436893,-9.70111652933529 -36.1856939201478,-9.70112552145184 -36.1856947841485,-9.70113451475512 -36.1856956356899,-9.70114350922809 -36.1856964747702,-9.70115250485379 -36.185697301388,-9.70116150161522 -36.1856981155417,-9.7011704994954 -36.1856989172298,-9.7011794984773 -36.1856997064506,-9.70118849854395 -36.1857004832028,-9.70119749967834 -36.1857012474848,-9.70120650186344 -36.1857019992952,-9.70121550508228 -36.1857027386327,-9.70122450931785 -36.1857034654957,-9.7012335145531 -36.1857041798829,-9.70124252077106 -36.185704881793,-9.70125152795467 -36.1857055712247,-9.70126053608697 -36.1857062481766,-9.70126954515092 -36.1857069126474,-9.70127855512949 -36.185707564636,-9.70128756600567 -36.185708204141,-9.70129657776244 -36.1857088311612,-9.70130559038276 -36.1857094456956,-9.70131460384963 -36.1857100477429,-9.70132361814599 -36.1857106373019,-9.70133263325483 -36.1857112143716,-9.70134164915913 -36.1857117789509,-9.70135066584183 -36.1857123310386,-9.70135968328593 -36.1857128706339,-9.70136870147435 -36.1857133977355,-9.7013777203901 -36.1857139123426,-9.70138674001612 -36.1857144144542,-9.70139576033538 -36.1857149040693,-9.7014047813308 -36.1857153811869,-9.70141380298541 -36.1857158458063,-9.70142282528211 -36.1857162979265,-9.70143184820389 -36.1857167375466,-9.70144087173365 -36.1857171646659,-9.70144989585442 -36.1857175792834,-9.70145892054909 -36.1857179813985,-9.70146794580065 -36.1857183710104,-9.70147697159202 -36.1857187481183,-9.70148599790618 -36.1857191127215,-9.70149502472605 -36.1857194648193,-9.7015040520346 -36.1857198044111,-9.70151307981476 -36.1857201314963,-9.70152210804949 -36.1857204460741,-9.70153113672172 -36.1857207481441,-9.7015401658144 -36.1857210377056,-9.70154919531047 -36.185721314758,-9.70155822519289 -36.185721579301,-9.70156725544455 -36.1857218313339,-9.70157628604846 -36.1857220708563,-9.7015853169875 -36.1857222978677,-9.70159434824467 -36.1857225123677,-9.70160337980286 -36.1857227143558,-9.70161241164501 -36.1857229038319,-9.70162144375411 -36.1857230807953,-9.70163047611302 -36.185723245246,-9.70163950870472 -36.1857233971833,-9.70164854151217 -36.1857235366073,-9.70165757451824 -36.1857236635174,-9.70166660770593 -36.1857237779136,-9.70167564105815 -36.1857238797956,-9.70168467455782 -36.1857239691632,-9.70169370818789 -36.1857240460162,-9.70170274193129 -36.1857241103545,-9.70171177577094 -36.185724162178,-9.70172080968983 -36.1857242014865,-9.70172984367083 -36.1857242282801,-9.70173887769689 -36.1857242425585,-9.70174791175096 -36.1857242443219,-9.70175694581597 -36.1857242335702,-9.70176597987486 -36.1857242103034,-9.70177501391052 -36.1857241745216,-9.70178404790594 -36.1857241262248,-9.701793081844 -36.1857240654131,-9.70180211570768 -36.1857239920867,-9.7018111494799 -36.1857239062457,-9.70182018314359 -36.1857238078901,-9.70182921668168 -36.1857236970204,-9.70183825007712 -36.1857235736365,-9.70184728331283 -36.1857234377388,-9.70185631637174 -36.1857232893276,-9.70186534923678 -36.185723128403,-9.70187438189092 -36.1857229549654,-9.70188341431709 -36.1857227690152,-9.70189244649817 -36.1857225705526,-9.70190147841719 -36.1857223595781,-9.701910510057 -36.185722136092,-9.7019195414006 -36.1857219000948,-9.70192857243089 -36.185721651587,-9.70193760313082 -36.1857213905689,-9.70194663348332 -36.1857211170411,-9.70195566347139 -36.185720831004,-9.70196469307789 -36.1857205324584,-9.70197372228581 -36.1857202214046,-9.70198275107808 -36.1857198978432,-9.70199177943763 -36.185719561775,-9.70200080734741 -36.1857192132005,-9.70200983479039 -36.1857188521204,-9.70201886174948 -36.1857184785354,-9.70202788820768 -36.1857180924461,-9.70203691414787 -36.1857176938533,-9.70204593955306 -36.1857172827578,-9.70205496440613 -36.1857168591603,-9.70206398869011 -36.1857164230616,-9.70207301238787 -36.1857159744625,-9.70208203548245 -36.185715513364,-9.70209105795674 -36.1857150397668,-9.70210007979373 -36.1857145536719,-9.70210910097634 -36.1857140550801,-9.70211812148757 -36.1857135439925,-9.70212714131037 -36.1857130204099,-9.70213616042765 -36.1857124843334,-9.70214517882246 -36.185711935764,-9.70215419647769 -36.1857113747027,-9.70216321337634 -36.1857108011506,-9.70217222950136 -36.1857102151088,-9.70218124483571 -36.1857096165782,-9.70219025936239 -36.1857090055602,-9.70219927306434 -36.1857083820559,-9.70220828592455 -36.1857077460663,-9.70221729792599 -36.1857070975928,-9.70222630905163 -36.1857064366366,-9.70223531928445 -36.1857057631988,-9.70224432860743 -36.1857050772808,-9.70225333700351 -36.1857043788838,-9.70226234445575 -36.1857036680092,-9.70227135094708 -36.1857029446584,-9.70228035646051 -36.1857022088326,-9.702289360979 -36.1857014605333,-9.70229836448559 -36.185700699762,-9.7023073669632 -36.1856999265199,-9.70231636839486 -36.1856991408086,-9.70232536876357 -36.1856983426296,-9.70233436805233 -36.1856975319843,-9.70234336624414 -36.1856967088744,-9.70235236332199 -36.1856958733013,-9.70236135926886 -36.1856950252667,-9.7023703540678 -36.1856941647721,-9.7023793477018 -36.1856932918191,-9.70238834015386 -36.1856924064095,-9.702397331407 -36.1856915085448,-9.70240632144424 -36.1856905982269,-9.70241531024859 -36.1856896754573,-9.70242429780306 -36.1856887402378,-9.70243328409069 -36.1856877925703,-9.7024422690945 -36.1856868324565,-9.7024512527975 -36.1856858598981,-9.70246023518273 -36.1856848748971,-9.70246921623323 -36.1856838774553,-9.70247819593201 -36.1856828675746,-9.70248717426213 -36.1856818452569,-9.70249615120663 -36.1856808105041,-9.70250512674851 -36.1856797633182,-9.70251410087086 -36.1856787037012,-9.70252307355673 -36.185677631655,-9.70253204478913 -36.1856765471816,-9.70254101455113 -36.1856754502832,-9.70254998282579 -36.1856743409618,-9.70255894959618 -36.1856732192195,-9.70256791484531 -36.1856720850584,-9.70257687855631 -36.1856709384807,-9.7025858407122 -36.1856697794885,-9.70259480129608 -36.185668608084,-9.702603760291 -36.1856674242694,-9.70261271768003 -36.1856662280469,-9.70262167344627 -36.1856650194189,-9.70263062757279 -36.1856637983876,-9.70263958004266 -36.1856625649552,-9.702648530839 -36.1856613191242,-9.70265747994487 -36.1856600608969,-9.70266642734339 -36.1856587902756,-9.70267537301763 -36.1856575072628,-9.70268431695074 -36.1856562118609,-9.70269325912575 -36.1856549040723,-9.70270219952582 -36.1856535838995,-9.70271113813404 -36.185652251345,-9.70272007493354 -36.1856509064113,-9.70272900990743 -36.1856495491009,-9.70273794303881 -36.1856481794165,-9.70274687431083 -36.1856467973605,-9.70275580370661 -36.1856454029357,-9.70276473120928 -36.1856439961446,-9.70277365680198 -36.1856425769899,-9.70278258046782 -36.1856411454742,-9.70279150218997 -36.1856397016004,-9.70280042195158 -36.185638245371,-9.70280933973578 -36.1856367767889,-9.70281825552578 -36.1856352958568,-9.70282716930463 -36.1856338025776,-9.70283608105558 -36.185632296954,-9.70284499076175 -36.1856307789889,-9.70285389840632 -36.1856292486852,-9.70286280397248 -36.1856277060457,-9.70287170744338 -36.1856261510733,-9.70288060880224 -36.1856245837711,-9.70288950803216 -36.1856230041419,-9.70289840511642 -36.1856214121888,-9.70290730003818 -36.1856198079147,-9.70291619278061 -36.1856181913227,-9.70292508332694 -36.1856165624158,-9.70293397166035 -36.1856149211971,-9.7029428577641 -36.1856132676697,-9.70295174162133 -36.1856116018367,-9.70296062321531 -36.1856099237014,-9.70296950252926 -36.1856082332667,-9.70297837954639 -36.185606530536,-9.70298725424992 -36.1856048155125,-9.7029961266231 -36.1856030881993,-9.70300499664917 -36.1856013485998,-9.70301386431136 -36.1855995967172,-9.70302272959292 -36.1855978325549,-9.70303159247712 -36.1855960561162,-9.70304045294722 -36.1855942674044,-9.70304931098644 -36.1855924664229,-9.70305816657808 -36.1855906531751,-9.70306701970538 -36.1855888276644,-9.70307587035168 -36.1855869898944,-9.70308471850019 -36.1855851398684,-9.70309356413424 -36.1855832775899,-9.70310240723707 -36.1855814030625,-9.70311124779203 -36.1855795162898,-9.70312008578239 -36.1855776172752,-9.70312892119146 -36.1855757060223,-9.70313775400255 -36.1855737825348,-9.70314658419896 -36.1855718468164,-9.70315541176401 -36.1855698988705,-9.70316423668104 -36.1855679387011,-9.70317305893338 -36.1855659663116,-9.70318187850434 -36.1855639817059,-9.70319069537727 -36.1855619848878,-9.70319950953552 -36.1855599758609,-9.70320832096247 -36.1855579546291,-9.70321712964139 -36.1855559211962,-9.7032259355557 -36.185553875566,-9.70323473868875 -36.1855518177424,-9.70324353902391 -36.1855497477293,-9.7032523365446 -36.1855476655306,-9.7032611312341 -36.1855455711503,-9.70326992307588 -36.1855434645922,-9.70327871205329 -36.1855413458603,-9.70328749814975 -36.1855392149588,-9.70329628134863 -36.1855370718915,-9.70330506163339 -36.1855349166626,-9.70331383898738 -36.1855327492761,-9.70332261339407 -36.1855305697361,-9.70333138483686 -36.1855283780467,-9.70334015329917 -36.185526174212,-9.70334891876447 -36.1855239582363,-9.70335768121615 -36.1855217301237,-9.70336644063769 -36.1855194898784,-9.70337519701254 -36.1855172375046,-9.70338395032417 -36.1855149730066,-9.70339270055602 -36.1855126963888,-9.70340144769156 -36.1855104076552,-9.70341019171427 -36.1855081068104,-9.70341893260765 -36.1855057938587,-9.70342767035514 -36.1855034688043,-9.7034364049403 -36.1855011316518,-9.70344513634658 -36.1854987824054,-9.70345386455749 -36.1854964210698,-9.70346258955655 -36.1854940476492,-9.70347131132731 -36.1854916621483,-9.70348002985321 -36.1854892645714,-9.70348874511787 -36.1854868549232,-9.70349745710476 -36.1854844332082,-9.70350616579746 -36.1854819994309,-9.70351487117949 -36.185479553596,-9.70352357323443 -36.1854770957081,-9.70353227194583 -36.1854746257717,-9.70354096729725 -36.1854721437917,-9.70354965927228 -36.1854696497727,-9.70355834785446 -36.1854671437193,-9.70356703302743 -36.1854646256363,-9.70357571477475 -36.1854620955285,-9.70358439308003 -36.1854595534007,-9.70359306792685 -36.1854569992576,-9.70360173929886 -36.1854544331041,-9.70361040717968 -36.185451854945,-9.70361907155289 -36.1854492647852,-9.70362773240214 -36.1854466626296,-9.70363638971112 -36.1854440484831,-9.70364504346338 -36.1854414223506,-9.70365369364265 -36.1854387842372,-9.70366234023255 -36.1854361341477,-9.70367098321678 -36.1854334720872,-9.70367962257896 -36.1854307980607,-9.7036882583028 -36.1854281120733,-9.703696890372 -36.18542541413,-9.70370551877023 -36.185422704236,-9.7037141434812 -36.1854199823963,-9.70372276448861 -36.1854172486161,-9.70373138177618 -36.1854145029006,-9.70373999532762 -36.1854117452549,-9.70374860512666 -36.1854089756843,-9.70375721115704 -36.1854061941939,-9.70376581340252 -36.1854034007891,-9.70377441184682 -36.1854005954752,-9.7037830064737 -36.1853977782573,-9.70379159726689 -36.1853949491408,-9.70380018421027 -36.1853921081312,-9.70380876728752 -36.1853892552337,-9.70381734648245 -36.1853863904537,-9.70382592177886 -36.1853835137967,-9.70383449316054 -36.1853806252681,-9.70384306061129 -36.1853777248733,-9.70385162411497 -36.1853748126178,-9.70386018365535 -36.1853718885071,-9.70386873921628 -36.1853689525468,-9.70387729078161 -36.1853660047423,-9.70388583833515 -36.1853630450993,-9.70389438186076 -36.1853600736233,-9.70390292134235 -36.18535709032,-9.70391145676373 -36.185354095195,-9.70391998810883 -36.185351088254,-9.70392851536146 -36.1853480695026,-9.70393703850555 -36.1853450389464,-9.70394555752503 -36.1853419965914,-9.70395407240376 -36.1853389424431,-9.70396258312567 -36.1853358765075,-9.70397108967468 -36.1853327987902,-9.70397959203471 -36.185329709297,-9.70398809018973 -36.1853266080339,-9.70399658412366 -36.1853234950066,-9.70400507382041 -36.1853203702211,-9.70401355926404 -36.1853172336833,-9.70402204043846 -36.185314085399,-9.70403051732765 -36.1853109253743,-9.70403898991562 -36.185307753615,-9.70404745818632 -36.1853045701272,-9.70405592212379 -36.1853013749169,-9.70406438171204 -36.1852981679902,-9.70407283693505 -36.185294949353,-9.70408128777689 -36.1852917190115,-9.70408973422158 -36.1852884769718,-9.70409817625315 -36.18528522324,-9.70410661385569 -36.1852819578222,-9.70411504701319 -36.1852786807246,-9.7041234757098 -36.1852753919534,-9.70413189992955 -36.1852720915149,-9.70414031965654 -36.1852687794152,-9.70414873487484 -36.1852654556606,-9.70415714556858 -36.1852621202573,-9.70416555172186 -36.1852587732118,-9.70417395331881 -36.1852554145302,-9.70418235034352 -36.185252044219,-9.7041907427802 -36.1852486622845,-9.70419913061292 -36.1852452687332,-9.70420751382586 -36.1852418635713,-9.7042158924032 -36.1852384468054,-9.70422426632909 -36.1852350184418,-9.70423263558775 -36.1852315784872,-9.70424100016329 -36.1852281269479,-9.70424936004 -36.1852246638305,-9.70425771520202 -36.1852211891416,-9.7042660656336 -36.1852177028876,-9.70427441131893 -36.1852142050753,-9.7042827522423 -36.1852106957111,-9.70429108838789 -36.1852071748018,-9.70429941974001 -36.1852036423539,-9.70430774628287 -36.1852000983741,-9.70431606800077 -36.1851965428692,-9.70432438487797 -36.1851929758459,-9.70433269689878 -36.1851893973108,-9.7043410040475 -36.1851858072708,-9.7043493063084 -36.1851822057326,-9.70435760366583 -36.1851785927031,-9.70436589610411 -36.185174968189,-9.70437418360754 -36.1851713321972,-9.70438246616051 -36.1851676847346,-9.70439074374736 -36.1851640258081,-9.70439901635242 -36.1851603554245,-9.70440728396011 -36.1851566735909,-9.70441554655481 -36.1851529803141,-9.70442380412086 -36.1851492756011,-9.7044320566427 -36.1851455594591,-9.70444030410471 -36.1851418318948,-9.70444854649134 -36.1851380929155,-9.70445678378703 -36.1851343425281,-9.70446501597617 -36.1851305807398,-9.70447324304325 -36.1851268075576,-9.70448146497269 -36.1851230229887,-9.70448968174899 -36.1851192270403,-9.70449789335662 -36.1851154197194,-9.70450609978007 -36.1851116010333,-9.70451430100382 -36.1851077709893,-9.70452249701239 -36.1851039295945,-9.70453068779029 -36.1851000768561,-9.70453887332205 -36.1850962127816,-9.7045470535922 -36.1850923373781,-9.70455522858528 -36.185088450653,-9.70456339828591 -36.1850845526137,-9.70457156267854 -36.1850806432675,-9.70457972174785 -36.1850767226217,-9.70458787547836 -36.1850727906838,-9.70459602385472 -36.1850688474613,-9.70460416686148 -36.1850648929615,-9.70461230448332 -36.185060927192,-9.70462043670478 -36.1850569501602,-9.7046285635106 -36.1850529618736,-9.70463668488534 -36.1850489623398,-9.70464480081372 -36.1850449515663,-9.70465291128037 -36.1850409295608,-9.70466101626995 -36.1850368963307,-9.70466911576721 -36.1850328518838,-9.70467720975683 -36.1850287962276,-9.70468529822347 -36.1850247293699,-9.70469338115191 -36.1850206513182,-9.70470145852683 -36.1850165620804,-9.70470953033302 -36.1850124616641,-9.7047175965552 -36.1850083500771,-9.70472565717812 -36.1850042273271,-9.70473371218657 -36.185000093422,-9.70474176156537 -36.1849959483695,-9.70474980529923 -36.1849917921775,-9.70475784337303 -36.1849876248538,-9.70476587577153 -36.1849834464063,-9.70477390247961 -36.1849792568429,-9.70478192348204 -36.1849750561715,-9.70478993876372 -36.1849708444,-9.70479794830951 -36.1849666215365,-9.70480595210423 -36.1849623875888,-9.70481395013282 -36.184958142565,-9.70482194238012 -36.184953886473,-9.70482992883104 -36.1849534796566,-9.7048306908232 -36.1851077175873,-9.70498493249842 -36.1882163535798,-9.7019544710429 -36.1882165887069,-9.7019547075891</coordinates></LinearRing></outerBoundaryIs></Polygon></MultiGeometry>
  </Placemark>
</Folder>
</Document></kml>
