<?xml version="1.0" encoding="utf-8" ?>
<kml xmlns="http://www.opengis.net/kml/2.2">
<Document id="root_doc">
<Schema name="BAIXA_GRANDE_TALHAO_1014_ID_20" id="BAIXA_GRANDE_TALHAO_1014_ID_20">
	<SimpleField name="CODE" type="string"></SimpleField>
	<SimpleField name="TALHAO" type="float"></SimpleField>
	<SimpleField name="AREA_TOTAL" type="float"></SimpleField>
	<SimpleField name="FAZENDA" type="float"></SimpleField>
	<SimpleField name="ZONA" type="float"></SimpleField>
	<SimpleField name="FAZ_NOME" type="string"></SimpleField>
</Schema>
<Folder><name>BAIXA_GRANDE_TALHAO_1014_ID_20</name>
  <Placemark id="BAIXA_GRANDE_TALHAO_1014_ID_20.1">
	<Style><LineStyle><color>ff0000ff</color></LineStyle><PolyStyle><fill>0</fill></PolyStyle></Style>
	<ExtendedData><SchemaData schemaUrl="#BAIXA_GRANDE_TALHAO_1014_ID_20">
		<SimpleData name="CODE">21</SimpleData>
		<SimpleData name="TALHAO">1014</SimpleData>
		<SimpleData name="AREA_TOTAL">2.974</SimpleData>
		<SimpleData name="FAZENDA">2162</SimpleData>
		<SimpleData name="ZONA">1</SimpleData>
		<SimpleData name="FAZ_NOME">BAIXA GRANDE</SimpleData>
	</SchemaData></ExtendedData>
      <MultiGeometry><Polygon><outerBoundaryIs><LinearRing><coordinates>-36.1643972975379,-9.70594568169337 -36.1629478005303,-9.70744341219743 -36.1629487453484,-9.70744246274714 -36.1630439279042,-9.70752877490482 -36.1659677580394,-9.70745708423963 -36.1643972975379,-9.70594568169337</coordinates></LinearRing></outerBoundaryIs></Polygon></MultiGeometry>
  </Placemark>
</Folder>
</Document></kml>
