<?xml version="1.0" encoding="utf-8" ?>
<kml xmlns="http://www.opengis.net/kml/2.2">
<Document id="root_doc">
<Schema name="BAIXA_GRANDE_TALHAO_1063_ID_279" id="BAIXA_GRANDE_TALHAO_1063_ID_279">
	<SimpleField name="CODE" type="string"></SimpleField>
	<SimpleField name="TALHAO" type="float"></SimpleField>
	<SimpleField name="AREA_TOTAL" type="float"></SimpleField>
	<SimpleField name="FAZENDA" type="float"></SimpleField>
	<SimpleField name="ZONA" type="float"></SimpleField>
	<SimpleField name="FAZ_NOME" type="string"></SimpleField>
</Schema>
<Folder><name>BAIXA_GRANDE_TALHAO_1063_ID_279</name>
  <Placemark id="BAIXA_GRANDE_TALHAO_1063_ID_279.1">
	<Style><LineStyle><color>ff0000ff</color></LineStyle><PolyStyle><fill>0</fill></PolyStyle></Style>
	<ExtendedData><SchemaData schemaUrl="#BAIXA_GRANDE_TALHAO_1063_ID_279">
		<SimpleData name="CODE">280</SimpleData>
		<SimpleData name="TALHAO">1063</SimpleData>
		<SimpleData name="AREA_TOTAL">3.487</SimpleData>
		<SimpleData name="FAZENDA">2162</SimpleData>
		<SimpleData name="ZONA">1</SimpleData>
		<SimpleData name="FAZ_NOME">BAIXA GRANDE</SimpleData>
	</SchemaData></ExtendedData>
      <MultiGeometry><Polygon><outerBoundaryIs><LinearRing><coordinates>-36.1848485322032,-9.69450976053318 -36.1864678042989,-9.69269320943916 -36.1863744309885,-9.69270180606732 -36.1860414388581,-9.69270379837366 -36.1857596343524,-9.69269991615763 -36.185558353712,-9.69272276767737 -36.185218856687,-9.69277814730745 -36.185049845691,-9.69278160213787 -36.1848326633522,-9.69278580038223 -36.1846555990924,-9.6927963603476 -36.1845188135024,-9.69282667713035 -36.1843703669811,-9.69287071630545 -36.1842289001601,-9.69287398001516 -36.1840459322524,-9.69286016661247 -36.1838469592519,-9.69283476455615 -36.183441305319,-9.69283404520219 -36.1831674664907,-9.69283626096884 -36.1848485322032,-9.69450976053318</coordinates></LinearRing></outerBoundaryIs></Polygon></MultiGeometry>
  </Placemark>
</Folder>
</Document></kml>
