<?xml version="1.0" encoding="UTF-8"?>
<kml xmlns="http://www.opengis.net/kml/2.2" xmlns:gx="http://www.google.com/kml/ext/2.2" xmlns:kml="http://www.opengis.net/kml/2.2" xmlns:atom="http://www.w3.org/2005/Atom">
<Document>
  <name>67.kml</name>
  <StyleMap id="FFFF4000">
    <Pair>
      <key>normal</key>
      <styleUrl>#s_FFFF4000</styleUrl>
    </Pair>
    <Pair>
      <key>highlight</key>
      <styleUrl>#s_FFFF4000_hl</styleUrl>
    </Pair>
  </StyleMap>
  <Style id="s_FFFF4000">
   <IconStyle>
      <scale>1.1</scale>
      <Icon>
        <href>http://maps.google.com/mapfiles/kml/pushpin/agrocad.png</href>
      </Icon>
      <hotSpot x="20" y="2" xunits="pixels" yunits="pixels"/>
    </IconStyle>
    <LineStyle>
      <color>FFFF4000</color>
      <width>1</width>
    </LineStyle>
    <PolyStyle>
      <color>40ffffff</color>
      <fill>1</fill>
    </PolyStyle>
  </Style>
  <Style id="s_FFFF4000_hl">
    <IconStyle>
      <scale>1.3</scale>
      <Icon>
        <href>http://maps.google.com/mapfiles/kml/pushpin/agrocad.png</href>
      </Icon>
      <hotSpot x="20" y="2" xunits="pixels" yunits="pixels"/>
    </IconStyle>
    <LineStyle>
      <color>ff000000</color>
      <width>1</width>
    </LineStyle>
    <PolyStyle>
      <color>40ffffff</color>
      <fill>1</fill>
    </PolyStyle>
  </Style>
  <Placemark>
    <name>AgroCAD: 17497</name>
    <styleUrl>FFFF4000</styleUrl>
    <Polygon>
      <outerBoundaryIs>
        <LinearRing>
          <coordinates>
           -36.38281523850081,-9.74712703657728 -36.38371698933312,-9.74667460663688 -36.38336697313530,-9.74591593732873 -36.38223400149267,-9.74355588552999 -36.38172678004975,-9.74247767502724 -36.38090961999438,-9.74092443292234 -36.38053668210627,-9.74010433527253 -36.37997711495594,-9.74032568807227 -36.37964158474852,-9.74048553019687 -36.37925515154619,-9.74057698153980 -36.37924101953681,-9.74063211100836 -36.37930711141754,-9.74078052679303 -36.37950771301240,-9.74113544791252 -36.37963079863420,-9.74143294575423 -36.37981388224717,-9.74179816633069 -36.38008463569747,-9.74235529719806 -36.38071339379515,-9.74365582114629 -36.38168636894667,-9.74575941020337 -36.38247203074366,-9.74733538305555 -36.38281523850081,-9.74712703657728 -36.38281523850081,-9.74712703657728 -36.38281523850081,-9.74712703657728
          </coordinates>
        </LinearRing>
      </outerBoundaryIs>
    </Polygon>
  </Placemark>
</Document>
</kml>
