<?xml version="1.0" encoding="UTF-8"?>
<kml xmlns="http://www.opengis.net/kml/2.2" xmlns:gx="http://www.google.com/kml/ext/2.2" xmlns:kml="http://www.opengis.net/kml/2.2" xmlns:atom="http://www.w3.org/2005/Atom">
<Document>
  <name>68.kml</name>
  <StyleMap id="FFFF4000">
    <Pair>
      <key>normal</key>
      <styleUrl>#s_FFFF4000</styleUrl>
    </Pair>
    <Pair>
      <key>highlight</key>
      <styleUrl>#s_FFFF4000_hl</styleUrl>
    </Pair>
  </StyleMap>
  <Style id="s_FFFF4000">
   <IconStyle>
      <scale>1.1</scale>
      <Icon>
        <href>http://maps.google.com/mapfiles/kml/pushpin/agrocad.png</href>
      </Icon>
      <hotSpot x="20" y="2" xunits="pixels" yunits="pixels"/>
    </IconStyle>
    <LineStyle>
      <color>FFFF4000</color>
      <width>1</width>
    </LineStyle>
    <PolyStyle>
      <color>40ffffff</color>
      <fill>1</fill>
    </PolyStyle>
  </Style>
  <Style id="s_FFFF4000_hl">
    <IconStyle>
      <scale>1.3</scale>
      <Icon>
        <href>http://maps.google.com/mapfiles/kml/pushpin/agrocad.png</href>
      </Icon>
      <hotSpot x="20" y="2" xunits="pixels" yunits="pixels"/>
    </IconStyle>
    <LineStyle>
      <color>ff000000</color>
      <width>1</width>
    </LineStyle>
    <PolyStyle>
      <color>40ffffff</color>
      <fill>1</fill>
    </PolyStyle>
  </Style>
  <Placemark>
    <name>AgroCAD: 17498</name>
    <styleUrl>FFFF4000</styleUrl>
    <Polygon>
      <outerBoundaryIs>
        <LinearRing>
          <coordinates>
           -36.38244053857087,-9.74734305930518 -36.38205790324980,-9.74655151458056 -36.38071275988200,-9.74369634427705 -36.37991399849090,-9.74205184932120 -36.37942763883280,-9.74101502945944 -36.37919346444998,-9.74059247291629 -36.37911719696675,-9.74052229294753 -36.37907427602299,-9.74050212599609 -36.37891397225391,-9.74057217135837 -36.37880528832285,-9.74062094425984 -36.37861169221165,-9.74079834926118 -36.37848604714764,-9.74093579780824 -36.37829876881433,-9.74111856856251 -36.37816111393286,-9.74117529534892 -36.37798753972931,-9.74130460231255 -36.37783705320348,-9.74142638732297 -36.37836087052431,-9.74248933426260 -36.37879335109003,-9.74328253110277 -36.37941077957630,-9.74448865964474 -36.37989370892109,-9.74532505635844 -36.38083702872413,-9.74710783123818 -36.38132340372977,-9.74804817554515 -36.38244053857087,-9.74734305930518 -36.38244053857087,-9.74734305930518 -36.38244053857087,-9.74734305930518
          </coordinates>
        </LinearRing>
      </outerBoundaryIs>
    </Polygon>
  </Placemark>
</Document>
</kml>
