<?xml version="1.0" encoding="utf-8" ?>
<kml xmlns="http://www.opengis.net/kml/2.2">
<Document id="root_doc">
<Schema name="ESPERANÇA_TALHAO_1004_ID_144" id="ESPERANÇA_TALHAO_1004_ID_144">
	<SimpleField name="ID" type="float"></SimpleField>
	<SimpleField name="AREA_TOTAL" type="float"></SimpleField>
	<SimpleField name="FAZENDA" type="float"></SimpleField>
	<SimpleField name="FAZ_NOME" type="string"></SimpleField>
	<SimpleField name="TALHAO" type="float"></SimpleField>
	<SimpleField name="ZONA" type="float"></SimpleField>
	<SimpleField name="ACIONISTA" type="string"></SimpleField>
	<SimpleField name="CODE" type="string"></SimpleField>
</Schema>
<Folder><name>ESPERANÇA_TALHAO_1004_ID_144</name>
  <Placemark id="ESPERANÇA_TALHAO_1004_ID_144.1">
	<Style><LineStyle><color>ff0000ff</color></LineStyle><PolyStyle><fill>0</fill></PolyStyle></Style>
	<ExtendedData><SchemaData schemaUrl="#ESPERANÇA_TALHAO_1004_ID_144">
		<SimpleData name="ID">144</SimpleData>
		<SimpleData name="AREA_TOTAL">3.68</SimpleData>
		<SimpleData name="FAZENDA">2741</SimpleData>
		<SimpleData name="FAZ_NOME">ESPERANÇA</SimpleData>
		<SimpleData name="TALHAO">1004</SimpleData>
		<SimpleData name="ZONA">1</SimpleData>
		<SimpleData name="ACIONISTA">HENRIQUE TENÓRIO</SimpleData>
		<SimpleData name="CODE"></SimpleData>
	</SchemaData></ExtendedData>
      <MultiGeometry><Polygon><outerBoundaryIs><LinearRing><coordinates>-36.3712277675822,-9.73167940555899,0 -36.3712808594954,-9.73173980684923,0 -36.3713187865701,-9.73179337212355,0 -36.3713940257987,-9.73191845633258,0 -36.3714382631366,-9.73199838454259,0 -36.3715027718226,-9.73212464854535,0 -36.3715854882386,-9.73229005557891,0 -36.3716762575791,-9.73247250923243,0 -36.3717578687696,-9.73263353739407,0 -36.3718404208837,-9.73279126986691,0 -36.371923390416,-9.73294753900429,0 -36.3719953910834,-9.73309308316411,0 -36.3720547076596,-9.73321394783424,0 -36.3720937106762,-9.73329620546154,0 -36.3721132846946,-9.7333409593975,0 -36.3721766045226,-9.73330115633446,0 -36.3724598259532,-9.73312648167786,0 -36.3728665986459,-9.73288320387356,0 -36.3733091565426,-9.73261668638386,0 -36.3735327820503,-9.73248405944448,0 -36.3737263576207,-9.73236901299585,0 -36.373860227348,-9.73229158661924,0 -36.3738868322681,-9.7322795978909,0 -36.3738343757393,-9.73223667192001,0 -36.3737667872457,-9.73218348240017,0 -36.3736872653887,-9.73212114948684,0 -36.3735924556352,-9.73204691133243,0 -36.3735040780115,-9.73197607001256,0 -36.3734032724648,-9.73189896764731,0 -36.3733076667614,-9.73182732310329,0 -36.37321370369,-9.73175848253618,0 -36.3731204068812,-9.73168663790237,0 -36.3730257498463,-9.73161782285244,0 -36.372937236598,-9.73154934629563,0 -36.3728580230817,-9.73148641415955,0 -36.3727765652011,-9.73142118715763,0 -36.372692045759,-9.73135394059374,0 -36.3726054988187,-9.73128455878982,0 -36.372517222981,-9.73121525905536,0 -36.3724350715236,-9.73115148500721,0 -36.3723663001058,-9.73109963706442,0 -36.3723459097479,-9.73108201474059,0 -36.3723371082116,-9.73107323867034,0 -36.3722826999713,-9.73110242225049,0 -36.3721156574346,-9.73119252623586,0 -36.3719573219885,-9.73127780767168,0 -36.3716587049044,-9.73144115914727,0 -36.3715084531816,-9.73152370525302,0 -36.3713586274722,-9.73160762731143,0 -36.3712277675822,-9.73167940555899,0</coordinates></LinearRing></outerBoundaryIs></Polygon></MultiGeometry>
  </Placemark>
</Folder>
</Document></kml>
