<?xml version="1.0" encoding="utf-8" ?>
<kml xmlns="http://www.opengis.net/kml/2.2">
<Document id="root_doc">
<Schema name="ESPERANÇA_TALHAO_1002_ID_141" id="ESPERANÇA_TALHAO_1002_ID_141">
	<SimpleField name="ID" type="float"></SimpleField>
	<SimpleField name="AREA_TOTAL" type="float"></SimpleField>
	<SimpleField name="FAZENDA" type="float"></SimpleField>
	<SimpleField name="FAZ_NOME" type="string"></SimpleField>
	<SimpleField name="TALHAO" type="float"></SimpleField>
	<SimpleField name="ZONA" type="float"></SimpleField>
	<SimpleField name="ACIONISTA" type="string"></SimpleField>
	<SimpleField name="CODE" type="string"></SimpleField>
</Schema>
<Folder><name>ESPERANÇA_TALHAO_1002_ID_141</name>
  <Placemark id="ESPERANÇA_TALHAO_1002_ID_141.1">
	<Style><LineStyle><color>ff0000ff</color></LineStyle><PolyStyle><fill>0</fill></PolyStyle></Style>
	<ExtendedData><SchemaData schemaUrl="#ESPERANÇA_TALHAO_1002_ID_141">
		<SimpleData name="ID">141</SimpleData>
		<SimpleData name="AREA_TOTAL">5.26</SimpleData>
		<SimpleData name="FAZENDA">2741</SimpleData>
		<SimpleData name="FAZ_NOME">ESPERANÇA</SimpleData>
		<SimpleData name="TALHAO">1002</SimpleData>
		<SimpleData name="ZONA">1</SimpleData>
		<SimpleData name="ACIONISTA">HENRIQUE TENÓRIO</SimpleData>
		<SimpleData name="CODE"></SimpleData>
	</SchemaData></ExtendedData>
      <MultiGeometry><Polygon><outerBoundaryIs><LinearRing><coordinates>-36.3746369619288,-9.72984123428212,0 -36.3740989389479,-9.73013184599008,0 -36.3737708567177,-9.73031286145684,0 -36.3736268087238,-9.73039177701048,0 -36.3736905170169,-9.7304381333256,0 -36.3738218657446,-9.7305371659861,0 -36.3739219472595,-9.73062026173546,0 -36.373988328768,-9.73067794690455,0 -36.3740828034752,-9.73075508791585,0 -36.3741813416277,-9.73084070235072,0 -36.374259453615,-9.73090841321218,0 -36.3743287979784,-9.73096650116738,0 -36.374470939178,-9.73108728434426,0 -36.3745395021444,-9.7311471750099,0 -36.3746158024487,-9.73121238699719,0 -36.3746885923607,-9.73127066047116,0 -36.3747569826978,-9.7313287900955,0 -36.3748234242134,-9.73139025910834,0 -36.3748789147979,-9.73144454750269,0 -36.3749314911881,-9.73150403579388,0 -36.3749687587274,-9.73156199857844,0 -36.3749798227992,-9.731583245019,0 -36.3750546421479,-9.73153019220551,0 -36.3751606254899,-9.73144816675476,0 -36.3752749899042,-9.73134990317772,0 -36.3753879315779,-9.73124960366282,0 -36.3754984028371,-9.73115706202584,0 -36.3756038384678,-9.73106507650988,0 -36.3757118588471,-9.73097317480745,0 -36.3758249425422,-9.73087921050312,0 -36.3759468661897,-9.73078252834228,0 -36.376068187472,-9.73069100691943,0 -36.3761574911411,-9.73063426439318,0 -36.3762536627723,-9.73058117810723,0 -36.3763489938503,-9.73051868121248,0 -36.3764473161559,-9.73045174038226,0 -36.3765397253952,-9.73038327200462,0 -36.3766244030777,-9.73031906964199,0 -36.3767234824316,-9.73024450227652,0 -36.3768212213802,-9.7301675251402,0 -36.3769072702272,-9.73009615953164,0 -36.3769809026101,-9.73003730159538,0 -36.3770362730657,-9.72999233047289,0 -36.3770705037951,-9.72996019626562,0 -36.3770886808479,-9.72993253381255,0 -36.3770940045064,-9.72989878555733,0 -36.3770896316684,-9.72986591208291,0 -36.376999811138,-9.72972352985859,0 -36.3769231370234,-9.7296046544445,0 -36.3768463174369,-9.72948759916673,0 -36.3767775757659,-9.72938305626792,0 -36.3767069866639,-9.72927590501971,0 -36.3766373960981,-9.72917190015435,0 -36.3765136348226,-9.72898781779172,0 -36.3764528089093,-9.72889654842034,0 -36.3764375248347,-9.72887313409004,0 -36.3762404909992,-9.728979552558,0 -36.3753891138584,-9.72943769049606,0 -36.3746369619288,-9.72984123428212,0</coordinates></LinearRing></outerBoundaryIs></Polygon></MultiGeometry>
  </Placemark>
</Folder>
</Document></kml>
