<?xml version="1.0" encoding="UTF-8"?>
<kml xmlns="http://www.opengis.net/kml/2.2" xmlns:gx="http://www.google.com/kml/ext/2.2" xmlns:kml="http://www.opengis.net/kml/2.2" xmlns:atom="http://www.w3.org/2005/Atom">
<Document>
  <name>11.kml</name>
  <StyleMap id="FFFF4000">
    <Pair>
      <key>normal</key>
      <styleUrl>#s_FFFF4000</styleUrl>
    </Pair>
    <Pair>
      <key>highlight</key>
      <styleUrl>#s_FFFF4000_hl</styleUrl>
    </Pair>
  </StyleMap>
  <Style id="s_FFFF4000">
   <IconStyle>
      <scale>1.1</scale>
      <Icon>
        <href>http://maps.google.com/mapfiles/kml/pushpin/agrocad.png</href>
      </Icon>
      <hotSpot x="20" y="2" xunits="pixels" yunits="pixels"/>
    </IconStyle>
    <LineStyle>
      <color>FFFF4000</color>
      <width>1</width>
    </LineStyle>
    <PolyStyle>
      <color>40ffffff</color>
      <fill>1</fill>
    </PolyStyle>
  </Style>
  <Style id="s_FFFF4000_hl">
    <IconStyle>
      <scale>1.3</scale>
      <Icon>
        <href>http://maps.google.com/mapfiles/kml/pushpin/agrocad.png</href>
      </Icon>
      <hotSpot x="20" y="2" xunits="pixels" yunits="pixels"/>
    </IconStyle>
    <LineStyle>
      <color>ff000000</color>
      <width>1</width>
    </LineStyle>
    <PolyStyle>
      <color>40ffffff</color>
      <fill>1</fill>
    </PolyStyle>
  </Style>
  <Placemark>
    <name>AgroCAD: 15F7E</name>
    <styleUrl>FFFF4000</styleUrl>
    <Polygon>
      <outerBoundaryIs>
        <LinearRing>
          <coordinates>
           -36.39233676055758,-9.74657470146010 -36.39260644683279,-9.74654370303767 -36.39294432963740,-9.74649410556176 -36.39331011102221,-9.74643830840144 -36.39352400013701,-9.74640730997896 -36.39392077994422,-9.74635771250311 -36.39452834902403,-9.74631431471172 -36.39505532220555,-9.74625541770909 -36.39543040311707,-9.74623061897114 -36.39538080564116,-9.74605392796328 -36.39532500848077,-9.74580904042601 -36.39525371210917,-9.74567574720961 -36.39515451715736,-9.74530066629806 -36.39505532220555,-9.74496588333578 -36.39495922709596,-9.74471169627182 -36.39481973419505,-9.74427151867321 -36.39471123971644,-9.74392123649968 -36.39457484665775,-9.74351515716574 -36.39442295438774,-9.74297268477314 -36.39431136006703,-9.74264410149527 -36.39418426653504,-9.74220702373896 -36.39402617458053,-9.74168315039971 -36.39383398436143,-9.74105388242429 -36.39365419351131,-9.74058580624554 -36.39351780045251,-9.74016422770040 -36.39342170534300,-9.73970545104831 -36.39328841212650,-9.73926062368635 -36.39314891922550,-9.73880804671879 -36.39308692238069,-9.73856780894492 -36.39285598413350,-9.73857865839276 -36.39234296024208,-9.73869025271350 -36.39200507743747,-9.73874759979499 -36.39159124849796,-9.73882509585109 -36.39103327689404,-9.73893669017182 -36.39024126720061,-9.73912423062752 -36.39018237019801,-9.73917382810339 -36.39017152075021,-9.73921877581596 -36.39022111822611,-9.73960780601752 -36.39026761585972,-9.73984494394914 -36.39030481396662,-9.74003403432600 -36.39093098209994,-9.74220237397547 -36.39109372381776,-9.74284791612266 -36.39118361924285,-9.74321059766519 -36.39135740414865,-9.74374585323759 -36.39158872987616,-9.74444738628538 -36.39195896728417,-9.74554124311712 -36.39213565829206,-9.74605794807108 -36.39233676055758,-9.74657470146010 -36.39233676055758,-9.74657470146010 -36.39233676055758,-9.74657470146010
          </coordinates>
        </LinearRing>
      </outerBoundaryIs>
    </Polygon>
  </Placemark>
</Document>
</kml>
