<?xml version="1.0" encoding="UTF-8"?>
<kml xmlns="http://www.opengis.net/kml/2.2" xmlns:gx="http://www.google.com/kml/ext/2.2" xmlns:kml="http://www.opengis.net/kml/2.2" xmlns:atom="http://www.w3.org/2005/Atom">
<Document>
  <name>10.kml</name>
  <StyleMap id="FFFF4000">
    <Pair>
      <key>normal</key>
      <styleUrl>#s_FFFF4000</styleUrl>
    </Pair>
    <Pair>
      <key>highlight</key>
      <styleUrl>#s_FFFF4000_hl</styleUrl>
    </Pair>
  </StyleMap>
  <Style id="s_FFFF4000">
   <IconStyle>
      <scale>1.1</scale>
      <Icon>
        <href>http://maps.google.com/mapfiles/kml/pushpin/agrocad.png</href>
      </Icon>
      <hotSpot x="20" y="2" xunits="pixels" yunits="pixels"/>
    </IconStyle>
    <LineStyle>
      <color>FFFF4000</color>
      <width>1</width>
    </LineStyle>
    <PolyStyle>
      <color>40ffffff</color>
      <fill>1</fill>
    </PolyStyle>
  </Style>
  <Style id="s_FFFF4000_hl">
    <IconStyle>
      <scale>1.3</scale>
      <Icon>
        <href>http://maps.google.com/mapfiles/kml/pushpin/agrocad.png</href>
      </Icon>
      <hotSpot x="20" y="2" xunits="pixels" yunits="pixels"/>
    </IconStyle>
    <LineStyle>
      <color>ff000000</color>
      <width>1</width>
    </LineStyle>
    <PolyStyle>
      <color>40ffffff</color>
      <fill>1</fill>
    </PolyStyle>
  </Style>
  <Placemark>
    <name>AgroCAD: 15F7F</name>
    <styleUrl>FFFF4000</styleUrl>
    <Polygon>
      <outerBoundaryIs>
        <LinearRing>
          <coordinates>
           -36.39309583442710,-9.73853753704799 -36.39330158645601,-9.73919315368250 -36.39339923148671,-9.73955757888624 -36.39347420892101,-9.73984702665573 -36.39367472996611,-9.74056890241823 -36.39377063133563,-9.74085486286518 -36.39385258341493,-9.74102922899144 -36.39468605349825,-9.74377026449536 -36.39488134355965,-9.74442413746860 -36.39502258012185,-9.74483389786519 -36.39516556034536,-9.74525935121310 -36.39528064198866,-9.74567608625472 -36.39532946450406,-9.74579116789805 -36.39542362221217,-9.74612595086034 -36.39545152079237,-9.74616954239189 -36.39548813767888,-9.74621836490726 -36.39557183341947,-9.74621836490722 -36.39565727282137,-9.74620092829467 -36.39579676572228,-9.74619569731085 -36.39644540771179,-9.74616082408563 -36.39704871450862,-9.74611897621534 -36.39748462982412,-9.74608933397391 -36.39758227485482,-9.74608235932889 -36.39767468890174,-9.74607538468386 -36.39783161841533,-9.74608061566762 -36.39801819017035,-9.74606143539372 -36.39803911410554,-9.74603702413608 -36.39804783241185,-9.74595681571807 -36.39801644650914,-9.74586440167117 -36.39794146907484,-9.74568131723865 -36.39779325786753,-9.74528724979339 -36.39761540441883,-9.74482692322023 -36.39755611993593,-9.74466737821472 -36.39747765517913,-9.74444506140386 -36.39738872845473,-9.74421925727041 -36.39698463495721,-9.74316957319067 -36.39693581244181,-9.74306146619245 -36.39658184920560,-9.74211988911092 -36.39641445772450,-9.74166304986026 -36.39620521837299,-9.74116087541679 -36.39599772268278,-9.74060987845794 -36.39583033120158,-9.74016001385237 -36.39566119605917,-9.73969445629538 -36.39550252288426,-9.73927772125379 -36.39540051870046,-9.73901006925004 -36.39526451312195,-9.73865087503006 -36.39513199486606,-9.73832655403530 -36.39506922306066,-9.73818706113438 -36.39503086251286,-9.73818706113437 -36.39496111606236,-9.73819752310194 -36.39435780926563,-9.73831434840649 -36.39373009121121,-9.73842419906594 -36.39310934780190,-9.73856543562815 -36.39309583442710,-9.73853753704799 -36.39309583442710,-9.73853753704799 -36.39309583442710,-9.73853753704799
          </coordinates>
        </LinearRing>
      </outerBoundaryIs>
    </Polygon>
  </Placemark>
</Document>
</kml>
