<?xml version="1.0" encoding="UTF-8"?>
<kml xmlns="http://www.opengis.net/kml/2.2" xmlns:gx="http://www.google.com/kml/ext/2.2" xmlns:kml="http://www.opengis.net/kml/2.2" xmlns:atom="http://www.w3.org/2005/Atom">
<Document>
  <name>1003.kml</name>
  <StyleMap id="FF0040FF">
    <Pair>
      <key>normal</key>
      <styleUrl>#s_FF0040FF</styleUrl>
    </Pair>
    <Pair>
      <key>highlight</key>
      <styleUrl>#s_FF0040FF_hl</styleUrl>
    </Pair>
  </StyleMap>
  <Style id="s_FF0040FF">
   <IconStyle>
      <scale>1.1</scale>
      <Icon>
        <href>http://maps.google.com/mapfiles/kml/pushpin/agrocad.png</href>
      </Icon>
      <hotSpot x="20" y="2" xunits="pixels" yunits="pixels"/>
    </IconStyle>
    <LineStyle>
      <color>FF0040FF</color>
      <width>1</width>
    </LineStyle>
    <PolyStyle>
      <color>40ffffff</color>
      <fill>1</fill>
    </PolyStyle>
  </Style>
  <Style id="s_FF0040FF_hl">
    <IconStyle>
      <scale>1.3</scale>
      <Icon>
        <href>http://maps.google.com/mapfiles/kml/pushpin/agrocad.png</href>
      </Icon>
      <hotSpot x="20" y="2" xunits="pixels" yunits="pixels"/>
    </IconStyle>
    <LineStyle>
      <color>ff000000</color>
      <width>1</width>
    </LineStyle>
    <PolyStyle>
      <color>40ffffff</color>
      <fill>1</fill>
    </PolyStyle>
  </Style>
  <Placemark>
    <name>AgroCAD: 8397</name>
    <styleUrl>FF0040FF</styleUrl>
    <Polygon>
      <outerBoundaryIs>
        <LinearRing>
          <coordinates>
           -36.24679518228524,-9.85735651827995 -36.24703351351023,-9.85700818790657 -36.24739809263348,-9.85655782543054 -36.24761314511352,-9.85625675193669 -36.24778449521376,-9.85602114553165 -36.24798596386013,-9.85575815513747 -36.24808956433510,-9.85598607620049 -36.24841137281695,-9.85682277834714 -36.24909805353781,-9.85843218645262 -36.24948435009204,-9.85939792794268 -36.24969876262030,-9.85986963555122 -36.24978354214431,-9.86012397415722 -36.24976251821098,-9.86046035687826 -36.24958060520018,-9.86068269500457 -36.24947764485168,-9.86066210293520 -36.24862146400343,-9.86062942511239 -36.24679518228524,-9.85735651827995
          </coordinates>
        </LinearRing>
      </outerBoundaryIs>
    </Polygon>
  </Placemark>
  <Placemark>
    <name>AgroCAD: 8396</name>
    <styleUrl>FF0040FF</styleUrl>
    <Polygon>
      <outerBoundaryIs>
        <LinearRing>
          <coordinates>
           -36.24553143186998,-9.85904668820520 -36.24604641592758,-9.85833858507597 -36.24634396429021,-9.85795087150746 -36.24638384488920,-9.85789890589858 -36.24654454704638,-9.85768950593744 -36.24820689065715,-9.86061360133017 -36.24807046041207,-9.86060839383564 -36.24715856698124,-9.86059766548351 -36.24621182915277,-9.86055558828461 -36.24617539346066,-9.86055434361232 -36.24526998934582,-9.86053328769099 -36.24468973174540,-9.86053328799419 -36.24459523547313,-9.86053328794884 -36.24440038587342,-9.86053328777162 -36.24454257347682,-9.86034370459093 -36.24482318712234,-9.85996955263578 -36.24553143186998,-9.85904668820520
          </coordinates>
        </LinearRing>
      </outerBoundaryIs>
    </Polygon>
  </Placemark>
</Document>
</kml>
