<?xml version="1.0" encoding="utf-8" ?>
<kml xmlns="http://www.opengis.net/kml/2.2">
<Document id="root_doc">
<Schema name="CALUGY_TALHAO_1009_ID_123" id="CALUGY_TALHAO_1009_ID_123">
	<SimpleField name="ID" type="float"></SimpleField>
	<SimpleField name="AREA_TOTAL" type="float"></SimpleField>
	<SimpleField name="FAZENDA" type="float"></SimpleField>
	<SimpleField name="FAZ_NOME" type="string"></SimpleField>
	<SimpleField name="TALHAO" type="float"></SimpleField>
	<SimpleField name="ZONA" type="float"></SimpleField>
	<SimpleField name="ACIONISTA" type="string"></SimpleField>
	<SimpleField name="CODE" type="string"></SimpleField>
</Schema>
<Folder><name>CALUGY_TALHAO_1009_ID_123</name>
  <Placemark id="CALUGY_TALHAO_1009_ID_123.1">
	<Style><LineStyle><color>ff0000ff</color></LineStyle><PolyStyle><fill>0</fill></PolyStyle></Style>
	<ExtendedData><SchemaData schemaUrl="#CALUGY_TALHAO_1009_ID_123">
		<SimpleData name="ID">123</SimpleData>
		<SimpleData name="AREA_TOTAL">3.83</SimpleData>
		<SimpleData name="FAZENDA">2740</SimpleData>
		<SimpleData name="FAZ_NOME">CALUGY</SimpleData>
		<SimpleData name="TALHAO">1009</SimpleData>
		<SimpleData name="ZONA">1</SimpleData>
		<SimpleData name="ACIONISTA">HENRIQUE TENÓRIO</SimpleData>
		<SimpleData name="CODE"></SimpleData>
	</SchemaData></ExtendedData>
      <MultiGeometry><Polygon><outerBoundaryIs><LinearRing><coordinates>-36.3731292067141,-9.73881864583702,0 -36.3731000413708,-9.73883918042055,0 -36.3730168597602,-9.73890644502233,0 -36.3729160880071,-9.73897118134185,0 -36.3728051441785,-9.73902668337735,0 -36.372687707241,-9.73907709361627,0 -36.3725667992509,-9.73912264624112,0 -36.372353912763,-9.73918785673324,0 -36.3722577814465,-9.73920878967177,0 -36.3720662826634,-9.73924238542856,0 -36.3719675068984,-9.73925810741972,0 -36.3718473536457,-9.73926809376236,0 -36.3717057678961,-9.73927405817677,0 -36.3715605740089,-9.73927517192167,0 -36.3714222504279,-9.73927165242483,0 -36.3712835539954,-9.73926834508001,0 -36.3711361289102,-9.73926671299402,0 -36.3709856811177,-9.73926709446735,0 -36.370693725656,-9.73927731997732,0 -36.370545927074,-9.73928218401797,0 -36.3703807159644,-9.7392904617223,0 -36.3702063962994,-9.73929608537585,0 -36.3700285173909,-9.73930022654146,0 -36.3698566457263,-9.7392999644716,0 -36.3697014763833,-9.73928796805991,0 -36.3695807357393,-9.73927005785272,0 -36.3694081466653,-9.73922244968152,0 -36.369344813032,-9.73920003170928,0 -36.3692814226026,-9.73917007889222,0 -36.3691339746716,-9.73908270412022,0 -36.3690598008579,-9.73902536757192,0 -36.3689848697592,-9.73895647488758,0 -36.3689074322891,-9.73887843171159,0 -36.368831429783,-9.73879605043415,0 -36.3687691692386,-9.7387161571894,0 -36.3687519217042,-9.73868540221332,0 -36.3687445143972,-9.73874352052236,0 -36.3687274973771,-9.7388367634987,0 -36.3687087919721,-9.73892985359673,0 -36.3686918584818,-9.7390298924702,0 -36.3686740656923,-9.73913975474264,0 -36.3686562591287,-9.73923713684715,0 -36.3686347456667,-9.73933038978415,0 -36.3686031456459,-9.73942290051429,0 -36.3685702198517,-9.73951840102968,0 -36.3685394388521,-9.73960252014021,0 -36.36851427236,-9.73967403629868,0 -36.3684489112089,-9.7398126491019,0 -36.3684144209189,-9.73990294955608,0 -36.3683288391995,-9.74009801462397,0 -36.3682311130472,-9.74031832517515,0 -36.368230319856,-9.7403894253665,0 -36.368245505339,-9.74050054624216,0 -36.3683144064799,-9.74060966343384,0 -36.3683492337592,-9.74064071282073,0 -36.3684305381681,-9.74071054534767,0 -36.3684543342575,-9.7407275847661,0 -36.3684829954779,-9.74074168776284,0 -36.3685177469369,-9.74075679157136,0 -36.3685350386244,-9.74076002898833,0 -36.36861681573,-9.74077261464945,0 -36.3686301582654,-9.74077434325612,0 -36.368698806591,-9.7407516498614,0 -36.3688897058946,-9.74067941566611,0 -36.368915681838,-9.74065832527966,0 -36.3692237232862,-9.74041490285523,0 -36.3697078304715,-9.74009224755975,0 -36.3698559915529,-9.7400002898117,0 -36.3698914153138,-9.73998439862027,0 -36.370091936716,-9.73989308477576,0 -36.3701057816187,-9.73988442910467,0 -36.3701541016481,-9.73984780936561,0 -36.3707764610781,-9.7394388726092,0 -36.3709107433165,-9.73939267506371,0 -36.3713660112868,-9.73948690373892,0 -36.371625410959,-9.73958331242738,0 -36.3716608609152,-9.73959216206488,0 -36.3716979624624,-9.739591708892,0 -36.3717978072412,-9.73958430372405,0 -36.3720635836293,-9.73954877294757,0 -36.3723199344012,-9.73951107037286,0 -36.372468346094,-9.73950902032297,0 -36.3726591863877,-9.7395466381299,0 -36.3726797934413,-9.73955386756005,0 -36.3728306162384,-9.73960957595039,0 -36.3729491260672,-9.73964230502656,0 -36.3729548243296,-9.73964277570724,0 -36.3730813736949,-9.73957830657833,0 -36.3731108574716,-9.73951777081292,0 -36.3731401099249,-9.73938598897451,0 -36.3731565471307,-9.73926023351929,0 -36.3731605175717,-9.7391688154309,0 -36.3731616885043,-9.7390844716916,0 -36.3731622778509,-9.73900913980589,0 -36.3731567393446,-9.73894284407234,0 -36.3731377349578,-9.73886342033427,0 -36.3731292067141,-9.73881864583702,0</coordinates></LinearRing></outerBoundaryIs></Polygon></MultiGeometry>
  </Placemark>
</Folder>
</Document></kml>
