<?xml version="1.0" encoding="utf-8" ?>
<kml xmlns="http://www.opengis.net/kml/2.2">
<Document id="root_doc">
<Schema name="CALUGY_TALHAO_1011_ID_124" id="CALUGY_TALHAO_1011_ID_124">
	<SimpleField name="ID" type="float"></SimpleField>
	<SimpleField name="AREA_TOTAL" type="float"></SimpleField>
	<SimpleField name="FAZENDA" type="float"></SimpleField>
	<SimpleField name="FAZ_NOME" type="string"></SimpleField>
	<SimpleField name="TALHAO" type="float"></SimpleField>
	<SimpleField name="ZONA" type="float"></SimpleField>
	<SimpleField name="ACIONISTA" type="string"></SimpleField>
	<SimpleField name="CODE" type="string"></SimpleField>
</Schema>
<Folder><name>CALUGY_TALHAO_1011_ID_124</name>
  <Placemark id="CALUGY_TALHAO_1011_ID_124.1">
	<Style><LineStyle><color>ff0000ff</color></LineStyle><PolyStyle><fill>0</fill></PolyStyle></Style>
	<ExtendedData><SchemaData schemaUrl="#CALUGY_TALHAO_1011_ID_124">
		<SimpleData name="ID">124</SimpleData>
		<SimpleData name="AREA_TOTAL">14.66</SimpleData>
		<SimpleData name="FAZENDA">2740</SimpleData>
		<SimpleData name="FAZ_NOME">CALUGY</SimpleData>
		<SimpleData name="TALHAO">1011</SimpleData>
		<SimpleData name="ZONA">1</SimpleData>
		<SimpleData name="ACIONISTA">HENRIQUE TENÓRIO</SimpleData>
		<SimpleData name="CODE"></SimpleData>
	</SchemaData></ExtendedData>
      <MultiGeometry><Polygon><outerBoundaryIs><LinearRing><coordinates>-36.373121650146,-9.73877897277242,0 -36.373115715158,-9.7387478132335,0 -36.3730841843582,-9.7386220648562,0 -36.3729886830284,-9.73820959805369,0 -36.372929487692,-9.73793738184132,0 -36.3728495315592,-9.7375970604997,0 -36.3727716212047,-9.73720153319253,0 -36.3726620392994,-9.73662981023466,0 -36.3725572375228,-9.73604689386051,0 -36.3724811329101,-9.73561795132459,0 -36.3724575085767,-9.73548232434991,0 -36.3724573371679,-9.73548134029427,0 -36.3721921821327,-9.73558474378187,0 -36.3719879823899,-9.73566239729048,0 -36.3717436831055,-9.73575551263422,0 -36.3714973381947,-9.73584860460192,0 -36.3712595774581,-9.73593724409661,0 -36.3710254359957,-9.7360244525589,0 -36.3707961044048,-9.73611281311115,0 -36.370566826015,-9.73619990454985,0 -36.3703440275259,-9.73628706522988,0 -36.3699325464773,-9.73644302581118,0 -36.3697442705966,-9.73651404356985,0 -36.369436410333,-9.73663140291966,0 -36.3692738440198,-9.73669117872532,0 -36.3690972904854,-9.73675614732781,0 -36.3690047142366,-9.73678757503485,0 -36.3689970302773,-9.73678966104118,0 -36.368980517489,-9.73688358227876,0 -36.3689497905407,-9.73708123480336,0 -36.3689183660365,-9.7373103903143,0 -36.3688887382382,-9.73753544146917,0 -36.3688616450589,-9.73775579814136,0 -36.3688329282752,-9.73797298575573,0 -36.3688062209725,-9.73820535763785,0 -36.3687822805862,-9.73843014123452,0 -36.3687607469579,-9.73861615852961,0 -36.3687596419107,-9.73862482882681,0 -36.3687996708439,-9.73869620649437,0 -36.3688593265868,-9.73877275722508,0 -36.368933860183,-9.73885354629904,0 -36.3690102469795,-9.73893053057433,0 -36.3690834223125,-9.73899780897631,0 -36.3691545905952,-9.73905282223618,0 -36.3692986349322,-9.73913818009713,0 -36.3693588038528,-9.73916661070619,0 -36.3694191622026,-9.7391879755262,0 -36.3695883380942,-9.73923464217638,0 -36.3697055906132,-9.73925203496487,0 -36.3698580911271,-9.73926382504041,0 -36.3700281179628,-9.73926408429227,0 -36.3702053768598,-9.73925995755588,0 -36.3703792049545,-9.7392543497558,0 -36.3705444041675,-9.7392460726427,0 -36.3706924789864,-9.73924119950699,0 -36.3709849916573,-9.7392309544726,0 -36.3711362856244,-9.73923057084949,0 -36.3712841950186,-9.73923220829292,0 -36.3714231552072,-9.73923552192337,0 -36.3715609003011,-9.73923902669745,0 -36.3717048539577,-9.73923792246195,0 -36.3718450590585,-9.73923201620454,0 -36.3719630940713,-9.73922220591275,0 -36.3720602244091,-9.73920674581881,0 -36.3722507009215,-9.73917332939972,0 -36.3723446169914,-9.73915287883649,0 -36.3725549458429,-9.73908845178294,0 -36.3726739991048,-9.73904359793214,0 -36.3727896950045,-9.73899393503739,0 -36.3728979322863,-9.73893978700816,0 -36.3729953854385,-9.7388771825748,0 -36.3730779648844,-9.73881040491187,0 -36.373121650146,-9.73877897277242,0</coordinates></LinearRing></outerBoundaryIs></Polygon></MultiGeometry>
  </Placemark>
</Folder>
</Document></kml>
