<?xml version="1.0" encoding="utf-8" ?>
<kml xmlns="http://www.opengis.net/kml/2.2">
<Document id="root_doc">
<Schema name="CALUGY_TALHAO_1010_ID_122" id="CALUGY_TALHAO_1010_ID_122">
	<SimpleField name="ID" type="float"></SimpleField>
	<SimpleField name="AREA_TOTAL" type="float"></SimpleField>
	<SimpleField name="FAZENDA" type="float"></SimpleField>
	<SimpleField name="FAZ_NOME" type="string"></SimpleField>
	<SimpleField name="TALHAO" type="float"></SimpleField>
	<SimpleField name="ZONA" type="float"></SimpleField>
	<SimpleField name="ACIONISTA" type="string"></SimpleField>
	<SimpleField name="CODE" type="string"></SimpleField>
</Schema>
<Folder><name>CALUGY_TALHAO_1010_ID_122</name>
  <Placemark id="CALUGY_TALHAO_1010_ID_122.1">
	<Style><LineStyle><color>ff0000ff</color></LineStyle><PolyStyle><fill>0</fill></PolyStyle></Style>
	<ExtendedData><SchemaData schemaUrl="#CALUGY_TALHAO_1010_ID_122">
		<SimpleData name="ID">122</SimpleData>
		<SimpleData name="AREA_TOTAL">4.36</SimpleData>
		<SimpleData name="FAZENDA">2740</SimpleData>
		<SimpleData name="FAZ_NOME">CALUGY</SimpleData>
		<SimpleData name="TALHAO">1010</SimpleData>
		<SimpleData name="ZONA">1</SimpleData>
		<SimpleData name="ACIONISTA">HENRIQUE TENÓRIO</SimpleData>
		<SimpleData name="CODE"></SimpleData>
	</SchemaData></ExtendedData>
      <MultiGeometry><Polygon><outerBoundaryIs><LinearRing><coordinates>-36.3682617448725,-9.73968415530627,0 -36.3682603636532,-9.73968395869412,0 -36.3683949847865,-9.73970051803965,0 -36.3684292951814,-9.73977186082895,0 -36.3684800162696,-9.73966172697536,0 -36.3685051170542,-9.73959039755769,0 -36.3685358587936,-9.73950638575933,0 -36.3685686578665,-9.73941125282131,0 -36.3685996460838,-9.73932053320348,0 -36.3686205606682,-9.73922987621929,0 -36.3686381536598,-9.73913366216889,0 -36.3686559086739,-9.73902403321181,0 -36.3686729551693,-9.73892332679203,0 -36.3686917059568,-9.73883001088883,0 -36.3687084925679,-9.73873803046579,0 -36.3687245771154,-9.73861182989974,0 -36.3687460681497,-9.73842618071833,0 -36.3687700070081,-9.73820141168953,0 -36.3687967662521,-9.73796858809347,0 -36.3688255016448,-9.73775125990922,0 -36.3688525936172,-9.73753091323986,0 -36.3688822540805,-9.73730561414062,0 -36.3689137354549,-9.7370760440909,0 -36.3689445664573,-9.73687772236474,0 -36.368964801964,-9.73676262714863,0 -36.3689732684715,-9.73665546254989,0 -36.368974414925,-9.73650911557716,0 -36.3689871008645,-9.73636233811901,0 -36.3690090265301,-9.73615658167512,0 -36.3690344515274,-9.73597770114695,0 -36.3690602219528,-9.73581473643793,0 -36.3690826347045,-9.73565898635166,0 -36.3691270358174,-9.73532664458671,0 -36.3691497919337,-9.73516009068602,0 -36.369161683026,-9.73505322962138,0 -36.3691627238486,-9.73497890830181,0 -36.3691525574092,-9.73491493114887,0 -36.3691262799755,-9.73484989653261,0 -36.3690885867911,-9.73478639065763,0 -36.3690445463278,-9.73472544745978,0 -36.3689968559252,-9.73466915150985,0 -36.3689447573261,-9.73462321896914,0 -36.368895112459,-9.73459719612803,0 -36.3688713285558,-9.73458544953342,0 -36.3687819902909,-9.73485346850964,0 -36.3686718298936,-9.73535736880818,0 -36.3685344049714,-9.73582934283744,0 -36.3683887634058,-9.73607103194604,0 -36.3681773371874,-9.73640889433269,0 -36.3677106098573,-9.73711210198809,0 -36.3676081322558,-9.73731195639613,0 -36.3676196490369,-9.73739600599644,0 -36.3676568916906,-9.73748581355875,0 -36.3677841537638,-9.7377627963789,0 -36.3678358429682,-9.7378821166095,0 -36.3680228506083,-9.73822906751626,0 -36.3680267572035,-9.73823131891929,0 -36.3680845726617,-9.73826207233008,0 -36.3681513100501,-9.73830284293208,0 -36.3681473034042,-9.73837673838857,0 -36.3681015529134,-9.73879755860549,0 -36.3680639361106,-9.7391412287255,0 -36.3680569421971,-9.73922361706713,0 -36.3680747087388,-9.73940194336106,0 -36.3680932387522,-9.73950969271881,0 -36.3681035294766,-9.73956348377386,0 -36.3681367016671,-9.73961164567578,0 -36.368178849544,-9.73967074341208,0 -36.3682617448725,-9.73968415530627,0</coordinates></LinearRing></outerBoundaryIs></Polygon></MultiGeometry>
  </Placemark>
</Folder>
</Document></kml>
