<?xml version="1.0" encoding="UTF-8"?>
<kml xmlns="http://www.opengis.net/kml/2.2" xmlns:gx="http://www.google.com/kml/ext/2.2" xmlns:kml="http://www.opengis.net/kml/2.2" xmlns:atom="http://www.w3.org/2005/Atom">
<Document>
  <name>06.kml</name>
  <StyleMap id="FF0000FF">
    <Pair>
      <key>normal</key>
      <styleUrl>#s_FF0000FF</styleUrl>
    </Pair>
    <Pair>
      <key>highlight</key>
      <styleUrl>#s_FF0000FF_hl</styleUrl>
    </Pair>
  </StyleMap>
  <Style id="s_FF0000FF">
   <IconStyle>
      <scale>1.1</scale>
      <Icon>
        <href>http://maps.google.com/mapfiles/kml/pushpin/agrocad.png</href>
      </Icon>
      <hotSpot x="20" y="2" xunits="pixels" yunits="pixels"/>
    </IconStyle>
    <LineStyle>
      <color>FF0000FF</color>
      <width>1</width>
    </LineStyle>
    <PolyStyle>
      <color>40ffffff</color>
      <fill>1</fill>
    </PolyStyle>
  </Style>
  <Style id="s_FF0000FF_hl">
    <IconStyle>
      <scale>1.3</scale>
      <Icon>
        <href>http://maps.google.com/mapfiles/kml/pushpin/agrocad.png</href>
      </Icon>
      <hotSpot x="20" y="2" xunits="pixels" yunits="pixels"/>
    </IconStyle>
    <LineStyle>
      <color>ff000000</color>
      <width>1</width>
    </LineStyle>
    <PolyStyle>
      <color>40ffffff</color>
      <fill>1</fill>
    </PolyStyle>
  </Style>
  <Placemark>
    <name>AgroCAD: E711</name>
    <styleUrl>FF0000FF</styleUrl>
    <Polygon>
      <outerBoundaryIs>
        <LinearRing>
          <coordinates>
           -36.31791345367349,-9.78671550678950 -36.31768025686989,-9.78579008368494 -36.31747406180147,-9.78490884523786 -36.31731941550017,-9.78436144642535 -36.31776617148179,-9.78431480706466 -36.31815646928980,-9.78428044121994 -36.31821783686970,-9.78438844816053 -36.31823747449529,-9.78454063975866 -36.31834793613910,-9.78519113610535 -36.31844857897011,-9.78580235720092 -36.31854922180109,-9.78628838843359 -36.31871368691522,-9.78691188304514 -36.31891251787402,-9.78753783235992 -36.31905980006572,-9.78792567546473 -36.31940714056794,-9.78866454112652 -36.31965383823905,-9.78914198089797 -36.31985512390105,-9.78959978304388 -36.32006131896956,-9.79000849112588 -36.32020369175486,-9.79030919226728 -36.32031538075027,-9.79056448139958 -36.32037981670907,-9.79074797046344 -36.32033563205157,-9.79076699441315 -36.31963665531664,-9.79104069381938 -36.31953110307925,-9.79086395518935 -36.31938627559074,-9.79056448139956 -36.31928563275974,-9.79042701802064 -36.31900334189222,-9.78993116797514 -36.31864004581931,-9.78925857929969 -36.31843630545410,-9.78882164213096 -36.31825220271450,-9.78813432523628 -36.31811228463229,-9.78750592121830 -36.31791345367349,-9.78671550678950 -36.31791345367349,-9.78671550678950
          </coordinates>
        </LinearRing>
      </outerBoundaryIs>
    </Polygon>
  </Placemark>
</Document>
</kml>
