<?xml version="1.0" encoding="UTF-8"?>
<kml xmlns="http://www.opengis.net/kml/2.2" xmlns:gx="http://www.google.com/kml/ext/2.2" xmlns:kml="http://www.opengis.net/kml/2.2" xmlns:atom="http://www.w3.org/2005/Atom">
<Document>
  <name>03.kml</name>
  <StyleMap id="FFFF4000">
    <Pair>
      <key>normal</key>
      <styleUrl>#s_FFFF4000</styleUrl>
    </Pair>
    <Pair>
      <key>highlight</key>
      <styleUrl>#s_FFFF4000_hl</styleUrl>
    </Pair>
  </StyleMap>
  <Style id="s_FFFF4000">
   <IconStyle>
      <scale>1.1</scale>
      <Icon>
        <href>http://maps.google.com/mapfiles/kml/pushpin/agrocad.png</href>
      </Icon>
      <hotSpot x="20" y="2" xunits="pixels" yunits="pixels"/>
    </IconStyle>
    <LineStyle>
      <color>FFFF4000</color>
      <width>1</width>
    </LineStyle>
    <PolyStyle>
      <color>40ffffff</color>
      <fill>1</fill>
    </PolyStyle>
  </Style>
  <Style id="s_FFFF4000_hl">
    <IconStyle>
      <scale>1.3</scale>
      <Icon>
        <href>http://maps.google.com/mapfiles/kml/pushpin/agrocad.png</href>
      </Icon>
      <hotSpot x="20" y="2" xunits="pixels" yunits="pixels"/>
    </IconStyle>
    <LineStyle>
      <color>ff000000</color>
      <width>1</width>
    </LineStyle>
    <PolyStyle>
      <color>40ffffff</color>
      <fill>1</fill>
    </PolyStyle>
  </Style>
  <Placemark>
    <name>AgroCAD: 17E99</name>
    <styleUrl>FFFF4000</styleUrl>
    <Polygon>
      <outerBoundaryIs>
        <LinearRing>
          <coordinates>
           -36.37234060700982,-9.75729027495219 -36.37304156145235,-9.75778924157489 -36.37304704438184,-9.75827451278523 -36.37307859108116,-9.75861390766169 -36.37316218330326,-9.75885287378529 -36.37323902910861,-9.75908862775625 -36.37326243889587,-9.75913056036792 -36.37374303808494,-9.75936419223131 -36.37421390644266,-9.75959237605302 -36.37467314960526,-9.75981533020001 -36.37507193723290,-9.76000885598047 -36.37492654584399,-9.76042561507779 -36.37471235587620,-9.76104074850344 -36.37456159178285,-9.76146683567144 -36.37507899325577,-9.76160453390236 -36.37558942848127,-9.76171146468674 -36.37558505490344,-9.76173849023196 -36.37551412075885,-9.76275186199133 -36.37550963670409,-9.76281608860646 -36.37237220423041,-9.76260053480514 -36.37234060700982,-9.75729027495219 -36.37234060700982,-9.75729027495219
          </coordinates>
        </LinearRing>
      </outerBoundaryIs>
    </Polygon>
  </Placemark>
</Document>
</kml>
