<?xml version="1.0" encoding="UTF-8"?>
<kml xmlns="http://www.opengis.net/kml/2.2" xmlns:gx="http://www.google.com/kml/ext/2.2" xmlns:kml="http://www.opengis.net/kml/2.2" xmlns:atom="http://www.w3.org/2005/Atom">
<Document>
  <name>07.kml</name>
  <StyleMap id="FFFF4000">
    <Pair>
      <key>normal</key>
      <styleUrl>#s_FFFF4000</styleUrl>
    </Pair>
    <Pair>
      <key>highlight</key>
      <styleUrl>#s_FFFF4000_hl</styleUrl>
    </Pair>
  </StyleMap>
  <Style id="s_FFFF4000">
   <IconStyle>
      <scale>1.1</scale>
      <Icon>
        <href>http://maps.google.com/mapfiles/kml/pushpin/agrocad.png</href>
      </Icon>
      <hotSpot x="20" y="2" xunits="pixels" yunits="pixels"/>
    </IconStyle>
    <LineStyle>
      <color>FFFF4000</color>
      <width>1</width>
    </LineStyle>
    <PolyStyle>
      <color>40ffffff</color>
      <fill>1</fill>
    </PolyStyle>
  </Style>
  <Style id="s_FFFF4000_hl">
    <IconStyle>
      <scale>1.3</scale>
      <Icon>
        <href>http://maps.google.com/mapfiles/kml/pushpin/agrocad.png</href>
      </Icon>
      <hotSpot x="20" y="2" xunits="pixels" yunits="pixels"/>
    </IconStyle>
    <LineStyle>
      <color>ff000000</color>
      <width>1</width>
    </LineStyle>
    <PolyStyle>
      <color>40ffffff</color>
      <fill>1</fill>
    </PolyStyle>
  </Style>
  <Placemark>
    <name>AgroCAD: 17E9B</name>
    <styleUrl>FFFF4000</styleUrl>
    <Polygon>
      <outerBoundaryIs>
        <LinearRing>
          <coordinates>
           -36.37504892464386,-9.75298824323790 -36.37507467500003,-9.75300028496313 -36.37511666050337,-9.75301427447790 -36.37554613036440,-9.75321767041503 -36.37564468572933,-9.75321574524087 -36.37602906455274,-9.75344637039602 -36.37633581193906,-9.75365615932484 -36.37653653464055,-9.75381542183337 -36.37665306324269,-9.75407922195996 -36.37678574536486,-9.75419923265835 -36.37691787288358,-9.75437594045397 -36.37704424101342,-9.75445143027520 -36.37718051753934,-9.75444324378254 -36.37742187025560,-9.75432441338643 -36.37753733947696,-9.75424527252743 -36.37763389828205,-9.75412533574593 -36.37769297672974,-9.75398755850133 -36.37793424002371,-9.75385748153729 -36.37806283388111,-9.75396663749580 -36.37807819411437,-9.75422355759821 -36.37801176122002,-9.75450930904739 -36.37794177475776,-9.75466787047643 -36.37778745724602,-9.75483398380736 -36.37783432542524,-9.75488763208811 -36.37797524969907,-9.75488754083601 -36.37816146963322,-9.75499640595914 -36.37847671411238,-9.75513240750328 -36.37862693281627,-9.75525224966957 -36.37911056794255,-9.75566254569119 -36.37964002713751,-9.75646949053406 -36.37983507597692,-9.75679831728072 -36.37981817131089,-9.75697711521301 -36.38009095129581,-9.75720848220363 -36.38021606259500,-9.75727870382644 -36.38018306042235,-9.75704576412388 -36.38002034404975,-9.75628285297337 -36.37991506356125,-9.75572176450964 -36.37971793079729,-9.75484416377565 -36.37970356332029,-9.75478020219585 -36.37960008537469,-9.75431953556970 -36.37917458557094,-9.75242417569193 -36.37880058097242,-9.75074775282804 -36.37849746319562,-9.74941837026017 -36.37848295431688,-9.74933311453160 -36.37515850848533,-9.74923755231896 -36.37504892464386,-9.75298824323790 -36.37504892464386,-9.75298824323790
          </coordinates>
        </LinearRing>
      </outerBoundaryIs>
    </Polygon>
  </Placemark>
</Document>
</kml>
