<?xml version="1.0" encoding="UTF-8"?>
<kml xmlns="http://www.opengis.net/kml/2.2" xmlns:gx="http://www.google.com/kml/ext/2.2" xmlns:kml="http://www.opengis.net/kml/2.2" xmlns:atom="http://www.w3.org/2005/Atom">
<Document>
  <name>100.kml</name>
  <StyleMap id="FFFF0000">
    <Pair>
      <key>normal</key>
      <styleUrl>#s_FFFF0000</styleUrl>
    </Pair>
    <Pair>
      <key>highlight</key>
      <styleUrl>#s_FFFF0000_hl</styleUrl>
    </Pair>
  </StyleMap>
  <Style id="s_FFFF0000">
   <IconStyle>
      <scale>1.1</scale>
      <Icon>
        <href>http://maps.google.com/mapfiles/kml/pushpin/agrocad.png</href>
      </Icon>
      <hotSpot x="20" y="2" xunits="pixels" yunits="pixels"/>
    </IconStyle>
    <LineStyle>
      <color>FFFF0000</color>
      <width>1</width>
    </LineStyle>
    <PolyStyle>
      <color>40ffffff</color>
      <fill>1</fill>
    </PolyStyle>
  </Style>
  <Style id="s_FFFF0000_hl">
    <IconStyle>
      <scale>1.3</scale>
      <Icon>
        <href>http://maps.google.com/mapfiles/kml/pushpin/agrocad.png</href>
      </Icon>
      <hotSpot x="20" y="2" xunits="pixels" yunits="pixels"/>
    </IconStyle>
    <LineStyle>
      <color>ff000000</color>
      <width>1</width>
    </LineStyle>
    <PolyStyle>
      <color>40ffffff</color>
      <fill>1</fill>
    </PolyStyle>
  </Style>
  <Placemark>
    <name>AgroCAD: 16351</name>
    <styleUrl>FFFF0000</styleUrl>
    <Polygon>
      <outerBoundaryIs>
        <LinearRing>
          <coordinates>
           -36.24652715923904,-9.80321756975085 -36.24665957132374,-9.80319491784254 -36.24694097818902,-9.80315412415922 -36.24695487771350,-9.80314810526907 -36.24694576737120,-9.80307385163730 -36.24691670475051,-9.80296100901712 -36.24690959119811,-9.80287373508540 -36.24691352237250,-9.80283301086092 -36.24690224364381,-9.80276589016018 -36.24687912459792,-9.80270645167085 -36.24686939806442,-9.80267690649456 -36.24688198717342,-9.80263847223404 -36.24691014496821,-9.80260738751588 -36.24694583750782,-9.80259022824874 -36.24698110105650,-9.80259284312688 -36.24702620813980,-9.80260079608845 -36.24706464627389,-9.80260884962183 -36.24707966116690,-9.80260660606541 -36.24717886666848,-9.80255236244597 -36.24702240750160,-9.80241788132887 -36.24685467755391,-9.80226985380213 -36.24665871201154,-9.80210006383858 -36.24659850436015,-9.80205691812874 -36.24651341104784,-9.80203012320378 -36.24642910164476,-9.80200670518377 -36.24636358225886,-9.80200708808006 -36.24630207589436,-9.80204638099718 -36.24627618398887,-9.80208465274538 -36.24638403303605,-9.80257705681036 -36.24652715923904,-9.80321756975085 -36.24652715923904,-9.80321756975085 -36.24652715923904,-9.80321756975085
          </coordinates>
        </LinearRing>
      </outerBoundaryIs>
    </Polygon>
  </Placemark>
</Document>
</kml>
