<?xml version="1.0" encoding="utf-8" ?>
<kml xmlns="http://www.opengis.net/kml/2.2">
<Document id="root_doc">
<Schema name="CAMPO_VERDE_TALHAO_1009_ID_131" id="CAMPO_VERDE_TALHAO_1009_ID_131">
	<SimpleField name="ID" type="float"></SimpleField>
	<SimpleField name="AREA_TOTAL" type="float"></SimpleField>
	<SimpleField name="FAZENDA" type="float"></SimpleField>
	<SimpleField name="FAZ_NOME" type="string"></SimpleField>
	<SimpleField name="TALHAO" type="float"></SimpleField>
	<SimpleField name="ZONA" type="float"></SimpleField>
	<SimpleField name="ACIONISTA" type="string"></SimpleField>
	<SimpleField name="CODE" type="string"></SimpleField>
</Schema>
<Folder><name>CAMPO_VERDE_TALHAO_1009_ID_131</name>
  <Placemark id="CAMPO_VERDE_TALHAO_1009_ID_131.1">
	<Style><LineStyle><color>ff0000ff</color></LineStyle><PolyStyle><fill>0</fill></PolyStyle></Style>
	<ExtendedData><SchemaData schemaUrl="#CAMPO_VERDE_TALHAO_1009_ID_131">
		<SimpleData name="ID">131</SimpleData>
		<SimpleData name="AREA_TOTAL">22.53</SimpleData>
		<SimpleData name="FAZENDA">2712</SimpleData>
		<SimpleData name="FAZ_NOME">CAMPO VERDE</SimpleData>
		<SimpleData name="TALHAO">1009</SimpleData>
		<SimpleData name="ZONA">1</SimpleData>
		<SimpleData name="ACIONISTA">HENRIQUE TENÓRIO</SimpleData>
		<SimpleData name="CODE"></SimpleData>
	</SchemaData></ExtendedData>
      <MultiGeometry><Polygon><outerBoundaryIs><LinearRing><coordinates>-36.3535701928368,-9.72193491739949,0 -36.3487516581509,-9.72208016385386,0 -36.3485507184668,-9.7226107319322,0 -36.348188423398,-9.72353240963608,0 -36.3478737483853,-9.72425603473331,0 -36.347757780431,-9.72453660836007,0 -36.3477010257288,-9.72491266559651,0 -36.3476691222203,-9.72517715213916,0 -36.347667767509,-9.72522045862312,0 -36.3476655686887,-9.72525901084057,0 -36.3476655680293,-9.72528480859293,0 -36.3476687141637,-9.72530086140858,0 -36.3476705185139,-9.72530865760749,0 -36.3484366172585,-9.72529092345404,0 -36.3492748742238,-9.72526856258171,0 -36.3502382391172,-9.72524672165996,0 -36.3510897552601,-9.72521507937813,0 -36.352081891251,-9.72519465829113,0 -36.3527183515326,-9.72517276182835,0 -36.3532560168019,-9.7251789518823,0 -36.3534693897259,-9.72518255409125,0 -36.3535076206379,-9.72518319949993,0 -36.3540850512507,-9.72519294708041,0 -36.354182965216,-9.72520205413781,0 -36.3542122400198,-9.72520807634882,0 -36.3542232910658,-9.7252013900524,0 -36.3542274963005,-9.72517882722779,0 -36.3535701928368,-9.72193491739949,0</coordinates></LinearRing></outerBoundaryIs></Polygon></MultiGeometry>
  </Placemark>
</Folder>
</Document></kml>
