<?xml version="1.0" encoding="UTF-8"?>
<kml xmlns="http://www.opengis.net/kml/2.2" xmlns:gx="http://www.google.com/kml/ext/2.2" xmlns:kml="http://www.opengis.net/kml/2.2" xmlns:atom="http://www.w3.org/2005/Atom">
<Document>
  <name>16.kml</name>
  <StyleMap id="FFFF0000">
    <Pair>
      <key>normal</key>
      <styleUrl>#s_FFFF0000</styleUrl>
    </Pair>
    <Pair>
      <key>highlight</key>
      <styleUrl>#s_FFFF0000_hl</styleUrl>
    </Pair>
  </StyleMap>
  <Style id="s_FFFF0000">
   <IconStyle>
      <scale>1.1</scale>
      <Icon>
        <href>http://maps.google.com/mapfiles/kml/pushpin/agrocad.png</href>
      </Icon>
      <hotSpot x="20" y="2" xunits="pixels" yunits="pixels"/>
    </IconStyle>
    <LineStyle>
      <color>FFFF0000</color>
      <width>1</width>
    </LineStyle>
    <PolyStyle>
      <color>40ffffff</color>
      <fill>1</fill>
    </PolyStyle>
  </Style>
  <Style id="s_FFFF0000_hl">
    <IconStyle>
      <scale>1.3</scale>
      <Icon>
        <href>http://maps.google.com/mapfiles/kml/pushpin/agrocad.png</href>
      </Icon>
      <hotSpot x="20" y="2" xunits="pixels" yunits="pixels"/>
    </IconStyle>
    <LineStyle>
      <color>ff000000</color>
      <width>1</width>
    </LineStyle>
    <PolyStyle>
      <color>40ffffff</color>
      <fill>1</fill>
    </PolyStyle>
  </Style>
  <Placemark>
    <name>AgroCAD: 1B0DA</name>
    <styleUrl>FFFF0000</styleUrl>
    <Polygon>
      <outerBoundaryIs>
        <LinearRing>
          <coordinates>
           -36.42742171418777,-9.72531731233536 -36.42770948050146,-9.72528351092896 -36.42792139392161,-9.72524692281959 -36.42858228354495,-9.72508897774648 -36.42881885830632,-9.72504252139300 -36.42923211612963,-9.72494332806895 -36.42948625125443,-9.72486628768069 -36.42981474554562,-9.72473171447128 -36.42991826653353,-9.72468572501789 -36.42996382556955,-9.72486934686139 -36.43058530529250,-9.72752212318630 -36.43061056851032,-9.72765875156703 -36.42882677717256,-9.72912774434467 -36.42866820888948,-9.72878930294199 -36.42848834627705,-9.72835941915225 -36.42828769443001,-9.72777009417726 -36.42805106548981,-9.72713814109641 -36.42772907579938,-9.72618318699190 -36.42759003428713,-9.72581422848234 -36.42742171418777,-9.72531731233536 -36.42742171418777,-9.72531731233536
          </coordinates>
        </LinearRing>
      </outerBoundaryIs>
    </Polygon>
  </Placemark>
</Document>
</kml>
