<?xml version="1.0" encoding="UTF-8"?>
<kml xmlns="http://www.opengis.net/kml/2.2" xmlns:gx="http://www.google.com/kml/ext/2.2" xmlns:kml="http://www.opengis.net/kml/2.2" xmlns:atom="http://www.w3.org/2005/Atom">
<Document>
  <name>08.kml</name>
  <StyleMap id="FFFF0000">
    <Pair>
      <key>normal</key>
      <styleUrl>#s_FFFF0000</styleUrl>
    </Pair>
    <Pair>
      <key>highlight</key>
      <styleUrl>#s_FFFF0000_hl</styleUrl>
    </Pair>
  </StyleMap>
  <Style id="s_FFFF0000">
   <IconStyle>
      <scale>1.1</scale>
      <Icon>
        <href>http://maps.google.com/mapfiles/kml/pushpin/agrocad.png</href>
      </Icon>
      <hotSpot x="20" y="2" xunits="pixels" yunits="pixels"/>
    </IconStyle>
    <LineStyle>
      <color>FFFF0000</color>
      <width>1</width>
    </LineStyle>
    <PolyStyle>
      <color>40ffffff</color>
      <fill>1</fill>
    </PolyStyle>
  </Style>
  <Style id="s_FFFF0000_hl">
    <IconStyle>
      <scale>1.3</scale>
      <Icon>
        <href>http://maps.google.com/mapfiles/kml/pushpin/agrocad.png</href>
      </Icon>
      <hotSpot x="20" y="2" xunits="pixels" yunits="pixels"/>
    </IconStyle>
    <LineStyle>
      <color>ff000000</color>
      <width>1</width>
    </LineStyle>
    <PolyStyle>
      <color>40ffffff</color>
      <fill>1</fill>
    </PolyStyle>
  </Style>
  <Placemark>
    <name>AgroCAD: 1B0CE</name>
    <styleUrl>FFFF0000</styleUrl>
    <Polygon>
      <outerBoundaryIs>
        <LinearRing>
          <coordinates>
           -36.43069886257070,-9.73576429458254 -36.43067866348156,-9.73533781502493 -36.43066933966470,-9.73498115801066 -36.43067376333694,-9.73477769862575 -36.43068228116153,-9.73477201136603 -36.43070801009486,-9.73476100726062 -36.43072952589163,-9.73475837496828 -36.43075141775740,-9.73475889593482 -36.43079724432486,-9.73475888055559 -36.43082630659100,-9.73475780793501 -36.43085101325743,-9.73475972322070 -36.43087584446070,-9.73476311282209 -36.43090080505153,-9.73476662842691 -36.43092594528837,-9.73476797865913 -36.43095014781514,-9.73476965686003 -36.43098986585840,-9.73477587695133 -36.43102187025228,-9.73477862896714 -36.43104756040916,-9.73478031288119 -36.43107246477076,-9.73478431397065 -36.43109661188849,-9.73478507303760 -36.43112067046415,-9.73478750691414 -36.43114536222074,-9.73478909354446 -36.43118672229456,-9.73479143314398 -36.43121559231516,-9.73479284544037 -36.43123959249960,-9.73479107170440 -36.43126183038811,-9.73479225049730 -36.43130075502435,-9.73478988838397 -36.43132566078592,-9.73478309513742 -36.43134983255379,-9.73477739055011 -36.43137044459391,-9.73476884863798 -36.43139060567754,-9.73476123973556 -36.43142625912228,-9.73474999741827 -36.43146411000400,-9.73472951392656 -36.43150224084005,-9.73470250458418 -36.43152437788122,-9.73467315311459 -36.43153892246156,-9.73465665337700 -36.43155622686653,-9.73463713931125 -36.43156969848142,-9.73461565360438 -36.43158385420749,-9.73459627362043 -36.43159665900186,-9.73456821901061 -36.43161449267831,-9.73452244556610 -36.43161890580434,-9.73451125867503 -36.43162931557544,-9.73447470368631 -36.43163835188952,-9.73443152515028 -36.43163857037888,-9.73440294662848 -36.43164199179523,-9.73436488607892 -36.43163828000037,-9.73433161478397 -36.43163485792243,-9.73430601543450 -36.43163184953341,-9.73428151778144 -36.43162924470464,-9.73424210081468 -36.43162386693700,-9.73421169359971 -36.43161736561680,-9.73418814461127 -36.43161242699890,-9.73416517855922 -36.43160809173557,-9.73414315931362 -36.43160117764816,-9.73410222944150 -36.43159442689102,-9.73407581154635 -36.43158944726194,-9.73405394124989 -36.43158162455254,-9.73400775078263 -36.43157598023100,-9.73398278381655 -36.43156847455961,-9.73396009407059 -36.43155946758739,-9.73391736687988 -36.43155120815239,-9.73388778585854 -36.43154531666634,-9.73386478810404 -36.43153746289257,-9.73382686899357 -36.43154432501213,-9.73381350600746 -36.43156509497066,-9.73380574683130 -36.43201998120345,-9.73378494234030 -36.43263899060694,-9.73647984991408 -36.43347081758427,-9.74007547365243 -36.43105678157346,-9.74017870560425 -36.43101845849017,-9.74004433945598 -36.43095098525277,-9.73970781411463 -36.43082892081066,-9.73911364734348 -36.43076703540258,-9.73882080744800 -36.43075879991486,-9.73876624930419 -36.43075577639264,-9.73872854239089 -36.43075847259441,-9.73857241000056 -36.43076176754571,-9.73826795405751 -36.43074293864202,-9.73769666866641 -36.43073588764286,-9.73675958369570 -36.43071030054052,-9.73614760322364 -36.43069886257070,-9.73576429458254 -36.43069886257070,-9.73576429458254
          </coordinates>
        </LinearRing>
      </outerBoundaryIs>
    </Polygon>
  </Placemark>
  <Placemark>
    <name>AgroCAD: 1B0D7</name>
    <styleUrl>FFFF0000</styleUrl>
    <Polygon>
      <outerBoundaryIs>
        <LinearRing>
          <coordinates>
           -36.43068564845749,-9.73432330752516 -36.43068508627572,-9.73423820188122 -36.43069083214886,-9.73418804306476 -36.43077488281023,-9.73389414059096 -36.43114196231403,-9.73385272189715 -36.43121746219300,-9.73384359853553 -36.43135806713491,-9.73382606951832 -36.43146867799064,-9.73381247174881 -36.43147591267565,-9.73382823924773 -36.43147907920339,-9.73383522888039 -36.43148220288797,-9.73384223742860 -36.43148529060879,-9.73384926181873 -36.43148834951765,-9.73385629885657 -36.43149138676630,-9.73386334534787 -36.43149440950653,-9.73387039809846 -36.43149742489011,-9.73387745391412 -36.43150044006880,-9.73388450960061 -36.43150346219439,-9.73389156196374 -36.43150649615930,-9.73389860882524 -36.43150953632741,-9.73390565274125 -36.43151257399810,-9.73391269764584 -36.43151560047041,-9.73391974747332 -36.43151860704336,-9.73392680615796 -36.43152158501600,-9.73393387763401 -36.43152452568735,-9.73394096583577 -36.43152742019555,-9.73394807472483 -36.43153025220814,-9.73395520953060 -36.43153299491923,-9.73396237726010 -36.43153562073992,-9.73396958505317 -36.43153810208128,-9.73397684004967 -36.43154041662960,-9.73398414784448 -36.43154259186185,-9.73399149944981 -36.43154468263372,-9.73399887785922 -36.43154674408465,-9.73400626598318 -36.43154883122626,-9.73401364677071 -36.43155097399772,-9.73402101073548 -36.43155314736187,-9.73402836497812 -36.43155531898998,-9.73403571879923 -36.43155745655330,-9.73404308149937 -36.43155953208062,-9.73405046118961 -36.43156156139473,-9.73405785402610 -36.43156358562233,-9.73406524925746 -36.43156564619715,-9.73407263604853 -36.43156778288754,-9.73408000397260 -36.43156996497216,-9.73408735989120 -36.43157206668760,-9.73409473397576 -36.43157395632869,-9.73410215786078 -36.43157557903864,-9.73410964490324 -36.43157702104817,-9.73411717490406 -36.43157838371397,-9.73412472406676 -36.43157976804721,-9.73413226867448 -36.43158123085735,-9.73413979520828 -36.43158274178794,-9.73414731025946 -36.43158426028114,-9.73415482277294 -36.43158574578670,-9.73416234169200 -36.43158717800669,-9.73416987173166 -36.43158860089754,-9.73417740419182 -36.43159007112907,-9.73418492771799 -36.43159164537115,-9.73419243095577 -36.43159336593777,-9.73419990533453 -36.43159518394750,-9.73420735996821 -36.43159701482582,-9.73421481089229 -36.43159877391517,-9.73422227415835 -36.43160037655803,-9.73422976581794 -36.43160173883039,-9.73423730176772 -36.43160283326237,-9.73424488597825 -36.43160372790942,-9.73425250224033 -36.43160450090317,-9.73426013253594 -36.43160524799945,-9.73426776180086 -36.43160608163520,-9.73427537776642 -36.43160710411159,-9.73428296948872 -36.43160831400706,-9.73429053770065 -36.43160965203491,-9.73429808964947 -36.43161102582559,-9.73430563643052 -36.43161210913097,-9.73431321636144 -36.43161272372188,-9.73432085058822 -36.43161308296706,-9.73432851476556 -36.43161342554545,-9.73433618150402 -36.43161383679703,-9.73434383928720 -36.43161426617952,-9.73435149066462 -36.43161465844798,-9.73435913867257 -36.43161495960644,-9.73436678634223 -36.43161515366806,-9.73437443654743 -36.43161526866369,-9.73438209197982 -36.43161533508293,-9.73438975532088 -36.43161538341534,-9.73439742925212 -36.43161544271719,-9.73440511623066 -36.43161548440283,-9.73441280969253 -36.43161540387756,-9.73442049117809 -36.43161509135147,-9.73442814141458 -36.43161443703715,-9.73443574112970 -36.43161336311244,-9.73444327647257 -36.43161190382475,-9.73445075259961 -36.43161011796802,-9.73445817883045 -36.43160806433613,-9.73446556448468 -36.43160580172305,-9.73447291888195 -36.43160338892271,-9.73448025134183 -36.43160088472904,-9.73448757118396 -36.43159834793599,-9.73449488772796 -36.43159583729695,-9.73450221028120 -36.43159338234787,-9.73450953934644 -36.43159093197013,-9.73451685112101 -36.43158842124563,-9.73452411764377 -36.43158578525631,-9.73453131095361 -36.43158295908407,-9.73453840308942 -36.43157987781152,-9.73454536609044 -36.43157649768101,-9.73455218234430 -36.43157285139674,-9.73455887163371 -36.43156898892825,-9.73456546218524 -36.43156496024515,-9.73457198222545 -36.43156081531698,-9.73457845998092 -36.43155660411333,-9.73458492367821 -36.43155237660377,-9.73459140154392 -36.43154818275789,-9.73459792180463 -36.43154407234940,-9.73460451254327 -36.43154006044802,-9.73461117639542 -36.43153608780185,-9.73461786149870 -36.43153208556743,-9.73462450895748 -36.43152798490127,-9.73463105987618 -36.43152371695992,-9.73463745535920 -36.43151921289988,-9.73464363651090 -36.43151440387772,-9.73464954443568 -36.43150922104993,-9.73465512023794 -36.43150362699321,-9.73466033181559 -36.43149771396601,-9.73466525765270 -36.43149160767916,-9.73467000475994 -36.43148543384361,-9.73467468014801 -36.43147929483257,-9.73467937037258 -36.43147318609597,-9.73468406827285 -36.43146707248028,-9.73468873986470 -36.43146091882957,-9.73469335116181 -36.43145469085429,-9.73469786889072 -36.43144837335110,-9.73470227548069 -36.43144196974661,-9.73470656868832 -36.43143548424259,-9.73471074690796 -36.43142892104074,-9.73471480853397 -36.43142228434285,-9.73471875196070 -36.43141557835067,-9.73472257558248 -36.43140880726595,-9.73472627779368 -36.43140197461761,-9.73472985698322 -36.43139508024652,-9.73473331151010 -36.43138812273646,-9.73473663972321 -36.43138110067012,-9.73473983997143 -36.43137401262991,-9.73474291059925 -36.43136685665761,-9.73474584070888 -36.43135962911168,-9.73474859062753 -36.43135232602388,-9.73475111509863 -36.43134494342604,-9.73475336886558 -36.43133747744599,-9.73475530714897 -36.43132993493696,-9.73475693846802 -36.43132234311760,-9.73475837254582 -36.43131473147245,-9.73475973037021 -36.43130712149227,-9.73476109685042 -36.43129951241141,-9.73476245644481 -36.43129189962148,-9.73476377626817 -36.43128427851408,-9.73476502343524 -36.43127664448081,-9.73476616506081 -36.43126899291331,-9.73476716825964 -36.43126132007023,-9.73476800528649 -36.43125362777471,-9.73476868138420 -36.43124592004833,-9.73476921482847 -36.43123820091805,-9.73476962392701 -36.43123047441087,-9.73476992698759 -36.43122274455058,-9.73477014229476 -36.43121501450794,-9.73477028188237 -36.43120728545238,-9.73477034311928 -36.43119955826659,-9.73477032127361 -36.43119183383335,-9.73477021161346 -36.43118411303532,-9.73477000940696 -36.43117639675526,-9.73476970992223 -36.43116868579475,-9.73476930937579 -36.43116098012519,-9.73476881368906 -36.43115327923155,-9.73476823446993 -36.43114558259262,-9.73476758339829 -36.43113788968718,-9.73476687215407 -36.43113019999405,-9.73476611241714 -36.43112251299202,-9.73476531586741 -36.43111482815986,-9.73476449418478 -36.43110714497829,-9.73476365900294 -36.43109946308861,-9.73476281800980 -36.43109178241351,-9.73476197198527 -36.43108410290408,-9.73476112101170 -36.43107642451133,-9.73476026517146 -36.43106874718638,-9.73475940454692 -36.43106107088028,-9.73475853922042 -36.43105339554407,-9.73475766927434 -36.43104572112886,-9.73475679479105 -36.43103804758568,-9.73475591585289 -36.43103037486562,-9.73475503254224 -36.43102270291974,-9.73475414494146 -36.43101503169911,-9.73475325313290 -36.43100736115479,-9.73475235719895 -36.43099969123786,-9.73475145722195 -36.43099202189938,-9.73475055328428 -36.43098435309041,-9.73474964546828 -36.43097668476202,-9.73474873385632 -36.43096901686528,-9.73474781853080 -36.43096134935127,-9.73474689957402 -36.43095368217102,-9.73474597706839 -36.43094601527565,-9.73474505109627 -36.43093834861618,-9.73474412173999 -36.43093068215682,-9.73474318903168 -36.43092301594037,-9.73474225270228 -36.43091535003876,-9.73474131237112 -36.43090768452400,-9.73474036765735 -36.43090001946809,-9.73473941818009 -36.43089235494299,-9.73473846355850 -36.43088469102071,-9.73473750341173 -36.43087702777324,-9.73473653735890 -36.43086936527258,-9.73473556501917 -36.43086170359070,-9.73473458601166 -36.43085404279962,-9.73473359995554 -36.43084638297130,-9.73473260646992 -36.43083872417775,-9.73473160517397 -36.43083106649096,-9.73473059568681 -36.43082340998292,-9.73472957762759 -36.43081575472564,-9.73472855061548 -36.43080810079108,-9.73472751426957 -36.43080044825126,-9.73472646820903 -36.43079279717770,-9.73472541205569 -36.43078514758814,-9.73472434576445 -36.43077749939497,-9.73472326994086 -36.43076985249848,-9.73472218526583 -36.43076220679893,-9.73472109242018 -36.43075456219659,-9.73471999208482 -36.43074691859171,-9.73471888494062 -36.43073927588456,-9.73471777166841 -36.43073163397539,-9.73471665294909 -36.43072399276449,-9.73471552946354 -36.43071635215211,-9.73471440189259 -36.43070871203850,-9.73471327091715 -36.43070107232396,-9.73471213721808 -36.43069343290870,-9.73471100147623 -36.43068579369301,-9.73470986437247 -36.43067815457718,-9.73470872658771 -36.43067176264608,-9.73469741601275 -36.43068534380172,-9.73445732035670 -36.43068564845749,-9.73432330752516 -36.43068564845749,-9.73432330752516
          </coordinates>
        </LinearRing>
      </outerBoundaryIs>
    </Polygon>
  </Placemark>
</Document>
</kml>
