<?xml version="1.0" encoding="UTF-8"?>
<kml xmlns="http://www.opengis.net/kml/2.2" xmlns:gx="http://www.google.com/kml/ext/2.2" xmlns:kml="http://www.opengis.net/kml/2.2" xmlns:atom="http://www.w3.org/2005/Atom">
<Document>
  <name>02.kml</name>
  <StyleMap id="FFFF0000">
    <Pair>
      <key>normal</key>
      <styleUrl>#s_FFFF0000</styleUrl>
    </Pair>
    <Pair>
      <key>highlight</key>
      <styleUrl>#s_FFFF0000_hl</styleUrl>
    </Pair>
  </StyleMap>
  <Style id="s_FFFF0000">
   <IconStyle>
      <scale>1.1</scale>
      <Icon>
        <href>http://maps.google.com/mapfiles/kml/pushpin/agrocad.png</href>
      </Icon>
      <hotSpot x="20" y="2" xunits="pixels" yunits="pixels"/>
    </IconStyle>
    <LineStyle>
      <color>FFFF0000</color>
      <width>1</width>
    </LineStyle>
    <PolyStyle>
      <color>40ffffff</color>
      <fill>1</fill>
    </PolyStyle>
  </Style>
  <Style id="s_FFFF0000_hl">
    <IconStyle>
      <scale>1.3</scale>
      <Icon>
        <href>http://maps.google.com/mapfiles/kml/pushpin/agrocad.png</href>
      </Icon>
      <hotSpot x="20" y="2" xunits="pixels" yunits="pixels"/>
    </IconStyle>
    <LineStyle>
      <color>ff000000</color>
      <width>1</width>
    </LineStyle>
    <PolyStyle>
      <color>40ffffff</color>
      <fill>1</fill>
    </PolyStyle>
  </Style>
  <Placemark>
    <name>AgroCAD: 1B0D6</name>
    <styleUrl>FFFF0000</styleUrl>
    <Polygon>
      <outerBoundaryIs>
        <LinearRing>
          <coordinates>
           -36.43250239037953,-9.74551862804138 -36.43248739753254,-9.74550083134270 -36.43247118403444,-9.74548158571339 -36.43245727312605,-9.74546094918951 -36.43244325760493,-9.74543935295579 -36.43243002835680,-9.74541921176121 -36.43241561239996,-9.74539921823691 -36.43240259976432,-9.74537770741496 -36.43239116893965,-9.74535464701380 -36.43237953226596,-9.74533168573462 -36.43236693404452,-9.74530810790858 -36.43235450714335,-9.74528447508884 -36.43234352033213,-9.74526083922839 -36.43233302856832,-9.74523693142064 -36.43232367684206,-9.74521263641994 -36.43231395439482,-9.74518883327803 -36.43230321685949,-9.74516491797904 -36.43229237056216,-9.74514129669523 -36.43228242012148,-9.74511602879290 -36.43227281004191,-9.74509152571014 -36.43226336945904,-9.74506649000513 -36.43225219482199,-9.74504126938344 -36.43224070118068,-9.74501626438513 -36.43223029664166,-9.74499000032185 -36.43221631596694,-9.74496650565436 -36.43220636033200,-9.74494287149978 -36.43219734209812,-9.74491760733927 -36.43218865218123,-9.74489310070551 -36.43218078011793,-9.74486867277454 -36.43217068315647,-9.74484337260563 -36.43216039264660,-9.74481873742989 -36.43214968825967,-9.74479474319204 -36.43214033939663,-9.74476891223632 -36.43213039349588,-9.74474404402188 -36.43212097326182,-9.74472017562382 -36.43211057510660,-9.74469640209564 -36.43210148618503,-9.74467157174501 -36.43209155977238,-9.74464702815900 -36.43208057176468,-9.74462252066472 -36.43207173802395,-9.74459873308893 -36.43206418187959,-9.74457386021265 -36.43205368520364,-9.74455048430795 -36.43204444175138,-9.74452657854545 -36.43203009768484,-9.74448847952347 -36.43202578232644,-9.74447603464130 -36.43201621418665,-9.74445023125376 -36.43200673199304,-9.74442452748577 -36.43199756281841,-9.74439943682265 -36.43198462745353,-9.74435982423458 -36.43197537829005,-9.74433464471800 -36.43196399381969,-9.74430845424181 -36.43195289549097,-9.74428212827631 -36.43194436715795,-9.74425479586521 -36.43193472475330,-9.74422708513029 -36.43192564478006,-9.74420023565308 -36.43191469641970,-9.74417291793360 -36.43190547305596,-9.74414574492846 -36.43189616936967,-9.74411823680423 -36.43188557202508,-9.74409131617620 -36.43187587264080,-9.74406452337606 -36.43186502099880,-9.74403841409426 -36.43185836390358,-9.74402357074405 -36.43435869758955,-9.74391851127051 -36.43526107751275,-9.74782568602136 -36.43521436618126,-9.74782519092218 -36.43514435210921,-9.74778468534751 -36.43489778314223,-9.74758593078075 -36.43476728082602,-9.74747546958112 -36.43462312827804,-9.74734404550585 -36.43405600034120,-9.74685582442642 -36.43355341108212,-9.74642063929402 -36.43337448226161,-9.74627376242883 -36.43273036847406,-9.74573422789774 -36.43272079253930,-9.74572691770867 -36.43269945930324,-9.74570776051686 -36.43268038511680,-9.74569064685493 -36.43266107652852,-9.74567232089678 -36.43264125200672,-9.74565533606226 -36.43261206487051,-9.74563184835707 -36.43259360750592,-9.74561425030552 -36.43257379346184,-9.74559563526999 -36.43255538863467,-9.74557611254189 -36.43253752146798,-9.74555503916950 -36.43252006969996,-9.74553649209470 -36.43250239037953,-9.74551862804138 -36.43250239037953,-9.74551862804138
          </coordinates>
        </LinearRing>
      </outerBoundaryIs>
    </Polygon>
  </Placemark>
</Document>
</kml>
