<?xml version="1.0" encoding="UTF-8"?>
<kml xmlns="http://www.opengis.net/kml/2.2" xmlns:gx="http://www.google.com/kml/ext/2.2" xmlns:kml="http://www.opengis.net/kml/2.2" xmlns:atom="http://www.w3.org/2005/Atom">
<Document>
  <name>10.kml</name>
  <StyleMap id="FFFF0000">
    <Pair>
      <key>normal</key>
      <styleUrl>#s_FFFF0000</styleUrl>
    </Pair>
    <Pair>
      <key>highlight</key>
      <styleUrl>#s_FFFF0000_hl</styleUrl>
    </Pair>
  </StyleMap>
  <Style id="s_FFFF0000">
   <IconStyle>
      <scale>1.1</scale>
      <Icon>
        <href>http://maps.google.com/mapfiles/kml/pushpin/agrocad.png</href>
      </Icon>
      <hotSpot x="20" y="2" xunits="pixels" yunits="pixels"/>
    </IconStyle>
    <LineStyle>
      <color>FFFF0000</color>
      <width>1</width>
    </LineStyle>
    <PolyStyle>
      <color>40ffffff</color>
      <fill>1</fill>
    </PolyStyle>
  </Style>
  <Style id="s_FFFF0000_hl">
    <IconStyle>
      <scale>1.3</scale>
      <Icon>
        <href>http://maps.google.com/mapfiles/kml/pushpin/agrocad.png</href>
      </Icon>
      <hotSpot x="20" y="2" xunits="pixels" yunits="pixels"/>
    </IconStyle>
    <LineStyle>
      <color>ff000000</color>
      <width>1</width>
    </LineStyle>
    <PolyStyle>
      <color>40ffffff</color>
      <fill>1</fill>
    </PolyStyle>
  </Style>
  <Placemark>
    <name>AgroCAD: 1B0CC</name>
    <styleUrl>FFFF0000</styleUrl>
    <Polygon>
      <outerBoundaryIs>
        <LinearRing>
          <coordinates>
           -36.43598180438846,-9.73430706927902 -36.43652629657847,-9.73610219397361 -36.43673775721390,-9.73681538155117 -36.43673863698366,-9.73681834872328 -36.43691770654187,-9.73734115820275 -36.43706821995448,-9.73774462134560 -36.43720423319568,-9.73827676430089 -36.43732351820151,-9.73864044161131 -36.43733030802872,-9.73866407491480 -36.43733972422368,-9.73870346835694 -36.43735202605311,-9.73875773321623 -36.43736298790842,-9.73880594846905 -36.43737088152933,-9.73886213457178 -36.43737492155322,-9.73892898289930 -36.43737213146657,-9.73896009834142 -36.43734282138154,-9.73904417528086 -36.43731445394718,-9.73909828535759 -36.43728095867467,-9.73915290410486 -36.43724513587112,-9.73920749035545 -36.43721089072627,-9.73925926718176 -36.43718472267182,-9.73930184121890 -36.43715529327091,-9.73934241232231 -36.43703941984102,-9.73950215422795 -36.43702009786962,-9.73952502923413 -36.43698799444017,-9.73956082504250 -36.43695355714076,-9.73960160539998 -36.43692343973031,-9.73963751978790 -36.43688090353769,-9.73968088090413 -36.43682865449395,-9.73972584481208 -36.43677212542215,-9.73976496326881 -36.43671307782842,-9.73979632301029 -36.43665231534896,-9.73981728828782 -36.43659526938435,-9.73983055686284 -36.43653578642899,-9.73984118410937 -36.43647652784002,-9.73984984174250 -36.43641899605393,-9.73985690287027 -36.43635946494076,-9.73986446094702 -36.43629742851429,-9.73986902175932 -36.43623382534975,-9.73987481259051 -36.43616790316113,-9.73988077022612 -36.43610027867111,-9.73988669978826 -36.43541480789960,-9.73994497954251 -36.43399789062988,-9.74006529302327 -36.43598180438846,-9.73430706927902 -36.43598180438846,-9.73430706927902
          </coordinates>
        </LinearRing>
      </outerBoundaryIs>
    </Polygon>
  </Placemark>
</Document>
</kml>
