<?xml version="1.0" encoding="UTF-8"?>
<kml xmlns="http://www.opengis.net/kml/2.2" xmlns:gx="http://www.google.com/kml/ext/2.2" xmlns:kml="http://www.opengis.net/kml/2.2" xmlns:atom="http://www.w3.org/2005/Atom">
<Document>
  <name>13.kml</name>
  <StyleMap id="FFFF0000">
    <Pair>
      <key>normal</key>
      <styleUrl>#s_FFFF0000</styleUrl>
    </Pair>
    <Pair>
      <key>highlight</key>
      <styleUrl>#s_FFFF0000_hl</styleUrl>
    </Pair>
  </StyleMap>
  <Style id="s_FFFF0000">
   <IconStyle>
      <scale>1.1</scale>
      <Icon>
        <href>http://maps.google.com/mapfiles/kml/pushpin/agrocad.png</href>
      </Icon>
      <hotSpot x="20" y="2" xunits="pixels" yunits="pixels"/>
    </IconStyle>
    <LineStyle>
      <color>FFFF0000</color>
      <width>1</width>
    </LineStyle>
    <PolyStyle>
      <color>40ffffff</color>
      <fill>1</fill>
    </PolyStyle>
  </Style>
  <Style id="s_FFFF0000_hl">
    <IconStyle>
      <scale>1.3</scale>
      <Icon>
        <href>http://maps.google.com/mapfiles/kml/pushpin/agrocad.png</href>
      </Icon>
      <hotSpot x="20" y="2" xunits="pixels" yunits="pixels"/>
    </IconStyle>
    <LineStyle>
      <color>ff000000</color>
      <width>1</width>
    </LineStyle>
    <PolyStyle>
      <color>40ffffff</color>
      <fill>1</fill>
    </PolyStyle>
  </Style>
  <Placemark>
    <name>AgroCAD: 1B0EE</name>
    <styleUrl>FFFF0000</styleUrl>
    <Polygon>
      <outerBoundaryIs>
        <LinearRing>
          <coordinates>
           -36.43548420041571,-9.73255919919321 -36.43547420082593,-9.73252420066712 -36.43518762630013,-9.73152118919298 -36.43473693833149,-9.73010474154173 -36.43420055156627,-9.72840975966413 -36.43357833102894,-9.72630708376323 -36.43333480876332,-9.72547910910458 -36.43335120142709,-9.72546547695056 -36.43428551455258,-9.72469242909020 -36.43513523279002,-9.72399126087967 -36.43539886755382,-9.72373142936701 -36.43580180294213,-9.72409407120132 -36.43627126996617,-9.72449952002049 -36.43637637053874,-9.72470972118843 -36.43644015629012,-9.72490107847471 -36.43676183800020,-9.72612346923433 -36.43712665253660,-9.72760418739648 -36.43760331346474,-9.72930500521939 -36.43756197664768,-9.72947873380829 -36.43704751248323,-9.73104356188425 -36.43668975537835,-9.73207982710396 -36.43667454574351,-9.73212388252547 -36.43642537639019,-9.73284561080482 -36.43595999695620,-9.73415094975069 -36.43561681095941,-9.73302333520681 -36.43548420041571,-9.73255919919321 -36.43548420041571,-9.73255919919321 -36.43548420041571,-9.73255919919321
          </coordinates>
        </LinearRing>
      </outerBoundaryIs>
    </Polygon>
  </Placemark>
</Document>
</kml>
