<?xml version="1.0" encoding="UTF-8"?>
<kml xmlns="http://www.opengis.net/kml/2.2" xmlns:gx="http://www.google.com/kml/ext/2.2" xmlns:kml="http://www.opengis.net/kml/2.2" xmlns:atom="http://www.w3.org/2005/Atom">
<Document>
  <name>1009.kml</name>
  <StyleMap id="FFFF4000">
    <Pair>
      <key>normal</key>
      <styleUrl>#s_FFFF4000</styleUrl>
    </Pair>
    <Pair>
      <key>highlight</key>
      <styleUrl>#s_FFFF4000_hl</styleUrl>
    </Pair>
  </StyleMap>
  <Style id="s_FFFF4000">
   <IconStyle>
      <scale>1.1</scale>
      <Icon>
        <href>http://maps.google.com/mapfiles/kml/pushpin/agrocad.png</href>
      </Icon>
      <hotSpot x="20" y="2" xunits="pixels" yunits="pixels"/>
    </IconStyle>
    <LineStyle>
      <color>FFFF4000</color>
      <width>1</width>
    </LineStyle>
    <PolyStyle>
      <color>40ffffff</color>
      <fill>1</fill>
    </PolyStyle>
  </Style>
  <Style id="s_FFFF4000_hl">
    <IconStyle>
      <scale>1.3</scale>
      <Icon>
        <href>http://maps.google.com/mapfiles/kml/pushpin/agrocad.png</href>
      </Icon>
      <hotSpot x="20" y="2" xunits="pixels" yunits="pixels"/>
    </IconStyle>
    <LineStyle>
      <color>ff000000</color>
      <width>1</width>
    </LineStyle>
    <PolyStyle>
      <color>40ffffff</color>
      <fill>1</fill>
    </PolyStyle>
  </Style>
  <Placemark>
    <name>AgroCAD: 9541</name>
    <styleUrl>FFFF4000</styleUrl>
    <Polygon>
      <outerBoundaryIs>
        <LinearRing>
          <coordinates>
           -36.26694093122143,-9.76039396055297 -36.26729395633561,-9.76014327426628 -36.26735303135737,-9.76015293920160 -36.26742202922589,-9.76031469415968 -36.26753129798424,-9.76057870112767 -36.26763173919492,-9.76081526031979 -36.26774421448519,-9.76108759029463 -36.26790016061923,-9.76146813380135 -36.26808582126761,-9.76190878214689 -36.26824575863746,-9.76229179420234 -36.26851952347907,-9.76295486012184 -36.26864008769154,-9.76325644887723 -36.26880437051356,-9.76366156171786 -36.26892025343531,-9.76394147727640 -36.26895018268136,-9.76401416744783 -36.26894445323230,-9.76402305524164 -36.26892086733806,-9.76402432207329 -36.26881195907034,-9.76402844041283 -36.26866092281916,-9.76405066159706 -36.26851163773809,-9.76407502537900 -36.26844114732715,-9.76403523669725 -36.26768008570274,-9.76217323844027 -36.26706816343370,-9.76069521907095 -36.26700569661801,-9.76054110938500 -36.26694093122143,-9.76039396055297
          </coordinates>
        </LinearRing>
      </outerBoundaryIs>
    </Polygon>
  </Placemark>
</Document>
</kml>
