<?xml version="1.0" encoding="UTF-8"?>
<kml xmlns="http://www.opengis.net/kml/2.2" xmlns:gx="http://www.google.com/kml/ext/2.2" xmlns:kml="http://www.opengis.net/kml/2.2" xmlns:atom="http://www.w3.org/2005/Atom">
<Document>
  <name>1014.kml</name>
  <StyleMap id="FF0040FF">
    <Pair>
      <key>normal</key>
      <styleUrl>#s_FF0040FF</styleUrl>
    </Pair>
    <Pair>
      <key>highlight</key>
      <styleUrl>#s_FF0040FF_hl</styleUrl>
    </Pair>
  </StyleMap>
  <Style id="s_FF0040FF">
   <IconStyle>
      <scale>1.1</scale>
      <Icon>
        <href>http://maps.google.com/mapfiles/kml/pushpin/agrocad.png</href>
      </Icon>
      <hotSpot x="20" y="2" xunits="pixels" yunits="pixels"/>
    </IconStyle>
    <LineStyle>
      <color>FF0040FF</color>
      <width>1</width>
    </LineStyle>
    <PolyStyle>
      <color>40ffffff</color>
      <fill>1</fill>
    </PolyStyle>
  </Style>
  <Style id="s_FF0040FF_hl">
    <IconStyle>
      <scale>1.3</scale>
      <Icon>
        <href>http://maps.google.com/mapfiles/kml/pushpin/agrocad.png</href>
      </Icon>
      <hotSpot x="20" y="2" xunits="pixels" yunits="pixels"/>
    </IconStyle>
    <LineStyle>
      <color>ff000000</color>
      <width>1</width>
    </LineStyle>
    <PolyStyle>
      <color>40ffffff</color>
      <fill>1</fill>
    </PolyStyle>
  </Style>
  <Placemark>
    <name>AgroCAD: 81B6</name>
    <styleUrl>FF0040FF</styleUrl>
    <Polygon>
      <outerBoundaryIs>
        <LinearRing>
          <coordinates>
           -36.24831132324012,-9.72989607144399 -36.24799548620054,-9.73006745994205 -36.24773839441012,-9.73022935658195 -36.24768535394470,-9.73025435580501 -36.24762114413885,-9.73008312967451 -36.24747060408996,-9.72980355532036 -36.24736368112435,-9.72958970940722 -36.24717070667842,-9.72909655254206 -36.24704194065079,-9.72879609850721 -36.24691340285763,-9.72847475405820 -36.24689587200314,-9.72842216150239 -36.24721714300065,-9.72827223502394 -36.24714952485881,-9.72802430187908 -36.24665584894751,-9.72688670097960 -36.24652712689214,-9.72650053486146 -36.24646817721386,-9.72636040464065 -36.24677894610823,-9.72619928940583 -36.24739863519494,-9.72768277388876 -36.24829995914872,-9.72987170564536 -36.24831132324012,-9.72989607144400 -36.24831132324012,-9.72989607144399
          </coordinates>
        </LinearRing>
      </outerBoundaryIs>
    </Polygon>
  </Placemark>
</Document>
</kml>
