<?xml version="1.0" encoding="UTF-8"?>
<kml xmlns="http://www.opengis.net/kml/2.2" xmlns:gx="http://www.google.com/kml/ext/2.2" xmlns:kml="http://www.opengis.net/kml/2.2" xmlns:atom="http://www.w3.org/2005/Atom">
<Document>
  <name>7004.kml</name>
  <StyleMap id="FFFF4000">
    <Pair>
      <key>normal</key>
      <styleUrl>#s_FFFF4000</styleUrl>
    </Pair>
    <Pair>
      <key>highlight</key>
      <styleUrl>#s_FFFF4000_hl</styleUrl>
    </Pair>
  </StyleMap>
  <Style id="s_FFFF4000">
   <IconStyle>
      <scale>1.1</scale>
      <Icon>
        <href>http://maps.google.com/mapfiles/kml/pushpin/agrocad.png</href>
      </Icon>
      <hotSpot x="20" y="2" xunits="pixels" yunits="pixels"/>
    </IconStyle>
    <LineStyle>
      <color>FFFF4000</color>
      <width>1</width>
    </LineStyle>
    <PolyStyle>
      <color>40ffffff</color>
      <fill>1</fill>
    </PolyStyle>
  </Style>
  <Style id="s_FFFF4000_hl">
    <IconStyle>
      <scale>1.3</scale>
      <Icon>
        <href>http://maps.google.com/mapfiles/kml/pushpin/agrocad.png</href>
      </Icon>
      <hotSpot x="20" y="2" xunits="pixels" yunits="pixels"/>
    </IconStyle>
    <LineStyle>
      <color>ff000000</color>
      <width>1</width>
    </LineStyle>
    <PolyStyle>
      <color>40ffffff</color>
      <fill>1</fill>
    </PolyStyle>
  </Style>
  <Placemark>
    <name>AgroCAD: 9304</name>
    <styleUrl>FFFF4000</styleUrl>
    <Polygon>
      <outerBoundaryIs>
        <LinearRing>
          <coordinates>
           -36.24063046372443,-9.74978774839499 -36.23838503889589,-9.75207022582948 -36.23881916587933,-9.75266223740481 -36.23886065563568,-9.75264260016093 -36.23896874302982,-9.75258687245269 -36.23899817786404,-9.75256906103729 -36.23913264219478,-9.75249237223038 -36.23925264687585,-9.75242046787064 -36.23938837904167,-9.75232554732390 -36.23956751184332,-9.75220109306615 -36.23964208072293,-9.75214962564745 -36.23969466138243,-9.75210773180280 -36.23977085466250,-9.75203534060809 -36.23983485171941,-9.75197429696594 -36.23989634475374,-9.75190786110264 -36.23996748289459,-9.75182323052676 -36.24003384218371,-9.75174232172024 -36.24020017530241,-9.75155154500789 -36.24023890389496,-9.75150563658028 -36.24028455023624,-9.75144136925274 -36.24035308019060,-9.75132936282023 -36.24041916718135,-9.75119492276443 -36.24044525007017,-9.75114892291827 -36.24047885279991,-9.75108140668747 -36.24050435688501,-9.75100178005448 -36.24052244836001,-9.75094926379232 -36.24047369861330,-9.75085242509713 -36.24061212342252,-9.75088652280008 -36.24070695478137,-9.75090254779964 -36.24079799359726,-9.75093055691587 -36.24095558588865,-9.75100825398250 -36.24108716248400,-9.75107811995718 -36.24126672304762,-9.75118544496309 -36.24132252303691,-9.75120392525121 -36.24135941383298,-9.75120904272126 -36.24137893894740,-9.75120571307830 -36.24139683339591,-9.75120197296894 -36.24142153510219,-9.75119035958768 -36.24145088206237,-9.75117456977582 -36.24148752193760,-9.75115255674465 -36.24152726318987,-9.75113385843014 -36.24157268459870,-9.75111328393790 -36.24159582425976,-9.75110417680507 -36.24063046372443,-9.74978774839499 -36.24063046372443,-9.74978774839499
          </coordinates>
        </LinearRing>
      </outerBoundaryIs>
    </Polygon>
  </Placemark>
  <Placemark>
    <name>AgroCAD: 92FE</name>
    <styleUrl>FFFF4000</styleUrl>
    <Polygon>
      <outerBoundaryIs>
        <LinearRing>
          <coordinates>
           -36.24290166668263,-9.74747901166514 -36.24065627302606,-9.74976151288547 -36.24163075566555,-9.75109038057319 -36.24169680368871,-9.75106385359665 -36.24185166723387,-9.75098919095161 -36.24189799704902,-9.75096395249952 -36.24193709728067,-9.75094191294620 -36.24202493960661,-9.75088589747411 -36.24209386610984,-9.75084294296573 -36.24215657756367,-9.75079615540658 -36.24215984540061,-9.75079221722162 -36.24219236528886,-9.75076037120210 -36.24221599073913,-9.75072892225524 -36.24229603547997,-9.75061936698899 -36.24239160168021,-9.75049410698853 -36.24247885205811,-9.75040047953599 -36.24248658840597,-9.75038986329274 -36.24250930867066,-9.75037075707341 -36.24252368528674,-9.75035927341597 -36.24279202712230,-9.75012861025138 -36.24298401032069,-9.74994132852541 -36.24305541579389,-9.74987305820698 -36.24309641599440,-9.74983341745479 -36.24314187778355,-9.74979279262033 -36.24323742592957,-9.74972608389818 -36.24328122191978,-9.74969762412406 -36.24331058282725,-9.74967272164963 -36.24334047277774,-9.74964689132270 -36.24338991553713,-9.74959420764672 -36.24343763343496,-9.74952449997588 -36.24345138481296,-9.74950251699278 -36.24369681253685,-9.74907202829075 -36.24378857972597,-9.74890458125146 -36.24381034240804,-9.74886652976901 -36.24383758840521,-9.74881236320575 -36.24384144231524,-9.74872159897871 -36.24383047778102,-9.74869736123322 -36.24381457472769,-9.74867191218675 -36.24370282224195,-9.74855140101713 -36.24366878119831,-9.74851236840184 -36.24365103611554,-9.74849134082178 -36.24360044413774,-9.74842285787752 -36.24353524442248,-9.74835146442371 -36.24350447169128,-9.74832200013008 -36.24347507966365,-9.74829986556573 -36.24341583587184,-9.74826016113645 -36.24340303144111,-9.74824655618998 -36.24339026122774,-9.74821885277498 -36.24340853601192,-9.74817020520743 -36.24290166668263,-9.74747901166514 -36.24290166668263,-9.74747901166514
          </coordinates>
        </LinearRing>
      </outerBoundaryIs>
    </Polygon>
  </Placemark>
  <Placemark>
    <name>AgroCAD: 9305</name>
    <styleUrl>FFFF4000</styleUrl>
    <Polygon>
      <outerBoundaryIs>
        <LinearRing>
          <coordinates>
           -36.24478202473403,-9.74556753647796 -36.24292747562600,-9.74745277588227 -36.24342388495792,-9.74812970556732 -36.24343175695699,-9.74810913490757 -36.24345327782310,-9.74806103960529 -36.24347624701923,-9.74800833467433 -36.24349881668262,-9.74795433011184 -36.24351537740389,-9.74791600937707 -36.24355787191561,-9.74778599392654 -36.24360578126732,-9.74764332833198 -36.24363465260123,-9.74757286607516 -36.24365877939381,-9.74751830762836 -36.24367480623361,-9.74748826617682 -36.24384014425019,-9.74719901719672 -36.24397716245316,-9.74694423958998 -36.24401354159482,-9.74687768028460 -36.24406182203574,-9.74679033000565 -36.24408985366302,-9.74674009608684 -36.24410013005915,-9.74671807301388 -36.24411257301872,-9.74667378087175 -36.24411581303936,-9.74665189924587 -36.24412015675869,-9.74660646596083 -36.24412085971039,-9.74658322527610 -36.24412293077513,-9.74653794221850 -36.24412442204850,-9.74651523432378 -36.24412868800942,-9.74649183378109 -36.24413097646345,-9.74647651167328 -36.24417488452186,-9.74639792205997 -36.24420414875378,-9.74635612072334 -36.24424705135102,-9.74629245256103 -36.24426995780048,-9.74625631971262 -36.24428699355517,-9.74623192229281 -36.24429687632197,-9.74622208357101 -36.24431764806419,-9.74620514064372 -36.24432826386144,-9.74619781476183 -36.24434198436191,-9.74619159286966 -36.24435303432467,-9.74618693534204 -36.24436560642653,-9.74618247850069 -36.24449271900060,-9.74615846255052 -36.24460644419630,-9.74615365510983 -36.24463149607167,-9.74615119541691 -36.24465605129819,-9.74614466255927 -36.24468298242329,-9.74613610569082 -36.24472703672593,-9.74611356275370 -36.24474413186806,-9.74610387343463 -36.24476681362784,-9.74608835719728 -36.24477346114828,-9.74608271386081 -36.24478924690070,-9.74606326316155 -36.24481658827650,-9.74597579698325 -36.24482702293404,-9.74592752038942 -36.24483254869832,-9.74588976707981 -36.24483618884480,-9.74584977109782 -36.24484025697829,-9.74580674489565 -36.24484139757522,-9.74576736008396 -36.24484063824611,-9.74574847594703 -36.24483899935998,-9.74571421198389 -36.24483731338171,-9.74569747335531 -36.24483284851016,-9.74566862050224 -36.24483019170748,-9.74565432189894 -36.24482733218375,-9.74564152331364 -36.24481746023782,-9.74561662221074 -36.24481183384763,-9.74560475240259 -36.24480517051630,-9.74559428373497 -36.24479801221339,-9.74558431014884 -36.24478086714531,-9.74556632196421 -36.24478202473403,-9.74556753647796
          </coordinates>
        </LinearRing>
      </outerBoundaryIs>
    </Polygon>
  </Placemark>
</Document>
</kml>
