<?xml version="1.0" encoding="UTF-8"?>
<kml xmlns="http://www.opengis.net/kml/2.2" xmlns:gx="http://www.google.com/kml/ext/2.2" xmlns:kml="http://www.opengis.net/kml/2.2" xmlns:atom="http://www.w3.org/2005/Atom">
<Document>
  <name>1001.kml</name>
  <StyleMap id="FF0040FF">
    <Pair>
      <key>normal</key>
      <styleUrl>#s_FF0040FF</styleUrl>
    </Pair>
    <Pair>
      <key>highlight</key>
      <styleUrl>#s_FF0040FF_hl</styleUrl>
    </Pair>
  </StyleMap>
  <Style id="s_FF0040FF">
   <IconStyle>
      <scale>1.1</scale>
      <Icon>
        <href>http://maps.google.com/mapfiles/kml/pushpin/agrocad.png</href>
      </Icon>
      <hotSpot x="20" y="2" xunits="pixels" yunits="pixels"/>
    </IconStyle>
    <LineStyle>
      <color>FF0040FF</color>
      <width>1</width>
    </LineStyle>
    <PolyStyle>
      <color>40ffffff</color>
      <fill>1</fill>
    </PolyStyle>
  </Style>
  <Style id="s_FF0040FF_hl">
    <IconStyle>
      <scale>1.3</scale>
      <Icon>
        <href>http://maps.google.com/mapfiles/kml/pushpin/agrocad.png</href>
      </Icon>
      <hotSpot x="20" y="2" xunits="pixels" yunits="pixels"/>
    </IconStyle>
    <LineStyle>
      <color>ff000000</color>
      <width>1</width>
    </LineStyle>
    <PolyStyle>
      <color>40ffffff</color>
      <fill>1</fill>
    </PolyStyle>
  </Style>
  <Placemark>
    <name>AgroCAD: 8201</name>
    <styleUrl>FF0040FF</styleUrl>
    <Polygon>
      <outerBoundaryIs>
        <LinearRing>
          <coordinates>
           -36.24726182177399,-9.82944589663882 -36.24743751303269,-9.82942400997616 -36.24765568266867,-9.82946764390146 -36.24780693406691,-9.82953246596936 -36.24811724425911,-9.82965016983710 -36.24883553568974,-9.82985386437231 -36.24995081268361,-9.83017557887892 -36.25027301767250,-9.83024001988978 -36.25096027603094,-9.83047626503603 -36.25160364204077,-9.83066927496604 -36.25217223472939,-9.83083019723359 -36.25235292999889,-9.83088334284653 -36.25245043777958,-9.83088535623631 -36.25235985588248,-9.83036973575807 -36.25230832164845,-9.83016359864530 -36.25166706254832,-9.82913758382590 -36.25136358034318,-9.82850894192494 -36.25132807098239,-9.82836690454102 -36.25114931343055,-9.82839792857612 -36.25106330921302,-9.82840867909142 -36.25098810459847,-9.82839296561772 -36.25093398323097,-9.82836554985465 -36.25078363386015,-9.82815076504911 -36.25061198025953,-9.82787182793390 -36.25041888610454,-9.82761436908120 -36.25035468167644,-9.82752876315453 -36.25025213941518,-9.82749393642577 -36.25016220404828,-9.82748187034149 -36.25001594421897,-9.82750276460013 -36.24973889797250,-9.82758800959430 -36.24939561287830,-9.82771674149885 -36.24905087723266,-9.82782447138247 -36.24861736590290,-9.82791117363961 -36.24801305114645,-9.82780326046081 -36.24767054099578,-9.82773903962496 -36.24742468045097,-9.82771766053182 -36.24717622788439,-9.82769605586615 -36.24679082903349,-9.82758900062536 -36.24660998209833,-9.82759024034902 -36.24647639752205,-9.82760990420973 -36.24634621965697,-9.82766496567540 -36.24626930535401,-9.82771321383086 -36.24620082735620,-9.82780165273488 -36.24616857551090,-9.82787335449350 -36.24619274118831,-9.82798856173999 -36.24623062946734,-9.82807870823974 -36.24633784210388,-9.82831457601055 -36.24650964347027,-9.82870112903555 -36.24670273391939,-9.82917312784633 -36.24678620829724,-9.82935677147596 -36.24681544155889,-9.82935980728887 -36.24688024127961,-9.82935980728804 -36.24714003287956,-9.82940310588552 -36.24726182177399,-9.82944589663882 -36.24726182177399,-9.82944589663882
          </coordinates>
        </LinearRing>
      </outerBoundaryIs>
    </Polygon>
  </Placemark>
</Document>
</kml>
