<?xml version="1.0" encoding="UTF-8"?>
<kml xmlns="http://www.opengis.net/kml/2.2" xmlns:gx="http://www.google.com/kml/ext/2.2" xmlns:kml="http://www.opengis.net/kml/2.2" xmlns:atom="http://www.w3.org/2005/Atom">
<Document>
  <name>1011.kml</name>
  <StyleMap id="FF0040FF">
    <Pair>
      <key>normal</key>
      <styleUrl>#s_FF0040FF</styleUrl>
    </Pair>
    <Pair>
      <key>highlight</key>
      <styleUrl>#s_FF0040FF_hl</styleUrl>
    </Pair>
  </StyleMap>
  <Style id="s_FF0040FF">
   <IconStyle>
      <scale>1.1</scale>
      <Icon>
        <href>http://maps.google.com/mapfiles/kml/pushpin/agrocad.png</href>
      </Icon>
      <hotSpot x="20" y="2" xunits="pixels" yunits="pixels"/>
    </IconStyle>
    <LineStyle>
      <color>FF0040FF</color>
      <width>1</width>
    </LineStyle>
    <PolyStyle>
      <color>40ffffff</color>
      <fill>1</fill>
    </PolyStyle>
  </Style>
  <Style id="s_FF0040FF_hl">
    <IconStyle>
      <scale>1.3</scale>
      <Icon>
        <href>http://maps.google.com/mapfiles/kml/pushpin/agrocad.png</href>
      </Icon>
      <hotSpot x="20" y="2" xunits="pixels" yunits="pixels"/>
    </IconStyle>
    <LineStyle>
      <color>ff000000</color>
      <width>1</width>
    </LineStyle>
    <PolyStyle>
      <color>40ffffff</color>
      <fill>1</fill>
    </PolyStyle>
  </Style>
  <Placemark>
    <name>AgroCAD: 8202</name>
    <styleUrl>FF0040FF</styleUrl>
    <Polygon>
      <outerBoundaryIs>
        <LinearRing>
          <coordinates>
           -36.24675656662333,-9.83214089462385 -36.24678223848994,-9.83235409402280 -36.24678223851705,-9.83263788562537 -36.24669521449767,-9.83309476194019 -36.24656563688982,-9.83339710975136 -36.24650167762690,-9.83358898775621 -36.24643659752518,-9.83378422793431 -36.24637236443886,-9.83391269415224 -36.24637236443886,-9.83391269415224 -36.24633962036500,-9.83397032903347 -36.24626873804085,-9.83404121138653 -36.24619984922145,-9.83411010018253 -36.24618400746847,-9.83417393986297 -36.24618196518928,-9.83422996989068 -36.24623442431022,-9.83427368582922 -36.24629749035476,-9.83432624084979 -36.24649333918917,-9.83445680672647 -36.24654129887043,-9.83451708024007 -36.24656877754187,-9.83458411265788 -36.24655662814663,-9.83465208760789 -36.24651666319706,-9.83471687061130 -36.24644089902662,-9.83477039598362 -36.24636593612402,-9.83479160187388 -36.24597521849505,-9.83472648226372 -36.24566167478977,-9.83472648225647 -36.24545487282478,-9.83480168297375 -36.24637237189335,-9.83717248140568 -36.24748946689233,-9.83997919061440 -36.24998660386724,-9.83678082794695 -36.25106959137416,-9.83538708209861 -36.25106959137416,-9.83538708209861 -36.25111085511154,-9.83533397755153 -36.25137471191385,-9.83499440524871 -36.24978936379918,-9.83129523787911 -36.24929679206301,-9.83009513813102 -36.24897796961946,-9.83000860035638 -36.24846292110261,-9.82983691751042 -36.24804480626371,-9.82971898795750 -36.24762607188985,-9.82960088310454 -36.24752910175438,-9.82956855974024 -36.24713315352478,-9.82942944277386 -36.24687796099448,-9.82938691068213 -36.24681401468264,-9.82938691068117 -36.24679445220902,-9.82938487915924 -36.24689719204226,-9.82979980923410 -36.24691880066880,-9.83016715553718 -36.24690803341702,-9.83041480341248 -36.24688657808788,-9.83095118764388 -36.24687582122002,-9.83124162229408 -36.24681133158286,-9.83175753961046 -36.24675656662333,-9.83214089462387 -36.24675656662333,-9.83214089462385
          </coordinates>
        </LinearRing>
      </outerBoundaryIs>
    </Polygon>
  </Placemark>
</Document>
</kml>
