<?xml version="1.0" encoding="UTF-8"?>
<kml xmlns="http://www.opengis.net/kml/2.2" xmlns:gx="http://www.google.com/kml/ext/2.2" xmlns:kml="http://www.opengis.net/kml/2.2" xmlns:atom="http://www.w3.org/2005/Atom">
<Document>
  <name>1004.kml</name>
  <StyleMap id="FFFF4000">
    <Pair>
      <key>normal</key>
      <styleUrl>#s_FFFF4000</styleUrl>
    </Pair>
    <Pair>
      <key>highlight</key>
      <styleUrl>#s_FFFF4000_hl</styleUrl>
    </Pair>
  </StyleMap>
  <Style id="s_FFFF4000">
   <IconStyle>
      <scale>1.1</scale>
      <Icon>
        <href>http://maps.google.com/mapfiles/kml/pushpin/agrocad.png</href>
      </Icon>
      <hotSpot x="20" y="2" xunits="pixels" yunits="pixels"/>
    </IconStyle>
    <LineStyle>
      <color>FFFF4000</color>
      <width>1</width>
    </LineStyle>
    <PolyStyle>
      <color>40ffffff</color>
      <fill>1</fill>
    </PolyStyle>
  </Style>
  <Style id="s_FFFF4000_hl">
    <IconStyle>
      <scale>1.3</scale>
      <Icon>
        <href>http://maps.google.com/mapfiles/kml/pushpin/agrocad.png</href>
      </Icon>
      <hotSpot x="20" y="2" xunits="pixels" yunits="pixels"/>
    </IconStyle>
    <LineStyle>
      <color>ff000000</color>
      <width>1</width>
    </LineStyle>
    <PolyStyle>
      <color>40ffffff</color>
      <fill>1</fill>
    </PolyStyle>
  </Style>
  <Placemark>
    <name>AgroCAD: 8F26</name>
    <styleUrl>FFFF4000</styleUrl>
    <Polygon>
      <outerBoundaryIs>
        <LinearRing>
          <coordinates>
           -36.25217372775112,-9.82275337520423 -36.25217279380458,-9.82273050169690 -36.25217083372205,-9.82271031358875 -36.25217010224935,-9.82268996522192 -36.25216833301140,-9.82266876225348 -36.25216415300033,-9.82265026495594 -36.25216134625155,-9.82263005639144 -36.25215747457306,-9.82260916881672 -36.25215408235806,-9.82258592816708 -36.25215222296181,-9.82256454405111 -36.25214954391933,-9.82254317554446 -36.25214622227172,-9.82252381339588 -36.25214639319344,-9.82250247260844 -36.25214602585848,-9.82248396147724 -36.25214122535015,-9.82246223727936 -36.25214158668452,-9.82243857754377 -36.25214528502298,-9.82241768053091 -36.25214808238361,-9.82239731115027 -36.25214932317315,-9.82237440416880 -36.25215331210001,-9.82235395340456 -36.25215412913914,-9.82233521343911 -36.25215784826985,-9.82231281793715 -36.25216040792640,-9.82229403316895 -36.25216310214938,-9.82227123820243 -36.25216768081149,-9.82224773076968 -36.25217308366160,-9.82222494971260 -36.25218005844827,-9.82220446108013 -36.25219058479571,-9.82218511549961 -36.25218990435825,-9.82218156746832 -36.25219567810001,-9.82216327058692 -36.25220253472092,-9.82214533361860 -36.25220860466298,-9.82211742379365 -36.25221090483830,-9.82210654333844 -36.25221806769475,-9.82208975165295 -36.25222481507206,-9.82206830217123 -36.25223200269175,-9.82204814820417 -36.25223455635820,-9.82202822328090 -36.25225181944426,-9.82197900231021 -36.25225426563428,-9.82196964742072 -36.25225840663619,-9.82195057561421 -36.25226387436593,-9.82193285347350 -36.25227561633231,-9.82191058321064 -36.25227921892939,-9.82190141930243 -36.25228534716221,-9.82188107707680 -36.25229484634701,-9.82186129944249 -36.25231152065945,-9.82183488912121 -36.25240104159131,-9.82199376462836 -36.25286427745686,-9.82386959383042 -36.25284916211296,-9.82387271057712 -36.25282716905082,-9.82387573130492 -36.25280424754893,-9.82387769537686 -36.25278309669976,-9.82387902212779 -36.25276046209003,-9.82387781609413 -36.25273968410251,-9.82387438428701 -36.25271897034133,-9.82386960274629 -36.25270249099834,-9.82386314474789 -36.25268043582391,-9.82385217831485 -36.25266184712198,-9.82384363405431 -36.25264334958172,-9.82383318169913 -36.25262452811106,-9.82382071458235 -36.25260625089810,-9.82380775663640 -36.25258887395442,-9.82379395333670 -36.25257178240860,-9.82377858046251 -36.25255242841307,-9.82376324336630 -36.25253469549333,-9.82374687961043 -36.25251715852341,-9.82373019226118 -36.25250059798509,-9.82371438594690 -36.25248371680351,-9.82369699553993 -36.25246796463567,-9.82367801058404 -36.25245398905729,-9.82365827126868 -36.25244014874228,-9.82363924671752 -36.25242705470914,-9.82362129640467 -36.25241386917468,-9.82360266256703 -36.25240206289396,-9.82358393161124 -36.25238973308075,-9.82356375613591 -36.25237922708213,-9.82354141941639 -36.25237151021893,-9.82352135887322 -36.25235672812246,-9.82349269198675 -36.25234637490814,-9.82347188884812 -36.25233866160042,-9.82344943119398 -36.25233335712441,-9.82341596460445 -36.25227917316504,-9.82323632237924 -36.25221167101779,-9.82293909765062 -36.25220649778733,-9.82291829409284 -36.25220394995722,-9.82289924883573 -36.25219996899448,-9.82288158291502 -36.25219467111508,-9.82285230118697 -36.25219327122194,-9.82284326610460 -36.25218676607978,-9.82281507339060 -36.25218341849443,-9.82279627322239 -36.25218133531413,-9.82278669521253 -36.25217372775112,-9.82275337520423
          </coordinates>
        </LinearRing>
      </outerBoundaryIs>
    </Polygon>
  </Placemark>
  <Placemark>
    <name>AgroCAD: 8F27</name>
    <styleUrl>FFFF4000</styleUrl>
    <Polygon>
      <outerBoundaryIs>
        <LinearRing>
          <coordinates>
           -36.25243525798523,-9.82198041067158 -36.25233648109983,-9.82180510837566 -36.25232405303042,-9.82176955821472 -36.25231455938887,-9.82173815980631 -36.25231299964598,-9.82173212463531 -36.25229387762602,-9.82161767912688 -36.25229282037495,-9.82159334688043 -36.25228962986384,-9.82157032284157 -36.25228725376324,-9.82154771998319 -36.25228609875701,-9.82152356866036 -36.25228296780980,-9.82149945641038 -36.25227869223770,-9.82147785697494 -36.25227700773469,-9.82145469642397 -36.25227409330569,-9.82143062783082 -36.25227644480918,-9.82140937338686 -36.25228063189828,-9.82139397536891 -36.25227967455052,-9.82138942766560 -36.25227820950686,-9.82136346772486 -36.25227550803458,-9.82134483004173 -36.25227227631370,-9.82132475410024 -36.25227003593560,-9.82130674066545 -36.25226510444028,-9.82129270245167 -36.25226455236383,-9.82127560588672 -36.25226168285908,-9.82125754543986 -36.25226256556302,-9.82123919898068 -36.25226319766493,-9.82122078343699 -36.25225733401512,-9.82120566233341 -36.25225515561867,-9.82118936334293 -36.25225502340613,-9.82116840076390 -36.25225171193056,-9.82114802626212 -36.25225110098119,-9.82112713773596 -36.25225188131974,-9.82110660786938 -36.25224990322988,-9.82108664882816 -36.25224943181236,-9.82106416920433 -36.25225180032203,-9.82104254180120 -36.25225283101798,-9.82102008265760 -36.25225552788990,-9.82099792037083 -36.25225677150407,-9.82097340625797 -36.25226008418652,-9.82094941835791 -36.25226515140412,-9.82092714669808 -36.25227134506378,-9.82090443845172 -36.25227653909147,-9.82088345820810 -36.25228193402377,-9.82086135679402 -36.25228468413612,-9.82084258975735 -36.25229981542878,-9.82079652741723 -36.25230686913399,-9.82077369187939 -36.25231695901450,-9.82075184848467 -36.25232553492132,-9.82072816271403 -36.25233686131938,-9.82070479931874 -36.25235087802523,-9.82068299130427 -36.25235840781657,-9.82066284359086 -36.25239580029688,-9.82062547124934 -36.25240550901298,-9.82061029067596 -36.25241453500812,-9.82059230461985 -36.25243116093520,-9.82056677452975 -36.25244257393376,-9.82054835694652 -36.25245202328482,-9.82053147103937 -36.25246360680821,-9.82051612562690 -36.25247211497797,-9.82049959038607 -36.25248305559149,-9.82048511555716 -36.25249420692753,-9.82046932144209 -36.25250308776494,-9.82045332500623 -36.25251617489934,-9.82043436925421 -36.25253090108625,-9.82041843097002 -36.25254127601529,-9.82040138763572 -36.25255246871957,-9.82038298648930 -36.25256330418525,-9.82036415393167 -36.25257652636832,-9.82034744840570 -36.25271031430292,-9.82015483053185 -36.25272202395558,-9.82013775731507 -36.25273452208695,-9.82012112453539 -36.25274935454675,-9.82010560742685 -36.25276051964031,-9.82009151675905 -36.25277507429377,-9.82007853261346 -36.25278805178892,-9.82006489029424 -36.25280014271793,-9.82005022027804 -36.25281437226390,-9.82003428801276 -36.25283022225980,-9.82002008531764 -36.25284527590814,-9.82000625206933 -36.25285951627574,-9.81999412036188 -36.25287424028918,-9.81998139709757 -36.25288787658288,-9.81996628096684 -36.25290320915047,-9.81995340122719 -36.25292043855220,-9.81993981677869 -36.25293948346738,-9.81992605810601 -36.25295635545766,-9.81991232448129 -36.25297526923946,-9.81990133967330 -36.25299449780690,-9.81988977303189 -36.25301181614044,-9.81987940610669 -36.25302858975596,-9.81987173403760 -36.25304802102019,-9.81986321319623 -36.25306627551569,-9.81985513168799 -36.25308241028388,-9.81984937054336 -36.25314242146423,-9.81983062618011 -36.25316261304874,-9.81982713313035 -36.25318093906127,-9.81982022282427 -36.25320182469906,-9.81981217798751 -36.25322490275737,-9.81980946721654 -36.25324810822256,-9.81981101300975 -36.25326822446324,-9.81981800463299 -36.25329132532625,-9.81982835738631 -36.25331222634859,-9.81984283750149 -36.25331706519061,-9.81984993173898 -36.25349762964218,-9.82051777462519 -36.25362203485899,-9.82103903772634 -36.25383384252267,-9.82202515342398 -36.25409737092006,-9.82313793957958 -36.25417942637791,-9.82349074186347 -36.25417490790660,-9.82350244936136 -36.25416702461315,-9.82351185858027 -36.25415716219058,-9.82352341819627 -36.25414273583837,-9.82353365174393 -36.25412703618710,-9.82354302649731 -36.25410735199299,-9.82355033838498 -36.25408611998660,-9.82355615217206 -36.25406781270742,-9.82356384910198 -36.25403879310814,-9.82356862548318 -36.25401940845453,-9.82357392534454 -36.25399875539934,-9.82357872433373 -36.25397898402531,-9.82358062925515 -36.25395846120465,-9.82358536448129 -36.25393760566408,-9.82358971999842 -36.25391589809332,-9.82359267991561 -36.25389456324894,-9.82359570982452 -36.25387371891670,-9.82359737619230 -36.25385238284020,-9.82360046093993 -36.25383176291302,-9.82360195196322 -36.25380947955869,-9.82360489727355 -36.25378713583916,-9.82360594621691 -36.25376445004818,-9.82360740068680 -36.25374231192895,-9.82361063629213 -36.25372087002132,-9.82361360038973 -36.25369869001022,-9.82361704347071 -36.25367572882975,-9.82361953239299 -36.25365441568427,-9.82362344470528 -36.25363218169238,-9.82362526437224 -36.25361180529157,-9.82362538474273 -36.25359921526534,-9.82362658513567 -36.25358185634449,-9.82362867788888 -36.25356555673218,-9.82363167119767 -36.25354517713518,-9.82363625034959 -36.25352528690774,-9.82363947049900 -36.25350613852993,-9.82364379677624 -36.25348744705087,-9.82364999376751 -36.25346697837037,-9.82365371194731 -36.25344722855679,-9.82365903162550 -36.25342717233612,-9.82366367601966 -36.25340598156391,-9.82366784170370 -36.25338618857885,-9.82367213221266 -36.25336737153482,-9.82367688929825 -36.25334648571306,-9.82368046704152 -36.25332852552010,-9.82368346553078 -36.25330928588768,-9.82368741111661 -36.25329257490664,-9.82369398360171 -36.25327484029960,-9.82370058340026 -36.25323992938163,-9.82371017402257 -36.25321637971178,-9.82371917855796 -36.25318588552130,-9.82373106074077 -36.25316724699992,-9.82374047307871 -36.25314835599978,-9.82374881450783 -36.25312893447504,-9.82375882639526 -36.25310956634873,-9.82376864718911 -36.25308901437658,-9.82377829683002 -36.25306983641406,-9.82378948509317 -36.25304910788353,-9.82379992587734 -36.25302671596601,-9.82380791194698 -36.25300692286752,-9.82381532719238 -36.25299045596624,-9.82382560427060 -36.25296716254407,-9.82383819715795 -36.25294325695929,-9.82384717209805 -36.25291971624716,-9.82385569700996 -36.25289959864269,-9.82386071276743 -36.25243525798523,-9.82198041067158
          </coordinates>
        </LinearRing>
      </outerBoundaryIs>
    </Polygon>
  </Placemark>
</Document>
</kml>
