<?xml version="1.0" encoding="utf-8" ?>
<kml xmlns="http://www.opengis.net/kml/2.2">
<Document id="root_doc">
<Schema name="BARRA_DA_PINDOBA_TALHAO_1004_ID_259" id="BARRA_DA_PINDOBA_TALHAO_1004_ID_259">
	<SimpleField name="ID" type="float"></SimpleField>
	<SimpleField name="AREA_TOTAL" type="float"></SimpleField>
	<SimpleField name="FAZENDA" type="float"></SimpleField>
	<SimpleField name="FAZ_NOME" type="string"></SimpleField>
	<SimpleField name="TALHAO" type="float"></SimpleField>
	<SimpleField name="ZONA" type="float"></SimpleField>
	<SimpleField name="ACIONISTA" type="string"></SimpleField>
	<SimpleField name="CODE" type="string"></SimpleField>
</Schema>
<Folder><name>BARRA_DA_PINDOBA_TALHAO_1004_ID_259</name>
  <Placemark id="BARRA_DA_PINDOBA_TALHAO_1004_ID_259.1">
	<Style><LineStyle><color>ff0000ff</color></LineStyle><PolyStyle><fill>0</fill></PolyStyle></Style>
	<ExtendedData><SchemaData schemaUrl="#BARRA_DA_PINDOBA_TALHAO_1004_ID_259">
		<SimpleData name="ID">259</SimpleData>
		<SimpleData name="AREA_TOTAL">24.63</SimpleData>
		<SimpleData name="FAZ_NOME">BARRA DA PINDOBA</SimpleData>
		<SimpleData name="TALHAO">1004</SimpleData>
		<SimpleData name="ZONA">1</SimpleData>
		<SimpleData name="ACIONISTA">ISABEL TENÓRIO</SimpleData>
		<SimpleData name="CODE"></SimpleData>
	</SchemaData></ExtendedData>
      <MultiGeometry><Polygon><outerBoundaryIs><LinearRing><coordinates>-36.250956629212,-9.80554694142556,0 -36.2519650043952,-9.80634076895108,0 -36.252572409908,-9.8068536899854,0 -36.2525404909258,-9.80667967970213,0 -36.2524332981905,-9.80620803100593,0 -36.252283106985,-9.80556435353209,0 -36.2520470789682,-9.80455586883262,0 -36.251703747291,-9.80309670722847,0 -36.2513604674886,-9.80159485600067,0 -36.2511673435245,-9.80084381742915,0 -36.251017056271,-9.80017825865363,0 -36.2508668290446,-9.7994700435236,0 -36.2507797757751,-9.79905892792384,0 -36.2507695870374,-9.79905353387565,0 -36.2502980627032,-9.79886063741925,0 -36.2498676419434,-9.79866694794895,0 -36.2494367620301,-9.7984084198587,0 -36.2492660055022,-9.79828035239916,0 -36.2491217934007,-9.79821639476805,0 -36.2489561230643,-9.79819736163815,0 -36.2489076147744,-9.79821757149801,0 -36.2488825304035,-9.7982536552208,0 -36.2487095078829,-9.7984915610339,0 -36.2484060351675,-9.79875168033604,0 -36.2479320004888,-9.79901024450972,0 -36.2477172342369,-9.79911762754965,0 -36.2477035748953,-9.79912467048918,0 -36.2477266556839,-9.79922610439519,0 -36.2482630986892,-9.80135042042697,0 -36.2484133464503,-9.80201580397462,0 -36.2485849976046,-9.80276677844905,0 -36.248649440374,-9.80304603069806,0 -36.248756593632,-9.80360322823543,0 -36.2488152598575,-9.80378886564596,0 -36.2490681030887,-9.80400178558564,0 -36.2496468907517,-9.804451953914,0 -36.2500554342522,-9.8047744883604,0 -36.250956629212,-9.80554694142556,0</coordinates></LinearRing></outerBoundaryIs></Polygon></MultiGeometry>
  </Placemark>
</Folder>
</Document></kml>
