<?xml version="1.0" encoding="utf-8" ?>
<kml xmlns="http://www.opengis.net/kml/2.2">
<Document id="root_doc">
<Schema name="BARRA_DA_PINDOBA_TALHAO_1007_ID_262" id="BARRA_DA_PINDOBA_TALHAO_1007_ID_262">
	<SimpleField name="ID" type="float"></SimpleField>
	<SimpleField name="AREA_TOTAL" type="float"></SimpleField>
	<SimpleField name="FAZENDA" type="float"></SimpleField>
	<SimpleField name="FAZ_NOME" type="string"></SimpleField>
	<SimpleField name="TALHAO" type="float"></SimpleField>
	<SimpleField name="ZONA" type="float"></SimpleField>
	<SimpleField name="ACIONISTA" type="string"></SimpleField>
	<SimpleField name="CODE" type="string"></SimpleField>
</Schema>
<Folder><name>BARRA_DA_PINDOBA_TALHAO_1007_ID_262</name>
  <Placemark id="BARRA_DA_PINDOBA_TALHAO_1007_ID_262.1">
	<Style><LineStyle><color>ff0000ff</color></LineStyle><PolyStyle><fill>0</fill></PolyStyle></Style>
	<ExtendedData><SchemaData schemaUrl="#BARRA_DA_PINDOBA_TALHAO_1007_ID_262">
		<SimpleData name="ID">262</SimpleData>
		<SimpleData name="AREA_TOTAL">2.37</SimpleData>
		<SimpleData name="FAZ_NOME">BARRA DA PINDOBA</SimpleData>
		<SimpleData name="TALHAO">1007</SimpleData>
		<SimpleData name="ZONA">1</SimpleData>
		<SimpleData name="ACIONISTA">ISABEL TENÓRIO</SimpleData>
		<SimpleData name="CODE"></SimpleData>
	</SchemaData></ExtendedData>
      <MultiGeometry><Polygon><outerBoundaryIs><LinearRing><coordinates>-36.2520142745518,-9.80761130477654,0 -36.2519078880118,-9.80780280041381,0 -36.2517569524544,-9.80795373587835,0 -36.2516495856739,-9.8081040492737,0 -36.2516030842218,-9.80814918981515,0 -36.2514874695662,-9.80817471679537,0 -36.251294919683,-9.808174716742,0 -36.250995985721,-9.80826012634304,0 -36.2508658456928,-9.80828181630762,0 -36.2506969305702,-9.80830293064795,0 -36.2506519693889,-9.80832541121969,0 -36.2506067580985,-9.80832033435514,0 -36.2505728477757,-9.80829965233803,0 -36.2505511274677,-9.80827793201957,0 -36.2504223819381,-9.80819210162045,0 -36.2502938278177,-9.80806354743788,0 -36.2501270163681,-9.80795929022609,0 -36.2500077616759,-9.80793941441172,0 -36.2499648289076,-9.80796088077752,0 -36.2500439597774,-9.80823783894616,0 -36.2501827609062,-9.80875886707712,0 -36.2535668786539,-9.80774232677731,0 -36.2532811273832,-9.80754836585027,0 -36.2528727154876,-9.80722593522075,0 -36.2525989937554,-9.80699479286946,0 -36.2523293612402,-9.80707905290159,0 -36.2518807703393,-9.80731402890309,0 -36.2513196158083,-9.80765935451155,0 -36.2507341120834,-9.80770272498863,0 -36.2503459865153,-9.80765959981933,0 -36.2503360830351,-9.80765827984394,0 -36.2503558515206,-9.80766816408597,0 -36.2506093763464,-9.80777379949536,0 -36.2507790218701,-9.80777379953716,0 -36.2510125417439,-9.80781625775491,0 -36.2513938726929,-9.80771033260541,0 -36.2516743004497,-9.80760247586857,0 -36.2518856684117,-9.80758133913146,0 -36.2521617008225,-9.80734777339303,0 -36.2525099590793,-9.80715781438133,0 -36.2521408565977,-9.80752691680271,0 -36.2520142745518,-9.80761130477654,0</coordinates></LinearRing></outerBoundaryIs></Polygon></MultiGeometry>
  </Placemark>
</Folder>
</Document></kml>
