<?xml version="1.0" encoding="UTF-8"?>
<kml xmlns="http://www.opengis.net/kml/2.2" xmlns:gx="http://www.google.com/kml/ext/2.2" xmlns:kml="http://www.opengis.net/kml/2.2" xmlns:atom="http://www.w3.org/2005/Atom">
<Document>
  <name>2006.kml</name>
  <StyleMap id="FFFF4000">
    <Pair>
      <key>normal</key>
      <styleUrl>#s_FFFF4000</styleUrl>
    </Pair>
    <Pair>
      <key>highlight</key>
      <styleUrl>#s_FFFF4000_hl</styleUrl>
    </Pair>
  </StyleMap>
  <Style id="s_FFFF4000">
   <IconStyle>
      <scale>1.1</scale>
      <Icon>
        <href>http://maps.google.com/mapfiles/kml/pushpin/agrocad.png</href>
      </Icon>
      <hotSpot x="20" y="2" xunits="pixels" yunits="pixels"/>
    </IconStyle>
    <LineStyle>
      <color>FFFF4000</color>
      <width>1</width>
    </LineStyle>
    <PolyStyle>
      <color>40ffffff</color>
      <fill>1</fill>
    </PolyStyle>
  </Style>
  <Style id="s_FFFF4000_hl">
    <IconStyle>
      <scale>1.3</scale>
      <Icon>
        <href>http://maps.google.com/mapfiles/kml/pushpin/agrocad.png</href>
      </Icon>
      <hotSpot x="20" y="2" xunits="pixels" yunits="pixels"/>
    </IconStyle>
    <LineStyle>
      <color>ff000000</color>
      <width>1</width>
    </LineStyle>
    <PolyStyle>
      <color>40ffffff</color>
      <fill>1</fill>
    </PolyStyle>
  </Style>
  <Placemark>
    <name>AgroCAD: 9551</name>
    <styleUrl>FFFF4000</styleUrl>
    <Polygon>
      <outerBoundaryIs>
        <LinearRing>
          <coordinates>
           -36.24096102832862,-9.73555104590564 -36.23971776394671,-9.73628439877433 -36.23836050539764,-9.73899798783245 -36.23936456653800,-9.74066719905142 -36.23946502077365,-9.74060914093423 -36.24086098612379,-9.73979440858387 -36.24147389779287,-9.73943767637158 -36.24167323374667,-9.73917674832512 -36.24177211810890,-9.73898072381671 -36.24182997995526,-9.73884771205772 -36.24186391022873,-9.73874791992531 -36.24191700977465,-9.73858950530552 -36.24203336853383,-9.73824252548355 -36.24207668594318,-9.73810160136243 -36.24211912524245,-9.73793869555646 -36.24213056334003,-9.73786945092092 -36.24213274105323,-9.73780144303220 -36.24212472105521,-9.73773515646706 -36.24210652783842,-9.73767425620333 -36.24207503525531,-9.73759042919528 -36.24202934799110,-9.73749349180284 -36.24193179773615,-9.73730956299449 -36.24183080763477,-9.73712753689048 -36.24170896900956,-9.73690405448407 -36.24159651694337,-9.73669721360682 -36.24148104225703,-9.73648213589834 -36.24139612214229,-9.73632600745511 -36.24130651491092,-9.73616319994256 -36.24106749410002,-9.73573776847602 -36.24096102832862,-9.73555104590564
          </coordinates>
        </LinearRing>
      </outerBoundaryIs>
    </Polygon>
  </Placemark>
  <Placemark>
    <name>AgroCAD: 9550</name>
    <styleUrl>FFFF4000</styleUrl>
    <Polygon>
      <outerBoundaryIs>
        <LinearRing>
          <coordinates>
           -36.23961681817183,-9.73634394233977 -36.23751115653776,-9.73758596825120 -36.23832164993976,-9.73893339190730 -36.23961681817183,-9.73634394233977
          </coordinates>
        </LinearRing>
      </outerBoundaryIs>
    </Polygon>
  </Placemark>
</Document>
</kml>
