<?xml version="1.0" encoding="utf-8" ?>
<kml xmlns="http://www.opengis.net/kml/2.2">
<Document id="root_doc">
<Schema name="RIACHUELO_TALHAO_1012_ID_302" id="RIACHUELO_TALHAO_1012_ID_302">
	<SimpleField name="ID" type="float"></SimpleField>
	<SimpleField name="AREA_TOTAL" type="float"></SimpleField>
	<SimpleField name="FAZENDA" type="float"></SimpleField>
	<SimpleField name="FAZ_NOME" type="string"></SimpleField>
	<SimpleField name="TALHAO" type="float"></SimpleField>
	<SimpleField name="ZONA" type="float"></SimpleField>
	<SimpleField name="ACIONISTA" type="string"></SimpleField>
	<SimpleField name="CODE" type="string"></SimpleField>
</Schema>
<Folder><name>RIACHUELO_TALHAO_1012_ID_302</name>
  <Placemark id="RIACHUELO_TALHAO_1012_ID_302.1">
	<Style><LineStyle><color>ff0000ff</color></LineStyle><PolyStyle><fill>0</fill></PolyStyle></Style>
	<ExtendedData><SchemaData schemaUrl="#RIACHUELO_TALHAO_1012_ID_302">
		<SimpleData name="ID">302</SimpleData>
		<SimpleData name="AREA_TOTAL">11.59</SimpleData>
		<SimpleData name="FAZ_NOME">RIACHUELO</SimpleData>
		<SimpleData name="TALHAO">1012</SimpleData>
		<SimpleData name="ZONA">1</SimpleData>
		<SimpleData name="ACIONISTA">Dr. CARLOS MONTEIRO</SimpleData>
		<SimpleData name="CODE"></SimpleData>
	</SchemaData></ExtendedData>
      <MultiGeometry><Polygon><outerBoundaryIs><LinearRing><coordinates>-36.2198138041167,-9.82417636398208,0 -36.2230532942747,-9.8278584124244,0 -36.2248108649305,-9.82658667198848,0 -36.2248101426126,-9.82658569265773,0 -36.2246583960114,-9.82640763384291,0 -36.2238818769295,-9.82551983830894,0 -36.2236982299558,-9.82530868185052,0 -36.2225341660742,-9.82398310137644,0 -36.2222610553316,-9.82367478929635,0 -36.2221292289349,-9.82352165768146,0 -36.2220997904899,-9.82352512059439,0 -36.2219326171897,-9.82363659395654,0 -36.2218747256493,-9.82367960177788,0 -36.2218075437543,-9.82373186575768,0 -36.2217290125069,-9.82379158262709,0 -36.2216473398315,-9.82385203426135,0 -36.2215578727897,-9.82390110560718,0 -36.2214600639463,-9.82393951852596,0 -36.2213533583147,-9.82396917061281,0 -36.2212472394857,-9.82398578593171,0 -36.2211434705794,-9.82399778398279,0 -36.2210346052954,-9.82400150974048,0 -36.2209207337894,-9.82399997962553,0 -36.2208061573255,-9.82398973745883,0 -36.2206904276656,-9.82397919959315,0 -36.2205711157578,-9.82397372922074,0 -36.2204631096166,-9.82398543637772,0 -36.2203691493829,-9.82401613653838,0 -36.2202736026727,-9.82404256534214,0 -36.2201810767813,-9.82404087808184,0 -36.2200805499739,-9.82403513326367,0 -36.2199784207061,-9.824063143287,0 -36.2198856535991,-9.82412022348001,0 -36.2198138041167,-9.82417636398208,0</coordinates></LinearRing></outerBoundaryIs></Polygon></MultiGeometry>
  </Placemark>
</Folder>
</Document></kml>
