<?xml version="1.0" encoding="utf-8" ?>
<kml xmlns="http://www.opengis.net/kml/2.2">
<Document id="root_doc">
<Schema name="NOVO_TALHAO_1057_ID_1119" id="NOVO_TALHAO_1057_ID_1119">
	<SimpleField name="TALHAO" type="string"></SimpleField>
	<SimpleField name="FAZENDA" type="string"></SimpleField>
	<SimpleField name="ZONA" type="string"></SimpleField>
	<SimpleField name="ID" type="float"></SimpleField>
	<SimpleField name="AREA_TOTAL" type="float"></SimpleField>
	<SimpleField name="FAZ_NOME" type="string"></SimpleField>
	<SimpleField name="CODE" type="string"></SimpleField>
</Schema>
<Folder><name>NOVO_TALHAO_1057_ID_1119</name>
  <Placemark id="NOVO_TALHAO_1057_ID_1119.1">
	<Style><LineStyle><color>ff0000ff</color></LineStyle><PolyStyle><fill>0</fill></PolyStyle></Style>
	<ExtendedData><SchemaData schemaUrl="#NOVO_TALHAO_1057_ID_1119">
		<SimpleData name="TALHAO">1057</SimpleData>
		<SimpleData name="FAZENDA">1943</SimpleData>
		<SimpleData name="ZONA">1</SimpleData>
		<SimpleData name="ID">1119</SimpleData>
		<SimpleData name="AREA_TOTAL">3.89</SimpleData>
		<SimpleData name="FAZ_NOME">NOVO</SimpleData>
		<SimpleData name="CODE"></SimpleData>
	</SchemaData></ExtendedData>
      <MultiGeometry><Polygon><outerBoundaryIs><LinearRing><coordinates>-36.1499806258567,-9.93511371852579,0 -36.1499651167319,-9.93650626738282,0 -36.1499651163457,-9.93650630214318,0 -36.1499882166953,-9.93651318394691,0 -36.150008126402,-9.93652082305981,0 -36.1500420772809,-9.93653096786221,0 -36.1501037062321,-9.93654063259508,0 -36.1501424374472,-9.93654411502207,0 -36.1502183363681,-9.93653832067036,0 -36.1502552335035,-9.93651451868847,0 -36.1502813972827,-9.9365034848388,0 -36.150304351544,-9.93648910381906,0 -36.1503259776779,-9.93647904547995,0 -36.1503502522044,-9.93647130098795,0 -36.1503779065093,-9.93646640847596,0 -36.1503999990142,-9.93645957758986,0 -36.1504238042723,-9.93645240879425,0 -36.150441143846,-9.93644823382497,0 -36.1504608556227,-9.93644103199656,0 -36.1504836613463,-9.93643408890079,0 -36.1505058049326,-9.93642725855336,0 -36.1505359786837,-9.93642030958915,0 -36.1505996308706,-9.93640560970661,0 -36.1506647884356,-9.93638301573361,0 -36.1507007901666,-9.93637150636811,0 -36.1507381124971,-9.93637008502561,0 -36.1507733082047,-9.93636853688099,0 -36.1508252679048,-9.93637691882439,0 -36.1508639164826,-9.93636956094652,0 -36.1508892344471,-9.93636631617647,0 -36.1509097037441,-9.93636636051806,0 -36.1509373537261,-9.93636502967837,0 -36.1509572417707,-9.93636848018726,0 -36.1509825734435,-9.93636520960922,0 -36.1510063778509,-9.93636452921464,0 -36.1510254270005,-9.93636452524047,0 -36.1510573779333,-9.93636702513468,0 -36.1510726726001,-9.93636678555407,0 -36.1510954779212,-9.93636565486661,0 -36.1511180668686,-9.9363647896878,0 -36.1511477324031,-9.93636623475781,0 -36.1511709017727,-9.93636874385309,0 -36.1511950754299,-9.93637172444374,0 -36.1512172201598,-9.93637341700663,0 -36.1512386350902,-9.93637598049483,0 -36.1512609892305,-9.93637364911227,0 -36.1512833766407,-9.93637566239626,0 -36.1513199587243,-9.93637689945578,0 -36.1513426268277,-9.93637404680775,0 -36.1513803479084,-9.93637341104848,0 -36.1514341942142,-9.93635964549309,0 -36.151456264409,-9.93635134680845,0 -36.1514821845407,-9.93634160255013,0 -36.1515066467539,-9.93633751486351,0 -36.1515311835443,-9.93633190698877,0 -36.1515841142346,-9.93631745344273,0 -36.1516080462257,-9.93630215243077,0 -36.1516456773469,-9.9362880546924,0 -36.1516831816293,-9.93626146234316,0 -36.1516995075292,-9.93624801788043,0 -36.151714694794,-9.93623707068219,0 -36.1517394749403,-9.93620956675316,0 -36.1517547593275,-9.93619613974386,0 -36.1517855459124,-9.93615315799497,0 -36.1518032824943,-9.93613016184167,0 -36.1518174539095,-9.93611573067107,0 -36.1518397850005,-9.9360792072602,0 -36.1518537382179,-9.93605015002788,0 -36.1518667311321,-9.93601304265805,0 -36.1518781051047,-9.93597424135668,0 -36.1518859662323,-9.93595506263783,0 -36.151894424765,-9.93593364517872,0 -36.1519059037496,-9.93590533831507,0 -36.1519246654311,-9.93587435832795,0 -36.1519404348153,-9.93584181072157,0 -36.1519474638599,-9.93582135202894,0 -36.1519537534663,-9.93580154954315,0 -36.1519645791051,-9.93577920472084,0 -36.1519690495769,-9.93576288256928,0 -36.1519753676054,-9.93574471657664,0 -36.151979926862,-9.93572440161104,0 -36.1519905994038,-9.93570424744467,0 -36.1519993539378,-9.93567804469648,0 -36.1520101982749,-9.93565425358661,0 -36.1520163360184,-9.93563321667897,0 -36.1520239871795,-9.93561292563672,0 -36.1520334319793,-9.93559561251739,0 -36.152043460768,-9.93558055491046,0 -36.1520498024702,-9.93556367997204,0 -36.1520693366829,-9.93552764643051,0 -36.1520698077778,-9.93552669263444,0 -36.1520776499951,-9.93550515480392,0 -36.1520928347389,-9.9354814267834,0 -36.1521041000957,-9.93546425383415,0 -36.1521144405563,-9.93544784083425,0 -36.1521246851836,-9.93542886283579,0 -36.1521361178201,-9.93541112819861,0 -36.1521471138603,-9.93538917495964,0 -36.152159515064,-9.93537222093546,0 -36.1521782775066,-9.9353534908368,0 -36.1522401752416,-9.93531674006844,0 -36.152267145054,-9.93526848312089,0 -36.1522848191473,-9.93525276127436,0 -36.1523030936874,-9.93523997465801,0 -36.1523160197039,-9.93523079533809,0 -36.1523390307189,-9.93521241233523,0 -36.1523566330627,-9.93519117834394,0 -36.1523785649658,-9.93517366129963,0 -36.1499836584165,-9.93455582256547,0 -36.1499806258567,-9.93511371852579,0</coordinates></LinearRing></outerBoundaryIs></Polygon></MultiGeometry>
  </Placemark>
</Folder>
</Document></kml>
