<?xml version="1.0" encoding="utf-8" ?>
<kml xmlns="http://www.opengis.net/kml/2.2">
<Document id="root_doc">
<Schema name="NOVO_TALHAO_1047_ID_913" id="NOVO_TALHAO_1047_ID_913">
	<SimpleField name="TALHAO" type="string"></SimpleField>
	<SimpleField name="FAZENDA" type="string"></SimpleField>
	<SimpleField name="ZONA" type="string"></SimpleField>
	<SimpleField name="ID" type="float"></SimpleField>
	<SimpleField name="AREA_TOTAL" type="float"></SimpleField>
	<SimpleField name="FAZ_NOME" type="string"></SimpleField>
	<SimpleField name="CODE" type="string"></SimpleField>
</Schema>
<Folder><name>NOVO_TALHAO_1047_ID_913</name>
  <Placemark id="NOVO_TALHAO_1047_ID_913.1">
	<Style><LineStyle><color>ff0000ff</color></LineStyle><PolyStyle><fill>0</fill></PolyStyle></Style>
	<ExtendedData><SchemaData schemaUrl="#NOVO_TALHAO_1047_ID_913">
		<SimpleData name="TALHAO">1047</SimpleData>
		<SimpleData name="FAZENDA">1943</SimpleData>
		<SimpleData name="ZONA">1</SimpleData>
		<SimpleData name="ID">913</SimpleData>
		<SimpleData name="AREA_TOTAL">3.13</SimpleData>
		<SimpleData name="FAZ_NOME">NOVO</SimpleData>
		<SimpleData name="CODE"></SimpleData>
	</SchemaData></ExtendedData>
      <MultiGeometry><Polygon><outerBoundaryIs><LinearRing><coordinates>-36.1541320924872,-9.92140092260935,0 -36.1541532767936,-9.92140419439497,0 -36.1541899721587,-9.92140011971808,0 -36.1542304174732,-9.92139510332004,0 -36.1542755354477,-9.92138811944628,0 -36.1543247124196,-9.92138129820691,0 -36.1543776608962,-9.92137398321618,0 -36.1544351587777,-9.92136635107467,0 -36.1544946497531,-9.92136024679347,0 -36.1545504094829,-9.9213603278226,0 -36.1546059394007,-9.92135515162888,0 -36.1546614755105,-9.92134961127949,0 -36.1547153851242,-9.9213442341237,0 -36.1547694778272,-9.92133575602902,0 -36.1548235977663,-9.92132937088605,0 -36.154870933063,-9.92133169024552,0 -36.1549234048095,-9.92131695584352,0 -36.1549765152603,-9.9213121587962,0 -36.1550280881854,-9.9213081821974,0 -36.1550819160602,-9.92130205634034,0 -36.1551387739542,-9.92129521133525,0 -36.155197815538,-9.92129088388135,0 -36.1552554154556,-9.92128463698969,0 -36.1553106235487,-9.92127827639917,0 -36.1553603830381,-9.9212729803618,0 -36.1554075425154,-9.92126575034494,0 -36.155455375283,-9.92126258826882,0 -36.1555071929187,-9.9212600133606,0 -36.1555488822577,-9.92125241866056,0 -36.1556048417516,-9.92124633367521,0 -36.155658986704,-9.9212427908469,0 -36.1557097668926,-9.92123871932581,0 -36.1557600007063,-9.92123507557699,0 -36.1558175513827,-9.92123047656227,0 -36.1558876832838,-9.92122357461856,0 -36.1559657055148,-9.92121520076778,0 -36.1560495369813,-9.92120708108657,0 -36.1561329722164,-9.92120005399769,0 -36.1562142625341,-9.92119262890066,0 -36.1562952518987,-9.9211841799872,0 -36.1563754757452,-9.92117642792523,0 -36.1564541679054,-9.9211683001158,0 -36.1565308873142,-9.92116056125673,0 -36.156605011455,-9.92115288931672,0 -36.1566768842284,-9.92114522285305,0 -36.1567460571066,-9.92113909905413,0 -36.1568134032769,-9.92113278631966,0 -36.156879484582,-9.92112676197209,0 -36.156944295061,-9.92112142037498,0 -36.1570075671109,-9.92111610954663,0 -36.1570698120821,-9.92110925850558,0 -36.1571319994545,-9.92110432375988,0 -36.1571923444653,-9.92109898258249,0 -36.157250368966,-9.92109393893202,0 -36.1573040088616,-9.92108878295187,0 -36.157352334751,-9.92108433621814,0 -36.1574047251182,-9.92107786999086,0 -36.1574611978795,-9.92107179638459,0 -36.157515914999,-9.92106575173446,0 -36.1575679666778,-9.92106087155894,0 -36.1576168964293,-9.92105665632096,0 -36.1576597193946,-9.92105273179752,0 -36.1576982469727,-9.92104897049588,0 -36.157794903806,-9.92103959561329,0 -36.1579309562554,-9.91997721484936,0 -36.1579309679111,-9.91997712383361,0 -36.157898294299,-9.91998740453972,0 -36.1578716408601,-9.9199921798813,0 -36.157848913803,-9.91999770098652,0 -36.157824238415,-9.92000490300258,0 -36.1578015060553,-9.92000933596233,0 -36.1577766530575,-9.92001668262805,0 -36.1577576926699,-9.92001983537706,0 -36.1577353594867,-9.92002827088205,0 -36.1577132708429,-9.9200387007345,0 -36.1576899688996,-9.92004557625737,0 -36.1576700526084,-9.92005256132351,0 -36.1576526085812,-9.92006581704211,0 -36.1576298145469,-9.92007408218994,0 -36.1576104137447,-9.92008351110731,0 -36.1575929423217,-9.92009132438735,0 -36.1575739117725,-9.92010483941956,0 -36.1575511922477,-9.92011602591077,0 -36.1575253382377,-9.92012441092104,0 -36.1575047656677,-9.92012711680886,0 -36.1574866396949,-9.92013086253688,0 -36.157474645674,-9.92013646711512,0 -36.157457456769,-9.92014629702448,0 -36.1574390795907,-9.92015926211331,0 -36.1574155502361,-9.92016642295134,0 -36.15739551321,-9.92017455292691,0 -36.1573728973448,-9.92018405553737,0 -36.1573499483928,-9.92019487158934,0 -36.1573281059157,-9.92020430653213,0 -36.1573057163016,-9.92021623166437,0 -36.1572812058119,-9.92022601228172,0 -36.1572557978171,-9.92023130390912,0 -36.1572344466383,-9.9202373623523,0 -36.1572111121641,-9.92024622465505,0 -36.157187639312,-9.92025029291957,0 -36.1571652583708,-9.92025763601343,0 -36.1571430752734,-9.92026472187462,0 -36.1571199791874,-9.92027076841164,0 -36.15709395872,-9.92027680695648,0 -36.1570665200994,-9.9202806624857,0 -36.1570438098196,-9.9202771278995,0 -36.1570213905576,-9.92028000655401,0 -36.1569938888333,-9.9202803632122,0 -36.1569704579281,-9.92027698201037,0 -36.1569502549379,-9.92028299187533,0 -36.1569275647632,-9.92028550981514,0 -36.1569098463235,-9.92029320487213,0 -36.1568860641815,-9.92030209484314,0 -36.1568581563083,-9.92030839785801,0 -36.1568326185472,-9.92030800649123,0 -36.1568109260797,-9.92030998173967,0 -36.1567881896275,-9.92031143610974,0 -36.1567625001968,-9.92031402995439,0 -36.15673631601,-9.92030971133769,0 -36.1567114874818,-9.92030769778394,0 -36.1566837028608,-9.92030889266646,0 -36.156664352074,-9.92030399434612,0 -36.1566423106744,-9.92030348633879,0 -36.1566171346786,-9.9203046277987,0 -36.1565865925974,-9.92030354813462,0 -36.1565601681199,-9.92030262762228,0 -36.1565352427988,-9.92030081679468,0 -36.1565087738898,-9.92029912996885,0 -36.1564806835244,-9.92029512290657,0 -36.1564551001983,-9.92028841951337,0 -36.1564315337016,-9.92028142045926,0 -36.1564077161983,-9.92027728438015,0 -36.1563857122051,-9.92027618613126,0 -36.1563605580034,-9.92027441644449,0 -36.1563358549012,-9.92027423232647,0 -36.1563099644251,-9.92027240124474,0 -36.156286650673,-9.92027238603064,0 -36.156260463953,-9.92027236913133,0 -36.156235511209,-9.92027102499791,0 -36.1562144670607,-9.92027641834553,0 -36.1561895547188,-9.92028152348031,0 -36.1561668986967,-9.92028813132423,0 -36.1561449934002,-9.92029719212326,0 -36.1561242285313,-9.92030902636072,0 -36.1560998016391,-9.92032607025015,0 -36.1560742975134,-9.92033667362646,0 -36.1560560319381,-9.92034713309321,0 -36.1560386020368,-9.92035957224129,0 -36.1560238899164,-9.92037782043791,0 -36.1560127358485,-9.92039445377268,0 -36.1559992957407,-9.92041968971154,0 -36.1559787687122,-9.92043717805519,0 -36.1559636561955,-9.9204527199663,0 -36.1559500176791,-9.92047044084615,0 -36.1559330669029,-9.92049003178451,0 -36.1559150096213,-9.92050739837629,0 -36.1558992341215,-9.92052418404595,0 -36.155884010899,-9.92054080095348,0 -36.1558684373905,-9.92055971035299,0 -36.1558480228874,-9.92057785214994,0 -36.1558288504951,-9.92059274150413,0 -36.1558122361406,-9.92060895290131,0 -36.1557913196585,-9.92062628918982,0 -36.1557692949817,-9.92063878993958,0 -36.1557510067183,-9.92065108583621,0 -36.1557315825157,-9.92066664554421,0 -36.1557108401692,-9.92068249112622,0 -36.1556877694059,-9.92069511657622,0 -36.1556651349594,-9.92070781659605,0 -36.1556427316285,-9.9207208805463,0 -36.1556206762886,-9.92073384663307,0 -36.1556013787528,-9.92074817710667,0 -36.1555795624031,-9.92076478908859,0 -36.1555571469858,-9.92077846214786,0 -36.1555379397551,-9.92079131873847,0 -36.1555195138262,-9.92080867367381,0 -36.1554950563282,-9.92082074490764,0 -36.155470922,-9.92083730415604,0 -36.1554465141647,-9.92084689153081,0 -36.1554228987429,-9.9208590045599,0 -36.155399238028,-9.92087007429297,0 -36.1553769506054,-9.92088372362774,0 -36.1553544826159,-9.92089658334782,0 -36.1553317688002,-9.920913254516,0 -36.1553072479119,-9.92092523734565,0 -36.1552839446167,-9.920933171826,0 -36.1552582303409,-9.92094580897228,0 -36.1552324454782,-9.92095138084731,0 -36.1552088405966,-9.92095983099521,0 -36.1551823972511,-9.92096567313513,0 -36.1551571710533,-9.92097330023962,0 -36.1551301588723,-9.92097774767214,0 -36.1551072816836,-9.92098056561045,0 -36.155090094977,-9.92099040923443,0 -36.1550642890109,-9.92099765076314,0 -36.1550368038791,-9.92100258600511,0 -36.1550129261103,-9.92100422469204,0 -36.1549874843927,-9.92100976037984,0 -36.154960650434,-9.92101109015165,0 -36.1549346573205,-9.92101532597207,0 -36.1549089642534,-9.92101665763197,0 -36.1548841699814,-9.92101841867971,0 -36.1548589460266,-9.92102080934139,0 -36.1548350553645,-9.92102054271925,0 -36.1548099022645,-9.92102225941094,0 -36.1547844786714,-9.92102597913388,0 -36.1547588002432,-9.92103022834627,0 -36.1547314824606,-9.92103255117198,0 -36.1547032167315,-9.92103241075198,0 -36.1546812720412,-9.92102997454041,0 -36.1546563480122,-9.92102941950544,0 -36.1546306273503,-9.92103088283338,0 -36.1546040196983,-9.92103236586048,0 -36.1545772751937,-9.92103549200902,0 -36.1545499118093,-9.92103492626182,0 -36.1545237771357,-9.92104153395179,0 -36.1544955592588,-9.92104183413412,0 -36.1544690929137,-9.9210424870246,0 -36.1544433621534,-9.92104430888207,0 -36.1544149585399,-9.92104516515676,0 -36.1543876245197,-9.92104252986898,0 -36.1543617179526,-9.92104412495346,0 -36.1543359455602,-9.92104765234841,0 -36.1543095038288,-9.92104802873106,0 -36.1542839642249,-9.92105230550305,0 -36.1542568924371,-9.92105298983452,0 -36.1542303498871,-9.92105440452525,0 -36.1542023096637,-9.92105281189849,0 -36.1541758892498,-9.92105031797754,0 -36.1541524351437,-9.92105049163709,0 -36.1541296382689,-9.92105604249508,0 -36.1541040387308,-9.92106534308459,0 -36.1540789504215,-9.92106943743155,0 -36.1540555109091,-9.92107702372166,0 -36.1540319091712,-9.92108435792601,0 -36.1540089025274,-9.92109361827163,0 -36.1539865785829,-9.9211042283428,0 -36.1539661943729,-9.92111688129491,0 -36.1539454868183,-9.92113465445736,0 -36.1539202247246,-9.92114324206419,0 -36.1538956145652,-9.92114587573378,0 -36.1538737296133,-9.9211463279572,0 -36.1538451943346,-9.92114595187859,0 -36.1538196447539,-9.92114710580269,0 -36.1538000388517,-9.92115457434161,0 -36.1537816780888,-9.92116670879652,0 -36.153761987187,-9.921179231475,0 -36.1537437154377,-9.92119528174678,0 -36.1537172499559,-9.92120510945721,0 -36.1536946098845,-9.92121596925329,0 -36.1536741312607,-9.92123181426257,0 -36.1536489874018,-9.92124493677377,0 -36.1536219704134,-9.92125557480131,0 -36.1535968937373,-9.9212643930992,0 -36.1535719425264,-9.92127270239785,0 -36.1535479896651,-9.92128280023476,0 -36.1535233441033,-9.92129245917522,0 -36.1534995443994,-9.92130377215115,0 -36.153477988721,-9.92131556227704,0 -36.1534561672991,-9.92132251513836,0 -36.1534342075852,-9.9213312660169,0 -36.1534121816411,-9.92134218933947,0 -36.1533923815592,-9.92135284153782,0 -36.1533806420296,-9.92136453845417,0 -36.1533795645628,-9.92138026665094,0 -36.1533818999577,-9.92139928206513,0 -36.1533879368456,-9.92141521459699,0 -36.1533976830732,-9.92142771568436,0 -36.1534109529876,-9.92143859794988,0 -36.1534270258246,-9.92144522591925,0 -36.1534446042004,-9.92144795906173,0 -36.1534628149925,-9.92145169481471,0 -36.1534838250928,-9.92144578824671,0 -36.1535076837193,-9.92144155914085,0 -36.1535328477399,-9.92144272513574,0 -36.1535547963533,-9.92143682924503,0 -36.1535786457549,-9.92143307190356,0 -36.1536027214843,-9.92142882022181,0 -36.1536285212856,-9.92142531656271,0 -36.1536523618805,-9.92142488538594,0 -36.1536729590988,-9.92142561733715,0 -36.1536928410471,-9.92142119685916,0 -36.1537156739013,-9.92141816348855,0 -36.1537375750267,-9.9214139170344,0 -36.1537586834746,-9.92140812997428,0 -36.1537848094252,-9.92140865645254,0 -36.1538080833712,-9.92140456459754,0 -36.1538327439054,-9.92140105560013,0 -36.1538547935532,-9.92140187379835,0 -36.1538782020101,-9.92139598228011,0 -36.1539111781688,-9.921390140758,0 -36.1539361526195,-9.92138280326177,0 -36.1539598657339,-9.9213758918588,0 -36.1539849304593,-9.92137409358898,0 -36.1540114501002,-9.92137589289317,0 -36.1540350650489,-9.92138313217875,0 -36.1540584964291,-9.92138982859765,0 -36.154081771495,-9.92139470622651,0 -36.1541054514618,-9.92139865422678,0 -36.1541320924872,-9.92140092260935,0</coordinates></LinearRing></outerBoundaryIs></Polygon></MultiGeometry>
  </Placemark>
</Folder>
</Document></kml>
