<?xml version="1.0" encoding="utf-8" ?>
<kml xmlns="http://www.opengis.net/kml/2.2">
<Document id="root_doc">
<Schema name="NOVO_TALHAO_1046_ID_914" id="NOVO_TALHAO_1046_ID_914">
	<SimpleField name="TALHAO" type="string"></SimpleField>
	<SimpleField name="FAZENDA" type="string"></SimpleField>
	<SimpleField name="ZONA" type="string"></SimpleField>
	<SimpleField name="ID" type="float"></SimpleField>
	<SimpleField name="AREA_TOTAL" type="float"></SimpleField>
	<SimpleField name="FAZ_NOME" type="string"></SimpleField>
	<SimpleField name="CODE" type="string"></SimpleField>
</Schema>
<Folder><name>NOVO_TALHAO_1046_ID_914</name>
  <Placemark id="NOVO_TALHAO_1046_ID_914.1">
	<Style><LineStyle><color>ff0000ff</color></LineStyle><PolyStyle><fill>0</fill></PolyStyle></Style>
	<ExtendedData><SchemaData schemaUrl="#NOVO_TALHAO_1046_ID_914">
		<SimpleData name="TALHAO">1046</SimpleData>
		<SimpleData name="FAZENDA">1943</SimpleData>
		<SimpleData name="ZONA">1</SimpleData>
		<SimpleData name="ID">914</SimpleData>
		<SimpleData name="AREA_TOTAL">23.35</SimpleData>
		<SimpleData name="FAZ_NOME">NOVO</SimpleData>
		<SimpleData name="CODE"></SimpleData>
	</SchemaData></ExtendedData>
      <MultiGeometry><Polygon><outerBoundaryIs><LinearRing><coordinates>-36.152152847906,-9.9172053879513,0 -36.1520897710213,-9.91714721511511,0 -36.1520958457896,-9.91713544182826,0 -36.1521193175573,-9.917084384401,0 -36.1521374176036,-9.91702371080446,0 -36.1521523944057,-9.9168688195439,0 -36.1521627062438,-9.91679970068436,0 -36.1521741502149,-9.91663649229687,0 -36.1522098094355,-9.91628142278911,0 -36.1522406181795,-9.91598821008565,0 -36.1522614093414,-9.91578690575648,0 -36.1523139822269,-9.91524531613491,0 -36.1523610608877,-9.91472289387004,0 -36.1524054208891,-9.91418052155381,0 -36.1512785180521,-9.91412654977153,0 -36.1512779643083,-9.91412775338433,0 -36.1512347276431,-9.91417882280335,0 -36.1512201865108,-9.91419470671245,0 -36.1511912861776,-9.91422435100589,0 -36.1511595284946,-9.91426011030042,0 -36.1511032550587,-9.91431277669944,0 -36.1510858676449,-9.91432722519835,0 -36.1510660226151,-9.91434249223675,0 -36.151028058218,-9.91436439805854,0 -36.1509987863106,-9.91438073102939,0 -36.1509785160987,-9.91439153044259,0 -36.1509574559789,-9.91440069560139,0 -36.1509162069673,-9.91442283784952,0 -36.1508891393013,-9.9144394277319,0 -36.1508701802953,-9.91445669309009,0 -36.150848707447,-9.9144736774748,0 -36.1507572024408,-9.914517970708,0 -36.1507197524294,-9.91454618063429,0 -36.1506694664566,-9.91458080606559,0 -36.1506186298108,-9.91461607142289,0 -36.1505039674608,-9.91468320745166,0 -36.1504459888661,-9.91470889695843,0 -36.150403648788,-9.91472913397632,0 -36.1503346911549,-9.91474757697742,0 -36.1503074560441,-9.91475613553633,0 -36.1502739989636,-9.91476601501672,0 -36.1502373702418,-9.91478128162242,0 -36.1502009755755,-9.91479706879772,0 -36.1501549779389,-9.914812413357,0 -36.1501185369594,-9.91481914801275,0 -36.1500782395713,-9.91482334043973,0 -36.1500376377621,-9.91482285603034,0 -36.1499894884766,-9.91482896602847,0 -36.149953781009,-9.91482607460911,0 -36.1498751505817,-9.91483784710372,0 -36.1497980790845,-9.91485771773961,0 -36.1497687999697,-9.91487108036035,0 -36.1497304632807,-9.91489168950955,0 -36.1497047474119,-9.91491202467897,0 -36.1496723671554,-9.91494275513615,0 -36.1496486029443,-9.91496773665705,0 -36.1496237184466,-9.91500620348113,0 -36.149602969552,-9.91503221644059,0 -36.1495896452294,-9.91505016215645,0 -36.1495777151228,-9.91506808385135,0 -36.1495696769521,-9.91508449032822,0 -36.1495547347803,-9.91510755645603,0 -36.1495447147997,-9.91512610033292,0 -36.1495215037508,-9.91516635175766,0 -36.1494994099217,-9.9152055114185,0 -36.1494812215661,-9.91524900983846,0 -36.1494644070355,-9.91528193356766,0 -36.1494354893001,-9.91531704715519,0 -36.1494205511914,-9.91534534952875,0 -36.1494042928348,-9.91537943186749,0 -36.1493927378228,-9.91540588673433,0 -36.1493766871122,-9.91544598034386,0 -36.149370277629,-9.91549114834964,0 -36.149363421217,-9.91552702774369,0 -36.1493499949875,-9.91557529867254,0 -36.1493391309882,-9.91560776272918,0 -36.149325086336,-9.91565175121557,0 -36.1493102301213,-9.91569793196416,0 -36.1492953168218,-9.91572946896872,0 -36.1492780923347,-9.91577073291066,0 -36.1492706705481,-9.91580592568484,0 -36.149260855137,-9.91582960807141,0 -36.1492498487413,-9.91585057713362,0 -36.1492309418109,-9.91590348172851,0 -36.1492215155734,-9.91592510300911,0 -36.1492070598511,-9.91597048234241,0 -36.1491930163139,-9.9160032281724,0 -36.1491795143292,-9.91604646378028,0 -36.1491726094241,-9.91607974020426,0 -36.1491328524107,-9.91614579651135,0 -36.1491207547346,-9.91617069026207,0 -36.1491066708424,-9.91623225505433,0 -36.1490943657422,-9.91625560224838,0 -36.1490677599532,-9.9163098757875,0 -36.1490558884252,-9.91632781213299,0 -36.1490392486206,-9.91637319711548,0 -36.149025402238,-9.91640828700308,0 -36.1490149761221,-9.9164300074867,0 -36.1490047818868,-9.91645311681202,0 -36.1489743764059,-9.91648906013412,0 -36.1489554281503,-9.91654366447106,0 -36.1489471583979,-9.91656682090556,0 -36.1489306597581,-9.91662375122582,0 -36.1489237981037,-9.9166459895738,0 -36.1489131466116,-9.91669054731813,0 -36.1489058290297,-9.91671325297603,0 -36.148883457268,-9.91675936797411,0 -36.1488734851265,-9.9167926033815,0 -36.1488555876925,-9.91683693103653,0 -36.1488435327155,-9.91686755020408,0 -36.1488245621441,-9.91692472478687,0 -36.1488150032894,-9.91695283666237,0 -36.1487923201455,-9.91699690855111,0 -36.1487842626516,-9.91701603108715,0 -36.1487560891629,-9.91709635295535,0 -36.1487247636575,-9.91715835438484,0 -36.148709420812,-9.91720032750654,0 -36.1486996529728,-9.91724505023175,0 -36.1486945044023,-9.91726728602311,0 -36.1486903289386,-9.9172908897612,0 -36.1486731461498,-9.91734747653771,0 -36.1486716405649,-9.91736971972943,0 -36.1486655422062,-9.91741828599923,0 -36.1486590909649,-9.91743942493146,0 -36.1486554908544,-9.91747800034452,0 -36.1486520619889,-9.91751953621152,0 -36.1486406958011,-9.91756925885645,0 -36.1486336938271,-9.9175884698589,0 -36.1486317028373,-9.91762521896049,0 -36.1486308945681,-9.91766695257158,0 -36.1486258873608,-9.9177255369488,0 -36.1486236013324,-9.91775351887467,0 -36.1486225568356,-9.91780748032303,0 -36.1486220248891,-9.91783037116161,0 -36.1486169891855,-9.9178770176145,0 -36.1486158436741,-9.91791116767956,0 -36.1486161965369,-9.91798525948607,0 -36.1486205101447,-9.918009354073,0 -36.1486205924467,-9.91807604535691,0 -36.1486226847945,-9.91811495467548,0 -36.148629403004,-9.91814924756387,0 -36.1486523183762,-9.9181922763362,0 -36.148673872828,-9.91822604455604,0 -36.1486909294543,-9.91824467816431,0 -36.1487057236179,-9.91825867819307,0 -36.1487286507057,-9.91827193030342,0 -36.1487756490171,-9.91829978420607,0 -36.1487942365828,-9.91830301282511,0 -36.1488342561764,-9.91830110869919,0 -36.1488530656939,-9.91830053462497,0 -36.1489045187134,-9.91828928256669,0 -36.1489271139961,-9.91828289395751,0 -36.1489607427657,-9.91828722605795,0 -36.1489890620853,-9.918276541632,0 -36.1490458237462,-9.91826112875264,0 -36.1490691055697,-9.91825858268441,0 -36.149135272592,-9.91824986278404,0 -36.1491614546649,-9.91824753393806,0 -36.149226150939,-9.91825102553684,0 -36.1492459091556,-9.91824490232352,0 -36.1492850602257,-9.91824748677414,0 -36.1493347179252,-9.91824791022183,0 -36.1493538688337,-9.91825602980802,0 -36.1493742573244,-9.91825691954623,0 -36.1494214346642,-9.91825863809736,0 -36.1494450186758,-9.91826187247933,0 -36.1494875529698,-9.9182729891219,0 -36.1495098915634,-9.9182825082135,0 -36.149590509519,-9.91833104673483,0 -36.1496117657266,-9.91834669326688,0 -36.1496289393067,-9.91836226778114,0 -36.1496801316561,-9.9183928454774,0 -36.1496989974765,-9.91840346920734,0 -36.1497491616391,-9.91843025076277,0 -36.1497698238461,-9.91843861996861,0 -36.1498171660595,-9.91844776541029,0 -36.1498499108196,-9.9184608145929,0 -36.1498916540383,-9.91846856284731,0 -36.1499124555958,-9.91847162521299,0 -36.1499366801922,-9.91847033760137,0 -36.1499561731463,-9.91847444365667,0 -36.1499769057244,-9.91847381170206,0 -36.1499969000411,-9.91847706046768,0 -36.1500143311845,-9.91847853467834,0 -36.1500376459628,-9.918471930998,0 -36.1500582304641,-9.91846740244199,0 -36.1500898777528,-9.91846702971655,0 -36.1501149844227,-9.91847178084667,0 -36.1501344383274,-9.91847327051908,0 -36.1501544045541,-9.91847938106562,0 -36.1501767654772,-9.91848721386485,0 -36.1501967559161,-9.91849840826217,0 -36.1502135440672,-9.91850730021293,0 -36.1502315160294,-9.91851913693457,0 -36.1502504958724,-9.91852753881286,0 -36.1502820628548,-9.91853765894176,0 -36.1502969916765,-9.91857078854445,0 -36.1502909905381,-9.91860909069397,0 -36.150284090952,-9.91863919986624,0 -36.1502700768642,-9.918656319213,0 -36.1502635760488,-9.91867294942684,0 -36.1502582874107,-9.91869346066683,0 -36.1502500421367,-9.91871846748687,0 -36.150237483982,-9.91874398643129,0 -36.1502266601589,-9.91876609591553,0 -36.1502176986336,-9.91878746261964,0 -36.1502040021418,-9.91881653606731,0 -36.150198233288,-9.91883599203936,0 -36.1501926872846,-9.91886080396703,0 -36.1501882774366,-9.9188863495065,0 -36.1501800221636,-9.91890736393176,0 -36.1501715091455,-9.91892810087895,0 -36.1501564814624,-9.91895460382767,0 -36.1501433016746,-9.91898322914643,0 -36.1501249622033,-9.91900926007577,0 -36.1501120372936,-9.91902550356926,0 -36.1501015363972,-9.91904199249704,0 -36.1500878688168,-9.91905717450952,0 -36.1500697036312,-9.91908977917491,0 -36.1500474213424,-9.91909749090166,0 -36.150030782128,-9.91911012687385,0 -36.1500139066839,-9.91912180317371,0 -36.1500001142527,-9.91913712162283,0 -36.1499747458392,-9.91914681096062,0 -36.1499537318157,-9.91916167580727,0 -36.1499328054883,-9.91916628752307,0 -36.1499120247166,-9.91917692775222,0 -36.1498946911221,-9.91918713285799,0 -36.1498759571566,-9.91919856544096,0 -36.1498276177963,-9.91924196558495,0 -36.1498108855865,-9.91925599079284,0 -36.1497804552666,-9.91928464279511,0 -36.1497646876574,-9.91929875354411,0 -36.1497520445179,-9.9193137345096,0 -36.1497381843053,-9.91933373732429,0 -36.1497158283421,-9.91936143771128,0 -36.149695703742,-9.91938671828443,0 -36.1496824159223,-9.91940420474455,0 -36.1496673329957,-9.91942082372934,0 -36.1496516261231,-9.91943655911128,0 -36.1496379869002,-9.91945105231406,0 -36.1496266471348,-9.91947019550492,0 -36.1496108198678,-9.91949090545745,0 -36.1495848086094,-9.91951834720665,0 -36.1495558671606,-9.91953728823865,0 -36.1495353322229,-9.91954870948688,0 -36.1495182210785,-9.9195590542263,0 -36.1494949653245,-9.91957792852584,0 -36.1494439269559,-9.91961125180831,0 -36.1494188051549,-9.91962711835156,0 -36.1493576025332,-9.91966903817384,0 -36.1493182908409,-9.91969892422519,0 -36.1492978372319,-9.91971378812093,0 -36.1492698185663,-9.91972977737563,0 -36.1492130181953,-9.91977048592933,0 -36.1491926216159,-9.91978654868849,0 -36.1491585390566,-9.91980823921288,0 -36.1491156411706,-9.91983578312302,0 -36.1490930824971,-9.9198484110398,0 -36.1490248566984,-9.91989148897465,0 -36.1489908608589,-9.91991038370243,0 -36.1489374477047,-9.91993846864032,0 -36.1489039100047,-9.91996547873645,0 -36.1488710160927,-9.91998341549765,0 -36.1488145429225,-9.92001693008335,0 -36.1487903914003,-9.9200291551269,0 -36.148767236657,-9.92004112967136,0 -36.1487332328451,-9.92005774036011,0 -36.1487092322141,-9.92007016960079,0 -36.1486839123965,-9.92007905497725,0 -36.1486605935094,-9.92008703614901,0 -36.1486365953156,-9.92009781649691,0 -36.1485987445445,-9.9201105251062,0 -36.1485740821361,-9.92011835645346,0 -36.1485500146889,-9.92012840681875,0 -36.1485250891039,-9.92013599971991,0 -36.1484895465676,-9.92014835640009,0 -36.1484210026968,-9.92017888282716,0 -36.1483804144768,-9.92019695840503,0 -36.148351009386,-9.92021663127839,0 -36.1483314377905,-9.92023125090155,0 -36.1483124783131,-9.92024750297724,0 -36.1482957062807,-9.92026454708527,0 -36.1482799589159,-9.92028289110013,0 -36.1482416710025,-9.92033298727338,0 -36.1482272910635,-9.92035313780283,0 -36.1482076018439,-9.92037236846851,0 -36.1481869774605,-9.92039840567969,0 -36.1481750917185,-9.92041584506822,0 -36.1481607102927,-9.92043659015908,0 -36.148147130566,-9.9204571061996,0 -36.1481038015871,-9.92052426609613,0 -36.1480910718075,-9.92054454911637,0 -36.1480780606413,-9.9205661317827,0 -36.1480651113646,-9.92058648882191,0 -36.1480523407228,-9.92060946909602,0 -36.1480411235886,-9.92063032836203,0 -36.1480232189959,-9.92065796287166,0 -36.1479994805942,-9.92069995325152,0 -36.1479902779171,-9.92072120025399,0 -36.1479796932964,-9.9207439404726,0 -36.1479507943948,-9.92079658515345,0 -36.1479419656728,-9.92081340640089,0 -36.1479326555192,-9.92083197864694,0 -36.1479207601731,-9.92085085474789,0 -36.1479141490716,-9.92086869210816,0 -36.147909790105,-9.92088984134297,0 -36.1479038452577,-9.92092842556915,0 -36.1479046681361,-9.92095266686264,0 -36.1479037920315,-9.92097898268922,0 -36.1479030590487,-9.92100817711488,0 -36.1479036325944,-9.92103853644223,0 -36.1479035948053,-9.92106846096184,0 -36.1479025341049,-9.9210995501415,0 -36.1479036390986,-9.92111856504291,0 -36.1479059318306,-9.92114929294084,0 -36.1479087110567,-9.92117794634612,0 -36.1479072268369,-9.9212101191994,0 -36.1479061934524,-9.92125881671454,0 -36.1479106179619,-9.92130085819995,0 -36.1479060730434,-9.92132346041579,0 -36.1479068579258,-9.92135638431811,0 -36.1479071482772,-9.92138974583534,0 -36.1479132361098,-9.92144586290299,0 -36.1479149546472,-9.92147048059254,0 -36.1479123489421,-9.92150247415834,0 -36.1479038256727,-9.9215416478475,0 -36.1479046932419,-9.92155861774699,0 -36.1479075341622,-9.92159509632935,0 -36.1479086641486,-9.9216347027189,0 -36.1479092313267,-9.92168780867018,0 -36.1479099263175,-9.92171574020219,0 -36.1479089617993,-9.92174214268042,0 -36.1479103620732,-9.9217811543276,0 -36.1479111321194,-9.92181697657641,0 -36.1479119344821,-9.92185185228521,0 -36.1479121005186,-9.92187907386748,0 -36.1479063634837,-9.92192687285264,0 -36.1479020598379,-9.92194452395861,0 -36.1479037659869,-9.92197205191859,0 -36.1478992101677,-9.9220008784795,0 -36.1478941762532,-9.92202823497797,0 -36.1478795301654,-9.92209320097053,0 -36.1478718871709,-9.92211928964019,0 -36.1478664954741,-9.92214543549677,0 -36.1478626246487,-9.9221837242243,0 -36.1478605467722,-9.92222221454637,0 -36.1478562854734,-9.92225094683762,0 -36.1478513843856,-9.92228317328005,0 -36.1478521482607,-9.92231604154556,0 -36.1478613207885,-9.92234437017092,0 -36.1478694810935,-9.92236754189112,0 -36.1478791831835,-9.92241139559447,0 -36.1478992280685,-9.92243953461469,0 -36.1479117319799,-9.92246263673171,0 -36.1479285283132,-9.92249063253137,0 -36.147943818736,-9.92251153191445,0 -36.1479545025816,-9.92253737204446,0 -36.1479656389077,-9.92255134164115,0 -36.1479817951147,-9.92256578957374,0 -36.1480078144221,-9.92259862827772,0 -36.148032037943,-9.92261716744022,0 -36.1480459970471,-9.92262705078267,0 -36.148078351658,-9.92264404282092,0 -36.1480972723838,-9.92265451668905,0 -36.148140244193,-9.92266467674019,0 -36.1481635595623,-9.9226653318187,0 -36.1482018748195,-9.92266913963835,0 -36.1482233258833,-9.92266986850355,0 -36.1482569169206,-9.9226696301266,0 -36.1482895026687,-9.92265960767863,0 -36.1483013253441,-9.92265345273511,0 -36.1484813668925,-9.92237714499226,0 -36.1486408457353,-9.92215308075527,0 -36.148996235472,-9.92162837843935,0 -36.149271958446,-9.92123266487403,0 -36.1494878115742,-9.92092270090544,0 -36.1496391884716,-9.9207171146274,0 -36.150256324227,-9.91982473599899,0 -36.1505063175065,-9.91946018645347,0 -36.1510965807823,-9.91862089592452,0 -36.151283535382,-9.91834645200473,0 -36.1514907459196,-9.91804910557586,0 -36.1516538147499,-9.91781502806491,0 -36.1519677671859,-9.91738366603363,0 -36.1520732863374,-9.91717916347347,0 -36.152101763115,-9.91720317498988,0 -36.1519988927506,-9.91740254406078,0 -36.1516835364408,-9.91783583501767,0 -36.1515206785609,-9.91806960974,0 -36.1513135766987,-9.9183668002479,0 -36.1511265783836,-9.91864130836662,0 -36.1505362830236,-9.91948064459309,0 -36.1502863702518,-9.91984507677361,0 -36.1496688900508,-9.92073795355218,0 -36.1495174784066,-9.92094358703783,0 -36.1493018946404,-9.92125316423215,0 -36.1490263052313,-9.92164868614362,0 -36.148670814268,-9.92217353796179,0 -36.1485115220168,-9.92239734006226,0 -36.1483635723328,-9.92262439685564,0 -36.1483744174682,-9.92261355397716,0 -36.1483946840209,-9.92259465547744,0 -36.1484343494061,-9.92255504644696,0 -36.1484539125062,-9.92253356090419,0 -36.148491582914,-9.92249932187763,0 -36.1485088154079,-9.92247798899409,0 -36.1485679215512,-9.92241690710295,0 -36.1486164795411,-9.92236861502257,0 -36.1486381115406,-9.922349532252,0 -36.1486558776543,-9.92233392251166,0 -36.1486895008601,-9.92230722714017,0 -36.1487139711021,-9.92229434656959,0 -36.1487369671761,-9.9222763808137,0 -36.1487599353229,-9.92225469321867,0 -36.1487956383706,-9.92222152788256,0 -36.1488228524642,-9.92220406776286,0 -36.1488592268975,-9.92217999885723,0 -36.1488989008613,-9.92216052750196,0 -36.1489372006793,-9.92213699455963,0 -36.1489715129935,-9.92211860139071,0 -36.1489911724128,-9.92210403707466,0 -36.149012321293,-9.92208829279726,0 -36.1490449733366,-9.92206526386313,0 -36.1491124542044,-9.9220177915267,0 -36.1491462116225,-9.92199719393009,0 -36.1491648186385,-9.9219816833253,0 -36.1491993138659,-9.921950922641,0 -36.1492250196882,-9.92193444774909,0 -36.1493175320713,-9.9218790288555,0 -36.1493382997289,-9.92186315003312,0 -36.1493627584946,-9.92184062112332,0 -36.1493960974872,-9.92182167580575,0 -36.14943389048,-9.92180477222595,0 -36.1494684669416,-9.92178837581834,0 -36.1495039636725,-9.92177891099703,0 -36.1495386660228,-9.92177044743092,0 -36.1495746374963,-9.92176851717948,0 -36.1496025776875,-9.92176845200693,0 -36.1496320066256,-9.9217705108779,0 -36.1496563040273,-9.92177222147828,0 -36.1496953512515,-9.92177309440945,0 -36.1497210406951,-9.9217720880053,0 -36.1497500885391,-9.92177179327579,0 -36.1497749043131,-9.92177364984996,0 -36.149799878056,-9.92177497458307,0 -36.149836109962,-9.92178249971942,0 -36.1498841012865,-9.92180150575598,0 -36.1499081090318,-9.92181348309201,0 -36.1499303029738,-9.92182949312172,0 -36.1499519889377,-9.92184392144553,0 -36.1499708432702,-9.92185988010713,0 -36.1499932359532,-9.92186583568983,0 -36.1500239634702,-9.92187306138406,0 -36.150048213811,-9.92187812037823,0 -36.1500844988873,-9.92188010628791,0 -36.1501136522515,-9.92187318345658,0 -36.1501366911703,-9.92186625710357,0 -36.1501603476251,-9.92185496378859,0 -36.1501851449769,-9.92184255544651,0 -36.150213120023,-9.92181617993375,0 -36.1502515995768,-9.9217677569113,0 -36.1502765452266,-9.92174332406724,0 -36.1503007935569,-9.92171088162909,0 -36.1503223063975,-9.92168769706865,0 -36.1503400541888,-9.92166850581646,0 -36.1503652412869,-9.92162134715216,0 -36.150380521381,-9.92159844872342,0 -36.1503904870627,-9.92157522124663,0 -36.1503995672645,-9.92154943800827,0 -36.1504143138405,-9.92151148934416,0 -36.1504252497216,-9.92147513402959,0 -36.1504377211861,-9.92145018580941,0 -36.1504500792671,-9.92142563927316,0 -36.150459107607,-9.92140421030188,0 -36.1504634400294,-9.92137824689873,0 -36.1504714958053,-9.92135255844536,0 -36.1504751370255,-9.92132839442309,0 -36.1504802917209,-9.92130252047231,0 -36.1504840150285,-9.92127808837,0 -36.1504832140095,-9.92124116722923,0 -36.150478793041,-9.9212027379191,0 -36.1504746977431,-9.92117829542924,0 -36.1504659242528,-9.92114384127462,0 -36.1504604240405,-9.9211079660078,0 -36.1504503316262,-9.92107696761405,0 -36.1504305952841,-9.92104485416641,0 -36.1504239422752,-9.92101719665681,0 -36.1504155357986,-9.92098812251243,0 -36.1504057554869,-9.92096831558203,0 -36.1503893562862,-9.9209338289572,0 -36.1503762087934,-9.92088780627348,0 -36.1503663396788,-9.9208580488763,0 -36.1503478625945,-9.92083076619036,0 -36.1503371835999,-9.92080444684275,0 -36.1503299886333,-9.92077616339231,0 -36.15032556035,-9.9207463886651,0 -36.1503166393517,-9.92069759123476,0 -36.1503154445764,-9.92067563774688,0 -36.1503076595385,-9.92064632049446,0 -36.1503012313005,-9.92062044641965,0 -36.150299826072,-9.9205958288263,0 -36.1502925681031,-9.9205659610255,0 -36.1502892462035,-9.92053663130249,0 -36.15028903099,-9.92052065574066,0 -36.1502759386364,-9.92048535084318,0 -36.1502723698936,-9.92045338385214,0 -36.1502703807806,-9.92042698325255,0 -36.1502675604787,-9.92039891714482,0 -36.1502663618251,-9.92037635539942,0 -36.1502634633308,-9.92035497169159,0 -36.1502618158646,-9.92033004942459,0 -36.1502646118806,-9.92030826956212,0 -36.1502669967671,-9.92028411957973,0 -36.1502798535113,-9.92025895631077,0 -36.1502941997129,-9.9202357461271,0 -36.1503098523991,-9.92021466828227,0 -36.1503192499274,-9.92019524525255,0 -36.1503343641537,-9.92017821662321,0 -36.1503577199744,-9.92015039991692,0 -36.1503769552275,-9.92013458712171,0 -36.1503990014237,-9.9201176332302,0 -36.1504269576575,-9.9201036111927,0 -36.1504500421074,-9.92009289607401,0 -36.1504894517865,-9.92008126290475,0 -36.1505418621925,-9.92007398482458,0 -36.1505656324152,-9.9200723691621,0 -36.1505904451302,-9.92006983198317,0 -36.1506171868242,-9.92006356811814,0 -36.1506466218488,-9.92006126118769,0 -36.1506864896358,-9.92006234392494,0 -36.1507111060061,-9.9200629381042,0 -36.1507326715376,-9.92005836061985,0 -36.1507573366398,-9.9200529569144,0 -36.1508005183741,-9.92004196253712,0 -36.1508244515802,-9.92003269093852,0 -36.1508468628324,-9.92002380703856,0 -36.1508654766415,-9.92001175558679,0 -36.1508854903615,-9.91999442997815,0 -36.1509058418579,-9.91997821255285,0 -36.1509219202411,-9.91996445254382,0 -36.150935979256,-9.91994656701488,0 -36.1509490563866,-9.9199259578771,0 -36.1509603430957,-9.91990627452485,0 -36.1509735456366,-9.91988262647004,0 -36.1509870145746,-9.9198607546122,0 -36.150994932776,-9.91983899537136,0 -36.1510053053427,-9.91981609318624,0 -36.1510129297946,-9.91979189545645,0 -36.1510228954989,-9.9197671853013,0 -36.151034192334,-9.91974265824927,0 -36.1510414666172,-9.91972177196479,0 -36.1510495247125,-9.91969949861707,0 -36.1510578794946,-9.91967926822874,0 -36.1510669325297,-9.91965548740075,0 -36.1510770604972,-9.91963649772828,0 -36.1510844713859,-9.91961544732539,0 -36.1510947046218,-9.91959770455091,0 -36.1510991947548,-9.91958137108974,0 -36.1511053071026,-9.91955889419127,0 -36.1511158580758,-9.91954273344515,0 -36.1511185549399,-9.9195202961043,0 -36.1511302840577,-9.91950105063348,0 -36.1511370452643,-9.91948083785767,0 -36.1511456905585,-9.91945499402862,0 -36.1511558280293,-9.91943715660959,0 -36.1511588506977,-9.91941394358172,0 -36.1511606607668,-9.91938930242669,0 -36.1511667805536,-9.91936494608636,0 -36.1511731892131,-9.91934434422336,0 -36.1511758222579,-9.91932478005243,0 -36.1511814263595,-9.91930473195208,0 -36.1511855782983,-9.9192876018275,0 -36.1511888045158,-9.91926566028935,0 -36.1511956629212,-9.91924695576971,0 -36.1512008771674,-9.91922692425664,0 -36.1512044185415,-9.9192070371974,0 -36.1512071770808,-9.91918628603567,0 -36.1512120618453,-9.91916428936615,0 -36.1512170838961,-9.91914093293768,0 -36.1512270056236,-9.91912015381179,0 -36.1512358263959,-9.91909556397243,0 -36.1512426384429,-9.91907807915993,0 -36.1512477773127,-9.91905909364149,0 -36.1512520077395,-9.91903772639085,0 -36.1512598659224,-9.91901514878485,0 -36.1512657883857,-9.91899381403099,0 -36.1512737331457,-9.91897507020723,0 -36.1512769477628,-9.91895819209657,0 -36.1512830446165,-9.91893832704856,0 -36.1512855153189,-9.91891645473605,0 -36.1512918527449,-9.91889409774593,0 -36.1512938544747,-9.91887434212725,0 -36.1513035529293,-9.91885272029596,0 -36.1513123348804,-9.91883174005151,0 -36.1513200068308,-9.91881542894969,0 -36.1513283859466,-9.91879451577939,0 -36.1513463238583,-9.91877713422477,0 -36.1513637315535,-9.91876818455767,0 -36.1513780359207,-9.91875693169239,0 -36.151391424126,-9.91874463796404,0 -36.1513969393443,-9.91872481298987,0 -36.1514061330916,-9.91870928651374,0 -36.151409725561,-9.91868916214123,0 -36.1514194095292,-9.91866139467914,0 -36.1514319421917,-9.91864272711414,0 -36.1514417563544,-9.91862380053926,0 -36.1514606168986,-9.91860743862457,0 -36.1514690746355,-9.91858845940388,0 -36.151483205266,-9.91856311924133,0 -36.1514996666359,-9.91854016211392,0 -36.1515133334282,-9.9185228184323,0 -36.1515207957481,-9.91850380461326,0 -36.1515349142451,-9.91848683056314,0 -36.151543780075,-9.91846886668439,0 -36.1515566621219,-9.9184477493688,0 -36.1515860235801,-9.91840842113482,0 -36.1515977803757,-9.91839398944351,0 -36.1516050368495,-9.91837935129255,0 -36.1516163095288,-9.91835647632879,0 -36.151642266251,-9.91834164709745,0 -36.1516649649997,-9.91830920454058,0 -36.1516819515366,-9.9182937396351,0 -36.1516928766247,-9.91828136627333,0 -36.1517066104158,-9.91825914159515,0 -36.1517227338939,-9.91823931333692,0 -36.1517382474408,-9.91822213487132,0 -36.1517564070552,-9.91819939902047,0 -36.1517680814763,-9.91817663736861,0 -36.1517864844816,-9.91815977044673,0 -36.1518410001636,-9.9180993894405,0 -36.1518592163706,-9.91808513503738,0 -36.1518928642738,-9.9180481872356,0 -36.151909415855,-9.91802902930906,0 -36.1519285577658,-9.9180044099291,0 -36.1519685207121,-9.91795118817997,0 -36.1519814365735,-9.91793415260061,0 -36.1519974010872,-9.91791281156977,0 -36.152023368232,-9.91788264788819,0 -36.152027937623,-9.91785878843184,0 -36.1520552888625,-9.91782145374916,0 -36.1520648210929,-9.91780065252123,0 -36.1520737572003,-9.91777796353726,0 -36.1520800865645,-9.91775085307694,0 -36.1520821239988,-9.91771870398879,0 -36.1520833248329,-9.91767866381426,0 -36.152085074755,-9.91765653431557,0 -36.1520857572197,-9.91754678058057,0 -36.1520853474338,-9.91749999477344,0 -36.1520865716598,-9.91746842625384,0 -36.1520974163567,-9.91739758247352,0 -36.1520957711897,-9.91736859210563,0 -36.1520993795511,-9.91732396415242,0 -36.1521171732044,-9.91727311451469,0 -36.1521246664658,-9.91724765032242,0 -36.1521475410329,-9.91721393902426,0 -36.152152847906,-9.9172053879513,0</coordinates></LinearRing></outerBoundaryIs></Polygon></MultiGeometry>
  </Placemark>
</Folder>
</Document></kml>
