<?xml version="1.0" encoding="utf-8" ?>
<kml xmlns="http://www.opengis.net/kml/2.2">
<Document id="root_doc">
<Schema name="NOVO_TALHAO_1070_ID_1304" id="NOVO_TALHAO_1070_ID_1304">
	<SimpleField name="TALHAO" type="string"></SimpleField>
	<SimpleField name="FAZENDA" type="string"></SimpleField>
	<SimpleField name="ZONA" type="string"></SimpleField>
	<SimpleField name="ID" type="float"></SimpleField>
	<SimpleField name="AREA_TOTAL" type="float"></SimpleField>
	<SimpleField name="FAZ_NOME" type="string"></SimpleField>
	<SimpleField name="CODE" type="string"></SimpleField>
</Schema>
<Folder><name>NOVO_TALHAO_1070_ID_1304</name>
  <Placemark id="NOVO_TALHAO_1070_ID_1304.1">
	<Style><LineStyle><color>ff0000ff</color></LineStyle><PolyStyle><fill>0</fill></PolyStyle></Style>
	<ExtendedData><SchemaData schemaUrl="#NOVO_TALHAO_1070_ID_1304">
		<SimpleData name="TALHAO">1070</SimpleData>
		<SimpleData name="FAZENDA">1943</SimpleData>
		<SimpleData name="ZONA">1</SimpleData>
		<SimpleData name="ID">1304</SimpleData>
		<SimpleData name="AREA_TOTAL">7.24</SimpleData>
		<SimpleData name="FAZ_NOME">NOVO</SimpleData>
		<SimpleData name="CODE"></SimpleData>
	</SchemaData></ExtendedData>
      <MultiGeometry><Polygon><outerBoundaryIs><LinearRing><coordinates>-36.1450561474242,-9.94102892022395,0 -36.145068459252,-9.94222227596348,0 -36.1486429622111,-9.94180902843671,0 -36.1486691413687,-9.94178057426922,0 -36.1486753439596,-9.94176336254039,0 -36.1486882544971,-9.94173586512797,0 -36.1486976014886,-9.94171258994979,0 -36.1487215861497,-9.94167370459902,0 -36.1487557044945,-9.94161830132486,0 -36.1487727808909,-9.94159687424639,0 -36.1487854705169,-9.94157618364209,0 -36.1487985787206,-9.94154869976944,0 -36.1488282303648,-9.94151224887994,0 -36.148852193893,-9.94148347307853,0 -36.1488691336381,-9.94146387460153,0 -36.1488847734839,-9.94144414937281,0 -36.1488972018338,-9.94142241050004,0 -36.1489151402753,-9.941369296748,0 -36.1489512557108,-9.94128195645862,0 -36.1489709032635,-9.94124315657417,0 -36.1489757984746,-9.94122750767329,0 -36.1489848286852,-9.94118955585423,0 -36.1489935785562,-9.94116283475001,0 -36.1490011444538,-9.94113824396443,0 -36.1490059525902,-9.94111730948463,0 -36.1490153188586,-9.94109340678843,0 -36.1490201084678,-9.94106917245195,0 -36.1490240493501,-9.94104091952832,0 -36.1490299121053,-9.94101660877756,0 -36.1490379241094,-9.94099062254572,0 -36.1490442956235,-9.9409647767079,0 -36.149052581591,-9.94093934756059,0 -36.149059303244,-9.94091568505411,0 -36.1490640352149,-9.94088855158401,0 -36.1490717408114,-9.94085497570036,0 -36.1490742268611,-9.94083236887135,0 -36.1490790972747,-9.94080793415668,0 -36.1490789797283,-9.94080663502074,0 -36.1490145301903,-9.94071806236675,0 -36.148923731,-9.94063597315431,0 -36.148821436532,-9.94057088541361,0 -36.1485691838696,-9.94051218474761,0 -36.1478759341218,-9.94037504692502,0 -36.147686236518,-9.9403071478114,0 -36.1474196418667,-9.94020316044197,0 -36.1472317832115,-9.9401426445808,0 -36.1470386888437,-9.94013748974896,0 -36.1467648093032,-9.94021955560395,0 -36.1462094989631,-9.94046564908569,0 -36.1455348628738,-9.94075012815426,0 -36.1450561474242,-9.94102892022395,0</coordinates></LinearRing></outerBoundaryIs></Polygon></MultiGeometry>
  </Placemark>
</Folder>
</Document></kml>
