<?xml version="1.0" encoding="utf-8" ?>
<kml xmlns="http://www.opengis.net/kml/2.2">
<Document id="root_doc">
<Schema name="NOVO_TALHAO_1103_ID_866" id="NOVO_TALHAO_1103_ID_866">
	<SimpleField name="TALHAO" type="string"></SimpleField>
	<SimpleField name="FAZENDA" type="string"></SimpleField>
	<SimpleField name="ZONA" type="string"></SimpleField>
	<SimpleField name="ID" type="float"></SimpleField>
	<SimpleField name="AREA_TOTAL" type="float"></SimpleField>
	<SimpleField name="FAZ_NOME" type="string"></SimpleField>
	<SimpleField name="CODE" type="string"></SimpleField>
</Schema>
<Folder><name>NOVO_TALHAO_1103_ID_866</name>
  <Placemark id="NOVO_TALHAO_1103_ID_866.1">
	<Style><LineStyle><color>ff0000ff</color></LineStyle><PolyStyle><fill>0</fill></PolyStyle></Style>
	<ExtendedData><SchemaData schemaUrl="#NOVO_TALHAO_1103_ID_866">
		<SimpleData name="TALHAO">1103</SimpleData>
		<SimpleData name="FAZENDA">1943</SimpleData>
		<SimpleData name="ZONA">1</SimpleData>
		<SimpleData name="ID">866</SimpleData>
		<SimpleData name="AREA_TOTAL">4.03</SimpleData>
		<SimpleData name="FAZ_NOME">NOVO</SimpleData>
		<SimpleData name="CODE"></SimpleData>
	</SchemaData></ExtendedData>
      <MultiGeometry><Polygon><outerBoundaryIs><LinearRing><coordinates>-36.1397761275686,-9.89714953033161,0 -36.1397986015919,-9.89718002385065,0 -36.1398150243948,-9.89720208892532,0 -36.1398312309327,-9.89722375141191,0 -36.1398524449426,-9.89725107755549,0 -36.1398689411904,-9.89727321570711,0 -36.1398857304344,-9.89729617564297,0 -36.1399038041905,-9.897317834424,0 -36.1399222376729,-9.89733898503599,0 -36.1399413905146,-9.89735911930939,0 -36.1399598863124,-9.89737765123562,0 -36.1399857009644,-9.89740103148977,0 -36.1400086425475,-9.89741797976388,0 -36.1400300963031,-9.89743526787388,0 -36.1400575692627,-9.89745862348917,0 -36.1400778591602,-9.8974763163465,0 -36.1401056585654,-9.89749596909933,0 -36.1401343392205,-9.89751673194883,0 -36.1401563240982,-9.89753412105905,0 -36.1401799237838,-9.89755593980727,0 -36.1402051049427,-9.89757641105351,0 -36.1402314654523,-9.89759745660099,0 -36.1402517250708,-9.89761400838619,0 -36.1402787745929,-9.89763747936353,0 -36.1403123394024,-9.89765597208751,0 -36.140343984356,-9.89768101160471,0 -36.140365783675,-9.89769725879442,0 -36.1403942837217,-9.89771696161466,0 -36.1404159992852,-9.8977312411268,0 -36.1404399175302,-9.89774629843493,0 -36.1404640652732,-9.89776269943786,0 -36.1404892319861,-9.89778043641869,0 -36.1405176163665,-9.89780515820055,0 -36.1405385172256,-9.89782213774025,0 -36.1405609673233,-9.89783977885701,0 -36.1405898192039,-9.89786312564401,0 -36.1406118267214,-9.89788173851633,0 -36.1406343435484,-9.89790118553754,0 -36.140656229073,-9.89792180315253,0 -36.1406778328916,-9.89794179184292,0 -36.1407013213607,-9.89796280575551,0 -36.140725785829,-9.89798552362106,0 -36.1407506377808,-9.89800900887083,0 -36.1407743499935,-9.89803259078336,0 -36.140797160389,-9.89805481138823,0 -36.1408200763813,-9.89807618490766,0 -36.1408485229251,-9.89810342480494,0 -36.1408700547672,-9.89812440426572,0 -36.1408931176672,-9.89814717720812,0 -36.140915560984,-9.89816910039269,0 -36.1409382884569,-9.89819117689019,0 -36.1409615009523,-9.89821494743628,0 -36.1409840349345,-9.89823903440545,0 -36.1410045446851,-9.89826306968276,0 -36.1410235622747,-9.89828617987787,0 -36.1410420825082,-9.89830911821972,0 -36.1410645256739,-9.89833787847259,0 -36.1410862215032,-9.89836749137113,0 -36.1411057804128,-9.89839790033685,0 -36.1411228436272,-9.89842875475527,0 -36.1411394545501,-9.89846145431066,0 -36.1411522181017,-9.89848882075421,0 -36.1411647783163,-9.89851660470368,0 -36.1411766283509,-9.89854446324989,0 -36.1411897295105,-9.89857164059503,0 -36.1412032167562,-9.89859808146236,0 -36.1412197631149,-9.89862438615942,0 -36.1412365788838,-9.89865282723428,0 -36.1412508194822,-9.8986808470065,0 -36.1412752074775,-9.89874050568889,0 -36.1412992340697,-9.89871054849298,0 -36.1413111406894,-9.89868394994809,0 -36.141322292909,-9.89865434335475,0 -36.141327389668,-9.89862186273562,0 -36.1413303741699,-9.89858797019599,0 -36.1413291342517,-9.89855125372652,0 -36.1413250752392,-9.8985169052761,0 -36.1413196066358,-9.89848374065427,0 -36.1413116484276,-9.89844963509379,0 -36.1413022440862,-9.89841620922657,0 -36.1412899478422,-9.89838414283903,0 -36.1412769632246,-9.89835232399523,0 -36.1412636343313,-9.89832062878713,0 -36.1412497270132,-9.8982880468502,0 -36.1412346097188,-9.89825593404715,0 -36.1412170721971,-9.89822475950921,0 -36.1412020824776,-9.89819219211882,0 -36.1411883666608,-9.89815892821199,0 -36.1411791355355,-9.89812621741395,0 -36.1411703842704,-9.89809310796631,0 -36.1411625927228,-9.89805920139988,0 -36.1411545503112,-9.89802628896426,0 -36.1411463826038,-9.89799387368562,0 -36.1411387644107,-9.89796216981173,0 -36.141131299628,-9.89792944712825,0 -36.1411241414853,-9.89789468655292,0 -36.1411156255812,-9.89786005914508,0 -36.1411064307954,-9.89782549850177,0 -36.1410978588221,-9.89779112817551,0 -36.1410892493113,-9.89775702114109,0 -36.1410805647235,-9.89772344078049,0 -36.1410712805693,-9.89769115268471,0 -36.141061696724,-9.89765951067701,0 -36.1410501830267,-9.89762705707345,0 -36.1410375558976,-9.89759411871588,0 -36.1410227017201,-9.89756021102922,0 -36.141006043393,-9.89752893647404,0 -36.140988482902,-9.89749897843854,0 -36.1409691379599,-9.89746898886258,0 -36.1409505153002,-9.89743836077056,0 -36.1409333371115,-9.89740645555566,0 -36.1409158010192,-9.89737390154645,0 -36.1408980858846,-9.89734102322964,0 -36.140878444685,-9.8973085275485,0 -36.1408588031979,-9.89727651798237,0 -36.1408391610395,-9.89724548082638,0 -36.1408225077754,-9.89721474013076,0 -36.140807348869,-9.89718414757434,0 -36.1407931491939,-9.89715591833756,0 -36.1407781087508,-9.89712595510178,0 -36.1407613866784,-9.89709252395755,0 -36.1407454715648,-9.89705887085199,0 -36.1407299600226,-9.89702510681175,0 -36.1407224304682,-9.89698962009363,0 -36.1407151731133,-9.89695470546484,0 -36.1407084600634,-9.8969209352847,0 -36.1407073605177,-9.89688587667397,0 -36.1407090677677,-9.89685017389327,0 -36.1407238657668,-9.89681755227629,0 -36.1407410353325,-9.89678625453587,0 -36.1407629477622,-9.89675760445666,0 -36.1407887002466,-9.8967317828016,0 -36.1408163725281,-9.89670737539983,0 -36.1408484852081,-9.89668908700293,0 -36.1408812375341,-9.89667225363637,0 -36.1409152694312,-9.89665833006575,0 -36.1409484298144,-9.89664620261424,0 -36.140981154394,-9.89663497331048,0 -36.1410174771095,-9.89662819675315,0 -36.1410532786361,-9.8966228151172,0 -36.1410880380605,-9.89662022315031,0 -36.1411252781406,-9.89661863618104,0 -36.1411637585033,-9.8966175517529,0 -36.1412020411466,-9.89662138454275,0 -36.1412400456292,-9.89662481837004,0 -36.1412774936986,-9.89662745409491,0 -36.141314718661,-9.89663049851097,0 -36.1413518321624,-9.89663374722634,0 -36.1413902268862,-9.89663533709228,0 -36.1414285338589,-9.89663859189049,0 -36.1414666652368,-9.89664517664733,0 -36.1415036767904,-9.89665243664597,0 -36.1415401282973,-9.89666003417244,0 -36.1415778054604,-9.89666523484271,0 -36.1416153791882,-9.89667040734633,0 -36.1416527458607,-9.89667552351903,0 -36.1416900110003,-9.89667984428611,0 -36.1417272253732,-9.89668376748392,0 -36.1417641539371,-9.89669260751477,0 -36.1418006848508,-9.89670161191945,0 -36.1418364204617,-9.89671094498517,0 -36.1418722343377,-9.89672157301083,0 -36.1419080873485,-9.89673284846975,0 -36.1419449392879,-9.89674217485299,0 -36.1419818641428,-9.89675215103445,0 -36.1420189350082,-9.89676342681749,0 -36.1420551305513,-9.89677535020332,0 -36.1420908885266,-9.89678759734469,0 -36.1421259899455,-9.89680054309544,0 -36.1421606127256,-9.89681379987617,0 -36.142194278132,-9.89682767889989,0 -36.1422257029164,-9.89684321023459,0 -36.1422560073911,-9.89685956776919,0 -36.1422861450025,-9.89687863678527,0 -36.142313934697,-9.8968971749537,0 -36.1423447263833,-9.89692047697995,0 -36.1423714390239,-9.8969332631741,0 -36.1423943826162,-9.89695260704685,0 -36.1424186174112,-9.8969723079044,0 -36.1424454345187,-9.8969927226411,0 -36.1424734642225,-9.89701246020636,0 -36.1425021001815,-9.89703185909428,0 -36.1425277492568,-9.89705338301985,0 -36.1425538791925,-9.89707599321509,0 -36.1425809707534,-9.89710077613067,0 -36.14260900853,-9.89712201529536,0 -36.1426375194616,-9.89714148258411,0 -36.1426641605008,-9.89716254842744,0 -36.1426908879277,-9.89718424458232,0 -36.1427177877624,-9.89720720135858,0 -36.1427446310953,-9.89723003388756,0 -36.1427714460888,-9.8972528042012,0 -36.1427986657422,-9.89727353717982,0 -36.1428259337353,-9.89729373801518,0 -36.1428532985885,-9.8973128742959,0 -36.1428812596925,-9.89732992175101,0 -36.1429095188331,-9.89734592470128,0 -36.1429362321016,-9.89736519618473,0 -36.1429627054614,-9.89738132143958,0 -36.1429973635148,-9.89739443156666,0 -36.1430261707343,-9.89739473711881,0 -36.1430553824815,-9.89739233555345,0 -36.1430854032826,-9.89738451975508,0 -36.1431107585556,-9.89737281064609,0 -36.1431360804575,-9.89735707055904,0 -36.1431454127396,-9.8973494544251,0 -36.142418127902,-9.8962492232285,0 -36.1424137965658,-9.89624346805717,0 -36.1424005846725,-9.89623266296446,0 -36.1423708279344,-9.89621898534713,0 -36.142338500253,-9.89620221764816,0 -36.1423131515095,-9.89618896318493,0 -36.1422868821363,-9.89617589620326,0 -36.1422608500131,-9.89616146015184,0 -36.1422349365169,-9.8961463395197,0 -36.1422086525161,-9.89613012027442,0 -36.1421810032899,-9.89611404497876,0 -36.1421506236086,-9.8960982577639,0 -36.1421190659274,-9.8960825411086,0 -36.142086919293,-9.89606685982255,0 -36.1420524063063,-9.89605512702773,0 -36.1420183130853,-9.89604354912019,0 -36.1419850594825,-9.89603228108149,0 -36.1419516854037,-9.89602117489764,0 -36.1419182510425,-9.89601014968463,0 -36.1418843579773,-9.89599897439662,0 -36.1418502986601,-9.89598875520212,0 -36.1418159067443,-9.8959804481965,0 -36.1417816822058,-9.89597140318122,0 -36.1417475414042,-9.89596198902459,0 -36.1417117321152,-9.89595250402591,0 -36.1416771169142,-9.8959429219506,0 -36.1416448901581,-9.8959331458182,0 -36.1416139989539,-9.89592310722731,0 -36.1415837756177,-9.89591293745208,0 -36.1415487619629,-9.89590430849209,0 -36.141514296664,-9.89589593533921,0 -36.1414809281659,-9.89588807371432,0 -36.1414468484344,-9.89588256489451,0 -36.1414124132232,-9.89587823252179,0 -36.1413789077269,-9.89587311595852,0 -36.1413457085171,-9.89586885453418,0 -36.1413131218779,-9.89586630339073,0 -36.1412799637153,-9.89586522633188,0 -36.1412465197455,-9.89586488635831,0 -36.1412146607493,-9.89586555062449,0 -36.1411829454189,-9.89586642687268,0 -36.1411515174191,-9.89586772708789,0 -36.1411189438978,-9.89586963999201,0 -36.1410857976615,-9.89587185923915,0 -36.1410520609304,-9.89587384959594,0 -36.1410190172317,-9.89587624316099,0 -36.1409873596876,-9.89587944323753,0 -36.140955949818,-9.89588349099796,0 -36.140924663831,-9.8958879625992,0 -36.1408945361308,-9.89589325187238,0 -36.1408646400807,-9.89589764034992,0 -36.1408352074238,-9.89590022705947,0 -36.1408062271833,-9.89590392201906,0 -36.1407774731048,-9.89590817114716,0 -36.1407495201668,-9.89591368019249,0 -36.1407207906284,-9.89592010418008,0 -36.14069050807,-9.89592835823668,0 -36.140662373823,-9.89593728797698,0 -36.1406266145098,-9.89594955852726,0 -36.1406005165714,-9.89595856747624,0 -36.140568628959,-9.8959715570129,0 -36.1405385351826,-9.89598615567687,0 -36.1405082899409,-9.89600255866631,0 -36.1404834110779,-9.89601603398301,0 -36.1404600275812,-9.89603193915314,0 -36.1404315420086,-9.89605458106038,0 -36.1404081434309,-9.89607666839875,0 -36.1403832955935,-9.89609409379833,0 -36.1403557996689,-9.8961168677954,0 -36.1403309996907,-9.8961393193704,0 -36.1403111399016,-9.89615742131733,0 -36.1402836446064,-9.89618223653453,0 -36.1402619281451,-9.89620191373278,0 -36.1402398876588,-9.89622164833669,0 -36.1402171990342,-9.89624149775313,0 -36.1401970281923,-9.89626057794925,0 -36.1401720925571,-9.89628512061682,0 -36.1401479970932,-9.89630850875713,0 -36.1401242654916,-9.89633033151639,0 -36.1400998343192,-9.8963527584709,0 -36.140077525953,-9.89637396638495,0 -36.1400528590527,-9.89639771136953,0 -36.1400321244637,-9.89641668060179,0 -36.1400074005344,-9.89643913016799,0 -36.1399844423472,-9.89645928884679,0 -36.139961785716,-9.89648070066161,0 -36.1399385647978,-9.89650018244272,0 -36.1399142437043,-9.89651914280968,0 -36.1398886164109,-9.8965435819891,0 -36.1398638728974,-9.89656546078776,0 -36.1398442341752,-9.89658299489351,0 -36.1398184972073,-9.89660689407467,0 -36.1397962662187,-9.8966301042729,0 -36.1397707718191,-9.89665222031347,0 -36.1397463923202,-9.89667487153025,0 -36.1397207884019,-9.89669681923338,0 -36.1396931008037,-9.8967194962089,0 -36.1396712381518,-9.89674012880033,0 -36.1396507244028,-9.89676419593203,0 -36.1396308850118,-9.89678998037729,0 -36.1396209011263,-9.8968184734688,0 -36.1396147172724,-9.89684639897308,0 -36.1396166050663,-9.89688211986219,0 -36.1396225032383,-9.89690826087492,0 -36.1396325877876,-9.89693867888836,0 -36.1396495371968,-9.89696817887832,0 -36.1396639302339,-9.89699232029023,0 -36.1396817820886,-9.89701970444281,0 -36.1397007521425,-9.89704772760306,0 -36.1397211051432,-9.89707603373855,0 -36.1397393206358,-9.89710001816644,0 -36.1397576864881,-9.89712461999024,0 -36.1397761275686,-9.89714953033161,0</coordinates></LinearRing></outerBoundaryIs></Polygon></MultiGeometry>
  </Placemark>
</Folder>
</Document></kml>
