<?xml version="1.0" encoding="utf-8" ?>
<kml xmlns="http://www.opengis.net/kml/2.2">
<Document id="root_doc">
<Schema name="NOVO_TALHAO_1052_ID_1107" id="NOVO_TALHAO_1052_ID_1107">
	<SimpleField name="TALHAO" type="string"></SimpleField>
	<SimpleField name="FAZENDA" type="string"></SimpleField>
	<SimpleField name="ZONA" type="string"></SimpleField>
	<SimpleField name="ID" type="float"></SimpleField>
	<SimpleField name="AREA_TOTAL" type="float"></SimpleField>
	<SimpleField name="FAZ_NOME" type="string"></SimpleField>
	<SimpleField name="CODE" type="string"></SimpleField>
</Schema>
<Folder><name>NOVO_TALHAO_1052_ID_1107</name>
  <Placemark id="NOVO_TALHAO_1052_ID_1107.1">
	<Style><LineStyle><color>ff0000ff</color></LineStyle><PolyStyle><fill>0</fill></PolyStyle></Style>
	<ExtendedData><SchemaData schemaUrl="#NOVO_TALHAO_1052_ID_1107">
		<SimpleData name="TALHAO">1052</SimpleData>
		<SimpleData name="FAZENDA">1943</SimpleData>
		<SimpleData name="ZONA">1</SimpleData>
		<SimpleData name="ID">1107</SimpleData>
		<SimpleData name="AREA_TOTAL">1.78</SimpleData>
		<SimpleData name="FAZ_NOME">NOVO</SimpleData>
		<SimpleData name="CODE"></SimpleData>
	</SchemaData></ExtendedData>
      <MultiGeometry><Polygon><outerBoundaryIs><LinearRing><coordinates>-36.1500099727084,-9.9297126602279,0 -36.1499988110684,-9.93176743996415,0 -36.1499966903105,-9.93215777788345,0 -36.1507546406943,-9.93226501823684,0 -36.150703097076,-9.93221290690619,0 -36.150686871759,-9.93206549845717,0 -36.1506962363609,-9.93202442693895,0 -36.150697790438,-9.93200694922466,0 -36.1506949016593,-9.93197790157467,0 -36.1506988596578,-9.93194250395696,0 -36.1506987641543,-9.93193285433234,0 -36.1506905299117,-9.93188535146586,0 -36.1506884003363,-9.93186634899425,0 -36.150686820571,-9.93185256630063,0 -36.150685194666,-9.9318420313081,0 -36.1506847488326,-9.93183973119251,0 -36.1506792242828,-9.93182068832476,0 -36.1506732669446,-9.93177653628162,0 -36.1506711800401,-9.93174059044361,0 -36.1506699519512,-9.93171198110939,0 -36.1506688157708,-9.93168756507295,0 -36.1506689179053,-9.93168105536889,0 -36.150650029748,-9.9316414785563,0 -36.1506384138388,-9.93158546920738,0 -36.1506295267805,-9.93154478030603,0 -36.150625910489,-9.93151642988269,0 -36.1506174720737,-9.9314768829277,0 -36.1506176641304,-9.93141560050443,0 -36.1506192665714,-9.93136480439979,0 -36.1506266010258,-9.93131522181058,0 -36.1506413129901,-9.93126092254587,0 -36.1506694164047,-9.93119790406276,0 -36.1506843290559,-9.93117151329196,0 -36.1506868463708,-9.93116640093792,0 -36.1506979866961,-9.93114027844907,0 -36.150728564278,-9.93108899406973,0 -36.1507634416882,-9.93105114904568,0 -36.1507804381014,-9.93103422718488,0 -36.1507827598584,-9.93103183482533,0 -36.1507895798306,-9.93101202699546,0 -36.1507924709468,-9.931007358945,0 -36.1507851260981,-9.93096200001345,0 -36.1507779775359,-9.93093760153782,0 -36.1507749517094,-9.93092245105665,0 -36.1507566689492,-9.93088251090833,0 -36.1507435952786,-9.93085495317866,0 -36.1507293762142,-9.93082783257878,0 -36.1506996925532,-9.93076607464231,0 -36.1506944553651,-9.93072779400626,0 -36.1506897664928,-9.93071281221481,0 -36.1506888929014,-9.93070806588176,0 -36.1506770311015,-9.93068322946539,0 -36.1506693235065,-9.93067119171026,0 -36.1506525303312,-9.93064183983293,0 -36.1506438209804,-9.93062634789228,0 -36.1506363484759,-9.93061945133986,0 -36.150600901174,-9.93056348292177,0 -36.1505682377895,-9.93049652043655,0 -36.1505541911168,-9.93044452444344,0 -36.1505510425674,-9.9304271717921,0 -36.1505177577629,-9.93037253786607,0 -36.1504833524903,-9.93031499695829,0 -36.1504428723277,-9.93023877072726,0 -36.1504125407599,-9.93016254614663,0 -36.1503949929557,-9.93010801575697,0 -36.1503784735944,-9.93005246103203,0 -36.1503573409268,-9.93000153900007,0 -36.1503365522012,-9.92994513790521,0 -36.1503094724057,-9.92988599075574,0 -36.1502840217109,-9.92983751834064,0 -36.1502445872589,-9.92978280691928,0 -36.1502166607775,-9.9297464097478,0 -36.1502117067322,-9.92974160059482,0 -36.1502068831455,-9.92973895239726,0 -36.1501843270122,-9.92973157506758,0 -36.1501693400781,-9.92973009680614,0 -36.1501192930396,-9.92972904590301,0 -36.1500383396012,-9.92971658705377,0 -36.1500099727084,-9.9297126602279,0</coordinates></LinearRing></outerBoundaryIs></Polygon></MultiGeometry>
  </Placemark>
</Folder>
</Document></kml>
