<?xml version="1.0" encoding="utf-8" ?>
<kml xmlns="http://www.opengis.net/kml/2.2">
<Document id="root_doc">
<Schema name="NOVO_TALHAO_1102_ID_871" id="NOVO_TALHAO_1102_ID_871">
	<SimpleField name="TALHAO" type="string"></SimpleField>
	<SimpleField name="FAZENDA" type="string"></SimpleField>
	<SimpleField name="ZONA" type="string"></SimpleField>
	<SimpleField name="ID" type="float"></SimpleField>
	<SimpleField name="AREA_TOTAL" type="float"></SimpleField>
	<SimpleField name="FAZ_NOME" type="string"></SimpleField>
	<SimpleField name="CODE" type="string"></SimpleField>
</Schema>
<Folder><name>NOVO_TALHAO_1102_ID_871</name>
  <Placemark id="NOVO_TALHAO_1102_ID_871.1">
	<Style><LineStyle><color>ff0000ff</color></LineStyle><PolyStyle><fill>0</fill></PolyStyle></Style>
	<ExtendedData><SchemaData schemaUrl="#NOVO_TALHAO_1102_ID_871">
		<SimpleData name="TALHAO">1102</SimpleData>
		<SimpleData name="FAZENDA">1943</SimpleData>
		<SimpleData name="ZONA">1</SimpleData>
		<SimpleData name="ID">871</SimpleData>
		<SimpleData name="AREA_TOTAL">0.42</SimpleData>
		<SimpleData name="FAZ_NOME">NOVO</SimpleData>
		<SimpleData name="CODE"></SimpleData>
	</SchemaData></ExtendedData>
      <MultiGeometry><Polygon><outerBoundaryIs><LinearRing><coordinates>-36.141731732366,-9.89493332682914,0 -36.1417022705197,-9.8949536573784,0 -36.1416746558484,-9.89496849589743,0 -36.1416469842266,-9.894983008706,0 -36.1416191986141,-9.89499687018616,0 -36.1415889439071,-9.8950117184863,0 -36.141557454515,-9.89502706019314,0 -36.1415251374601,-9.89504195327382,0 -36.1414925595274,-9.89505738716294,0 -36.1414594598394,-9.89507390285335,0 -36.141435467773,-9.89509385964972,0 -36.1414098932662,-9.89512238978252,0 -36.1414702911452,-9.89513670172792,0 -36.1415022857478,-9.89512879024825,0 -36.1415336594185,-9.89512155837863,0 -36.1415635574753,-9.89511493132233,0 -36.1415953951266,-9.89510741972968,0 -36.1416299168422,-9.89510045157705,0 -36.1416621311958,-9.89509610329891,0 -36.1416900381466,-9.8950907939547,0 -36.1417202123436,-9.89508416257275,0 -36.1417537833139,-9.89507816497755,0 -36.1417889240094,-9.89507363143529,0 -36.1418317981519,-9.89507257501453,0 -36.141864965723,-9.89507226274628,0 -36.1418986979031,-9.89507230400292,0 -36.1419326742624,-9.89507304313361,0 -36.1419660132921,-9.89507355934341,0 -36.1420016697847,-9.89507400029861,0 -36.1420346361117,-9.89507651834679,0 -36.1420643771663,-9.89507791852206,0 -36.1420961193867,-9.89507765291286,0 -36.1421254716662,-9.89507727494379,0 -36.1421464254672,-9.8950762666172,0 -36.1421676357471,-9.89506786989524,0 -36.1422003352479,-9.89505717867079,0 -36.1422326813664,-9.89504487915455,0 -36.1422562001342,-9.89503523304712,0 -36.1422885974628,-9.89502089830867,0 -36.1423223935402,-9.89501041716875,0 -36.1423544646533,-9.89500086144162,0 -36.1423884684743,-9.89499146794775,0 -36.1424219772365,-9.89498204033094,0 -36.1424564311553,-9.89497225981744,0 -36.1424876514188,-9.89496415738802,0 -36.1425181930368,-9.89495629692317,0 -36.1425484892418,-9.89494863131263,0 -36.1425818445196,-9.89494020263739,0 -36.1426167324575,-9.89493139159458,0 -36.1426498842076,-9.89492295380471,0 -36.142689289578,-9.89491284140291,0 -36.1427166343075,-9.89490575035956,0 -36.1427477167409,-9.89489914247264,0 -36.1427783700247,-9.89489282286188,0 -36.142809775603,-9.89488672867122,0 -36.1428418219221,-9.89488025259334,0 -36.1428750273102,-9.8948734155831,0 -36.1429070310964,-9.89486720052729,0 -36.1429353208907,-9.89486161237947,0 -36.1429630346729,-9.8948558778705,0 -36.1430090032315,-9.89484093284745,0 -36.1429861090384,-9.89481707509417,0 -36.142953293747,-9.89480462383772,0 -36.1429172240743,-9.89479872534656,0 -36.1428891000415,-9.89479424707877,0 -36.1428527710062,-9.89478701928389,0 -36.1428176641444,-9.89477791097647,0 -36.1427919582567,-9.89476998340387,0 -36.1427603885546,-9.89475251423032,0 -36.1427360404978,-9.89474108452542,0 -36.1427113569496,-9.89473049086142,0 -36.1426787199853,-9.89471952438885,0 -36.1426474250302,-9.89470496784059,0 -36.1426168852946,-9.89468887091511,0 -36.1425942115888,-9.89467654039041,0 -36.1425644037057,-9.89466825097811,0 -36.142535366116,-9.89466344041482,0 -36.1425078689279,-9.89466558745977,0 -36.142468448093,-9.89466423595439,0 -36.1424374412281,-9.89466309892396,0 -36.142404930932,-9.89466382247966,0 -36.1423719189737,-9.89466541227944,0 -36.142338656094,-9.89466743510833,0 -36.1423081671114,-9.89467116130492,0 -36.142278095322,-9.8946731380942,0 -36.142248857828,-9.89467161616168,0 -36.1422179721347,-9.89467017461248,0 -36.1421862623882,-9.89466877320859,0 -36.1421548339633,-9.89467199742213,0 -36.142124059158,-9.89467738974537,0 -36.1420945914095,-9.89468711819921,0 -36.1420640386836,-9.89469983417114,0 -36.1420329434228,-9.89471404380933,0 -36.1420059869471,-9.89472691295669,0 -36.1419811445621,-9.89474144318419,0 -36.1419605299952,-9.89475929557222,0 -36.1419426011251,-9.89477924130129,0 -36.1419184328988,-9.89480683288534,0 -36.1418956863295,-9.8948266307553,0 -36.1418692223654,-9.89484436534888,0 -36.1418408997935,-9.89486106834835,0 -36.141813527712,-9.89487830204591,0 -36.1417864983842,-9.89489578754232,0 -36.1417601547472,-9.89491377673137,0 -36.141731732366,-9.89493332682914,0</coordinates></LinearRing></outerBoundaryIs></Polygon></MultiGeometry>
  </Placemark>
</Folder>
</Document></kml>
