<?xml version="1.0" encoding="utf-8" ?>
<kml xmlns="http://www.opengis.net/kml/2.2">
<Document id="root_doc">
<Schema name="NOVO_TALHAO_1015_ID_880" id="NOVO_TALHAO_1015_ID_880">
	<SimpleField name="TALHAO" type="string"></SimpleField>
	<SimpleField name="FAZENDA" type="string"></SimpleField>
	<SimpleField name="ZONA" type="string"></SimpleField>
	<SimpleField name="ID" type="float"></SimpleField>
	<SimpleField name="AREA_TOTAL" type="float"></SimpleField>
	<SimpleField name="FAZ_NOME" type="string"></SimpleField>
	<SimpleField name="CODE" type="string"></SimpleField>
</Schema>
<Folder><name>NOVO_TALHAO_1015_ID_880</name>
  <Placemark id="NOVO_TALHAO_1015_ID_880.1">
	<Style><LineStyle><color>ff0000ff</color></LineStyle><PolyStyle><fill>0</fill></PolyStyle></Style>
	<ExtendedData><SchemaData schemaUrl="#NOVO_TALHAO_1015_ID_880">
		<SimpleData name="TALHAO">1015</SimpleData>
		<SimpleData name="FAZENDA">1943</SimpleData>
		<SimpleData name="ZONA">1</SimpleData>
		<SimpleData name="ID">880</SimpleData>
		<SimpleData name="AREA_TOTAL">4.80</SimpleData>
		<SimpleData name="FAZ_NOME">NOVO</SimpleData>
		<SimpleData name="CODE"></SimpleData>
	</SchemaData></ExtendedData>
      <MultiGeometry><Polygon><outerBoundaryIs><LinearRing><coordinates>-36.143191465959,-9.89654017524585,0 -36.1431924906645,-9.8965688395663,0 -36.1431944412393,-9.89659837370961,0 -36.1432004931324,-9.89662508790254,0 -36.1432069468166,-9.8966669616184,0 -36.1432095820297,-9.89669832076853,0 -36.1432122418645,-9.89673475327726,0 -36.1432141791304,-9.89677225116338,0 -36.1432145528975,-9.89680847556607,0 -36.143217090641,-9.89683996340601,0 -36.1432209959104,-9.89687237274109,0 -36.1432237716551,-9.89690571567969,0 -36.1432263746792,-9.89693877492749,0 -36.1432286032891,-9.89697061613884,0 -36.1432328727102,-9.89699872199731,0 -36.1432383488312,-9.89704273270612,0 -36.1432365242999,-9.89708200315811,0 -36.1432375604814,-9.89711547605131,0 -36.1432401050779,-9.89715110372713,0 -36.1432411634799,-9.89718835077464,0 -36.1432408183727,-9.89722583537665,0 -36.1432375001703,-9.89726343627943,0 -36.1432502111616,-9.89733794931183,0 -36.1432898288798,-9.89740813972252,0 -36.1437745802957,-9.89778712901263,0 -36.1474215679827,-9.89593076654852,0 -36.1474284681157,-9.89589090642056,0 -36.1474234970236,-9.89584934634642,0 -36.1474009180804,-9.89584219891737,0 -36.1473796671735,-9.89582328701365,0 -36.1473636268173,-9.89581105769549,0 -36.1473412745006,-9.89580484012296,0 -36.1473153822745,-9.89579987849036,0 -36.1472920278369,-9.89579974536836,0 -36.1472638018782,-9.89580304225989,0 -36.1472325008172,-9.89580845325197,0 -36.1472004178966,-9.8958149667406,0 -36.1471655608545,-9.89582144034099,0 -36.1471288628304,-9.89582713650267,0 -36.1470935468486,-9.89583371484521,0 -36.1470591064635,-9.89584067296775,0 -36.147025832321,-9.8958495371959,0 -36.1469905119042,-9.89585855384279,0 -36.146954573741,-9.89586694538977,0 -36.1469187344008,-9.89587468347373,0 -36.1468836280789,-9.89588195682265,0 -36.1468490387618,-9.89588983837589,0 -36.1468130084858,-9.89589736357823,0 -36.1467777535768,-9.89590340832416,0 -36.1467437152892,-9.89591040844303,0 -36.1467098860289,-9.89591794473701,0 -36.1466761553517,-9.89592695094463,0 -36.1466411734501,-9.89593656065818,0 -36.1466037778552,-9.89594737984149,0 -36.1465653020213,-9.89595663669175,0 -36.1465276075415,-9.89596479681983,0 -36.1464916739633,-9.89597240512446,0 -36.1464549277404,-9.89597956272478,0 -36.1464179630635,-9.89598552925514,0 -36.1463820502164,-9.89599098215463,0 -36.1463465630816,-9.89599619744622,0 -36.1463107872182,-9.89600144346181,0 -36.1462742894852,-9.89600620634044,0 -36.1462392100431,-9.89600965300936,0 -36.1462049247079,-9.89601466950866,0 -36.1461674572635,-9.8960210349919,0 -36.1461286628272,-9.89602435186524,0 -36.146091741881,-9.89602772626645,0 -36.1460544659483,-9.89603156298482,0 -36.1460167697818,-9.89603603485953,0 -36.1459788262188,-9.89604082999475,0 -36.1459403860429,-9.8960461565603,0 -36.1459007083532,-9.89605114548474,0 -36.1458598540955,-9.89605526608055,0 -36.1458205813572,-9.8960580971346,0 -36.1457817231859,-9.89606030892453,0 -36.1457410521966,-9.8960609839334,0 -36.145700593306,-9.89606083061862,0 -36.1456604811326,-9.8960590126049,0 -36.1456331432845,-9.89605705134225,0 -36.1455925197284,-9.89605310026149,0 -36.1455524472884,-9.89604895980747,0 -36.1455113721408,-9.89604459111869,0 -36.145470989836,-9.89603820846614,0 -36.1454318298152,-9.89603212406326,0 -36.1453923547979,-9.89602620180536,0 -36.1453535831845,-9.89602010716731,0 -36.1453158190185,-9.8960140307868,0 -36.145277812102,-9.89600859598166,0 -36.1452386625491,-9.89600254642468,0 -36.145199888569,-9.89599567802107,0 -36.1451618225524,-9.89598998869429,0 -36.1451229977352,-9.89598472132942,0 -36.1450841847294,-9.89597928556818,0 -36.1450455958042,-9.89597418316059,0 -36.1450062309453,-9.89596958406822,0 -36.144966928216,-9.89596470484746,0 -36.1449296925733,-9.89595994352138,0 -36.1448930590864,-9.89595794654878,0 -36.1448557485946,-9.89595662465255,0 -36.1448197187808,-9.89595673471323,0 -36.1447834683025,-9.89595921847572,0 -36.1447440134486,-9.89596320932177,0 -36.1447034513695,-9.89596434206378,0 -36.1446653902591,-9.89596597390415,0 -36.1446267947713,-9.89596879466011,0 -36.1445873292083,-9.89597087854088,0 -36.1445502876117,-9.89597245792521,0 -36.1445256914444,-9.89597559499127,0 -36.1444865711039,-9.89598058436909,0 -36.1444490770659,-9.89598646551306,0 -36.1444105797599,-9.89599200621544,0 -36.144373598392,-9.89599635441879,0 -36.1443373308031,-9.89600184164889,0 -36.1443004753253,-9.89600803312019,0 -36.1442629723395,-9.89601482252302,0 -36.1442281757147,-9.89602275202123,0 -36.1441940105688,-9.8960339809354,0 -36.1441579756587,-9.89604559033416,0 -36.1441230629049,-9.89605672388097,0 -36.1440889132548,-9.89606914718442,0 -36.1440541614564,-9.89608219974332,0 -36.1440179424927,-9.89609664636615,0 -36.1439814507837,-9.89610943641035,0 -36.1439439363769,-9.89612165182144,0 -36.1439053512561,-9.89612991840922,0 -36.1438698693596,-9.89613798749981,0 -36.1438338440663,-9.89614714573276,0 -36.1437983079437,-9.89615503679064,0 -36.1437605759671,-9.8961627704172,0 -36.1437211578824,-9.89616446490261,0 -36.1436857501313,-9.89616662354767,0 -36.1436490807935,-9.89617013099873,0 -36.1436124487325,-9.89617368539358,0 -36.1435758389089,-9.89617726363574,0 -36.1435403063515,-9.89618012347869,0 -36.1435058431629,-9.8961835336883,0 -36.143472012843,-9.89618811592176,0 -36.1434375742759,-9.8961948708073,0 -36.1434052453263,-9.89620217613802,0 -36.1433760717229,-9.89621400660234,0 -36.1433465221187,-9.89622726535531,0 -36.1433233515927,-9.89623996138553,0 -36.1433035027622,-9.89625723876139,0 -36.1432807156107,-9.8962816317931,0 -36.1432556998866,-9.89630533756053,0 -36.1432368559839,-9.89632692645771,0 -36.1432220140205,-9.89635227086736,0 -36.1432090458539,-9.89637988185988,0 -36.1431983356244,-9.89640595292511,0 -36.1431924954423,-9.89643028470934,0 -36.1431909482204,-9.89644695945477,0 -36.1431941700783,-9.89648506953551,0 -36.1431924975434,-9.89651629565058,0 -36.143191465959,-9.89654017524585,0</coordinates></LinearRing></outerBoundaryIs></Polygon></MultiGeometry>
  </Placemark>
</Folder>
</Document></kml>
