<?xml version="1.0" encoding="utf-8" ?>
<kml xmlns="http://www.opengis.net/kml/2.2">
<Document id="root_doc">
<Schema name="NOVO_TALHAO_1044_ID_909" id="NOVO_TALHAO_1044_ID_909">
	<SimpleField name="TALHAO" type="string"></SimpleField>
	<SimpleField name="FAZENDA" type="string"></SimpleField>
	<SimpleField name="ZONA" type="string"></SimpleField>
	<SimpleField name="ID" type="float"></SimpleField>
	<SimpleField name="AREA_TOTAL" type="float"></SimpleField>
	<SimpleField name="FAZ_NOME" type="string"></SimpleField>
	<SimpleField name="CODE" type="string"></SimpleField>
</Schema>
<Folder><name>NOVO_TALHAO_1044_ID_909</name>
  <Placemark id="NOVO_TALHAO_1044_ID_909.1">
	<Style><LineStyle><color>ff0000ff</color></LineStyle><PolyStyle><fill>0</fill></PolyStyle></Style>
	<ExtendedData><SchemaData schemaUrl="#NOVO_TALHAO_1044_ID_909">
		<SimpleData name="TALHAO">1044</SimpleData>
		<SimpleData name="FAZENDA">1943</SimpleData>
		<SimpleData name="ZONA">1</SimpleData>
		<SimpleData name="ID">909</SimpleData>
		<SimpleData name="AREA_TOTAL">4.76</SimpleData>
		<SimpleData name="FAZ_NOME">NOVO</SimpleData>
		<SimpleData name="CODE"></SimpleData>
	</SchemaData></ExtendedData>
      <MultiGeometry><Polygon><outerBoundaryIs><LinearRing><coordinates>-36.1546031180273,-9.91225027392937,0 -36.1545423124994,-9.91226073802583,0 -36.1544818214241,-9.91226424655729,0 -36.154413006244,-9.91225446036682,0 -36.1543416324374,-9.91222562684681,0 -36.1542918518701,-9.91220958797865,0 -36.1542598863427,-9.91219722608625,0 -36.1542312269004,-9.91218335306302,0 -36.1541748563351,-9.91216497476405,0 -36.1541228414727,-9.91214769629836,0 -36.1540775943009,-9.91213595328011,0 -36.15401471682,-9.91210999187713,0 -36.1539583445297,-9.91210559350325,0 -36.1538973916278,-9.912097918104,0 -36.1538371113467,-9.91210325333819,0 -36.1537891280168,-9.91213493095403,0 -36.1537274044565,-9.91217411593675,0 -36.1536828378952,-9.91221305341033,0 -36.1536414480084,-9.91225621858576,0 -36.153577600584,-9.91235206245332,0 -36.1535593302772,-9.91237085298313,0 -36.1535157690171,-9.91242277260341,0 -36.1534856120329,-9.91248261883442,0 -36.1534532458198,-9.91254895229465,0 -36.1534289136116,-9.91260111692348,0 -36.1534017099171,-9.9126439611455,0 -36.1533775083942,-9.91270786135211,0 -36.1533490301685,-9.91275520760994,0 -36.1533262398481,-9.91280552382465,0 -36.1532986845443,-9.91287414276785,0 -36.153277495221,-9.91290621234434,0 -36.1532590899101,-9.9129236410933,0 -36.1531858559633,-9.91299403379789,0 -36.1531636495213,-9.91300072727044,0 -36.1531189889032,-9.91302620077992,0 -36.1530715492022,-9.9130521541152,0 -36.1530349374216,-9.91307689203694,0 -36.1529957292102,-9.91310013545322,0 -36.1529517821278,-9.91311783200328,0 -36.1529237616479,-9.91313633879738,0 -36.1528994635231,-9.9131556115986,0 -36.1528747347612,-9.91316634500582,0 -36.1528097296628,-9.91318375886458,0 -36.152791549338,-9.91319552748708,0 -36.1527715395891,-9.91320394012291,0 -36.1527543160341,-9.91321811754996,0 -36.1526836407946,-9.91325936877345,0 -36.1526491727677,-9.91328549600654,0 -36.1526131470292,-9.91331449299445,0 -36.1525702075993,-9.91333939828466,0 -36.1525315950031,-9.91336112727277,0 -36.1524811177193,-9.91337898896461,0 -36.1524639223443,-9.9133859305822,0 -36.1523897647067,-9.91342976608367,0 -36.1523228477963,-9.91345013005594,0 -36.1522665527214,-9.91346213673564,0 -36.1522296398744,-9.91346421334122,0 -36.1521933736526,-9.91347318374269,0 -36.1521522031977,-9.9134895619463,0 -36.1521237654589,-9.91350233125559,0 -36.1521045072787,-9.91351023198178,0 -36.1520840837254,-9.91352153460806,0 -36.1520158081467,-9.91355150444475,0 -36.1519706252914,-9.91358548285168,0 -36.1519492081143,-9.91359675646398,0 -36.1518698768435,-9.91364136637397,0 -36.1518401095013,-9.91365895992655,0 -36.1518009352516,-9.91368008964637,0 -36.1517686298592,-9.91369833841248,0 -36.1517435021312,-9.91370354998747,0 -36.1517226098177,-9.91370546261113,0 -36.1516993279976,-9.91371336894959,0 -36.151675683111,-9.91372382051561,0 -36.1516563394378,-9.9137371049274,0 -36.1516106165946,-9.91375336888128,0 -36.1515744155155,-9.91375713360559,0 -36.1515522560783,-9.9137629926807,0 -36.1515312376903,-9.91376672841949,0 -36.1514966570159,-9.91378203145088,0 -36.1514549307711,-9.91379663716196,0 -36.1514212186092,-9.91380523654185,0 -36.1513916619258,-9.91381673451927,0 -36.151373821336,-9.91382497273784,0 -36.1513408415664,-9.91384801272427,0 -36.1513158216785,-9.91387948636743,0 -36.1513066171063,-9.91391488812924,0 -36.1512994202656,-9.91395058776083,0 -36.1512897653235,-9.91399845979228,0 -36.1512898853127,-9.91401566522916,0 -36.1512901399137,-9.91405650831963,0 -36.1512914810062,-9.91409105626541,0 -36.1524264181285,-9.91414541275523,0 -36.1544513046154,-9.91434668297675,0 -36.1546031180273,-9.91225027392937,0</coordinates></LinearRing></outerBoundaryIs></Polygon></MultiGeometry>
  </Placemark>
</Folder>
</Document></kml>
