<?xml version="1.0" encoding="utf-8" ?>
<kml xmlns="http://www.opengis.net/kml/2.2">
<Document id="root_doc">
<Schema name="NOVO_TALHAO_1059_ID_1120" id="NOVO_TALHAO_1059_ID_1120">
	<SimpleField name="TALHAO" type="string"></SimpleField>
	<SimpleField name="FAZENDA" type="string"></SimpleField>
	<SimpleField name="ZONA" type="string"></SimpleField>
	<SimpleField name="ID" type="float"></SimpleField>
	<SimpleField name="AREA_TOTAL" type="float"></SimpleField>
	<SimpleField name="FAZ_NOME" type="string"></SimpleField>
	<SimpleField name="CODE" type="string"></SimpleField>
</Schema>
<Folder><name>NOVO_TALHAO_1059_ID_1120</name>
  <Placemark id="NOVO_TALHAO_1059_ID_1120.1">
	<Style><LineStyle><color>ff0000ff</color></LineStyle><PolyStyle><fill>0</fill></PolyStyle></Style>
	<ExtendedData><SchemaData schemaUrl="#NOVO_TALHAO_1059_ID_1120">
		<SimpleData name="TALHAO">1059</SimpleData>
		<SimpleData name="FAZENDA">1943</SimpleData>
		<SimpleData name="ZONA">1</SimpleData>
		<SimpleData name="ID">1120</SimpleData>
		<SimpleData name="AREA_TOTAL">3.20</SimpleData>
		<SimpleData name="FAZ_NOME">NOVO</SimpleData>
		<SimpleData name="CODE"></SimpleData>
	</SchemaData></ExtendedData>
      <MultiGeometry><Polygon><outerBoundaryIs><LinearRing><coordinates>-36.1485844112118,-9.93493286019029,0 -36.1486301762098,-9.93495389035073,0 -36.1486673612051,-9.9349824305772,0 -36.1486872561919,-9.93499721333271,0 -36.1487093759412,-9.93501457578475,0 -36.1487327224303,-9.93503381223612,0 -36.1487690090236,-9.93506728862476,0 -36.1487785853302,-9.93507982832924,0 -36.1487996823292,-9.93509566474496,0 -36.1488313987688,-9.9351428045364,0 -36.1488423943534,-9.93515807527993,0 -36.1488545384853,-9.93517493883722,0 -36.1488609779253,-9.93518387499877,0 -36.1488771385012,-9.93520233372418,0 -36.148903427965,-9.93523973130992,0 -36.1489302213326,-9.93528498659269,0 -36.1489458592705,-9.93532268414318,0 -36.1489536464604,-9.93534020560686,0 -36.1489671330894,-9.93536910686795,0 -36.1489793740261,-9.93540556381804,0 -36.1489835619331,-9.93542025329487,0 -36.1489841184037,-9.93542156881191,0 -36.148994143637,-9.93544069990181,0 -36.1490078356825,-9.93547197594458,0 -36.1490183738444,-9.93549776257136,0 -36.1490311450507,-9.93552935020168,0 -36.1490409685436,-9.93556101678801,0 -36.1490520516704,-9.93559548555985,0 -36.1490612069457,-9.93563994723535,0 -36.1490647533745,-9.93566803047973,0 -36.1490681248125,-9.93568785544486,0 -36.1490707656932,-9.935705246661,0 -36.1490719644391,-9.93571016009581,0 -36.1490756023245,-9.93572171412994,0 -36.1490812806153,-9.93573898688001,0 -36.1490894251842,-9.93575918355981,0 -36.1490948455613,-9.93577707489817,0 -36.149111598691,-9.93580677041542,0 -36.1491135249971,-9.93581244617133,0 -36.1491428882786,-9.93584058779414,0 -36.1491586208945,-9.93585853744491,0 -36.1491621430804,-9.93586144137767,0 -36.1491902601781,-9.93588352074611,0 -36.149226804961,-9.93592167311794,0 -36.1492379728903,-9.93593772067613,0 -36.1492914889242,-9.93599095071767,0 -36.1493010279803,-9.9360080750286,0 -36.1493397528393,-9.93604271137173,0 -36.1493832359117,-9.93608957137616,0 -36.1493893398324,-9.93609923316559,0 -36.1494063887891,-9.93611058637491,0 -36.1494591127715,-9.93616574082195,0 -36.1494794189044,-9.9362003730497,0 -36.1494802172526,-9.93620073017356,0 -36.1495071850661,-9.93620588875895,0 -36.1495333263283,-9.93621077655073,0 -36.1495504115479,-9.93621461599415,0 -36.1495776188899,-9.93621470782456,0 -36.149588911588,-9.9362132411297,0 -36.1496326480819,-9.93621043748289,0 -36.1496872901256,-9.93621706551832,0 -36.1497302207944,-9.93622456427878,0 -36.1497693242664,-9.93623861510258,0 -36.1497810504362,-9.93624364964119,0 -36.1498035036301,-9.93625077952862,0 -36.1498077613111,-9.93625280645618,0 -36.1498509048336,-9.93625994082056,0 -36.1498695681332,-9.93626379573435,0 -36.1499000190178,-9.93626722698244,0 -36.1499312454647,-9.93627424918414,0 -36.1499442179973,-9.93510650332109,0 -36.1499472624343,-9.93454643297855,0 -36.1476343042905,-9.93394971780619,0 -36.1476362861218,-9.93491396531287,0 -36.1476467139736,-9.93490838952476,0 -36.1476672286654,-9.93489733984762,0 -36.1476870770721,-9.93488638380181,0 -36.1477213465622,-9.93486718649007,0 -36.1477522590877,-9.93485438161087,0 -36.1477711506015,-9.93484565871615,0 -36.1478058689333,-9.9348309404084,0 -36.1478484877891,-9.93481696502372,0 -36.1478841451564,-9.93480845399552,0 -36.1479075512401,-9.93480369445699,0 -36.1479343511259,-9.93479811644678,0 -36.1479648645403,-9.93479408238882,0 -36.1479910821077,-9.93479107643165,0 -36.1480247717176,-9.93478768919256,0 -36.148057442401,-9.93478668978592,0 -36.1480995986089,-9.93478613515896,0 -36.1481476705478,-9.93479147255085,0 -36.1481802032995,-9.93479725286177,0 -36.148214017338,-9.93480213212065,0 -36.1482438280074,-9.93480889252389,0 -36.1482700620336,-9.93481319493047,0 -36.148312171043,-9.9348244563037,0 -36.1483304848716,-9.93483028200657,0 -36.1483444389775,-9.93483347602302,0 -36.1483664796482,-9.9348387351485,0 -36.1483983558136,-9.93484765905419,0 -36.1484269231984,-9.93485511243465,0 -36.1484631544598,-9.93487096763352,0 -36.1485073913514,-9.93488734613027,0 -36.1485514288598,-9.934917130263,0 -36.1485574053983,-9.93492048394318,0 -36.1485664893835,-9.93492491218424,0 -36.1485844112118,-9.93493286019029,0</coordinates></LinearRing></outerBoundaryIs></Polygon></MultiGeometry>
  </Placemark>
</Folder>
</Document></kml>
