<?xml version="1.0" encoding="utf-8" ?>
<kml xmlns="http://www.opengis.net/kml/2.2">
<Document id="root_doc">
<Schema name="NOVO_TALHAO_1106_ID_867" id="NOVO_TALHAO_1106_ID_867">
	<SimpleField name="TALHAO" type="string"></SimpleField>
	<SimpleField name="FAZENDA" type="string"></SimpleField>
	<SimpleField name="ZONA" type="string"></SimpleField>
	<SimpleField name="ID" type="float"></SimpleField>
	<SimpleField name="AREA_TOTAL" type="float"></SimpleField>
	<SimpleField name="FAZ_NOME" type="string"></SimpleField>
	<SimpleField name="CODE" type="string"></SimpleField>
</Schema>
<Folder><name>NOVO_TALHAO_1106_ID_867</name>
  <Placemark id="NOVO_TALHAO_1106_ID_867.1">
	<Style><LineStyle><color>ff0000ff</color></LineStyle><PolyStyle><fill>0</fill></PolyStyle></Style>
	<ExtendedData><SchemaData schemaUrl="#NOVO_TALHAO_1106_ID_867">
		<SimpleData name="TALHAO">1106</SimpleData>
		<SimpleData name="FAZENDA">1943</SimpleData>
		<SimpleData name="ZONA">1</SimpleData>
		<SimpleData name="ID">867</SimpleData>
		<SimpleData name="AREA_TOTAL">0.16</SimpleData>
		<SimpleData name="FAZ_NOME">NOVO</SimpleData>
		<SimpleData name="CODE"></SimpleData>
	</SchemaData></ExtendedData>
      <MultiGeometry><Polygon><outerBoundaryIs><LinearRing><coordinates>-36.1525621708156,-9.89234900272365,0 -36.1525943096876,-9.89237791678983,0 -36.1526185022427,-9.89240690992068,0 -36.1526425585958,-9.89243302774048,0 -36.1526695828465,-9.8924572968691,0 -36.1526985404678,-9.89248024479854,0 -36.152727214773,-9.892501569182,0 -36.1527583913508,-9.89251614274768,0 -36.1527906094104,-9.89252805681432,0 -36.1528238833514,-9.89253431569992,0 -36.1528585771134,-9.8925359189994,0 -36.1528941539406,-9.89253509632631,0 -36.1529289150187,-9.89253171329278,0 -36.152963810558,-9.8925276679873,0 -36.1529984795879,-9.89252233657679,0 -36.1530339515287,-9.89251690045215,0 -36.1530690177181,-9.89251153547046,0 -36.1530998436423,-9.8925045800953,0 -36.1531281400521,-9.89249615047442,0 -36.1531431255777,-9.89249301547553,0 -36.1531390917806,-9.89248744746471,0 -36.1531228282771,-9.89246315561103,0 -36.1531003633085,-9.89243325096335,0 -36.1530786167385,-9.89240086147232,0 -36.1530599397079,-9.89236563531234,0 -36.1530443263565,-9.8923301003065,0 -36.1530298732584,-9.89229356047727,0 -36.1530215589721,-9.89225851503551,0 -36.1530152775222,-9.8922254551028,0 -36.1530127551522,-9.89219333848204,0 -36.153013007471,-9.89217058230804,0 -36.1529896491832,-9.89217610253308,0 -36.1529565788813,-9.89218676008617,0 -36.1529244846219,-9.89219683570935,0 -36.1528943424514,-9.892205747206,0 -36.1528650886584,-9.89221534784536,0 -36.1528362791445,-9.89222529310067,0 -36.1528073850197,-9.8922292821154,0 -36.1527775827024,-9.89223176233423,0 -36.152745964183,-9.89223122496539,0 -36.1527162397202,-9.89223704075977,0 -36.1526874621946,-9.89224603299803,0 -36.1526590243133,-9.89226047085819,0 -36.1526283146641,-9.89227807894006,0 -36.1525930615705,-9.89230202746795,0 -36.1525776732153,-9.89232178403243,0 -36.1525621708156,-9.89234900272365,0</coordinates></LinearRing></outerBoundaryIs></Polygon></MultiGeometry>
  </Placemark>
</Folder>
</Document></kml>
