<?xml version="1.0" encoding="utf-8" ?>
<kml xmlns="http://www.opengis.net/kml/2.2">
<Document id="root_doc">
<Schema name="NOVO_TALHAO_1015_ID_881" id="NOVO_TALHAO_1015_ID_881">
	<SimpleField name="TALHAO" type="string"></SimpleField>
	<SimpleField name="FAZENDA" type="string"></SimpleField>
	<SimpleField name="ZONA" type="string"></SimpleField>
	<SimpleField name="ID" type="float"></SimpleField>
	<SimpleField name="AREA_TOTAL" type="float"></SimpleField>
	<SimpleField name="FAZ_NOME" type="string"></SimpleField>
	<SimpleField name="CODE" type="string"></SimpleField>
</Schema>
<Folder><name>NOVO_TALHAO_1015_ID_881</name>
  <Placemark id="NOVO_TALHAO_1015_ID_881.1">
	<Style><LineStyle><color>ff0000ff</color></LineStyle><PolyStyle><fill>0</fill></PolyStyle></Style>
	<ExtendedData><SchemaData schemaUrl="#NOVO_TALHAO_1015_ID_881">
		<SimpleData name="TALHAO">1015</SimpleData>
		<SimpleData name="FAZENDA">1943</SimpleData>
		<SimpleData name="ZONA">1</SimpleData>
		<SimpleData name="ID">881</SimpleData>
		<SimpleData name="AREA_TOTAL">4.34</SimpleData>
		<SimpleData name="FAZ_NOME">NOVO</SimpleData>
		<SimpleData name="CODE"></SimpleData>
	</SchemaData></ExtendedData>
      <MultiGeometry><Polygon><outerBoundaryIs><LinearRing><coordinates>-36.1416169596274,-9.89887608277072,0 -36.1426038553307,-9.89837597779297,0 -36.1436631344895,-9.89783918729931,0 -36.1436657377857,-9.89780233650223,0 -36.1436544475207,-9.89777001490689,0 -36.143631791821,-9.89774168155641,0 -36.1436034534517,-9.89771534246324,0 -36.1435732400583,-9.89768941509209,0 -36.1435424233753,-9.89766375830612,0 -36.1435103996543,-9.89763864250725,0 -36.143489158459,-9.89762163001444,0 -36.1434574585948,-9.89759570824458,0 -36.1434271149786,-9.89757260965428,0 -36.1433974496693,-9.89755092278998,0 -36.143368151531,-9.89752791954312,0 -36.143338089067,-9.89750523438541,0 -36.1433064979467,-9.89748318549745,0 -36.1432744178306,-9.8974650358522,0 -36.1432420931735,-9.89744883573623,0 -36.1432065429297,-9.89744175364593,0 -36.1431750982098,-9.89743552720791,0 -36.1431441202748,-9.89742950764063,0 -36.1431228659386,-9.89743026901949,0 -36.1431009275311,-9.89742717730138,0 -36.1430631069588,-9.89743702373831,0 -36.1430278126639,-9.89743992536275,0 -36.1429887344571,-9.8974395108665,0 -36.1429424903571,-9.89742201807532,0 -36.1429108718501,-9.89740275884482,0 -36.1428847484823,-9.89738391292539,0 -36.1428580282438,-9.8973687814425,0 -36.1428282169861,-9.89735060597501,0 -36.1427991695028,-9.8973302930263,0 -36.1427711572418,-9.89730954081541,0 -36.1427427356769,-9.89728789234823,0 -36.1427150008097,-9.8972643409084,0 -36.1426881004971,-9.89724145993056,0 -36.1426615977324,-9.89721884201754,0 -36.1426355307382,-9.89719768197029,0 -36.1426103678161,-9.89717778491454,0 -36.1425822476027,-9.89715858440609,0 -36.142551636518,-9.89713539590714,0 -36.1425234536641,-9.89710961469115,0 -36.1424980581864,-9.8970876400184,0 -36.1424744647567,-9.89706784112574,0 -36.1424474259839,-9.89704952421898,0 -36.1424183674673,-9.89702906219613,0 -36.1423902999326,-9.89700769555917,0 -36.14236518615,-9.89698728015566,0 -36.1423463787129,-9.89697142349691,0 -36.1423207625573,-9.89695916214121,0 -36.1422873790615,-9.89693389872519,0 -36.1422611756672,-9.89691641875631,0 -36.1422328377725,-9.89689848847565,0 -36.1422046458621,-9.8968832712442,0 -36.1421753514479,-9.89686879281858,0 -36.1421436612722,-9.89685572810911,0 -36.1421098445586,-9.89684277996306,0 -36.142075510081,-9.89683011706624,0 -36.1420405130512,-9.89681813054783,0 -36.1420050727704,-9.89680645595585,0 -36.1419691937387,-9.89679554268933,0 -36.1419333182285,-9.8967858500133,0 -36.1418955585977,-9.89677629391245,0 -36.1418588172382,-9.89676473907408,0 -36.1418240854592,-9.89675443216707,0 -36.1417893884523,-9.896745370352,0 -36.1417533141327,-9.89673647849042,0 -36.1417194389928,-9.89672836939285,0 -36.1416849576077,-9.89672473430944,0 -36.1416469844959,-9.89672033145388,0 -36.1416091482664,-9.89671515098892,0 -36.1415715412878,-9.89670997391882,0 -36.1415322934483,-9.89670455644569,0 -36.1414945712039,-9.89669669406015,0 -36.141458336316,-9.89668958640687,0 -36.1414226704362,-9.89668342740581,0 -36.1413873306185,-9.89668042471409,0 -36.1413488773631,-9.89667883242288,0 -36.1413108435078,-9.89667550314329,0 -36.1412740086949,-9.89667249063392,0 -36.1412363657471,-9.89666984119135,0 -36.1411976860963,-9.89666634635896,0 -36.1411621106293,-9.89666278460556,0 -36.1411269032481,-9.8966637767952,0 -36.141090724735,-9.89666531852492,0 -36.1410584077704,-9.89666772835941,0 -36.1410251048582,-9.89667273440578,0 -36.1409928779554,-9.89667874682556,0 -36.1409637616673,-9.89668873795786,0 -36.1409318443872,-9.89670041077922,0 -36.140900442443,-9.89671325834847,0 -36.1408703204204,-9.89672873984494,0 -36.1408431359438,-9.89674422159496,0 -36.1408200649074,-9.89676457062399,0 -36.1407974380997,-9.89678725820801,0 -36.1407794081717,-9.8968108319933,0 -36.1407647034362,-9.8968376366942,0 -36.1407541595153,-9.89686088036635,0 -36.1407529466286,-9.8968862448679,0 -36.1407538745687,-9.89691583176174,0 -36.1407598276576,-9.89694577891618,0 -36.1407670263937,-9.89698041151014,0 -36.1407735005082,-9.89701092392948,0 -36.1407868214617,-9.89703991969637,0 -36.1408024177001,-9.89707289851842,0 -36.1408189034944,-9.89710585728061,0 -36.1408339296663,-9.8971357920769,0 -36.1408481731528,-9.8971641083683,0 -36.1408630279828,-9.89719408725203,0 -36.1408785630105,-9.89722276375816,0 -36.1408975551775,-9.89725277383653,0 -36.1409174392029,-9.89728517865759,0 -36.1409377352504,-9.89731875775371,0 -36.1409559790037,-9.89735261714872,0 -36.1409735172897,-9.89738517522107,0 -36.1409901401111,-9.89741604893683,0 -36.1410078375566,-9.89744515535164,0 -36.1410273794925,-9.89747545031122,0 -36.1410458914857,-9.89750703159275,0 -36.1410637917021,-9.89754063767749,0 -36.1410797593871,-9.89757708715994,0 -36.141092965469,-9.89761153572528,0 -36.1411050196241,-9.897645512701,0 -36.1411149999792,-9.89767846380868,0 -36.1411245384955,-9.89771163649941,0 -36.1411334069022,-9.89774592760641,0 -36.1411420639637,-9.89778022299558,0 -36.1411505666672,-9.89781431555697,0 -36.1411597803166,-9.89784894708452,0 -36.1411686011591,-9.89788481441332,0 -36.1411758355664,-9.89791994531221,0 -36.1411831371239,-9.89795195246001,0 -36.1411906371849,-9.8979831646966,0 -36.1411987838552,-9.89801549646687,0 -36.1412069378411,-9.89804886548483,0 -36.1412146352477,-9.89808236235559,0 -36.1412231046372,-9.89811440534065,0 -36.1412315260663,-9.89814424693812,0 -36.1412439020766,-9.89817426150534,0 -36.1412577498929,-9.8982043479322,0 -36.1412751921584,-9.89823535313548,0 -36.141291354504,-9.8982696858705,0 -36.1413056317057,-9.89830313435586,0 -36.1413190998238,-9.89833516062013,0 -36.1413323554219,-9.89836764349099,0 -36.1413455623497,-9.89840208476451,0 -36.1413557993321,-9.89843847007077,0 -36.1413643224103,-9.89847499640564,0 -36.1413701980733,-9.89851062963021,0 -36.1413745980986,-9.89854786377709,0 -36.1413759934656,-9.89858918323136,0 -36.1413726365127,-9.89862730545144,0 -36.1413665904925,-9.89866583555176,0 -36.1413533335737,-9.89870102965164,0 -36.1413385090454,-9.89873414660459,0 -36.1412840559026,-9.89880204068469,0 -36.1412864913113,-9.89882081824611,0 -36.1412862392327,-9.89885633725834,0 -36.1412848470001,-9.89889092944285,0 -36.1412757004044,-9.89893215755682,0 -36.1412685251986,-9.89895731949849,0 -36.1412677054121,-9.8989833002635,0 -36.1412701882654,-9.89901282416757,0 -36.1412971170444,-9.89903816050198,0 -36.1416169596274,-9.89887608277072,0</coordinates></LinearRing></outerBoundaryIs></Polygon></MultiGeometry>
  </Placemark>
</Folder>
</Document></kml>
