<?xml version="1.0" encoding="utf-8" ?>
<kml xmlns="http://www.opengis.net/kml/2.2">
<Document id="root_doc">
<Schema name="NOVO_TALHAO_1060_ID_1122" id="NOVO_TALHAO_1060_ID_1122">
	<SimpleField name="TALHAO" type="string"></SimpleField>
	<SimpleField name="FAZENDA" type="string"></SimpleField>
	<SimpleField name="ZONA" type="string"></SimpleField>
	<SimpleField name="ID" type="float"></SimpleField>
	<SimpleField name="AREA_TOTAL" type="float"></SimpleField>
	<SimpleField name="FAZ_NOME" type="string"></SimpleField>
	<SimpleField name="CODE" type="string"></SimpleField>
</Schema>
<Folder><name>NOVO_TALHAO_1060_ID_1122</name>
  <Placemark id="NOVO_TALHAO_1060_ID_1122.1">
	<Style><LineStyle><color>ff0000ff</color></LineStyle><PolyStyle><fill>0</fill></PolyStyle></Style>
	<ExtendedData><SchemaData schemaUrl="#NOVO_TALHAO_1060_ID_1122">
		<SimpleData name="TALHAO">1060</SimpleData>
		<SimpleData name="FAZENDA">1943</SimpleData>
		<SimpleData name="ZONA">1</SimpleData>
		<SimpleData name="ID">1122</SimpleData>
		<SimpleData name="AREA_TOTAL">10.99</SimpleData>
		<SimpleData name="FAZ_NOME">NOVO</SimpleData>
		<SimpleData name="CODE"></SimpleData>
	</SchemaData></ExtendedData>
      <MultiGeometry><Polygon><outerBoundaryIs><LinearRing><coordinates>-36.141029590364,-9.93193698255823,0 -36.1410642025539,-9.93420748624839,0 -36.1410864362436,-9.934199836329,0 -36.1411130567256,-9.93419134127207,0 -36.1411482606958,-9.93418178184001,0 -36.141169715726,-9.93417699366316,0 -36.1411979390371,-9.93416908457619,0 -36.1412317776655,-9.93416272070998,0 -36.1412808184392,-9.93415386348169,0 -36.1413362421398,-9.93415663967757,0 -36.1413736256105,-9.93416244693617,0 -36.1414015544494,-9.93416691109011,0 -36.1414301450433,-9.93417311451715,0 -36.1414445449692,-9.93417590105492,0 -36.1414642582363,-9.93417835029933,0 -36.1414905102465,-9.9341824047643,0 -36.141510915884,-9.93418519668595,0 -36.1415371639353,-9.93418854439367,0 -36.1415580826444,-9.93419184913345,0 -36.1415715669162,-9.93419322513557,0 -36.1415973460012,-9.93419512218904,0 -36.1416209676892,-9.9341981421726,0 -36.1416286996258,-9.93419867553403,0 -36.1416743960532,-9.93418319367275,0 -36.1417144709885,-9.93416849351915,0 -36.1417902276812,-9.93413981865719,0 -36.1418960143186,-9.93412676021107,0 -36.142024993196,-9.93412569840355,0 -36.1421457079857,-9.93419021356537,0 -36.1422109943604,-9.93425839799625,0 -36.1422413142502,-9.93430738906599,0 -36.1422419122729,-9.93430815663069,0 -36.1422640941925,-9.93433218191244,0 -36.14230638926,-9.93438572731505,0 -36.1423432561601,-9.93445421159086,0 -36.1423533832451,-9.93447946943842,0 -36.1423708494335,-9.93451285895751,0 -36.1423711098298,-9.93451383882386,0 -36.1424110098629,-9.93459086399215,0 -36.142428614143,-9.93462168320912,0 -36.1424427130031,-9.93465763736016,0 -36.1424551900986,-9.93468671521317,0 -36.1424758225314,-9.93473628201395,0 -36.1424874477146,-9.93478583492328,0 -36.1425024136551,-9.93484052250679,0 -36.1425070213655,-9.93487100226463,0 -36.1425224044336,-9.93492538030081,0 -36.1425291187909,-9.93496372230376,0 -36.1425321350838,-9.93498768327434,0 -36.1425337262124,-9.93499762992746,0 -36.1425365910376,-9.9350024427975,0 -36.1425403563197,-9.93500628824199,0 -36.1425435565521,-9.93500937492485,0 -36.1425611624929,-9.93497680399025,0 -36.1425917730171,-9.93493484980418,0 -36.1426073430158,-9.93491569426823,0 -36.1426085250903,-9.93491402053845,0 -36.1426212520948,-9.93488315038772,0 -36.1426416357515,-9.93481373055957,0 -36.1426554149554,-9.93477944793669,0 -36.1426572840849,-9.93477459095581,0 -36.1426595268861,-9.93476346769795,0 -36.1426671417758,-9.93473259977886,0 -36.1426644033031,-9.93471867873846,0 -36.1426621500603,-9.93467653486205,0 -36.1426618507386,-9.93466589173772,0 -36.1426598542207,-9.9346508666045,0 -36.1426580306785,-9.93463545404959,0 -36.142655595705,-9.9346243565568,0 -36.1426511044953,-9.93460650104209,0 -36.1426453156168,-9.93458661073067,0 -36.1426347935983,-9.93455150430949,0 -36.1426192551084,-9.93450184924633,0 -36.1426102221889,-9.93445700597281,0 -36.1426045978878,-9.93443601519558,0 -36.1425970498955,-9.9344185734012,0 -36.1425705347688,-9.93435150791376,0 -36.1425363590145,-9.93427700166404,0 -36.1425230682057,-9.93422824970802,0 -36.1425088407728,-9.93416902883863,0 -36.1425111755797,-9.93409599257955,0 -36.1425171729332,-9.93403092645518,0 -36.1425521544761,-9.93390719259868,0 -36.1425677990178,-9.9338636189819,0 -36.1425811197368,-9.93383536859638,0 -36.1425819207559,-9.93382503981418,0 -36.1425818822119,-9.9338238434772,0 -36.1425767177576,-9.93379607804822,0 -36.142575466185,-9.93378678071584,0 -36.1425724784017,-9.93377865441514,0 -36.1425460116512,-9.93371572560026,0 -36.1425378573243,-9.9336785290113,0 -36.1425270418552,-9.93364629515746,0 -36.1425169848591,-9.93354921996977,0 -36.1425065459232,-9.93350889286819,0 -36.1424990624789,-9.93343805828549,0 -36.1424996222925,-9.93338998429147,0 -36.1425008034845,-9.93336890488558,0 -36.1424954313063,-9.93334953791656,0 -36.1424947314582,-9.93327485308319,0 -36.1424936783789,-9.93324684539206,0 -36.1424936977302,-9.93322889009401,0 -36.1424877696658,-9.93320501760461,0 -36.1424878159023,-9.93313511238968,0 -36.1424879221244,-9.93305726786782,0 -36.1424864359961,-9.93299000209773,0 -36.1424924336494,-9.93293934556189,0 -36.1424978206688,-9.93289142343413,0 -36.1425056563958,-9.93284547284454,0 -36.142515917551,-9.93278429748188,0 -36.1425345026409,-9.93273707328318,0 -36.1425589186629,-9.93267061229228,0 -36.1425986320632,-9.93261857444161,0 -36.1426171820763,-9.93259123152579,0 -36.1426200804045,-9.93258691482943,0 -36.1426206886892,-9.93258553961643,0 -36.1426375687383,-9.93252294194121,0 -36.1426841728323,-9.93245420511022,0 -36.1426855389937,-9.93244295558131,0 -36.1427063689497,-9.93238922824824,0 -36.1427179806791,-9.93236215410906,0 -36.1427498072508,-9.93228757352066,0 -36.1427878569031,-9.93223537422379,0 -36.1428226900865,-9.93219615651618,0 -36.1428448677127,-9.93216633723246,0 -36.1428942313474,-9.93211808251138,0 -36.1429399277853,-9.93208404841815,0 -36.1429709741767,-9.93206300879052,0 -36.1430123523093,-9.93202945234141,0 -36.143063626346,-9.93201036318967,0 -36.1431157400451,-9.93198668176891,0 -36.1431390676571,-9.93197948481835,0 -36.1431786796348,-9.93196142463308,0 -36.1432341073855,-9.93194022966965,0 -36.1432646768437,-9.93193253192738,0 -36.1433049711527,-9.93191989133189,0 -36.1433713257443,-9.93191420196647,0 -36.1433958724699,-9.93190784979178,0 -36.1434502209835,-9.93190031292565,0 -36.1434914800052,-9.93189841108761,0 -36.1435273551689,-9.93189591595936,0 -36.1435777163989,-9.93189520585896,0 -36.143626571009,-9.93189921300709,0 -36.143673100657,-9.93190353301747,0 -36.1436981236066,-9.93190814084299,0 -36.1437587625049,-9.93191432998205,0 -36.1438249078332,-9.93192594118275,0 -36.1438390164334,-9.93192857640791,0 -36.1438731385372,-9.93192839101665,0 -36.14392246556,-9.93193599844886,0 -36.1439413078814,-9.93193811341796,0 -36.1440044294011,-9.9319443625041,0 -36.1440715506369,-9.93197452631728,0 -36.1440982172654,-9.93198816439219,0 -36.1440999769311,-9.93198865055793,0 -36.1441212277286,-9.9319939387687,0 -36.1441665544091,-9.93200082218657,0 -36.1441998571855,-9.93201155696875,0 -36.1442268189959,-9.93201784062881,0 -36.1442683880072,-9.9320285170088,0 -36.1443283090261,-9.93205171593924,0 -36.1443467575697,-9.93205660302216,0 -36.1443683007117,-9.93206130477134,0 -36.1444114740592,-9.93206776270569,0 -36.144425657717,-9.93207319389243,0 -36.1444369004808,-9.93207376021146,0 -36.1444847337955,-9.93208555666245,0 -36.1445097404935,-9.9320914205254,0 -36.1445312309232,-9.93209666533686,0 -36.1445365383882,-9.93209733338966,0 -36.1445597480479,-9.93209887891646,0 -36.1445940300895,-9.93210260337918,0 -36.1446373170369,-9.93210612161125,0 -36.1446974726412,-9.9321195082649,0 -36.144735589158,-9.93213388845564,0 -36.1447738030596,-9.93214820279096,0 -36.1447984384344,-9.93216101881067,0 -36.1448255041637,-9.93216876428917,0 -36.1448592462604,-9.93218735787186,0 -36.1448881712472,-9.93220110904571,0 -36.1449319666347,-9.93223129342933,0 -36.1449756499564,-9.93226688646143,0 -36.1449957969845,-9.93229111420993,0 -36.1450029040559,-9.93229802481414,0 -36.1450295979022,-9.93232344641709,0 -36.1450570962412,-9.93235758816424,0 -36.1450641776481,-9.93236722384152,0 -36.1450807077912,-9.93238415426283,0 -36.1451045976403,-9.93241643586689,0 -36.1451207895917,-9.93243836598909,0 -36.1451309780257,-9.93245287369291,0 -36.1451465118865,-9.93247150414295,0 -36.145162936437,-9.93249441016809,0 -36.1452040644041,-9.93255095099374,0 -36.1452117562185,-9.93256597470463,0 -36.1452411286289,-9.93260053786229,0 -36.1452624172646,-9.93264239080774,0 -36.1452723420326,-9.93266204609299,0 -36.1452811742018,-9.93267201125401,0 -36.1453079711093,-9.93271406431007,0 -36.1453180903315,-9.93273485365749,0 -36.145330151125,-9.93274921089472,0 -36.1453470235567,-9.93277754615421,0 -36.1453626658778,-9.93279895465989,0 -36.1453945038558,-9.93285592548826,0 -36.1454062828377,-9.93288657459724,0 -36.1454109816235,-9.93289572380563,0 -36.1454153531536,-9.93290271001259,0 -36.1454334775493,-9.9329254764433,0 -36.1454728102902,-9.93298704759233,0 -36.1454899616352,-9.93303084707493,0 -36.145498755173,-9.93305344318768,0 -36.1455130185841,-9.9330894064772,0 -36.1455221008787,-9.93312117787837,0 -36.1455298618849,-9.93313527374702,0 -36.1455394932095,-9.9331506770689,0 -36.1455467877938,-9.93315940887078,0 -36.1455922015044,-9.93313314763952,0 -36.1456068486277,-9.93312495954907,0 -36.1456269330728,-9.93310892646463,0 -36.1457184683325,-9.93305348632664,0 -36.1458469448338,-9.93302818315711,0 -36.145916453262,-9.93304585501327,0 -36.1459349596546,-9.93304993783707,0 -36.1459708929312,-9.93305753220409,0 -36.1460228590906,-9.93307488323827,0 -36.1460719730362,-9.93310085986002,0 -36.1460862590121,-9.9331106292653,0 -36.1461331887448,-9.93313674456282,0 -36.1461803633782,-9.93314278578171,0 -36.1462262895308,-9.93316268632477,0 -36.1462537002479,-9.93317285957594,0 -36.1462788092139,-9.93318373282399,0 -36.1463093873218,-9.93319602905591,0 -36.1463469458261,-9.93321408283062,0 -36.1463915992764,-9.93324215948145,0 -36.1464264904679,-9.93326408470877,0 -36.1464662901915,-9.93329024196174,0 -36.146504408598,-9.93332147994965,0 -36.1465329219731,-9.93334776080369,0 -36.1465559649248,-9.93336831087928,0 -36.1465662243211,-9.93337737763653,0 -36.1465816662274,-9.93338892738141,0 -36.1466125391667,-9.93341439601032,0 -36.1466287553991,-9.93343062131434,0 -36.1466324163051,-9.93343365924034,0 -36.1466568289939,-9.93345132954057,0 -36.1467010691127,-9.93349184655939,0 -36.1467281004886,-9.9335287317781,0 -36.1467455540194,-9.93355128580383,0 -36.1467796375918,-9.93360226037041,0 -36.1468010741179,-9.93365107106768,0 -36.146818190255,-9.93369654084296,0 -36.1468290670704,-9.93373821650264,0 -36.1468379333508,-9.93377213469719,0 -36.1468486157677,-9.93383524251116,0 -36.1468520844417,-9.93386201621739,0 -36.1468575623609,-9.93389945108392,0 -36.146858288383,-9.93393780695701,0 -36.1468639981295,-9.93398220887759,0 -36.1468634353804,-9.93401262377899,0 -36.1468639222311,-9.93402092432291,0 -36.1468696752324,-9.93406831832464,0 -36.1468674077247,-9.9341119454772,0 -36.1468669089778,-9.93413352345853,0 -36.1468677931253,-9.93415443012006,0 -36.1468684853692,-9.93416648524034,0 -36.1468733691518,-9.93419865716976,0 -36.1468747813986,-9.93423666252039,0 -36.1468780405045,-9.93424360847714,0 -36.1468923789722,-9.93427267825774,0 -36.1468970303394,-9.93428446143673,0 -36.1469076934215,-9.9342976230557,0 -36.146925945338,-9.93432677348953,0 -36.1469344622621,-9.93433954305881,0 -36.1469499493473,-9.93435985626312,0 -36.1469834732174,-9.93440792860833,0 -36.1470005729605,-9.93442946402688,0 -36.1470214308822,-9.93445916238117,0 -36.1470387601453,-9.93448923888007,0 -36.1470567168398,-9.9345204555202,0 -36.1470730194966,-9.93455391867825,0 -36.1470811506198,-9.93457338445838,0 -36.1470972545943,-9.93460385208776,0 -36.147112140565,-9.93464452243059,0 -36.1471256440401,-9.93468389675352,0 -36.1471352802655,-9.93473003771737,0 -36.1471403258789,-9.9347624399556,0 -36.1471496779584,-9.93480838473741,0 -36.1471517226192,-9.93486778075711,0 -36.1471529846478,-9.93491192604147,0 -36.1471472214912,-9.93496688532879,0 -36.1471542512199,-9.93498099760657,0 -36.1471701800231,-9.93498444257246,0 -36.1471857699724,-9.93499367834169,0 -36.1472159629749,-9.93499399414281,0 -36.1472315682456,-9.93499265763807,0 -36.1472634335499,-9.93499124643389,0 -36.1472967654306,-9.93499088778097,0 -36.1473193219518,-9.9349918666704,0 -36.1473401907028,-9.93499231741001,0 -36.147377373,-9.93499428315451,0 -36.1474048114031,-9.93499745859732,0 -36.1474292965623,-9.93499087934284,0 -36.1474537178278,-9.93498425000983,0 -36.1474795430998,-9.93497909875849,0 -36.1475016595702,-9.93496983345518,0 -36.147524676754,-9.93496330158644,0 -36.1475283148369,-9.93496184928941,0 -36.1475491980525,-9.93495202550008,0 -36.1475752418944,-9.93494117764321,0 -36.1475998731615,-9.93493030428516,0 -36.147595354096,-9.93273200977168,0 -36.1460249977267,-9.93231781971636,0 -36.1444335693573,-9.93173989847206,0 -36.1430108140237,-9.9312741147026,0 -36.142312556569,-9.9310269847243,0 -36.1418531606062,-9.93096669448382,0 -36.1415465085367,-9.9310050648436,0 -36.1415420066538,-9.9310189788331,0 -36.1415320981069,-9.93103790312999,0 -36.1415213186052,-9.93106384605781,0 -36.1415085617474,-9.93108635441913,0 -36.141503896178,-9.93110423141839,0 -36.1414964157137,-9.93112796546299,0 -36.1414867659323,-9.9311543664424,0 -36.141478759396,-9.93117930402937,0 -36.1414695579431,-9.93120720183482,0 -36.141456846349,-9.9312335467318,0 -36.1414430179162,-9.93125989242043,0 -36.1414220900173,-9.9312795060879,0 -36.1414101135419,-9.93129582857263,0 -36.1413979945298,-9.9313184156459,0 -36.1413859000553,-9.93134028023195,0 -36.1413713927821,-9.93136671627711,0 -36.1413508163439,-9.93138416099955,0 -36.1413370368812,-9.93140343135464,0 -36.1413253570647,-9.93142206982311,0 -36.1413159374161,-9.9314485717542,0 -36.1413052025524,-9.93146962693313,0 -36.14129849546,-9.93148888473615,0 -36.1412871575988,-9.93151209470777,0 -36.1412696723857,-9.93153306076834,0 -36.1412558740482,-9.93155212110045,0 -36.1412435829688,-9.93157353725581,0 -36.1412298419174,-9.93159569928941,0 -36.1412161204777,-9.93161823201375,0 -36.1411990110569,-9.93163925550006,0 -36.1411817872935,-9.93165589931962,0 -36.1411663302952,-9.93167440680087,0 -36.1411458937958,-9.9316933764649,0 -36.1411242204893,-9.93170984346909,0 -36.1411038622135,-9.93173014524747,0 -36.141077013026,-9.93173338579975,0 -36.1410401032867,-9.93172769638433,0 -36.141029590364,-9.93193698255823,0</coordinates></LinearRing></outerBoundaryIs></Polygon></MultiGeometry>
  </Placemark>
</Folder>
</Document></kml>
