<?xml version="1.0" encoding="utf-8" ?>
<kml xmlns="http://www.opengis.net/kml/2.2">
<Document id="root_doc">
<Schema name="NOVO_TALHAO_1105_ID_874" id="NOVO_TALHAO_1105_ID_874">
	<SimpleField name="TALHAO" type="string"></SimpleField>
	<SimpleField name="FAZENDA" type="string"></SimpleField>
	<SimpleField name="ZONA" type="string"></SimpleField>
	<SimpleField name="ID" type="float"></SimpleField>
	<SimpleField name="AREA_TOTAL" type="float"></SimpleField>
	<SimpleField name="FAZ_NOME" type="string"></SimpleField>
	<SimpleField name="CODE" type="string"></SimpleField>
</Schema>
<Folder><name>NOVO_TALHAO_1105_ID_874</name>
  <Placemark id="NOVO_TALHAO_1105_ID_874.1">
	<Style><LineStyle><color>ff0000ff</color></LineStyle><PolyStyle><fill>0</fill></PolyStyle></Style>
	<ExtendedData><SchemaData schemaUrl="#NOVO_TALHAO_1105_ID_874">
		<SimpleData name="TALHAO">1105</SimpleData>
		<SimpleData name="FAZENDA">1943</SimpleData>
		<SimpleData name="ZONA">1</SimpleData>
		<SimpleData name="ID">874</SimpleData>
		<SimpleData name="AREA_TOTAL">0.17</SimpleData>
		<SimpleData name="FAZ_NOME">NOVO</SimpleData>
		<SimpleData name="CODE"></SimpleData>
	</SchemaData></ExtendedData>
      <MultiGeometry><Polygon><outerBoundaryIs><LinearRing><coordinates>-36.1525016039323,-9.89257737490428,0 -36.1524952540998,-9.89261029144459,0 -36.1524842294205,-9.89264121083707,0 -36.1524638963685,-9.89266966336107,0 -36.1524417713022,-9.89269479097974,0 -36.1524185363572,-9.892718702299,0 -36.1523946539065,-9.89274137177871,0 -36.1523705009844,-9.89276422899652,0 -36.1523458119731,-9.89278746128918,0 -36.1523231632379,-9.89281217857634,0 -36.1523008795367,-9.89283837790328,0 -36.152281584543,-9.89286038931071,0 -36.1522617901727,-9.89288417373147,0 -36.1522906613848,-9.89287415279555,0 -36.1523263796239,-9.89286160526333,0 -36.1523622190989,-9.89284999115845,0 -36.1523983013203,-9.89284024400557,0 -36.1524344082871,-9.89282952833642,0 -36.152470527535,-9.89281832836084,0 -36.1525054534155,-9.89280628623226,0 -36.1525405972666,-9.89279459872613,0 -36.1525761766949,-9.89278362064671,0 -36.1526112824614,-9.89277348702782,0 -36.1526461513503,-9.8927637757271,0 -36.1526802340426,-9.89275631898467,0 -36.1527135429626,-9.89274943196463,0 -36.1527453042493,-9.89274368421219,0 -36.152789658587,-9.89273074869558,0 -36.1531931629951,-9.89250831700933,0 -36.1531412957767,-9.89252996181038,0 -36.1531091399997,-9.89253954115221,0 -36.1530758476287,-9.89254705304051,0 -36.153039508603,-9.89255261275986,0 -36.1530040457282,-9.8925580474952,0 -36.1529687205548,-9.89256347981147,0 -36.1529328110001,-9.89256764266673,0 -36.1528963616307,-9.89257119000775,0 -36.1528581531211,-9.89257207353428,0 -36.1528196179859,-9.89257029271252,0 -36.1527807760945,-9.89256298648462,0 -36.15274423002,-9.89254947193988,0 -36.1527083185916,-9.89253268505533,0 -36.1526762270791,-9.89250881937572,0 -36.1526459532808,-9.89248482841825,0 -36.1526168152637,-9.89245866101887,0 -36.1525909930386,-9.89243062600022,0 -36.1525684487716,-9.89240360822693,0 -36.1525243271921,-9.89237624406619,0 -36.1524885826013,-9.8923780114972,0 -36.1524618448134,-9.89238205934261,0 -36.1524470201198,-9.89238799206416,0 -36.1524583162837,-9.89242314433,0 -36.1524691744553,-9.89245716070053,0 -36.1524769236311,-9.89248376680035,0 -36.1524882312283,-9.89251784086029,0 -36.1524950927992,-9.89254579114029,0 -36.1525016039323,-9.89257737490428,0</coordinates></LinearRing></outerBoundaryIs></Polygon></MultiGeometry>
  </Placemark>
</Folder>
</Document></kml>
