<?xml version="1.0" encoding="utf-8" ?>
<kml xmlns="http://www.opengis.net/kml/2.2">
<Document id="root_doc">
<Schema name="NOVO_TALHAO_1048_ID_876" id="NOVO_TALHAO_1048_ID_876">
	<SimpleField name="TALHAO" type="string"></SimpleField>
	<SimpleField name="FAZENDA" type="string"></SimpleField>
	<SimpleField name="ZONA" type="string"></SimpleField>
	<SimpleField name="ID" type="float"></SimpleField>
	<SimpleField name="AREA_TOTAL" type="float"></SimpleField>
	<SimpleField name="FAZ_NOME" type="string"></SimpleField>
	<SimpleField name="CODE" type="string"></SimpleField>
</Schema>
<Folder><name>NOVO_TALHAO_1048_ID_876</name>
  <Placemark id="NOVO_TALHAO_1048_ID_876.1">
	<Style><LineStyle><color>ff0000ff</color></LineStyle><PolyStyle><fill>0</fill></PolyStyle></Style>
	<ExtendedData><SchemaData schemaUrl="#NOVO_TALHAO_1048_ID_876">
		<SimpleData name="TALHAO">1048</SimpleData>
		<SimpleData name="FAZENDA">1943</SimpleData>
		<SimpleData name="ZONA">1</SimpleData>
		<SimpleData name="ID">876</SimpleData>
		<SimpleData name="AREA_TOTAL">6.68</SimpleData>
		<SimpleData name="FAZ_NOME">NOVO</SimpleData>
		<SimpleData name="CODE"></SimpleData>
	</SchemaData></ExtendedData>
      <MultiGeometry><Polygon><outerBoundaryIs><LinearRing><coordinates>-36.1535522019346,-9.92453158779641,0 -36.1535347344629,-9.92452415597611,0 -36.1535181315942,-9.92451806976569,0 -36.1534923966187,-9.92450456884376,0 -36.1534679315248,-9.92449495208521,0 -36.1534505181209,-9.92448727073464,0 -36.1534311343693,-9.92448068444326,0 -36.1534035274323,-9.92447103447944,0 -36.1533854849825,-9.92446676529985,0 -36.1533632932503,-9.92446575850915,0 -36.1533376663309,-9.92446803125118,0 -36.1533109114832,-9.92446813781014,0 -36.1532840394424,-9.92446869554536,0 -36.1532576059976,-9.92446762584284,0 -36.1532319228368,-9.92446833669898,0 -36.1532072524138,-9.92446917365279,0 -36.1531812373643,-9.92447052234013,0 -36.1531558868858,-9.92447373536037,0 -36.1531293884216,-9.9244771164625,0 -36.1531107668171,-9.92447734883872,0 -36.1530872588005,-9.92447760462844,0 -36.1530602757939,-9.92447565719504,0 -36.153033307282,-9.92447423295444,0 -36.1530057590219,-9.92447331007765,0 -36.152978307189,-9.92447298310198,0 -36.1529504912007,-9.92447252973108,0 -36.152923244689,-9.92446735218904,0 -36.1528984128469,-9.92446759310873,0 -36.1528722076609,-9.92446677850251,0 -36.1528457780491,-9.92446623040623,0 -36.152819248303,-9.9244678212303,0 -36.1527913574765,-9.9244701723611,0 -36.1527642804918,-9.92446885603103,0 -36.1527383450847,-9.92447014713066,0 -36.1527103975058,-9.92447036214855,0 -36.1526839833566,-9.92446949006547,0 -36.1526562329177,-9.92446729095588,0 -36.1526252734805,-9.92446618349476,0 -36.152597013259,-9.92445019913604,0 -36.1525728642346,-9.92443914269784,0 -36.15255325434,-9.92441936580826,0 -36.1525339533071,-9.92441025800872,0 -36.1525099354125,-9.92440467855547,0 -36.1524861149441,-9.92439710690795,0 -36.1524611085393,-9.92439270633529,0 -36.1524358574178,-9.92438810267037,0 -36.1524089911654,-9.92438615128545,0 -36.1523807831934,-9.92438198844366,0 -36.1523538196544,-9.92437697181741,0 -36.1523281620153,-9.92437179878894,0 -36.1523018831292,-9.92436863870125,0 -36.1522751365726,-9.92436560765147,0 -36.1522474575239,-9.924363030227,0 -36.152219530887,-9.92436082996473,0 -36.152192346504,-9.92436057246197,0 -36.1521644310647,-9.92436162413103,0 -36.1521362184423,-9.92436164613101,0 -36.1521081739169,-9.92436049785243,0 -36.1520806682682,-9.92435926152527,0 -36.1520552190763,-9.92435899632321,0 -36.1520283186385,-9.92435918208159,0 -36.1520027661331,-9.92435949470773,0 -36.1519777590312,-9.92436049771923,0 -36.1519529152684,-9.92436237521254,0 -36.1519307671149,-9.92436572866746,0 -36.1519114932621,-9.9243722370845,0 -36.1518943761967,-9.92438180648812,0 -36.1518713527608,-9.9243971423146,0 -36.1518534418042,-9.92440529963791,0 -36.1518325364516,-9.9244173996774,0 -36.1518122083175,-9.92443569730437,0 -36.1517943389006,-9.92446389797836,0 -36.1517746405664,-9.92448221484432,0 -36.1517601489043,-9.92450122123408,0 -36.1517487073321,-9.92452238743075,0 -36.151735790745,-9.92454653649188,0 -36.1517189090476,-9.92456739174947,0 -36.1517083779759,-9.9245911200058,0 -36.1516944061602,-9.92461477747782,0 -36.1516830351931,-9.92463909620539,0 -36.1516721220054,-9.92466485978501,0 -36.1516573919206,-9.92469047723991,0 -36.151639976268,-9.9247140125245,0 -36.1516230306581,-9.92473676300413,0 -36.1516047401501,-9.92475760750054,0 -36.1515863025296,-9.92477828042864,0 -36.1515658542834,-9.92479765841535,0 -36.1515431827607,-9.92481704987408,0 -36.151519027799,-9.92483169575256,0 -36.1514955319478,-9.92484741368964,0 -36.1514698708632,-9.92486315331161,0 -36.151442347591,-9.92487468851387,0 -36.1514138120246,-9.92488219808085,0 -36.1513848777189,-9.92488840099548,0 -36.1513678831178,-9.92488613862004,0 -36.1513330075333,-9.92488464247271,0 -36.1513072098225,-9.9248844997637,0 -36.1512812701054,-9.92488789959753,0 -36.1512547075028,-9.92489329997388,0 -36.151226936746,-9.92489691912879,0 -36.151200730093,-9.92489989626679,0 -36.1511705436866,-9.92490241461258,0 -36.1511409561299,-9.92490591328339,0 -36.151119783469,-9.92491166592051,0 -36.1510908821851,-9.92491210852195,0 -36.1510473758826,-9.92491179955101,0 -36.15101086657,-9.92491202083407,0 -36.1509846976405,-9.92491318818231,0 -36.1509579632273,-9.92491516571982,0 -36.1509346025684,-9.92491877686545,0 -36.1509029474453,-9.92491849943315,0 -36.1508758784104,-9.92491211667959,0 -36.1508313158278,-9.92490179956345,0 -36.1508006349922,-9.92489440564378,0 -36.1507811985112,-9.92489387816017,0 -36.150761537028,-9.92489763801077,0 -36.1507029048706,-9.92490867362669,0 -36.1506620048182,-9.92492117622521,0 -36.1506377524064,-9.92493543253392,0 -36.1506203101251,-9.92496231156221,0 -36.1505986782217,-9.9250075449918,0 -36.1505876828696,-9.92503149778292,0 -36.1505367974416,-9.92514869834864,0 -36.1505289726015,-9.92517342797841,0 -36.1505153180266,-9.92519876323144,0 -36.1505022443315,-9.92521940690433,0 -36.1504799657178,-9.92523991814366,0 -36.1504597599468,-9.92525826053813,0 -36.1504196919253,-9.92529354548187,0 -36.1504059557243,-9.92530910594226,0 -36.1503837919824,-9.92533031975266,0 -36.1503573374741,-9.92534423482427,0 -36.1503321281869,-9.92535804802878,0 -36.1503121834188,-9.92536998178226,0 -36.1503023057036,-9.9253877432658,0 -36.1502422951162,-9.92544527873506,0 -36.1502020843139,-9.92550532933947,0 -36.1501985206118,-9.925521497634,0 -36.1501905862312,-9.92554876196783,0 -36.15019171698,-9.92557378981043,0 -36.1501926623299,-9.92560098322829,0 -36.1502088920583,-9.92567350201901,0 -36.1502172357761,-9.92569235082437,0 -36.1502253428194,-9.92572014772811,0 -36.1502270014713,-9.92574725051908,0 -36.1502307929602,-9.92577159949074,0 -36.1502363042509,-9.92579708309546,0 -36.1502480917156,-9.92582312006144,0 -36.1502527778424,-9.92585349058934,0 -36.15025784501,-9.92588130393525,0 -36.1502589115291,-9.9259083936567,0 -36.1502669088166,-9.92593047880848,0 -36.1502802096823,-9.92595387440316,0 -36.1502923083794,-9.92598031262431,0 -36.1503015596567,-9.92600449083653,0 -36.1503139620947,-9.92602757828116,0 -36.1503280531781,-9.92605284477962,0 -36.1503410316579,-9.92608000164994,0 -36.1503516861695,-9.92610624894486,0 -36.1503639881323,-9.9261296671073,0 -36.1503750562355,-9.92615314475213,0 -36.1503872757725,-9.92617363463549,0 -36.1504025867813,-9.92619303507423,0 -36.1504149847649,-9.92621685476727,0 -36.1504285786682,-9.92623933023593,0 -36.1504421354024,-9.92626243532418,0 -36.1504540204486,-9.92628311179663,0 -36.1504699341326,-9.92630424649154,0 -36.1504815533331,-9.92632970707107,0 -36.1504895031224,-9.92634739309639,0 -36.1505028544079,-9.92636885122734,0 -36.1505145396395,-9.92639291875869,0 -36.1505236359543,-9.92641382232804,0 -36.1505371240052,-9.92643124684332,0 -36.1505533675376,-9.92644750495622,0 -36.1505721183344,-9.92646680155287,0 -36.1505864798512,-9.92648722032383,0 -36.1506017937799,-9.9264998836665,0 -36.1506222407839,-9.92651423050719,0 -36.1506468778576,-9.92652677563981,0 -36.1506732858152,-9.92653513238751,0 -36.1506958835713,-9.92655035031355,0 -36.1507189552842,-9.92656597043912,0 -36.150735035557,-9.92658563478259,0 -36.1507512358346,-9.92660343675564,0 -36.1507705713693,-9.92661580383191,0 -36.1507942970753,-9.92662628437432,0 -36.1508182034714,-9.9266461631705,0 -36.1508414775033,-9.9266604269052,0 -36.1508649301496,-9.92667820151871,0 -36.1508823654915,-9.92669776593726,0 -36.1509310292391,-9.92673102918096,0 -36.1509503669622,-9.92675493100062,0 -36.1509673172969,-9.92677826585162,0 -36.1509805773075,-9.92680257522439,0 -36.1509923109009,-9.92682625740724,0 -36.1510075743552,-9.92684924951942,0 -36.1510206621443,-9.92687756358302,0 -36.1510313670695,-9.92689535028265,0 -36.1510493799039,-9.9269093879982,0 -36.1510707850228,-9.9269278138804,0 -36.1510968089689,-9.92693084223918,0 -36.1511241987306,-9.92694086241692,0 -36.1511526363974,-9.92695038994427,0 -36.1511736325734,-9.9269679660066,0 -36.1511991692018,-9.92698191940649,0 -36.1512110086215,-9.92699466011215,0 -36.1512316004967,-9.92699953302292,0 -36.1512537553198,-9.92701203912519,0 -36.1512770980741,-9.92701850349002,0 -36.1512982774519,-9.92702676119309,0 -36.1513276214083,-9.92702430816296,0 -36.151359770287,-9.92702743570874,0 -36.1513887022653,-9.92703716844325,0 -36.1514113454303,-9.92705221831598,0 -36.1514317216565,-9.92706050082236,0 -36.151456569273,-9.92706027240711,0 -36.1514877973062,-9.92706716259607,0 -36.1515115887964,-9.92707852330261,0 -36.1515374843838,-9.92707956733313,0 -36.151564641036,-9.92708920242566,0 -36.1515909809441,-9.92709076284965,0 -36.1516190236283,-9.92709614297664,0 -36.1516476809021,-9.92710288872657,0 -36.1516754536489,-9.92710716872222,0 -36.1517024863821,-9.9271133199328,0 -36.1517319708698,-9.92712157180143,0 -36.151758163468,-9.92712730360083,0 -36.1517853458212,-9.92713276073457,0 -36.1518133408892,-9.92714245522975,0 -36.1518379672137,-9.92715240089292,0 -36.1518613731629,-9.92716005589839,0 -36.151887777234,-9.92716900868065,0 -36.151913118619,-9.92718122131284,0 -36.1519381833808,-9.92719568626594,0 -36.1519596312632,-9.9272121499879,0 -36.1519823325071,-9.92722454994345,0 -36.1520048008904,-9.9272406640278,0 -36.1520273262905,-9.92725541490255,0 -36.1520478986484,-9.92727825036738,0 -36.1520617904353,-9.92730026013182,0 -36.1520813380943,-9.927317904023,0 -36.1520964329113,-9.92733622271786,0 -36.152120895366,-9.92735290065877,0 -36.1521378236109,-9.92737846523468,0 -36.1521512221795,-9.92740257362922,0 -36.1521695846866,-9.9274237715379,0 -36.1521857510221,-9.92744611338121,0 -36.1521990834909,-9.92746843156644,0 -36.152216508734,-9.92748684278844,0 -36.1522361022555,-9.92751341630216,0 -36.1522301521468,-9.92754112501971,0 -36.1522448193105,-9.9275613555696,0 -36.1522474446817,-9.92759376827729,0 -36.1522463084037,-9.92761934257811,0 -36.1522518144496,-9.92764124173679,0 -36.1522571394318,-9.92766774929655,0 -36.152261317422,-9.92769462497184,0 -36.1522657366098,-9.92772328394294,0 -36.1522690758569,-9.92775004659702,0 -36.1522757083103,-9.92777762411781,0 -36.1522751851101,-9.92780715715658,0 -36.152274628244,-9.92783499207563,0 -36.1522865951265,-9.92785621419678,0 -36.1522982093181,-9.9278799507913,0 -36.1523172943794,-9.92790025952227,0 -36.152330896373,-9.92792416767425,0 -36.1523482046546,-9.92794099629956,0 -36.1523712149365,-9.92795045594068,0 -36.1523826638901,-9.92794605823793,0 -36.1523908510949,-9.92791649948628,0 -36.1524152195025,-9.92789644464748,0 -36.1524491959124,-9.92785623790804,0 -36.1524527219746,-9.92783209940301,0 -36.1524572851505,-9.92780518598411,0 -36.1524610015471,-9.92777661695163,0 -36.1524647281988,-9.92774914642011,0 -36.1524671277273,-9.92771994439554,0 -36.1524712015812,-9.9276902950809,0 -36.1524775235562,-9.92766551660385,0 -36.1524797194845,-9.92763927490421,0 -36.1524790167036,-9.927607939061,0 -36.152475918495,-9.92757673189085,0 -36.1524832673176,-9.92754368828618,0 -36.1524946653425,-9.92751335674858,0 -36.1525030388685,-9.92748897420123,0 -36.1525030094188,-9.92745713472,0 -36.152523269153,-9.92743122597741,0 -36.1525267272151,-9.9274010208431,0 -36.1525407556368,-9.92737021094486,0 -36.1525542508918,-9.92734569988781,0 -36.1525641431763,-9.92731886594095,0 -36.1525759283477,-9.92729075185367,0 -36.1525860524641,-9.92726284908588,0 -36.1525979048615,-9.92723720644214,0 -36.152605957723,-9.92720895442286,0 -36.1526163389595,-9.92718315226409,0 -36.152622398267,-9.92715562266663,0 -36.1526305581439,-9.92712791709036,0 -36.152636007066,-9.92710339619559,0 -36.1526369724961,-9.92707470124609,0 -36.1526386583524,-9.92704390018066,0 -36.1526445934384,-9.92701434264868,0 -36.1526468803541,-9.92698946744081,0 -36.1526420595618,-9.92696513017127,0 -36.152632444906,-9.92693802980199,0 -36.1526226750093,-9.92692219675926,0 -36.1526115500543,-9.92689710492383,0 -36.1526000140101,-9.92687846466579,0 -36.1525782622471,-9.92687586910921,0 -36.1525486835257,-9.92685280854664,0 -36.1525293719632,-9.92682897763579,0 -36.1525079435414,-9.92680882184144,0 -36.1524854630233,-9.92679066960483,0 -36.1524614623569,-9.92677222705873,0 -36.15243800361,-9.92675156128298,0 -36.1524154611292,-9.92673130700789,0 -36.1523930568525,-9.92671059842684,0 -36.1523748802557,-9.92668705603363,0 -36.1523528531356,-9.92667006031121,0 -36.1523294542348,-9.92665072865743,0 -36.1523058189525,-9.92663338210114,0 -36.1522820102077,-9.9266148043129,0 -36.1522568539973,-9.9265976300268,0 -36.1522319267355,-9.92657907760464,0 -36.1522071297513,-9.92655998641779,0 -36.1521832577634,-9.92654071447654,0 -36.1521593990205,-9.92652232546731,0 -36.1521353919405,-9.92650434661513,0 -36.1521117221114,-9.92648589064151,0 -36.1520872623805,-9.92646755281422,0 -36.1520640401489,-9.92644677415333,0 -36.1520414644368,-9.92642658044745,0 -36.1520193299369,-9.92640517051181,0 -36.1519970335949,-9.92638359725432,0 -36.1519752749908,-9.9263615705085,0 -36.1519549404405,-9.92634041337962,0 -36.1519332746835,-9.92631936713512,0 -36.1519129849545,-9.92629681946906,0 -36.1518920247362,-9.92627351991078,0 -36.1518726234636,-9.926248941036,0 -36.1518555776432,-9.92622371729702,0 -36.1518376663955,-9.92620016805817,0 -36.1518193150564,-9.9261756871026,0 -36.1518028368083,-9.92614940005312,0 -36.1517861081683,-9.92612474589992,0 -36.1517722785791,-9.92609863317453,0 -36.1517571427969,-9.92607384485315,0 -36.151742336416,-9.92604846047103,0 -36.1517277627413,-9.92602398265242,0 -36.1517076859539,-9.92600118446064,0 -36.1516920222657,-9.9259723074555,0 -36.1516858937884,-9.92593867393473,0 -36.1516879820308,-9.92590412872579,0 -36.1517063696753,-9.92587241493613,0 -36.1517336472017,-9.92585438102399,0 -36.1517590278333,-9.92583666127762,0 -36.1517898301103,-9.92582543902267,0 -36.1518203894274,-9.92581937238654,0 -36.1518508554765,-9.92581548236189,0 -36.1518804856953,-9.92581234930567,0 -36.1519096030397,-9.92581099700875,0 -36.1519386119258,-9.92580924965437,0 -36.1519687329268,-9.92580847766258,0 -36.1519976674749,-9.92580991477035,0 -36.152025917349,-9.92581035565268,0 -36.1520552000658,-9.92581033238609,0 -36.1520851454691,-9.92580938691191,0 -36.1521152116521,-9.92580999648156,0 -36.1521446940358,-9.92580903991026,0 -36.1521746023947,-9.92580816691817,0 -36.1522045894722,-9.92580857890964,0 -36.152233608103,-9.92580830109411,0 -36.1522616062129,-9.92580874713899,0 -36.1522909496215,-9.92580728609685,0 -36.1523208357503,-9.92580672806266,0 -36.152349993277,-9.92580618228212,0 -36.1523795136581,-9.9258042827254,0 -36.1524087050883,-9.92580185411173,0 -36.1524390049664,-9.92579875806106,0 -36.1524682445791,-9.92579522281851,0 -36.1524979325237,-9.92579042443441,0 -36.1525268847495,-9.92578551801291,0 -36.1525557007297,-9.92577810856584,0 -36.1525844883893,-9.92577164011655,0 -36.1526134230217,-9.92576141488026,0 -36.1526428463524,-9.92575430652907,0 -36.1526713239428,-9.92574589803389,0 -36.1526990539267,-9.92573694941174,0 -36.1527254840122,-9.92572563166655,0 -36.1527526486853,-9.92571361730877,0 -36.1527780221473,-9.92570100241624,0 -36.1528030828758,-9.92568711613926,0 -36.152828703257,-9.92567204348325,0 -36.152853291631,-9.92565628882313,0 -36.1528737250881,-9.92563815207303,0 -36.1528987769043,-9.92561914279957,0 -36.1529225560708,-9.92560191790874,0 -36.1529442324647,-9.92558294509649,0 -36.152965669609,-9.92556127613429,0 -36.1529862287712,-9.92554088442568,0 -36.1530056584948,-9.92551989311572,0 -36.1530230489159,-9.92549704928274,0 -36.1530406297572,-9.92547415946549,0 -36.1530576981342,-9.92544988751258,0 -36.1530744441299,-9.92542597890043,0 -36.1530915665054,-9.92540183036432,0 -36.1531071557846,-9.92537725253334,0 -36.153124247711,-9.92535384328212,0 -36.1531411325894,-9.92533110780946,0 -36.1531568954435,-9.92530702718876,0 -36.1531723374975,-9.92528233299788,0 -36.1531879819084,-9.92525625965219,0 -36.1532030646573,-9.92522990206368,0 -36.1532193166221,-9.92520401888769,0 -36.1532351456428,-9.92517857249606,0 -36.1532516145728,-9.92515443432837,0 -36.1532664984964,-9.92512946353373,0 -36.1532823768201,-9.92510394947593,0 -36.1532992970945,-9.92507823921215,0 -36.1533159346562,-9.92505395186318,0 -36.1533309035517,-9.925028858067,0 -36.1533464877,-9.92500365638681,0 -36.1533622158788,-9.92497889800422,0 -36.1533768300283,-9.92495422375833,0 -36.1533906941049,-9.92493006867601,0 -36.1534080687657,-9.92489134445348,0 -36.1534388111128,-9.92482540730888,0 -36.1534490193697,-9.92479795093344,0 -36.1534594707027,-9.9247701532821,0 -36.1534836163889,-9.92469923941838,0 -36.1535016419135,-9.92465477996531,0 -36.1535195896704,-9.92462657978875,0 -36.1535412417109,-9.92460101959184,0 -36.153564779828,-9.92457660247597,0 -36.1535930203704,-9.92455658697806,0 -36.1536033234694,-9.92455192175191,0 -36.1535771838065,-9.92454408984977,0 -36.1535522019346,-9.92453158779641,0</coordinates></LinearRing></outerBoundaryIs></Polygon></MultiGeometry>
  </Placemark>
</Folder>
</Document></kml>
