<?xml version="1.0" encoding="utf-8" ?>
<kml xmlns="http://www.opengis.net/kml/2.2">
<Document id="root_doc">
<Schema name="NOVO_TALHAO_1022_ID_1142" id="NOVO_TALHAO_1022_ID_1142">
	<SimpleField name="TALHAO" type="string"></SimpleField>
	<SimpleField name="FAZENDA" type="string"></SimpleField>
	<SimpleField name="ZONA" type="string"></SimpleField>
	<SimpleField name="ID" type="float"></SimpleField>
	<SimpleField name="AREA_TOTAL" type="float"></SimpleField>
	<SimpleField name="FAZ_NOME" type="string"></SimpleField>
	<SimpleField name="CODE" type="string"></SimpleField>
</Schema>
<Folder><name>NOVO_TALHAO_1022_ID_1142</name>
  <Placemark id="NOVO_TALHAO_1022_ID_1142.1">
	<Style><LineStyle><color>ff0000ff</color></LineStyle><PolyStyle><fill>0</fill></PolyStyle></Style>
	<ExtendedData><SchemaData schemaUrl="#NOVO_TALHAO_1022_ID_1142">
		<SimpleData name="TALHAO">1022</SimpleData>
		<SimpleData name="FAZENDA">1943</SimpleData>
		<SimpleData name="ZONA">1</SimpleData>
		<SimpleData name="ID">1142</SimpleData>
		<SimpleData name="AREA_TOTAL">1.20</SimpleData>
		<SimpleData name="FAZ_NOME">NOVO</SimpleData>
		<SimpleData name="CODE"></SimpleData>
	</SchemaData></ExtendedData>
      <MultiGeometry><Polygon><outerBoundaryIs><LinearRing><coordinates>-36.1484344165194,-9.90122561589888,0 -36.1483493611391,-9.90125102314484,0 -36.148277109237,-9.90126933132337,0 -36.148175119796,-9.90129118605748,0 -36.1480770832129,-9.90131313098756,0 -36.1479768039688,-9.90133596389346,0 -36.1479161112491,-9.90135124342495,0 -36.1481667134392,-9.90184008742622,0 -36.1483142827398,-9.9018053596408,0 -36.148496168564,-9.90175914465367,0 -36.1486391059752,-9.90172783151355,0 -36.1487623978032,-9.9017145404688,0 -36.1488904228072,-9.90168126942651,0 -36.1490379131837,-9.90162049402794,0 -36.1491605005631,-9.90156713425518,0 -36.1492523345232,-9.90151052249794,0 -36.1494167364598,-9.90141455559056,0 -36.1495027756158,-9.90148504205606,0 -36.149524290375,-9.90150660048904,0 -36.1495626530802,-9.90151217319615,0 -36.1496368801914,-9.90146714198575,0 -36.1496671530632,-9.90144635885252,0 -36.149778579542,-9.90136986155238,0 -36.1498432260139,-9.90131621845163,0 -36.1499087029545,-9.90126163125137,0 -36.1499410176949,-9.9012403270454,0 -36.1499288365038,-9.90121580525175,0 -36.1498574939578,-9.90109823054084,0 -36.1498077032735,-9.90103126899728,0 -36.1497476959435,-9.90097811103794,0 -36.1496884125098,-9.9009472132967,0 -36.1496422122754,-9.90093623625229,0 -36.149601085502,-9.90093384862105,0 -36.14957654442,-9.90091954775121,0 -36.1495398322553,-9.90089214528293,0 -36.1495193662546,-9.90085379234685,0 -36.149517636631,-9.90082934331519,0 -36.14951188963,-9.90080133081099,0 -36.1495037151876,-9.90078322932118,0 -36.1494975446133,-9.90077282983576,0 -36.1494839507381,-9.90076420982399,0 -36.1494571259,-9.90075352690861,0 -36.1494211442508,-9.90075302878386,0 -36.1493802207867,-9.90073860090329,0 -36.1493577204255,-9.90072500123556,0 -36.149355856142,-9.90079570557026,0 -36.149358957352,-9.90082352708342,0 -36.1493519857289,-9.90083835342377,0 -36.1493324533975,-9.90087958773813,0 -36.1493155238647,-9.90091026559279,0 -36.1492800936179,-9.90094069694434,0 -36.1492436578023,-9.90100071593591,0 -36.1492225966922,-9.9010191355619,0 -36.1492025120072,-9.90103252942564,0 -36.1491790144909,-9.90104547038857,0 -36.1491637615552,-9.90105544025363,0 -36.1491438337787,-9.9010622954755,0 -36.1491227135432,-9.90106974898823,0 -36.149093841923,-9.90107861298907,0 -36.1490696295469,-9.90108481558724,0 -36.1490461695192,-9.90109346921752,0 -36.1490219920845,-9.90109997636934,0 -36.1490032883454,-9.90110649328035,0 -36.1489798651289,-9.90111548310923,0 -36.1489530225771,-9.90112040179327,0 -36.148923451332,-9.90112804379247,0 -36.1488981253402,-9.90113423343882,0 -36.1488722510804,-9.90113881487501,0 -36.1488459714764,-9.90115036777199,0 -36.148810861812,-9.90115796264464,0 -36.1487853828238,-9.90116223130304,0 -36.1487362632497,-9.9011703638488,0 -36.1486103779259,-9.90118753839215,0 -36.1485382528084,-9.90120279664389,0 -36.1484344165194,-9.90122561589888,0</coordinates></LinearRing></outerBoundaryIs></Polygon></MultiGeometry>
  </Placemark>
</Folder>
</Document></kml>
