<?xml version="1.0" encoding="utf-8" ?>
<kml xmlns="http://www.opengis.net/kml/2.2">
<Document id="root_doc">
<Schema name="NOVO_TALHAO_1083_ID_941" id="NOVO_TALHAO_1083_ID_941">
	<SimpleField name="TALHAO" type="string"></SimpleField>
	<SimpleField name="FAZENDA" type="string"></SimpleField>
	<SimpleField name="ZONA" type="string"></SimpleField>
	<SimpleField name="ID" type="float"></SimpleField>
	<SimpleField name="AREA_TOTAL" type="float"></SimpleField>
	<SimpleField name="FAZ_NOME" type="string"></SimpleField>
	<SimpleField name="CODE" type="string"></SimpleField>
</Schema>
<Folder><name>NOVO_TALHAO_1083_ID_941</name>
  <Placemark id="NOVO_TALHAO_1083_ID_941.1">
	<Style><LineStyle><color>ff0000ff</color></LineStyle><PolyStyle><fill>0</fill></PolyStyle></Style>
	<ExtendedData><SchemaData schemaUrl="#NOVO_TALHAO_1083_ID_941">
		<SimpleData name="TALHAO">1083</SimpleData>
		<SimpleData name="FAZENDA">1943</SimpleData>
		<SimpleData name="ZONA">1</SimpleData>
		<SimpleData name="ID">941</SimpleData>
		<SimpleData name="AREA_TOTAL">14.71</SimpleData>
		<SimpleData name="FAZ_NOME">NOVO</SimpleData>
		<SimpleData name="CODE"></SimpleData>
	</SchemaData></ExtendedData>
      <MultiGeometry><Polygon><outerBoundaryIs><LinearRing><coordinates>-36.1441643683951,-9.96366492507539,0 -36.1454440294049,-9.9665685906073,0 -36.1455068116404,-9.96656520170341,0 -36.145546673007,-9.96656226742795,0 -36.145571713145,-9.96655596959516,0 -36.1455939387458,-9.9665458407019,0 -36.1456165729127,-9.96652874243693,0 -36.1456356874337,-9.96650991695623,0 -36.1456536282299,-9.96648492518538,0 -36.1456709560616,-9.96645068050201,0 -36.1456808071933,-9.96640906966119,0 -36.1456821359725,-9.96638407633128,0 -36.1456809423494,-9.96633676031227,0 -36.1456851223952,-9.96627787126848,0 -36.1456944425734,-9.96622271001661,0 -36.1457142335253,-9.9661600551585,0 -36.145735029359,-9.9661106169966,0 -36.1457716706987,-9.9660594982316,0 -36.1458218559268,-9.96601081959322,0 -36.1458745249457,-9.9659763782512,0 -36.1459456417487,-9.96593322899863,0 -36.1460000566457,-9.96590930160741,0 -36.146073180673,-9.96589153086984,0 -36.1461190068294,-9.96588881545662,0 -36.1461522688115,-9.96588448916599,0 -36.1461833107773,-9.96587975056301,0 -36.1462138672429,-9.96587490790548,0 -36.1462459560757,-9.96587015177347,0 -36.1462730960662,-9.96586582232067,0 -36.1463162625522,-9.96584981682872,0 -36.146351552515,-9.96583038400903,0 -36.1463766792497,-9.96580623699474,0 -36.1463856960373,-9.96577707124111,0 -36.1463937647891,-9.96574829003539,0 -36.1464012217526,-9.96562798307296,0 -36.1464124397282,-9.96554727242275,0 -36.1464211056623,-9.9654987292131,0 -36.1464473624285,-9.96543160463404,0 -36.1464750773409,-9.96538679180228,0 -36.1464959271687,-9.96534989289957,0 -36.1465216324588,-9.96530805712181,0 -36.1465379911448,-9.96528079411067,0 -36.14655460897,-9.96525244404321,0 -36.1465715168928,-9.96522319092021,0 -36.1465876484321,-9.96519364505471,0 -36.146601953013,-9.9651631915215,0 -36.1466136973895,-9.96513076396484,0 -36.1466234164262,-9.96509653950508,0 -36.146632084467,-9.96506101786404,0 -36.1466400111215,-9.96502417340798,0 -36.1466474184764,-9.9649862863053,0 -36.1466581596395,-9.96494719310438,0 -36.1466673893221,-9.96491030268191,0 -36.146674364741,-9.9648749729322,0 -36.1466802672921,-9.96483960741009,0 -36.1466881825113,-9.9647881977629,0 -36.1467099374876,-9.96472206404773,0 -36.1467438581786,-9.96465131472632,0 -36.1467803478915,-9.96459423284557,0 -36.146821919794,-9.96454927632473,0 -36.14687306966,-9.96451734922377,0 -36.1469136496682,-9.96450680988253,0 -36.1469436876869,-9.96449117941646,0 -36.1469862998429,-9.96446180951235,0 -36.1470441793475,-9.964444070024,0 -36.1470962319191,-9.9644248932562,0 -36.147151961679,-9.96441154132353,0 -36.1471918371976,-9.96440188466824,0 -36.1472469573436,-9.96439673568783,0 -36.1473093653045,-9.9644014732029,0 -36.1473761763599,-9.96441989907703,0 -36.1474036531022,-9.96444245853909,0 -36.1474543764358,-9.96445766821555,0 -36.147593815732,-9.96455008260413,0 -36.1476320634112,-9.96458424056062,0 -36.1476679770669,-9.96462120648868,0 -36.1476918039016,-9.96464478453602,0 -36.1477159485142,-9.9646708066997,0 -36.1477415941754,-9.9646967133166,0 -36.1477659684989,-9.96472416953166,0 -36.1478702785363,-9.96484085548975,0 -36.1478899804594,-9.96486687893156,0 -36.1479209294056,-9.96490560902383,0 -36.1479569784595,-9.96496034335912,0 -36.1479785757191,-9.96500758127652,0 -36.1480023679272,-9.96505719317217,0 -36.1480261068062,-9.96512259980976,0 -36.1480492423367,-9.96519252400296,0 -36.1480620738402,-9.96523300514358,0 -36.1480759656611,-9.96527242759037,0 -36.1480911751918,-9.96530769195619,0 -36.1481260993144,-9.96537797877089,0 -36.148142838204,-9.96541057761706,0 -36.1481601669835,-9.965443356527,0 -36.1481719736193,-9.96547332385463,0 -36.1482115093314,-9.96554530921856,0 -36.1482436940686,-9.96560800691324,0 -36.1482732597024,-9.96565599529117,0 -36.1483012773967,-9.96572512723792,0 -36.1483092749089,-9.96577988648346,0 -36.1483185247749,-9.96581780217616,0 -36.1483213496036,-9.96585823644267,0 -36.1483135622519,-9.96592491938672,0 -36.1483131133994,-9.96595210579373,0 -36.1483147291918,-9.96603234418679,0 -36.1482986020922,-9.96605692038164,0 -36.1482961022026,-9.96615732280985,0 -36.1482960797983,-9.96623404672293,0 -36.1482904216196,-9.96628985702518,0 -36.1482887734476,-9.96631592369311,0 -36.148290147082,-9.96633914631616,0 -36.1483017221452,-9.96638719971749,0 -36.1483260645331,-9.96642709703652,0 -36.1483623239182,-9.96645242086716,0 -36.1483851113935,-9.9664541939147,0 -36.1484201081693,-9.96645304183061,0 -36.1484529508663,-9.96642797345075,0 -36.148479429119,-9.96641774177109,0 -36.1486030261334,-9.96636828219225,0 -36.1486459903613,-9.96634916597633,0 -36.1487102782395,-9.96632759894845,0 -36.1487384384853,-9.96631786947728,0 -36.1487670918766,-9.96630703927757,0 -36.1487959262103,-9.96629537530614,0 -36.1488245250729,-9.96628248621829,0 -36.1488518201588,-9.96626787981994,0 -36.1488783393679,-9.96625110802336,0 -36.1489012818034,-9.9662334327343,0 -36.1489238076018,-9.96621195095087,0 -36.1489445154386,-9.96618736180537,0 -36.148964573068,-9.96616143622112,0 -36.148996093496,-9.96611687079491,0 -36.1490401338569,-9.96606348154628,0 -36.1490818890086,-9.96601849125087,0 -36.1491285910749,-9.96597341716718,0 -36.1491811846559,-9.96593676888527,0 -36.1492416337554,-9.96590586343196,0 -36.1493016122117,-9.96588156163057,0 -36.1493773227105,-9.96585886004723,0 -36.1494488337375,-9.96584820471695,0 -36.1495145260092,-9.96584809361074,0 -36.1495992653247,-9.96585130296126,0 -36.1478939386159,-9.96203920910209,0 -36.1441643683951,-9.96366492507539,0</coordinates></LinearRing></outerBoundaryIs></Polygon></MultiGeometry>
  </Placemark>
</Folder>
</Document></kml>
