<?xml version="1.0" encoding="utf-8" ?>
<kml xmlns="http://www.opengis.net/kml/2.2">
<Document id="root_doc">
<Schema name="NOVO_TALHAO_1076_ID_933" id="NOVO_TALHAO_1076_ID_933">
	<SimpleField name="TALHAO" type="string"></SimpleField>
	<SimpleField name="FAZENDA" type="string"></SimpleField>
	<SimpleField name="ZONA" type="string"></SimpleField>
	<SimpleField name="ID" type="float"></SimpleField>
	<SimpleField name="AREA_TOTAL" type="float"></SimpleField>
	<SimpleField name="FAZ_NOME" type="string"></SimpleField>
	<SimpleField name="CODE" type="string"></SimpleField>
</Schema>
<Folder><name>NOVO_TALHAO_1076_ID_933</name>
  <Placemark id="NOVO_TALHAO_1076_ID_933.1">
	<Style><LineStyle><color>ff0000ff</color></LineStyle><PolyStyle><fill>0</fill></PolyStyle></Style>
	<ExtendedData><SchemaData schemaUrl="#NOVO_TALHAO_1076_ID_933">
		<SimpleData name="TALHAO">1076</SimpleData>
		<SimpleData name="FAZENDA">1943</SimpleData>
		<SimpleData name="ZONA">1</SimpleData>
		<SimpleData name="ID">933</SimpleData>
		<SimpleData name="AREA_TOTAL">33.97</SimpleData>
		<SimpleData name="FAZ_NOME">NOVO</SimpleData>
		<SimpleData name="CODE"></SimpleData>
	</SchemaData></ExtendedData>
      <MultiGeometry><Polygon><outerBoundaryIs><LinearRing><coordinates>-36.1411091823903,-9.95125381034705,0 -36.1412084353238,-9.95935297919446,0 -36.1412767489858,-9.9593313527681,0 -36.1413313346378,-9.95931697837137,0 -36.1413646805442,-9.9593081602652,0 -36.1414001583536,-9.95929814945622,0 -36.1414371394835,-9.9592865327542,0 -36.1414747250061,-9.95927217754343,0 -36.1415126453361,-9.95925580443346,0 -36.1415506081211,-9.9592393881276,0 -36.1415870618966,-9.95922157331342,0 -36.1416217172289,-9.95920174983711,0 -36.1416548803241,-9.95917963789049,0 -36.1416869200636,-9.95915589349605,0 -36.1417167957062,-9.9591293664304,0 -36.1417451072101,-9.95909995944993,0 -36.141773346508,-9.95906943055328,0 -36.1418001827956,-9.95904006666445,0 -36.1418554673088,-9.95897403293883,0 -36.1418828340326,-9.95894069719632,0 -36.1419107290672,-9.95890696944145,0 -36.1419526180454,-9.95885847833526,0 -36.1420160734115,-9.95878666460787,0 -36.1420768469193,-9.95871991306053,0 -36.1421217254245,-9.95867591901642,0 -36.1421557901644,-9.95864247253199,0 -36.1422168588883,-9.95858719167699,0 -36.1422514919973,-9.95855751019512,0 -36.1422864746059,-9.9585270837653,0 -36.1423211512342,-9.95849585794291,0 -36.1423563918771,-9.9584641168666,0 -36.1423909057706,-9.95843282788733,0 -36.142422344623,-9.95840423526939,0 -36.1424520901998,-9.95837945937987,0 -36.1424792151193,-9.95835558490962,0 -36.1425278777186,-9.95831444526694,0 -36.1425692710581,-9.95828162870858,0 -36.1426020387332,-9.95825446222765,0 -36.1426571339649,-9.95821063356237,0 -36.1427016609149,-9.95817698367141,0 -36.1427575165032,-9.95813430334296,0 -36.1427967752459,-9.95810524208759,0 -36.1428250058711,-9.95808421132485,0 -36.1428545153683,-9.95806155579332,0 -36.1428771875357,-9.95804857693969,0 -36.1428955812465,-9.95803441180087,0 -36.1429200384137,-9.95801323718876,0 -36.1429800877646,-9.95797253325308,0 -36.1430033923147,-9.95795935829198,0 -36.1430180631348,-9.95794918954773,0 -36.1430485861547,-9.95792681792396,0 -36.1431355007289,-9.95787356358457,0 -36.1431456798926,-9.95786869172629,0 -36.143211198301,-9.95783118016188,0 -36.1432478303438,-9.95781127502508,0 -36.1432855212378,-9.95779069624807,0 -36.143324197925,-9.95776987373972,0 -36.1433635419968,-9.95774817680029,0 -36.143390346627,-9.95773581784746,0 -36.1434135065012,-9.95772473501125,0 -36.1434383347732,-9.95770681505019,0 -36.1434723600618,-9.95768681041895,0 -36.1435036793832,-9.95766829253655,0 -36.1435306417346,-9.95765196762244,0 -36.1435656875282,-9.95763065377471,0 -36.1435944727102,-9.95761279189997,0 -36.143615987442,-9.95760207397555,0 -36.1436924651538,-9.95755493988426,0 -36.1437273801655,-9.95753239024866,0 -36.1437538534124,-9.95752053589424,0 -36.1437732764246,-9.95750629905979,0 -36.1438051040956,-9.95747753116548,0 -36.1438666087738,-9.95743868230922,0 -36.1438985875534,-9.95740995555665,0 -36.1439344944635,-9.95738082574117,0 -36.1439572054345,-9.95736640806886,0 -36.1439748357395,-9.95735354112884,0 -36.1439910716352,-9.95733748305156,0 -36.1440329736987,-9.95728909149447,0 -36.1440522983768,-9.95727439569014,0 -36.1441072843785,-9.95721381306454,0 -36.1441429270254,-9.95718346912814,0 -36.1441581107811,-9.95716722563688,0 -36.1441781001339,-9.95714383694313,0 -36.1442489874559,-9.95707271684971,0 -36.1443192157757,-9.95701156693877,0 -36.1443805533521,-9.9569616078059,0 -36.1444187683358,-9.95693683535513,0 -36.1444409118682,-9.95691763663156,0 -36.1444742304664,-9.95687919963923,0 -36.1445224960763,-9.9568421056827,0 -36.1445366776094,-9.95682699318193,0 -36.1445653518333,-9.95679038866281,0 -36.1446090008262,-9.95674656604319,0 -36.1446251447698,-9.95672699026529,0 -36.1446579602575,-9.9566818957828,0 -36.144713250343,-9.95661690659491,0 -36.1447287499344,-9.95659348001731,0 -36.1447387046289,-9.95658379038483,0 -36.1447701951718,-9.95654453386242,0 -36.1447873050057,-9.95652030922027,0 -36.1448306740042,-9.95646831435285,0 -36.1448995763923,-9.95639835107511,0 -36.1449406113649,-9.95637294337778,0 -36.1449739273747,-9.95634986366258,0 -36.1450121919536,-9.95633427587749,0 -36.1450428792181,-9.95632162133749,0 -36.1450936732513,-9.95630258383396,0 -36.1451616172006,-9.95628723257782,0 -36.1452185699813,-9.95629157468719,0 -36.1451518410607,-9.95065070671566,0 -36.1415554658769,-9.95116532271078,0 -36.1415247858014,-9.95117050445408,0 -36.1414467343547,-9.95118503152242,0 -36.141410561566,-9.95119060226974,0 -36.1413749215825,-9.95119702034783,0 -36.1413518099829,-9.9512001632021,0 -36.1412987768231,-9.95121191920212,0 -36.1412453176857,-9.95122135260985,0 -36.1412108489759,-9.95122841234275,0 -36.1411764356988,-9.9512370388514,0 -36.1411540759802,-9.95124277535508,0 -36.1411091823903,-9.95125381034705,0</coordinates></LinearRing></outerBoundaryIs></Polygon></MultiGeometry>
  </Placemark>
</Folder>
</Document></kml>
