<?xml version="1.0" encoding="utf-8" ?>
<kml xmlns="http://www.opengis.net/kml/2.2">
<Document id="root_doc">
<Schema name="NOVO_TALHAO_1030_ID_1156" id="NOVO_TALHAO_1030_ID_1156">
	<SimpleField name="TALHAO" type="string"></SimpleField>
	<SimpleField name="FAZENDA" type="string"></SimpleField>
	<SimpleField name="ZONA" type="string"></SimpleField>
	<SimpleField name="ID" type="float"></SimpleField>
	<SimpleField name="AREA_TOTAL" type="float"></SimpleField>
	<SimpleField name="FAZ_NOME" type="string"></SimpleField>
	<SimpleField name="CODE" type="string"></SimpleField>
</Schema>
<Folder><name>NOVO_TALHAO_1030_ID_1156</name>
  <Placemark id="NOVO_TALHAO_1030_ID_1156.1">
	<Style><LineStyle><color>ff0000ff</color></LineStyle><PolyStyle><fill>0</fill></PolyStyle></Style>
	<ExtendedData><SchemaData schemaUrl="#NOVO_TALHAO_1030_ID_1156">
		<SimpleData name="TALHAO">1030</SimpleData>
		<SimpleData name="FAZENDA">1943</SimpleData>
		<SimpleData name="ZONA">1</SimpleData>
		<SimpleData name="ID">1156</SimpleData>
		<SimpleData name="AREA_TOTAL">5.12</SimpleData>
		<SimpleData name="FAZ_NOME">NOVO</SimpleData>
		<SimpleData name="CODE"></SimpleData>
	</SchemaData></ExtendedData>
      <MultiGeometry><Polygon><outerBoundaryIs><LinearRing><coordinates>-36.1441469650728,-9.90799725544266,0 -36.1458629864481,-9.90214912164461,0 -36.1458824326234,-9.90206914913887,0 -36.1458904219372,-9.90204640548114,0 -36.1458986385349,-9.90202378173911,0 -36.1459067076429,-9.90200139813126,0 -36.1459155787953,-9.90197943573048,0 -36.1459248953894,-9.9019560396255,0 -36.1459347236195,-9.90193396502648,0 -36.1459447765348,-9.90191077239165,0 -36.145956414875,-9.90188939018632,0 -36.1459661382876,-9.90186685603794,0 -36.1459779001751,-9.90184587364206,0 -36.1459942507381,-9.90182543886531,0 -36.1460112605438,-9.90180618763446,0 -36.1460307984869,-9.90178760924361,0 -36.1460486511419,-9.90177123572827,0 -36.1460721557839,-9.90175410713139,0 -36.1460563684421,-9.90174818520432,0 -36.1460196904365,-9.90175083898496,0 -36.145991449714,-9.90175825877485,0 -36.1459507041919,-9.90177002033422,0 -36.1458961400737,-9.9017937718168,0 -36.1458512362801,-9.90184078564045,0 -36.1458447516772,-9.9018607922717,0 -36.1458243147098,-9.90191402203685,0 -36.1458053122504,-9.90195287604831,0 -36.1457853229819,-9.90198941498595,0 -36.1457654154645,-9.90203853664832,0 -36.1457578357812,-9.90206173742468,0 -36.1457534097844,-9.90208688476154,0 -36.1457337279626,-9.90212798598743,0 -36.1457134327623,-9.90217748849349,0 -36.1457010198609,-9.90221589095601,0 -36.1456852836192,-9.90225334057117,0 -36.1456671367008,-9.90230701421654,0 -36.1456520383467,-9.90235609239143,0 -36.1456463071051,-9.9023791519024,0 -36.145636216822,-9.90241974903278,0 -36.1456278895368,-9.90244724604814,0 -36.1456187378425,-9.90248779931485,0 -36.145607781738,-9.90253051577689,0 -36.1455924846471,-9.90258572719235,0 -36.1455835113981,-9.90262818386985,0 -36.1455690321909,-9.90267914604298,0 -36.1455634153936,-9.90269953913428,0 -36.1455547442878,-9.90274110679767,0 -36.145539683288,-9.90279715053803,0 -36.1455334623353,-9.90283859987476,0 -36.1455116522728,-9.902896477744,0 -36.1454952449228,-9.90293609030409,0 -36.1454785902097,-9.90299000923739,0 -36.1454695937705,-9.90302841250152,0 -36.145460231037,-9.90307874453146,0 -36.1454471260654,-9.90313303742839,0 -36.1454408150282,-9.90317706091962,0 -36.1454345845146,-9.90323391549062,0 -36.1454328418186,-9.90327480908398,0 -36.1454255123179,-9.90333157970417,0 -36.1454214322006,-9.90338916501715,0 -36.1454051821387,-9.90344931329725,0 -36.1453738935823,-9.90355461087583,0 -36.145352867357,-9.9036065075332,0 -36.1453333292825,-9.90365908279587,0 -36.1453148390126,-9.90369753977865,0 -36.1452857840576,-9.90374777216722,0 -36.1452561444837,-9.90379483078107,0 -36.1452274410926,-9.90384092304751,0 -36.1452104964514,-9.90387898853039,0 -36.1451857382569,-9.90392936017243,0 -36.1451632236103,-9.90398184403458,0 -36.1451509575257,-9.90400830179561,0 -36.145140292764,-9.90403270607419,0 -36.1451214534984,-9.90408519892216,0 -36.145110425969,-9.90412730526636,0 -36.1450924595006,-9.90418238558393,0 -36.1450744988046,-9.90423554574339,0 -36.1450614689634,-9.90429107175818,0 -36.1450468972332,-9.90434585165822,0 -36.1450341800252,-9.90440148623043,0 -36.145020385084,-9.90444198838873,0 -36.1449862312859,-9.90454699708339,0 -36.1449782302055,-9.90459867277591,0 -36.1449639399557,-9.90464180866429,0 -36.1449516800744,-9.90469785158984,0 -36.1449419009247,-9.90475619690608,0 -36.1449281933325,-9.90481210854429,0 -36.144923086515,-9.90485280278791,0 -36.1449061096022,-9.90491183175907,0 -36.1448907227434,-9.90496674137555,0 -36.1448829006958,-9.90500816896094,0 -36.1448753431952,-9.9050366409836,0 -36.1448688684465,-9.90506475035877,0 -36.1448598521195,-9.90509194344948,0 -36.1448545670274,-9.90511863870287,0 -36.1448474332908,-9.90517043411184,0 -36.1448292655122,-9.90523033881891,0 -36.1448293530569,-9.90526977257565,0 -36.1448134339392,-9.9053310042883,0 -36.144801717261,-9.9053862580931,0 -36.1447949214585,-9.90544261196244,0 -36.1447715101357,-9.90548442342978,0 -36.1447470217159,-9.90553567845795,0 -36.1447209032406,-9.90558337044544,0 -36.1446892412795,-9.90561650571559,0 -36.1446528130399,-9.90566227883361,0 -36.1446201974579,-9.90571227153406,0 -36.1445932779176,-9.90574709728655,0 -36.1445675289106,-9.90578386433954,0 -36.1445330100888,-9.90582805015277,0 -36.1445027084982,-9.90587925149059,0 -36.144465319837,-9.90592816227191,0 -36.1444233205122,-9.90596954948349,0 -36.1443798206323,-9.9060084922457,0 -36.1443464007243,-9.90603623484096,0 -36.1443035490881,-9.90607294001895,0 -36.1442603492207,-9.90610995573196,0 -36.1442162699668,-9.90614658170492,0 -36.1441699545781,-9.90618186158207,0 -36.144135293242,-9.9062094513223,0 -36.1440895969209,-9.90624369223877,0 -36.1440459933864,-9.90628017051771,0 -36.1440093967446,-9.90631982651055,0 -36.1439696194442,-9.9063617746052,0 -36.1439300815633,-9.90639985579493,0 -36.143892147287,-9.90644482646726,0 -36.143854903112,-9.90648729386169,0 -36.1438166117966,-9.90653039676881,0 -36.1437739019113,-9.90656648711732,0 -36.1437362485255,-9.90660935228836,0 -36.1436955007891,-9.90665245450693,0 -36.1436550884707,-9.90669414670431,0 -36.1436194635054,-9.90673779633157,0 -36.1435792685418,-9.90678089944932,0 -36.1435443027852,-9.90682542732352,0 -36.143514578207,-9.90686435712194,0 -36.143475901803,-9.90690714107767,0 -36.1434403879381,-9.90695194996382,0 -36.1434049681455,-9.90699259214009,0 -36.1433706514676,-9.90703769966906,0 -36.1433366659241,-9.90708430964233,0 -36.1433012570202,-9.90713013569257,0 -36.143264177359,-9.90716994605774,0 -36.1432352558368,-9.90720511964147,0 -36.1431954065599,-9.90724672385308,0 -36.1431879018999,-9.90726333021472,0 -36.1431550765675,-9.90729863011172,0 -36.1431146210054,-9.90734286717715,0 -36.1430745952625,-9.90738416555224,0 -36.1430356464523,-9.90742750006264,0 -36.1429946042322,-9.90747037640372,0 -36.142957130768,-9.90751649130635,0 -36.1429172327241,-9.90755622945465,0 -36.1428783241282,-9.9076073889576,0 -36.1428355890669,-9.90764126637566,0 -36.1427945814805,-9.90767905719928,0 -36.1427497130553,-9.90771843472699,0 -36.1427016175831,-9.90775238167321,0 -36.1426523819512,-9.9077783294097,0 -36.1426077952943,-9.90780973749652,0 -36.142570304312,-9.9078431293893,0 -36.1425344226538,-9.90789220094801,0 -36.1424968960495,-9.90792877046957,0 -36.1424665777681,-9.90797050624341,0 -36.1424390944483,-9.90801842013773,0 -36.1424128247809,-9.90806570665174,0 -36.1423870753472,-9.90811463939478,0 -36.1423597278822,-9.90816342180289,0 -36.1423306731689,-9.90821302944275,0 -36.1422960228148,-9.90826005176164,0 -36.1422592975412,-9.90830348369468,0 -36.1422154672562,-9.90834577177172,0 -36.1421701086325,-9.90838505640471,0 -36.1421249839111,-9.90842098226423,0 -36.1420818837621,-9.90845938115067,0 -36.1420371360244,-9.90849627664389,0 -36.1419932098316,-9.90853143713727,0 -36.1419478904159,-9.90856874317473,0 -36.1418808079074,-9.90860197573427,0 -36.1418246759191,-9.90862205676562,0 -36.1417585090492,-9.90864977011575,0 -36.1416894377988,-9.90867385173026,0 -36.141644694634,-9.90870604479459,0 -36.1416049363681,-9.90873275020931,0 -36.1415510588471,-9.90875187158194,0 -36.1415028102346,-9.90877822194802,0 -36.1414574940424,-9.9088102322416,0 -36.1414268451589,-9.90883097953822,0 -36.1414038677625,-9.90886627019281,0 -36.1413476189033,-9.90894302825629,0 -36.141314750253,-9.90898047117672,0 -36.1412876689309,-9.90900687923085,0 -36.1412244680348,-9.90906134449174,0 -36.1411848465504,-9.90909783318105,0 -36.1411310786303,-9.90912276489916,0 -36.1410756666198,-9.90915701748948,0 -36.141041549136,-9.90918114023306,0 -36.1410052771226,-9.90921572453895,0 -36.1409928933536,-9.90923316612637,0 -36.1409881691753,-9.90925187983097,0 -36.1409856619394,-9.90926974110148,0 -36.1409870814512,-9.90929622089742,0 -36.1409920424445,-9.90931656636812,0 -36.1409954141406,-9.90933664227316,0 -36.1409999804864,-9.90935485878024,0 -36.1410058266395,-9.90937257559381,0 -36.1410097738618,-9.9093918559041,0 -36.1410147531565,-9.90941192960887,0 -36.141020523029,-9.90943166703112,0 -36.1410238799388,-9.90944990656759,0 -36.141031998058,-9.90946603650374,0 -36.1410560490869,-9.90948472313312,0 -36.1410763961101,-9.90948797213136,0 -36.1410987627106,-9.90948599809802,0 -36.1411224174882,-9.90947984671449,0 -36.1411444762291,-9.90947456055276,0 -36.1411678072643,-9.90946948379723,0 -36.1411903450406,-9.90946312893092,0 -36.1412141466803,-9.90945311008718,0 -36.1412376359571,-9.90944847697727,0 -36.1412616026418,-9.90944397215046,0 -36.1412839845251,-9.90943655536123,0 -36.1413073831348,-9.90942996805935,0 -36.1413302923688,-9.9094223099457,0 -36.1413530057614,-9.90941385761188,0 -36.1413755313421,-9.90940747968089,0 -36.1413980460488,-9.90939914995785,0 -36.1414298353882,-9.90938404130211,0 -36.1441469650728,-9.90799725544266,0</coordinates></LinearRing></outerBoundaryIs></Polygon></MultiGeometry>
  </Placemark>
</Folder>
</Document></kml>
