<?xml version="1.0" encoding="utf-8" ?>
<kml xmlns="http://www.opengis.net/kml/2.2">
<Document id="root_doc">
<Schema name="NOVO_TALHAO_1048_ID_875" id="NOVO_TALHAO_1048_ID_875">
	<SimpleField name="TALHAO" type="string"></SimpleField>
	<SimpleField name="FAZENDA" type="string"></SimpleField>
	<SimpleField name="ZONA" type="string"></SimpleField>
	<SimpleField name="ID" type="float"></SimpleField>
	<SimpleField name="AREA_TOTAL" type="float"></SimpleField>
	<SimpleField name="FAZ_NOME" type="string"></SimpleField>
	<SimpleField name="CODE" type="string"></SimpleField>
</Schema>
<Folder><name>NOVO_TALHAO_1048_ID_875</name>
  <Placemark id="NOVO_TALHAO_1048_ID_875.1">
	<Style><LineStyle><color>ff0000ff</color></LineStyle><PolyStyle><fill>0</fill></PolyStyle></Style>
	<ExtendedData><SchemaData schemaUrl="#NOVO_TALHAO_1048_ID_875">
		<SimpleData name="TALHAO">1048</SimpleData>
		<SimpleData name="FAZENDA">1943</SimpleData>
		<SimpleData name="ZONA">1</SimpleData>
		<SimpleData name="ID">875</SimpleData>
		<SimpleData name="AREA_TOTAL">5.01</SimpleData>
		<SimpleData name="FAZ_NOME">NOVO</SimpleData>
		<SimpleData name="CODE"></SimpleData>
	</SchemaData></ExtendedData>
      <MultiGeometry><Polygon><outerBoundaryIs><LinearRing><coordinates>-36.1574496982876,-9.92398670757035,0 -36.1575018345039,-9.92362244566131,0 -36.1574704000617,-9.92362354195587,0 -36.1574465339552,-9.92362454702311,0 -36.1574168685739,-9.9236257572139,0 -36.1573857155771,-9.92362417287474,0 -36.157358700752,-9.92362371658391,0 -36.1573321785219,-9.92362237778892,0 -36.1573086210335,-9.92362708339417,0 -36.1572771809476,-9.92363491079038,0 -36.1572391217566,-9.92363478974232,0 -36.1572191001716,-9.92363583245887,0 -36.1571942433147,-9.9236397818609,0 -36.1571670679744,-9.92364156885809,0 -36.1571392374287,-9.92364116277446,0 -36.1571122184705,-9.92363971280564,0 -36.1570825431609,-9.92363741112835,0 -36.1570546471332,-9.92363710752983,0 -36.1570196765427,-9.92363404135952,0 -36.1569870645547,-9.92363071162645,0 -36.1569601642252,-9.9236111855117,0 -36.1569366786851,-9.92360066007767,0 -36.1569134797269,-9.92358600168702,0 -36.1568921460697,-9.92357414913354,0 -36.156870074861,-9.92356842108241,0 -36.1568451237511,-9.92356529726909,0 -36.1568248558783,-9.92356228196246,0 -36.1568010370229,-9.92355551232018,0 -36.1567738219034,-9.92354969700244,0 -36.1567490204093,-9.92354450866717,0 -36.1567200665225,-9.92354040419443,0 -36.1566912746728,-9.92352961087351,0 -36.1566686786105,-9.92352273075578,0 -36.1566426057493,-9.92351759116029,0 -36.1566144947629,-9.9235131836122,0 -36.1565875634838,-9.92350871465316,0 -36.1565595466336,-9.92350623402486,0 -36.1565315891064,-9.92350146846955,0 -36.1565061710229,-9.92349385519213,0 -36.1564824433997,-9.92349376476299,0 -36.1564553651598,-9.92349579575886,0 -36.1564274713348,-9.92349505375683,0 -36.1564008757292,-9.92349376994826,0 -36.1563744675584,-9.92349072758801,0 -36.1563486224797,-9.9234892937742,0 -36.1563218868061,-9.92349041527903,0 -36.1562947529265,-9.92349190742474,0 -36.1562717285934,-9.92349147681242,0 -36.1562557925395,-9.92348962349605,0 -36.1562334708568,-9.92349009150737,0 -36.1562057919074,-9.92348653034908,0 -36.1561804345168,-9.92348564513945,0 -36.156144481178,-9.92348474792375,0 -36.1561174339828,-9.92348266090071,0 -36.1560898877848,-9.92348269472662,0 -36.1560617362384,-9.92348213354016,0 -36.1560348593663,-9.92347890085902,0 -36.1560186104379,-9.92347875361141,0 -36.1559895066201,-9.92348141017693,0 -36.1559601498147,-9.92347904396095,0 -36.1559323837433,-9.92347688575685,0 -36.1559105055832,-9.92347124800725,0 -36.1558908004111,-9.92346731136298,0 -36.1558718865362,-9.92346301401773,0 -36.1558458785449,-9.92345940220001,0 -36.1558170530388,-9.92345604778537,0 -36.1557899162973,-9.92344976835083,0 -36.1557634898711,-9.92344493102486,0 -36.1557348992506,-9.92344036502675,0 -36.1557070384639,-9.92343205601484,0 -36.1556811603882,-9.92342142902678,0 -36.1556560496851,-9.92341420551143,0 -36.1556292678565,-9.92341054396329,0 -36.1555997711559,-9.92340114904977,0 -36.1555731569562,-9.92338935932205,0 -36.1555473192852,-9.92337742113275,0 -36.1555222384316,-9.92336455725666,0 -36.1554979871821,-9.92335207052079,0 -36.1554730631643,-9.92334243694741,0 -36.1554474339287,-9.92333387595043,0 -36.1554224554952,-9.92332747048046,0 -36.1554101425752,-9.9233259087934,0 -36.1553842660986,-9.92331939894632,0 -36.1553649536235,-9.92331687673951,0 -36.1553398639698,-9.92331346846346,0 -36.155317470485,-9.92330954745304,0 -36.1552927975945,-9.92330492610976,0 -36.155266431891,-9.92329955133299,0 -36.1552379501336,-9.92329386466414,0 -36.1552118800335,-9.92328422070129,0 -36.1551889335972,-9.92327549908265,0 -36.1551624026476,-9.92327243310375,0 -36.1551358556933,-9.92326536678734,0 -36.1551094920811,-9.92325818828455,0 -36.1550835457759,-9.92325087645612,0 -36.1550565027983,-9.92324247738561,0 -36.1550316790177,-9.92323353485001,0 -36.1550049080362,-9.92322712371606,0 -36.1549799017122,-9.92321639771239,0 -36.1549544783151,-9.92320947279525,0 -36.1549282087535,-9.92320196388046,0 -36.1549031553372,-9.92319422469395,0 -36.1548776594152,-9.92318942937826,0 -36.1548523341508,-9.92318335878156,0 -36.1548295477784,-9.92318019666936,0 -36.1547964147404,-9.92317911824197,0 -36.1547726126204,-9.9231783744077,0 -36.1547424735309,-9.92317586303667,0 -36.1547142705236,-9.92317084177232,0 -36.1546879688606,-9.92316452776422,0 -36.1546609176913,-9.92315895578857,0 -36.1546341318658,-9.92315513061807,0 -36.1546161472609,-9.9231515897544,0 -36.1545990639125,-9.92314913306422,0 -36.1545762109466,-9.92314947106868,0 -36.1545545621296,-9.92315099384382,0 -36.1545335206583,-9.92315342782619,0 -36.1545027480048,-9.92315352963688,0 -36.1544738345483,-9.92315166385047,0 -36.1544458721109,-9.92315113366949,0 -36.1544293060366,-9.92315235428591,0 -36.154414565607,-9.92315069086656,0 -36.154401746327,-9.92315092720197,0 -36.1543821545959,-9.92315176867813,0 -36.1543668934702,-9.92314699106057,0 -36.1543472881648,-9.92314340052328,0 -36.1543229720693,-9.92313663957318,0 -36.1542957865155,-9.92313144509012,0 -36.1542678846312,-9.92312767207264,0 -36.1542380242666,-9.92312408613131,0 -36.1542092296023,-9.92311788158555,0 -36.1541814526992,-9.92311165068148,0 -36.1541548273877,-9.92310762377701,0 -36.1541256284004,-9.92310648746255,0 -36.1540957876238,-9.92310258397891,0 -36.1540661943597,-9.92309931507286,0 -36.1540362597254,-9.92309669578791,0 -36.153999917227,-9.92309212898739,0 -36.153970930862,-9.92308624498331,0 -36.1539456039351,-9.92307991857436,0 -36.1539185614453,-9.92307559616339,0 -36.1538868951951,-9.92306715992807,0 -36.1538598580613,-9.9230618745909,0 -36.1538326451534,-9.92305718089319,0 -36.153804914037,-9.92305296377128,0 -36.1537821138183,-9.92304904287998,0 -36.1537555714019,-9.92304648197315,0 -36.1537280313184,-9.92304644700551,0 -36.1536898890591,-9.92304684794185,0 -36.1536616099634,-9.92304985484263,0 -36.1536320296003,-9.92305024142886,0 -36.1535980461355,-9.92305000476135,0 -36.1535703079436,-9.9230488344226,0 -36.1535416127358,-9.92305128026705,0 -36.1535121300553,-9.92305131204104,0 -36.1534834829918,-9.92305295083487,0 -36.1534532954572,-9.92305397818954,0 -36.1534250288232,-9.92305238439966,0 -36.1533979696984,-9.92305424631488,0 -36.1533728397609,-9.9230590031337,0 -36.1533491236335,-9.9230667111399,0 -36.1533310772761,-9.92308284271309,0 -36.1533159653264,-9.92310137038882,0 -36.1533144258259,-9.92311074333456,0 -36.1533072052074,-9.92313451338441,0 -36.1533109354435,-9.92315586334247,0 -36.1533169691928,-9.9231719057354,0 -36.1533293181864,-9.92319590658784,0 -36.1533448949829,-9.9232122902988,0 -36.153358814421,-9.92322781107574,0 -36.153373442063,-9.92323916028151,0 -36.1533967907935,-9.92325775064982,0 -36.1534138704954,-9.92327184257769,0 -36.153433556868,-9.92328424869701,0 -36.1534604965964,-9.92330174847799,0 -36.1534785975068,-9.92332397764317,0 -36.1534959270817,-9.92334270508248,0 -36.1535178814957,-9.92336245148904,0 -36.1535406348814,-9.923383836593,0 -36.1535551637018,-9.92340642203144,0 -36.1535695343988,-9.92342822293029,0 -36.1535850686011,-9.92344864858606,0 -36.153600589609,-9.92346990571111,0 -36.1536180921417,-9.92349279414935,0 -36.1536329440825,-9.92351497176163,0 -36.1536433614034,-9.92353568241458,0 -36.1536575688967,-9.92355615056584,0 -36.1536705499291,-9.92357717697946,0 -36.153687390218,-9.92359670092137,0 -36.1537023721621,-9.92361928498869,0 -36.1537183470406,-9.92363915581677,0 -36.1537323845216,-9.92366244404764,0 -36.1537460353981,-9.92368489958139,0 -36.1537602555867,-9.92370666008475,0 -36.1537745111324,-9.92372596659334,0 -36.1537878246844,-9.923747388005,0 -36.1538025973666,-9.92376778417438,0 -36.1538123208055,-9.92378921441234,0 -36.1538202755391,-9.92380777955279,0 -36.1538274895838,-9.92382477206613,0 -36.1538380483378,-9.92384403272906,0 -36.1538489805715,-9.92386508573061,0 -36.1538581386052,-9.9238901494555,0 -36.1538652636402,-9.92391396448861,0 -36.1538748229453,-9.92393879787586,0 -36.1538793657357,-9.92396601801915,0 -36.1538831084113,-9.92398831177165,0 -36.1538863540576,-9.92401465480624,0 -36.1538895771574,-9.92403305409869,0 -36.1538903840397,-9.9240578178507,0 -36.1538942897439,-9.92408091806264,0 -36.1538952487026,-9.92409788031764,0 -36.1538954312426,-9.92413239123362,0 -36.1538973137509,-9.92415397843639,0 -36.1538949870911,-9.92417595776196,0 -36.1538929584225,-9.92419727067017,0 -36.1538887644361,-9.92421949856679,0 -36.153884265456,-9.92423833350345,0 -36.1538773910439,-9.92428159624535,0 -36.1538782087979,-9.92430113815132,0 -36.1538752130498,-9.92432576904481,0 -36.153874739526,-9.92435108960402,0 -36.1538652225725,-9.92437420356881,0 -36.1538585018686,-9.9243915612542,0 -36.153855693869,-9.92441021788957,0 -36.1538544636892,-9.92441348927162,0 -36.1538548216347,-9.92441326967244,0 -36.1538830472982,-9.92440134470453,0 -36.1539111714019,-9.92438887993961,0 -36.1539405427305,-9.92437864138846,0 -36.154015415664,-9.92436230823233,0 -36.154047404257,-9.92436280670284,0 -36.1540800078215,-9.92436594337499,0 -36.1541549675554,-9.92438772176204,0 -36.1541953972483,-9.92441186627714,0 -36.1542218469435,-9.92442807869806,0 -36.1542582126778,-9.92445422499527,0 -36.1542948871343,-9.9244787716043,0 -36.1543308309264,-9.92450379447233,0 -36.154367166106,-9.92452933243872,0 -36.1544025985979,-9.92455064975828,0 -36.1544263968759,-9.92456193866721,0 -36.1544534920526,-9.92457504333039,0 -36.1544790603429,-9.92458657909069,0 -36.1545059213838,-9.92459521905892,0 -36.1545473458565,-9.92461043711316,0 -36.1545750262924,-9.92461902318898,0 -36.1546023675679,-9.92462707921342,0 -36.1546445746019,-9.92463771058583,0 -36.1546738049854,-9.92464401332892,0 -36.1547026119027,-9.92465168235526,0 -36.1547307246668,-9.92465589259793,0 -36.1547597046097,-9.92466112232376,0 -36.1547874279737,-9.9246655605999,0 -36.1548162762658,-9.92466726582404,0 -36.1548442620641,-9.92466832111704,0 -36.1548866897623,-9.92466714597166,0 -36.1549155224041,-9.92466572870592,0 -36.1549450090277,-9.92466165820236,0 -36.1549744020339,-9.92465694711622,0 -36.1550034522169,-9.92465108408014,0 -36.1550324341055,-9.92464520640886,0 -36.1550751972727,-9.92463291632136,0 -36.1551038807746,-9.9246233726278,0 -36.155133741065,-9.92461766304694,0 -36.1551903436353,-9.92460037897239,0 -36.1552346681898,-9.9245906439309,0 -36.1552638022877,-9.92458289632734,0 -36.1552948037397,-9.92457799566086,0 -36.1553394230582,-9.92456921830603,0 -36.1553842103831,-9.92456085241131,0 -36.1554440007685,-9.92454995569484,0 -36.1555175861949,-9.92453596571937,0 -36.1555612389412,-9.92452641168788,0 -36.1555901035648,-9.92451991976062,0 -36.1556190970808,-9.92451341617283,0 -36.1556927340793,-9.92449586913479,0 -36.1557406187854,-9.92448669527358,0 -36.1557930674295,-9.92448237901875,0 -36.1558614824086,-9.92446998168574,0 -36.1558923105293,-9.92446772004122,0 -36.1559223942448,-9.92446590094944,0 -36.1559535288908,-9.92446429953073,0 -36.1560294179178,-9.9244607381023,0 -36.1560740466815,-9.92445816737282,0 -36.1561040790837,-9.92445749510318,0 -36.1561638779672,-9.92445231864864,0 -36.1561947590873,-9.92444960193574,0 -36.156225238164,-9.92444689802421,0 -36.1562564056247,-9.92444739900251,0 -36.1563161636803,-9.9244479879337,0 -36.1563601767065,-9.92444241511674,0 -36.1563901820392,-9.92443946544816,0 -36.156419321374,-9.9244373544127,0 -36.1565047901718,-9.92442839780167,0 -36.1565334048505,-9.92442169187411,0 -36.1565932147404,-9.92441224860666,0 -36.1566230661835,-9.92440762623942,0 -36.1566529493874,-9.92440170623755,0 -36.1566968035214,-9.92439291279779,0 -36.1567230536819,-9.92438388955969,0 -36.1567501113818,-9.92437372820642,0 -36.156851830123,-9.92433707346907,0 -36.1569069629021,-9.9243126860699,0 -36.1569345805091,-9.92430054546256,0 -36.1570028741546,-9.92427695791198,0 -36.1570313479571,-9.92426545719399,0 -36.1570615697687,-9.92425811494295,0 -36.1571006371695,-9.9242423000956,0 -36.1571541256642,-9.92422002650283,0 -36.1572293811431,-9.92417537126071,0 -36.1572621760236,-9.92414541885058,0 -36.1572881067778,-9.92412721991778,0 -36.1573093999605,-9.92410993963541,0 -36.1573789159426,-9.92405291804523,0 -36.1574496982876,-9.92398670757035,0</coordinates></LinearRing></outerBoundaryIs></Polygon></MultiGeometry>
  </Placemark>
</Folder>
</Document></kml>
