<?xml version="1.0" encoding="utf-8" ?>
<kml xmlns="http://www.opengis.net/kml/2.2">
<Document id="root_doc">
<Schema name="NOVO_TALHAO_1047_ID_912" id="NOVO_TALHAO_1047_ID_912">
	<SimpleField name="TALHAO" type="string"></SimpleField>
	<SimpleField name="FAZENDA" type="string"></SimpleField>
	<SimpleField name="ZONA" type="string"></SimpleField>
	<SimpleField name="ID" type="float"></SimpleField>
	<SimpleField name="AREA_TOTAL" type="float"></SimpleField>
	<SimpleField name="FAZ_NOME" type="string"></SimpleField>
	<SimpleField name="CODE" type="string"></SimpleField>
</Schema>
<Folder><name>NOVO_TALHAO_1047_ID_912</name>
  <Placemark id="NOVO_TALHAO_1047_ID_912.1">
	<Style><LineStyle><color>ff0000ff</color></LineStyle><PolyStyle><fill>0</fill></PolyStyle></Style>
	<ExtendedData><SchemaData schemaUrl="#NOVO_TALHAO_1047_ID_912">
		<SimpleData name="TALHAO">1047</SimpleData>
		<SimpleData name="FAZENDA">1943</SimpleData>
		<SimpleData name="ZONA">1</SimpleData>
		<SimpleData name="ID">912</SimpleData>
		<SimpleData name="AREA_TOTAL">3.22</SimpleData>
		<SimpleData name="FAZ_NOME">NOVO</SimpleData>
		<SimpleData name="CODE"></SimpleData>
	</SchemaData></ExtendedData>
      <MultiGeometry><Polygon><outerBoundaryIs><LinearRing><coordinates>-36.1542630949769,-9.92142661773741,0 -36.154284331206,-9.92143600068943,0 -36.154307504042,-9.92143961927432,0 -36.1543338975191,-9.9214443343144,0 -36.1543594315723,-9.92144364802255,0 -36.1543867232159,-9.92144595773823,0 -36.1544130468479,-9.92144784819428,0 -36.1544390856951,-9.92144938216034,0 -36.154464010118,-9.92145086640609,0 -36.1544931056186,-9.92144948596127,0 -36.154521739924,-9.92145166117966,0 -36.154546364448,-9.92145874523783,0 -36.1545707462482,-9.92146212586461,0 -36.1545963234639,-9.92146438692073,0 -36.1546227671684,-9.92147161253614,0 -36.1546470695923,-9.92147759160134,0 -36.1546681122167,-9.9214856716675,0 -36.154689741297,-9.92148780976181,0 -36.154711097579,-9.92149110462672,0 -36.1547334514512,-9.92149660647978,0 -36.1547562278925,-9.92149538978039,0 -36.1547800252837,-9.9215000131229,0 -36.1548027953129,-9.92150461841282,0 -36.1548296762934,-9.92150852289423,0 -36.1548557837448,-9.92151819638797,0 -36.1548797517137,-9.92152950072658,0 -36.1549021970999,-9.92153960252964,0 -36.1549278137362,-9.92154855662174,0 -36.1549511337173,-9.92156099366578,0 -36.1549732575742,-9.92157066419351,0 -36.1549990086301,-9.92157808889317,0 -36.1550199572575,-9.92159399734546,0 -36.1550396525716,-9.92160168706683,0 -36.1550658261573,-9.92161370786248,0 -36.1550862825639,-9.92162423773929,0 -36.1551083311683,-9.92163468899419,0 -36.1551345674957,-9.92164622828148,0 -36.1551497946173,-9.92165637765656,0 -36.155173108338,-9.92166403588745,0 -36.1551970858069,-9.92167652842205,0 -36.1552196823673,-9.92168721227587,0 -36.1552450452425,-9.92169683593158,0 -36.1552674964641,-9.92170961416815,0 -36.1552885831872,-9.92172038043443,0 -36.1553118483856,-9.92172995391808,0 -36.1553368275551,-9.9217415309752,0 -36.1553592221274,-9.92175658317482,0 -36.1553801218161,-9.92176927557327,0 -36.1554005374313,-9.92178029390837,0 -36.1554210683013,-9.92178981348517,0 -36.155444036471,-9.92180222339896,0 -36.1554716544986,-9.92182016952122,0 -36.1555033102126,-9.92183511795185,0 -36.1555240642642,-9.92184593077133,0 -36.1555423704401,-9.9218576544869,0 -36.1555622759901,-9.92186931736434,0 -36.1555853342674,-9.92188043982578,0 -36.1556074683607,-9.9218947609292,0 -36.1556287367382,-9.9219089930622,0 -36.1556488201746,-9.92192372954902,0 -36.1556700700929,-9.92193457402222,0 -36.1556947362153,-9.92194415876135,0 -36.1557186984988,-9.92195327924885,0 -36.1557386838275,-9.92196125801504,0 -36.1557629916958,-9.92197208283903,0 -36.1558051271246,-9.92199226137418,0 -36.1558303434859,-9.92199910161146,0 -36.1558559954008,-9.92200740426399,0 -36.1558795822072,-9.92201531908272,0 -36.155903162343,-9.9220205802014,0 -36.1559287044763,-9.92202428503085,0 -36.1559517380397,-9.92202938885087,0 -36.155975397111,-9.92202763463241,0 -36.1560021072217,-9.92203219231301,0 -36.1560242579831,-9.92203161302828,0 -36.1560475872436,-9.92202688729468,0 -36.1560711063275,-9.92201952874522,0 -36.1561028043034,-9.92201778415004,0 -36.1561389191698,-9.92202755664567,0 -36.156163169711,-9.92204063881214,0 -36.1561832954609,-9.92205302434753,0 -36.1562101843038,-9.92206573166029,0 -36.156233637834,-9.92207714905775,0 -36.1562733995188,-9.92209879166628,0 -36.15629299212,-9.92211816141986,0 -36.1563129654818,-9.92213406879288,0 -36.156331688053,-9.92215192240426,0 -36.1563498335687,-9.92216988875038,0 -36.1563711062044,-9.92218503794548,0 -36.1563914527274,-9.92220383573756,0 -36.1564090826331,-9.92222078305404,0 -36.1564277977894,-9.9222339362564,0 -36.1564492205523,-9.92224710888662,0 -36.1564728926217,-9.92226042295033,0 -36.1564905722563,-9.92227414444331,0 -36.1565059978309,-9.92228238993515,0 -36.1565280910531,-9.92229187273146,0 -36.1565504093571,-9.92230000922124,0 -36.1565739562663,-9.92230696315642,0 -36.1565978861722,-9.92231604499872,0 -36.1566223224539,-9.92232309314757,0 -36.1566464307099,-9.92233003744843,0 -36.1566675777112,-9.92233902201566,0 -36.156687261255,-9.92234822635194,0 -36.1567059442975,-9.92235393862654,0 -36.1567291187297,-9.92236078002492,0 -36.1567509182511,-9.92236904486341,0 -36.1567725783528,-9.92237936492461,0 -36.1567899223734,-9.92238600931747,0 -36.1568095965024,-9.92239514329908,0 -36.1568264834599,-9.92240336666551,0 -36.1568472113603,-9.92241456874446,0 -36.1568682804453,-9.92242558708995,0 -36.1568871092953,-9.9224362738406,0 -36.1569080743418,-9.92244271308518,0 -36.1569326598397,-9.92244985703034,0 -36.1569500285652,-9.9224560268473,0 -36.1569694582198,-9.92246322947301,0 -36.156992889202,-9.92247156541682,0 -36.1570136764859,-9.92248097029727,0 -36.1570352192766,-9.92248816853214,0 -36.1570591833147,-9.92249711592558,0 -36.1570792248691,-9.92250725678603,0 -36.1571018289913,-9.92251489233965,0 -36.1571217264749,-9.9225206047358,0 -36.1571405620022,-9.92252590531898,0 -36.1571812966602,-9.92254347636683,0 -36.1572039172602,-9.92255009650774,0 -36.1572268869326,-9.92255570811287,0 -36.1572501058592,-9.92255970803716,0 -36.1572735301567,-9.92256597579428,0 -36.1572974719341,-9.92257469054186,0 -36.1573142798814,-9.92258489359246,0 -36.1573457468549,-9.92259399882185,0 -36.1573796875989,-9.92260381985361,0 -36.1574199297405,-9.92261615325887,0 -36.1574466220981,-9.92262838432581,0 -36.1574783113324,-9.92263951421858,0 -36.1575134505103,-9.92265686378029,0 -36.1575313546998,-9.92266964937616,0 -36.1575439051617,-9.92267603833198,0 -36.1575601821943,-9.92267477559903,0 -36.1575760319543,-9.92267390444039,0 -36.1575879134606,-9.92265244170235,0 -36.1575965466259,-9.92261127983063,0 -36.1576075777771,-9.92257514022747,0 -36.1576145791189,-9.92252751399525,0 -36.1576209636674,-9.9224796014344,0 -36.1576270603703,-9.92242912575825,0 -36.1576298531574,-9.9223917549089,0 -36.1576351117832,-9.92235045209767,0 -36.1576409647672,-9.92230554128049,0 -36.157645313165,-9.92226235637978,0 -36.1576477278562,-9.9222167410975,0 -36.1576539394545,-9.92217357233906,0 -36.1576588278277,-9.92213018404325,0 -36.1576652971768,-9.92208499890979,0 -36.1576673358975,-9.92204451106659,0 -36.1576707565106,-9.92200103117924,0 -36.157675236304,-9.92196010572998,0 -36.1576789764473,-9.92192016587888,0 -36.1576691969891,-9.92187352104349,0 -36.1576798819693,-9.92183614390034,0 -36.1576779049542,-9.92179260924105,0 -36.1576928313994,-9.92174630288303,0 -36.1577004727511,-9.92171233616259,0 -36.1577071700476,-9.92166444159534,0 -36.1577034984068,-9.92162521647969,0 -36.1577126569095,-9.92157510106327,0 -36.1577185862762,-9.92153988843388,0 -36.1577223366585,-9.92149357285578,0 -36.1577291998044,-9.92144663843615,0 -36.1577346479857,-9.92139960738511,0 -36.157735941966,-9.92136335012353,0 -36.1577382878338,-9.92131539176957,0 -36.1577412281026,-9.92127754921767,0 -36.1577482984944,-9.92123901812252,0 -36.1577664779596,-9.92118741880784,0 -36.1577772036927,-9.92115073085948,0 -36.1577919095614,-9.92110714651898,0 -36.1577916616282,-9.92108130159361,0 -36.1577017952523,-9.9210849338304,0 -36.1576631822762,-9.92108870347486,0 -36.157620151053,-9.92109264708314,0 -36.1575712596183,-9.92109685901901,0 -36.1575196486259,-9.92110169787563,0 -36.1574651808822,-9.92110771497461,0 -36.1574089415533,-9.92111376347406,0 -36.1573562706819,-9.92112026432074,0 -36.1573074511876,-9.92112475647218,0 -36.157253718881,-9.92112992133369,0 -36.1571955562335,-9.92113497699134,0 -36.1571350736026,-9.92114033034693,0 -36.1570732772354,-9.92114523406324,0 -36.1570111154444,-9.92115207594707,0 -36.1569473418213,-9.92115742887417,0 -36.1568826627178,-9.9211627596408,0 -36.1568167869116,-9.92116876525216,0 -36.1567493928848,-9.92117508247037,0 -36.1566804543439,-9.92118118552154,0 -36.1566088526393,-9.92118882306855,0 -36.1565346237153,-9.92119650585212,0 -36.1564579004145,-9.92120424510143,0 -36.1563791314712,-9.92121238083845,0 -36.156298926355,-9.92122013108825,0 -36.1562178411596,-9.92122858999651,0 -36.1561361862957,-9.92123604838866,0 -36.1560528511909,-9.92124306704212,0 -36.155969438429,-9.92125114616617,0 -36.1558914443666,-9.92125951699139,0 -36.1558208155361,-9.92126646783733,0 -36.1557627942972,-9.92127110445418,0 -36.1557125653457,-9.92127474784883,0 -36.1556616556478,-9.92127882975231,0 -36.1556080298314,-9.92128233861061,0 -36.1555541688613,-9.92128819540278,0 -36.155511416385,-9.92129598377685,0 -36.1554574998608,-9.92129866298114,0 -36.1554115469491,-9.9213017007844,0 -36.15536511515,-9.92130881923935,0 -36.1553146719047,-9.92131418804903,0 -36.1552595002703,-9.92132054443776,0 -36.1552011414398,-9.9213268736338,0 -36.1551423158235,-9.92133118525673,0 -36.1550861905627,-9.92133794205966,0 -36.1550315802095,-9.92134415696468,0 -36.154979581458,-9.92134816639579,0 -36.1549300806877,-9.92135263740793,0 -36.154875108802,-9.9213680738625,0 -36.1548248603806,-9.92136561176335,0 -36.1547744781273,-9.92137155592736,0 -36.1547200581139,-9.92138008532047,0 -36.1546651234908,-9.92138556471309,0 -36.1546094694206,-9.92139111682932,0 -36.1545520922571,-9.92139646521051,0 -36.1544965039396,-9.9213963844291,0 -36.1544394535906,-9.92140223827938,0 -36.1543825937781,-9.92140978572357,0 -36.154329742066,-9.921417087344,0 -36.1542808713891,-9.9214238661017,0 -36.1542630949769,-9.92142661773741,0</coordinates></LinearRing></outerBoundaryIs></Polygon></MultiGeometry>
  </Placemark>
</Folder>
</Document></kml>
