<?xml version="1.0" encoding="utf-8" ?>
<kml xmlns="http://www.opengis.net/kml/2.2">
<Document id="root_doc">
<Schema name="NOVO_TALHAO_1049_ID_1108" id="NOVO_TALHAO_1049_ID_1108">
	<SimpleField name="TALHAO" type="string"></SimpleField>
	<SimpleField name="FAZENDA" type="string"></SimpleField>
	<SimpleField name="ZONA" type="string"></SimpleField>
	<SimpleField name="ID" type="float"></SimpleField>
	<SimpleField name="AREA_TOTAL" type="float"></SimpleField>
	<SimpleField name="FAZ_NOME" type="string"></SimpleField>
	<SimpleField name="CODE" type="string"></SimpleField>
</Schema>
<Folder><name>NOVO_TALHAO_1049_ID_1108</name>
  <Placemark id="NOVO_TALHAO_1049_ID_1108.1">
	<Style><LineStyle><color>ff0000ff</color></LineStyle><PolyStyle><fill>0</fill></PolyStyle></Style>
	<ExtendedData><SchemaData schemaUrl="#NOVO_TALHAO_1049_ID_1108">
		<SimpleData name="TALHAO">1049</SimpleData>
		<SimpleData name="FAZENDA">1943</SimpleData>
		<SimpleData name="ZONA">1</SimpleData>
		<SimpleData name="ID">1108</SimpleData>
		<SimpleData name="AREA_TOTAL">8.72</SimpleData>
		<SimpleData name="FAZ_NOME">NOVO</SimpleData>
		<SimpleData name="CODE"></SimpleData>
	</SchemaData></ExtendedData>
      <MultiGeometry><Polygon><outerBoundaryIs><LinearRing><coordinates>-36.1499964921419,-9.93219425068716,0 -36.1499908306989,-9.9332361430389,0 -36.1507421758032,-9.93339816991939,0 -36.1541770077725,-9.93369338408182,0 -36.1556361514045,-9.93368012022247,0 -36.1562404297903,-9.93337860924636,0 -36.1563299624286,-9.93331914469668,0 -36.1564665960615,-9.93209077083077,0 -36.1531373937919,-9.9325224420945,0 -36.1530929603082,-9.93262271239298,0 -36.1529561418892,-9.9327401669029,0 -36.15277939468,-9.93272985913213,0 -36.1526807503252,-9.9326863939602,0 -36.1525799995712,-9.9326040208229,0 -36.1524779766118,-9.9326039317801,0 -36.152465124552,-9.93261044575751,0 -36.1524533868435,-9.93262221871021,0 -36.1524368314127,-9.93264441587842,0 -36.1524146728091,-9.93267516132025,0 -36.1523797904898,-9.93271847034625,0 -36.1522993173691,-9.93279405597329,0 -36.1521624095632,-9.93281714452698,0 -36.1520860169509,-9.93280174859314,0 -36.1519991675002,-9.93277512564398,0 -36.1518932826108,-9.93271517925188,0 -36.151890217726,-9.93271208764073,0 -36.1517889716215,-9.9326937255806,0 -36.1517269737398,-9.93267505241803,0 -36.1516946090835,-9.93266748376446,0 -36.1516783835469,-9.93266259467424,0 -36.1516587990753,-9.93265942669789,0 -36.1516145776294,-9.93264759417854,0 -36.1516051387813,-9.93264389198885,0 -36.1515850842144,-9.93264314963258,0 -36.1515497280948,-9.93263728076545,0 -36.151512804061,-9.93263095412707,0 -36.1514799953301,-9.93262208249713,0 -36.151462544033,-9.93261838121384,0 -36.1514531134877,-9.93261679412409,0 -36.1514001808438,-9.93261012732976,0 -36.1512894388944,-9.93257232446529,0 -36.1511950361809,-9.93253132310125,0 -36.1511710975099,-9.93251821382523,0 -36.1511456168118,-9.93250794376347,0 -36.1511094192192,-9.93248534643184,0 -36.1510837171717,-9.93247152319881,0 -36.1510375200275,-9.93244335854522,0 -36.1510146621382,-9.93243015541613,0 -36.1510028445465,-9.93242227293343,0 -36.1509910709345,-9.93241628031798,0 -36.1509826029234,-9.93241140869708,0 -36.150951128778,-9.93239869060668,0 -36.150878243042,-9.93235315752289,0 -36.1508700568678,-9.93234740234346,0 -36.1508008296526,-9.9323117159132,0 -36.1507966184856,-9.93230745836569,0 -36.1499964921419,-9.93219425068716,0</coordinates></LinearRing></outerBoundaryIs></Polygon></MultiGeometry>
  </Placemark>
</Folder>
</Document></kml>
