<?xml version="1.0" encoding="utf-8" ?>
<kml xmlns="http://www.opengis.net/kml/2.2">
<Document id="root_doc">
<Schema name="NOVO_TALHAO_1006_ID_879" id="NOVO_TALHAO_1006_ID_879">
	<SimpleField name="TALHAO" type="string"></SimpleField>
	<SimpleField name="FAZENDA" type="string"></SimpleField>
	<SimpleField name="ZONA" type="string"></SimpleField>
	<SimpleField name="ID" type="float"></SimpleField>
	<SimpleField name="AREA_TOTAL" type="float"></SimpleField>
	<SimpleField name="FAZ_NOME" type="string"></SimpleField>
	<SimpleField name="CODE" type="string"></SimpleField>
</Schema>
<Folder><name>NOVO_TALHAO_1006_ID_879</name>
  <Placemark id="NOVO_TALHAO_1006_ID_879.1">
	<Style><LineStyle><color>ff0000ff</color></LineStyle><PolyStyle><fill>0</fill></PolyStyle></Style>
	<ExtendedData><SchemaData schemaUrl="#NOVO_TALHAO_1006_ID_879">
		<SimpleData name="TALHAO">1006</SimpleData>
		<SimpleData name="FAZENDA">1943</SimpleData>
		<SimpleData name="ZONA">1</SimpleData>
		<SimpleData name="ID">879</SimpleData>
		<SimpleData name="AREA_TOTAL">0.66</SimpleData>
		<SimpleData name="FAZ_NOME">NOVO</SimpleData>
		<SimpleData name="CODE"></SimpleData>
	</SchemaData></ExtendedData>
      <MultiGeometry><Polygon><outerBoundaryIs><LinearRing><coordinates>-36.1575963321888,-9.89062134961511,0 -36.1575834830992,-9.89137344213042,0 -36.1576199466833,-9.89137438533641,0 -36.1576479348071,-9.89137373280959,0 -36.1576805478387,-9.89137267979424,0 -36.1577154732784,-9.89137142662225,0 -36.1577524711778,-9.89137138916463,0 -36.1577899369862,-9.89137040111758,0 -36.157828338249,-9.89136751162124,0 -36.1578653738848,-9.89136390257008,0 -36.1579017268443,-9.89135993369552,0 -36.1579372055223,-9.8913557114253,0 -36.1579731280376,-9.89135118682906,0 -36.1580099379554,-9.89134605740159,0 -36.1580448912767,-9.8913372405433,0 -36.1580789162073,-9.89132658001204,0 -36.1581097024828,-9.89131313678292,0 -36.1581360332365,-9.89129849228483,0 -36.1581592600363,-9.89127576276349,0 -36.1581857206179,-9.89125622323896,0 -36.1582052970254,-9.8912341452829,0 -36.1582256232099,-9.89120696542486,0 -36.1582431510876,-9.89118338855243,0 -36.1582566215105,-9.8911543071362,0 -36.158272883366,-9.89112060949848,0 -36.1583281183776,-9.89058537556945,0 -36.1582909545963,-9.89057946357202,0 -36.1582598009553,-9.89057666476248,0 -36.1582268758651,-9.89057366902643,0 -36.158190408059,-9.89057027926024,0 -36.1581539377592,-9.89056651220533,0 -36.1581174663504,-9.89056255650542,0 -36.1580816349173,-9.89055856537867,0 -36.1580461164605,-9.89055522897563,0 -36.1580228546393,-9.89055387746264,0 -36.157987133578,-9.89055176806783,0 -36.1579497559516,-9.8905494939736,0 -36.157911993225,-9.89054866993383,0 -36.1578740379476,-9.8905485710546,0 -36.1578379262501,-9.89054392635566,0 -36.157801223285,-9.89053998899167,0 -36.157763337967,-9.89053746603138,0 -36.1577258207611,-9.89054014051238,0 -36.1576884874735,-9.89054541375564,0 -36.1576566351233,-9.89056695062384,0 -36.1576234421877,-9.89058687955604,0 -36.1575963321888,-9.89062134961511,0</coordinates></LinearRing></outerBoundaryIs></Polygon></MultiGeometry>
  </Placemark>
</Folder>
</Document></kml>
