<?xml version="1.0" encoding="utf-8" ?>
<kml xmlns="http://www.opengis.net/kml/2.2">
<Document id="root_doc">
<Schema name="NOVO_TALHAO_1014_ID_935" id="NOVO_TALHAO_1014_ID_935">
	<SimpleField name="TALHAO" type="string"></SimpleField>
	<SimpleField name="FAZENDA" type="string"></SimpleField>
	<SimpleField name="ZONA" type="string"></SimpleField>
	<SimpleField name="ID" type="float"></SimpleField>
	<SimpleField name="AREA_TOTAL" type="float"></SimpleField>
	<SimpleField name="FAZ_NOME" type="string"></SimpleField>
	<SimpleField name="CODE" type="string"></SimpleField>
</Schema>
<Folder><name>NOVO_TALHAO_1014_ID_935</name>
  <Placemark id="NOVO_TALHAO_1014_ID_935.1">
	<Style><LineStyle><color>ff0000ff</color></LineStyle><PolyStyle><fill>0</fill></PolyStyle></Style>
	<ExtendedData><SchemaData schemaUrl="#NOVO_TALHAO_1014_ID_935">
		<SimpleData name="TALHAO">1014</SimpleData>
		<SimpleData name="FAZENDA">1943</SimpleData>
		<SimpleData name="ZONA">1</SimpleData>
		<SimpleData name="ID">935</SimpleData>
		<SimpleData name="AREA_TOTAL">19.02</SimpleData>
		<SimpleData name="FAZ_NOME">NOVO</SimpleData>
		<SimpleData name="CODE"></SimpleData>
	</SchemaData></ExtendedData>
      <MultiGeometry><Polygon><outerBoundaryIs><LinearRing><coordinates>-36.14098097904,-9.89927897247007,0 -36.1410122099602,-9.90706107946006,0 -36.1410269664812,-9.90706714795014,0 -36.1410429991122,-9.90707109025046,0 -36.1410633033794,-9.9070650195445,0 -36.1410876850831,-9.90705712825598,0 -36.1411229183357,-9.90703075436273,0 -36.1411605815877,-9.90700256150117,0 -36.1411982449153,-9.90697436855167,0 -36.1412359081339,-9.90694617560431,0 -36.1412533828202,-9.90693309493058,0 -36.1412957705702,-9.90688688534691,0 -36.1413175365797,-9.90686315692631,0 -36.1413393024434,-9.9068394285587,0 -36.1413610683297,-9.90681570016073,0 -36.1413828342127,-9.9067919717604,0 -36.1414046000925,-9.90676824335779,0 -36.1414263659913,-9.90674451501808,0 -36.1414481318416,-9.90672078663589,0 -36.1414695716423,-9.90669741369619,0 -36.1414908371553,-9.90667159755339,0 -36.1415124091208,-9.9066454093512,0 -36.1415339812026,-9.90661922111249,0 -36.1415555532383,-9.90659303283363,0 -36.141577125308,-9.90656684459592,0 -36.1415986972398,-9.90654065640758,0 -36.1416202693071,-9.90651446815933,0 -36.1416418413282,-9.9064882798709,0 -36.1416634132684,-9.90646209165201,0 -36.141685096309,-9.90643576866291,0 -36.1417079198669,-9.9064091251767,0 -36.1417306299744,-9.90638261431841,0 -36.1417533399015,-9.90635610346713,0 -36.1417760498867,-9.90632959263032,0 -36.1417987598296,-9.90630308174638,0 -36.1418214698072,-9.90627657090435,0 -36.1418441798571,-9.90625005998853,0 -36.1418668898035,-9.90622354916879,0 -36.1418895997311,-9.90619703827444,0 -36.1419128385042,-9.90616991010583,0 -36.1419388232273,-9.90614457118471,0 -36.1419642254114,-9.90611980013866,0 -36.1419896277761,-9.90609502908907,0 -36.1420150299753,-9.90607025810437,0 -36.1420404321716,-9.90604548702632,0 -36.1420658345248,-9.90602071596763,0 -36.1420912367127,-9.90599594497385,0 -36.1421166390348,-9.905971173932,0 -36.1421420411924,-9.90594640286474,0 -36.1421671151485,-9.90592195201535,0 -36.1421901872885,-9.90589705748761,0 -36.1422135710712,-9.90587182669495,0 -36.1422369548293,-9.90584659583278,0 -36.1422603386264,-9.90582136501127,0 -36.1422837223982,-9.90579613421062,0 -36.1423071061662,-9.90577090340729,0 -36.1423304899096,-9.90574567253444,0 -36.1423538736921,-9.90572044170225,0 -36.1423772575644,-9.90569521086565,0 -36.1423999239951,-9.90567075403507,0 -36.142420205315,-9.90564299628693,0 -36.1424411086865,-9.9056143872944,0 -36.1424620119183,-9.90558577835968,0 -36.1424829152818,-9.9055571693624,0 -36.142503818619,-9.90552856039325,0 -36.142524721854,-9.90549995152009,0 -36.1425456251897,-9.90547134253739,0 -36.1425665284017,-9.90544273359088,0 -36.1425874317453,-9.90541412458178,0 -36.1426083290312,-9.90538552394502,0 -36.1426305226799,-9.90535507662423,0 -36.1426527223472,-9.90532462094847,0 -36.1426749220389,-9.90529416531962,0 -36.1426971217112,-9.90526370970849,0 -36.1427193213791,-9.90523325409468,0 -36.1427415210425,-9.90520279847821,0 -36.1427637207014,-9.90517234285907,0 -36.1427859203558,-9.90514188723724,0 -36.1428081200198,-9.90511143168271,0 -36.1428303196504,-9.90508097607595,0 -36.1428521384017,-9.9050509820431,0 -36.1428739675551,-9.90502097384236,0 -36.1428957965849,-9.90499096576633,0 -36.1429176257146,-9.90496095758111,0 -36.1429394548338,-9.9049309494018,0 -36.1429612838505,-9.904900941318,0 -36.1429831129672,-9.90487093312502,0 -36.1430049420875,-9.90484092500765,0 -36.1430267710619,-9.90481091686712,0 -36.143048525292,-9.90478101168312,0 -36.1430681999876,-9.90475314807909,0 -36.1430879480166,-9.9047251805713,0 -36.143107696148,-9.90469721295157,0 -36.1431274442686,-9.90466924533984,0 -36.1431471924004,-9.90464127779408,0 -36.1431669404979,-9.90461331020021,0 -36.1431866886223,-9.90458534265019,0 -36.1432064367125,-9.90455737505203,0 -36.1432261848295,-9.90452940749771,0 -36.1432464159559,-9.90450075566677,0 -36.1432669143687,-9.9044767816622,0 -36.1432868680081,-9.9044534447941,0 -36.1433068216446,-9.90443010792401,0 -36.143326775278,-9.9044067710519,0 -36.1433467287907,-9.90438343420827,0 -36.1433666824665,-9.90436009736518,0 -36.1433866360689,-9.9043367605131,0 -36.1434065896905,-9.90431342363294,0 -36.1434265433092,-9.9042900867508,0 -36.1434466380769,-9.90426658478132,0 -36.1434706082741,-9.90423987469175,0 -36.1434944333675,-9.90421332628468,0 -36.1435182584375,-9.90418677780704,0 -36.1435420835432,-9.90416022937175,0 -36.1435659086247,-9.90413368095626,0 -36.1435897337022,-9.90410713253796,0 -36.1436135587758,-9.90408058411684,0 -36.1436373838259,-9.90405403562515,0 -36.1436612089118,-9.90402748717587,0 -36.1436841075388,-9.904001971079,0 -36.1437047574642,-9.90397034075419,0 -36.1437261647089,-9.9039375504031,0 -36.1437475719372,-9.90390475997787,0 -36.1437689790741,-9.90387196963158,0 -36.1437903863237,-9.90383917924306,0 -36.1438117935377,-9.90380638880997,0 -36.1438332007706,-9.90377359842701,0 -36.1438546078761,-9.90374080808907,0 -36.1438760150949,-9.90370801761853,0 -36.1438972640558,-9.90367546963806,0 -36.1439170115431,-9.9036429912346,0 -36.1439369093897,-9.90361026552752,0 -36.1439568072317,-9.90357753981812,0 -36.143976704959,-9.90354481413706,0 -36.1439966028111,-9.90351208839148,0 -36.1440165006396,-9.90347936267504,0 -36.1440363984635,-9.90344663695621,0 -36.1440562962828,-9.9034139112351,0 -36.1440761940976,-9.90338118551162,0 -36.1440959679469,-9.9033486636633,0 -36.1441169955458,-9.90331192399014,0 -36.1441275685756,-9.90329345057205,0 -36.1441381415158,-9.90327497723628,0 -36.1441487145941,-9.90325650381627,0 -36.1441706358504,-9.90321820260966,0 -36.1441990613323,-9.90317220977165,0 -36.1441946984272,-9.90308159943297,0 -36.1418815457717,-9.8988290968037,0 -36.14098097904,-9.89927897247007,0</coordinates></LinearRing></outerBoundaryIs></Polygon></MultiGeometry>
  </Placemark>
</Folder>
</Document></kml>
