<?xml version="1.0" encoding="utf-8" ?>
<kml xmlns="http://www.opengis.net/kml/2.2">
<Document id="root_doc">
<Schema name="NOVO_TALHAO_1058_ID_894" id="NOVO_TALHAO_1058_ID_894">
	<SimpleField name="TALHAO" type="string"></SimpleField>
	<SimpleField name="FAZENDA" type="string"></SimpleField>
	<SimpleField name="ZONA" type="string"></SimpleField>
	<SimpleField name="ID" type="float"></SimpleField>
	<SimpleField name="AREA_TOTAL" type="float"></SimpleField>
	<SimpleField name="FAZ_NOME" type="string"></SimpleField>
	<SimpleField name="CODE" type="string"></SimpleField>
</Schema>
<Folder><name>NOVO_TALHAO_1058_ID_894</name>
  <Placemark id="NOVO_TALHAO_1058_ID_894.1">
	<Style><LineStyle><color>ff0000ff</color></LineStyle><PolyStyle><fill>0</fill></PolyStyle></Style>
	<ExtendedData><SchemaData schemaUrl="#NOVO_TALHAO_1058_ID_894">
		<SimpleData name="TALHAO">1058</SimpleData>
		<SimpleData name="FAZENDA">1943</SimpleData>
		<SimpleData name="ZONA">1</SimpleData>
		<SimpleData name="ID">894</SimpleData>
		<SimpleData name="AREA_TOTAL">3.32</SimpleData>
		<SimpleData name="FAZ_NOME">NOVO</SimpleData>
		<SimpleData name="CODE"></SimpleData>
	</SchemaData></ExtendedData>
      <MultiGeometry><Polygon><outerBoundaryIs><LinearRing><coordinates>-36.149928777942,-9.93649635473088,0 -36.1499308366038,-9.93631105167124,0 -36.1499274207705,-9.93631044169188,0 -36.149893911644,-9.93630290616052,0 -36.1498637811932,-9.93629951101825,0 -36.1498441873235,-9.93629546389421,0 -36.1498128627571,-9.93629028395342,0 -36.1497980235316,-9.93628825523665,0 -36.1497899930368,-9.936284432209,0 -36.1497682189528,-9.93627751796827,0 -36.1497558606525,-9.93627221202892,0 -36.1497207788081,-9.93625960627211,0 -36.1496819114643,-9.936252817257,0 -36.149631601774,-9.93624671473111,0 -36.149592458267,-9.9362492239517,0 -36.1495799342308,-9.9362508505722,0 -36.1495619633009,-9.93625078991643,0 -36.1495503660325,-9.93625165709426,0 -36.1495259182808,-9.93624616311935,0 -36.1495003555209,-9.93624138349286,0 -36.149475523837,-9.93623663352005,0 -36.1494697942219,-9.9362357101365,0 -36.1494556350316,-9.93622937632707,0 -36.1494538575905,-9.93622867788728,0 -36.1494297377694,-9.93618754138535,0 -36.1493827139863,-9.93613834989867,0 -36.1493625731915,-9.93612493777653,0 -36.1493541347078,-9.93611158064598,0 -36.1493140794028,-9.9360684146066,0 -36.1492758133936,-9.93603418866452,0 -36.1492725045288,-9.9360316136929,0 -36.1492620603415,-9.93601286450625,0 -36.1492209773879,-9.93597200109772,0 -36.149212393461,-9.93596459238477,0 -36.1491984199101,-9.93594451333561,0 -36.1491656086169,-9.93591025868375,0 -36.1491391734369,-9.9358895000638,0 -36.1491330469621,-9.93588444897523,0 -36.1491164173378,-9.93586547590768,0 -36.1490910542197,-9.93584116801881,0 -36.1490820968297,-9.93583314918352,0 -36.1490781357993,-9.93582147821959,0 -36.1490613239273,-9.93579167857304,0 -36.1490608717165,-9.93579054654325,0 -36.1490549837246,-9.93577111171545,0 -36.1490469968715,-9.93575130612937,0 -36.1490408792997,-9.93573269712724,0 -36.1490368191131,-9.93571980184671,0 -36.1490349638751,-9.93571219757051,0 -36.149032132141,-9.93569354949706,0 -36.1490286853194,-9.9356732812425,0 -36.1490252167317,-9.93564581437657,0 -36.1490167328632,-9.93560461329765,0 -36.149006187173,-9.93557181595368,0 -36.1489967530524,-9.93554140451989,0 -36.14898456919,-9.93551126958631,0 -36.1489742244181,-9.9354859561729,0 -36.1489612160987,-9.93545624192299,0 -36.148951086602,-9.93543691186354,0 -36.1489490931643,-9.93543219930225,0 -36.1489445290671,-9.9354161902962,0 -36.1489331974431,-9.93538244152351,0 -36.1489204285738,-9.93535507838322,0 -36.1489123244092,-9.93533684371025,0 -36.1488974904327,-9.9353010842172,0 -36.1488727151449,-9.93525923755955,0 -36.1488483450262,-9.93522457029669,0 -36.1488323242084,-9.93520627120137,0 -36.1488248828831,-9.93519594469851,0 -36.1488127323004,-9.9351790721836,0 -36.148801399608,-9.93516333325991,0 -36.1487727768051,-9.9351207914997,0 -36.148752568916,-9.93510562249034,0 -36.1487418630935,-9.9350916037383,0 -36.1487086421146,-9.93506095554473,0 -36.1486864136943,-9.93504264032962,0 -36.1486650119139,-9.93502584143106,0 -36.1486452757057,-9.93501117665281,0 -36.1486111180139,-9.93498495993986,0 -36.1485693064154,-9.93496574646324,0 -36.1485510026334,-9.93495762906686,0 -36.1485403742651,-9.93495244797288,0 -36.148532149639,-9.93494783279826,0 -36.148490502075,-9.93491966506782,0 -36.148449408976,-9.93490445054323,0 -36.1484148514482,-9.93488932778742,0 -36.148388765301,-9.93488252177386,0 -36.1483572600451,-9.93487370170531,0 -36.1483360754253,-9.93486864684147,0 -36.1483208012557,-9.9348651506693,0 -36.1483018520537,-9.93485912285104,0 -36.1482623229435,-9.93484855142884,0 -36.1482367841238,-9.93484436303589,0 -36.1482073185983,-9.93483768090286,0 -36.1481743625683,-9.93483292545076,0 -36.1481424222079,-9.93482725039306,0 -36.1480978053446,-9.93482229661433,0 -36.1480582462599,-9.93482281707098,0 -36.1480271752644,-9.93482376754174,0 -36.1479950143379,-9.93482700108208,0 -36.1479693670176,-9.93482994165719,0 -36.1479405123434,-9.9348337564188,0 -36.1479149566766,-9.93483907546191,0 -36.147892074172,-9.93484372853192,0 -36.1478584927986,-9.93485174404187,0 -36.1478187790371,-9.93486476679982,0 -36.147786012475,-9.93487865768366,0 -36.1477669837212,-9.93488744394645,0 -36.1477373925894,-9.93489970146483,0 -36.1477049062493,-9.93491789987895,0 -36.1476847928978,-9.93492900217021,0 -36.1476640635202,-9.93494016748156,0 -36.1476496369603,-9.93494788138451,0 -36.1476339524628,-9.93495484869544,0 -36.1476106161679,-9.93496511652946,0 -36.1475897142273,-9.934974343593,0 -36.1475640757222,-9.9349850226172,0 -36.147542946207,-9.93499496226912,0 -36.1475365298081,-9.93499752365008,0 -36.1475138116372,-9.93500397066378,0 -36.147490659956,-9.9350136696494,0 -36.1474883423994,-9.93501420230404,0 -36.147462134403,-9.93501942989502,0 -36.1474388759028,-9.93502574358605,0 -36.1474130014152,-9.93503269615747,0 -36.1474081212434,-9.93503465346737,0 -36.1473935432499,-9.93503253453876,0 -36.1473742867646,-9.93503030598746,0 -36.1473388231051,-9.93502843110236,0 -36.1473181280078,-9.93502798411276,0 -36.1472961658492,-9.93502703101638,0 -36.1472644447981,-9.93502737233572,0 -36.1472339508135,-9.93502872280792,0 -36.1472173423045,-9.93503014523389,0 -36.1471884739332,-9.93502984328697,0 -36.1471597868862,-9.93502737480569,0 -36.147138307252,-9.9350220438489,0 -36.1471238949439,-9.93501493469935,0 -36.1471106115213,-9.93500599673632,0 -36.1471046574008,-9.93499579132887,0 -36.1471111253847,-9.93496167103647,0 -36.1471164846221,-9.93491056370298,0 -36.1471152937968,-9.93486890892428,0 -36.1471133555427,-9.93481260376376,0 -36.1471044339969,-9.93476877407747,0 -36.1470994024007,-9.93473646183191,0 -36.1470904118442,-9.9346934124891,0 -36.1470777536795,-9.93465650296557,0 -36.1470638321262,-9.93461846752018,0 -36.1470481060236,-9.93458871479199,0 -36.1470397464017,-9.93456870198441,0 -36.147024440089,-9.93453728393457,0 -36.1470071005428,-9.93450714016352,0 -36.1469905912606,-9.93447848682705,0 -36.1469712742926,-9.93445098254051,0 -36.1469541370792,-9.93442939992865,0 -36.146920409452,-9.93438103539313,0 -36.1469046950139,-9.93436042398457,0 -36.1468952560556,-9.9343462719913,0 -36.1468778941655,-9.93431854302811,0 -36.1468651231165,-9.93430277950802,0 -36.1468589827852,-9.93428722437353,0 -36.1468451440225,-9.93425916768704,0 -36.1468386326862,-9.93424529042327,0 -36.1468384532455,-9.93424050900227,0 -36.1468370231021,-9.93420202191321,0 -36.146832193834,-9.93417020907431,0 -36.1468313901954,-9.93415621403738,0 -36.1468304451266,-9.93413386676599,0 -36.1468309828756,-9.93411060149937,0 -36.1468331161865,-9.93406955639871,0 -36.1468276026429,-9.93402413503919,0 -36.14682696962,-9.93401334231679,0 -36.14682750933,-9.93398417278219,0 -36.1468218854529,-9.93394043858685,0 -36.1468211653593,-9.93390239569122,0 -36.1468159730208,-9.93386691239097,0 -36.1468125559006,-9.93384053659107,0 -36.1468022532194,-9.93377967207523,0 -36.1467937863677,-9.9337472818913,0 -36.1467833812179,-9.93370741346106,0 -36.14676726908,-9.93366461084059,0 -36.1467474960909,-9.93361958798416,0 -36.1467158718783,-9.93357229156828,0 -36.146698894971,-9.93355035344758,0 -36.1466736975582,-9.93351597072786,0 -36.1466336418753,-9.93347928599261,0 -36.1466099502569,-9.93346213761293,0 -36.1466040611987,-9.93345725070109,0 -36.1465878822605,-9.93344106271033,0 -36.1465590229075,-9.93341725518666,0 -36.1465430852758,-9.93340533466366,0 -36.1465316522109,-9.93339523067386,0 -36.1465083256959,-9.93337442770968,0 -36.1464803705808,-9.93334866140251,0 -36.146444551349,-9.9333193075825,0 -36.1464066642474,-9.93329440734422,0 -36.1463720882234,-9.93327268016248,0 -36.1463291786939,-9.93324570003207,0 -36.146294571892,-9.93322906509214,0 -36.146264663469,-9.93321703815619,0 -36.1462400076727,-9.93320636114888,0 -36.1462125929983,-9.93319618642792,0 -36.1461705348075,-9.93317796193385,0 -36.1461271888907,-9.93317241102149,0 -36.1461176368355,-9.93317051074763,0 -36.1461130580803,-9.93316697960787,0 -36.146079476401,-9.93314829218843,0 -36.146069002745,-9.93314272506533,0 -36.1460529877061,-9.93313177324667,0 -36.1460083671359,-9.93310817319252,0 -36.145961245896,-9.93309243983172,0 -36.1459272020838,-9.93308524479489,0 -36.1459079663584,-9.93308100106728,0 -36.145845918416,-9.93306522596744,0 -36.1457319323222,-9.93308767527864,0 -36.1456479495567,-9.93313854109718,0 -36.1456273659021,-9.93315497269216,0 -36.1456103339059,-9.93316449398308,0 -36.1455605175404,-9.93319330112095,0 -36.1455425322387,-9.93321100562309,0 -36.1455348889252,-9.93320181389799,0 -36.1455098320097,-9.93317182013381,0 -36.145498354368,-9.93315346400443,0 -36.1454888861986,-9.93313626751003,0 -36.1454881509329,-9.93313494773804,0 -36.1454877604941,-9.93313356609207,0 -36.1454784432281,-9.93310097270821,0 -36.1454647942559,-9.93306655863417,0 -36.145455972383,-9.93304388970393,0 -36.1454401200809,-9.93300340758273,0 -36.1454036984558,-9.93294639345977,0 -36.1453854686417,-9.93292349460721,0 -36.1453792008885,-9.93291347801614,0 -36.1453729196467,-9.93290124753679,0 -36.1453613686257,-9.93287119157672,0 -36.1453318557276,-9.9328183812319,0 -36.1453165065812,-9.93279737396945,0 -36.145300262475,-9.93277009390345,0 -36.1452872154662,-9.93275456266748,0 -36.1452760498366,-9.93273162353219,0 -36.1452518980448,-9.9326937215155,0 -36.1452418581909,-9.93268239374603,0 -36.1452298509761,-9.93265861432059,0 -36.1452105076357,-9.9326205857704,0 -36.1451811664671,-9.93258605937006,0 -36.1451728472424,-9.93256981019319,0 -36.145133303396,-9.93251544713422,0 -36.1451175759034,-9.93249351323716,0 -36.1451019282004,-9.93247474624832,0 -36.1450911261212,-9.93245936474911,0 -36.1450752009022,-9.93243779588154,0 -36.1450527928342,-9.93240751655715,0 -36.145036220487,-9.93239054290743,0 -36.1450281140258,-9.93237951243625,0 -36.1450026173399,-9.93234785592319,0 -36.1449775198483,-9.93232395458886,0 -36.1449689017982,-9.9323155747742,0 -36.1449497780904,-9.93229257761349,0 -36.1449099593613,-9.93226013343565,0 -36.144869772641,-9.93223243619254,0 -36.1448424991643,-9.93221947015863,0 -36.1448114181633,-9.9322023429715,0 -36.1447847786248,-9.93219471945603,0 -36.1447588398518,-9.93218122537066,0 -36.144722667676,-9.93216767583265,0 -36.1446869472631,-9.93215419961714,0 -36.1446318106954,-9.93214192986685,0 -36.1445905555877,-9.9321385767751,0 -36.1445565404846,-9.93213488131208,0 -36.1445330190366,-9.9321333150226,0 -36.1445245580615,-9.93213225003588,0 -36.144501190344,-9.93212654706536,0 -36.1444761404569,-9.93212067307408,0 -36.1444315271488,-9.93210967072637,0 -36.1444179752819,-9.93210898809291,0 -36.1444020780365,-9.93210290074122,0 -36.1443616570896,-9.93209685451351,0 -36.1443381317487,-9.93209172015257,0 -36.1443169414307,-9.93208610676333,0 -36.1442571500347,-9.93206295801561,0 -36.1442180781043,-9.93205292297218,0 -36.1441900358067,-9.93204638749515,0 -36.1441581054733,-9.93203609510391,0 -36.1441140165301,-9.93202939965011,0 -36.1440906474056,-9.93202358429793,0 -36.1440850546235,-9.93202203910709,0 -36.1440824631363,-9.93202076609318,0 -36.1440556631851,-9.93200705983208,0 -36.1439948431066,-9.93197972771281,0 -36.143937447083,-9.93197404545355,0 -36.1439176125018,-9.93197181910696,0 -36.143870420108,-9.93196454088546,0 -36.1438357123226,-9.93196472945743,0 -36.1438183568865,-9.93196148778299,0 -36.143753712695,-9.93195014009106,0 -36.1436929212858,-9.93194393538377,0 -36.1436680636829,-9.93193935800519,0 -36.1436233694285,-9.93193520839908,0 -36.1435764701834,-9.93193136163238,0 -36.1435288907042,-9.93193203250819,0 -36.1434936018214,-9.93193448685928,0 -36.1434535988334,-9.93193633079921,0 -36.1434030231421,-9.9319433444617,0 -36.1433775423245,-9.93194993835871,0 -36.1433121249116,-9.93195554736736,0 -36.1432746683806,-9.93196729773137,0 -36.1432451902304,-9.93197472066897,0 -36.1431928647229,-9.93199472936711,0 -36.1431521503058,-9.93201329218338,0 -36.1431288007316,-9.93202049590912,0 -36.1430776425878,-9.93204374310633,0 -36.143030782501,-9.93206118895872,0 -36.1429928354206,-9.93209196292464,0 -36.1429611666454,-9.93211342433148,0 -36.1429180775786,-9.93214551648982,0 -36.1428724988205,-9.93219007135987,0 -36.1428510862265,-9.93221886200901,0 -36.1428163685994,-9.93225794961761,0 -36.1427817643047,-9.93230542232508,0 -36.1427515332737,-9.93237626402715,0 -36.142740158907,-9.93240278473222,0 -36.1427211825494,-9.93245173103502,0 -36.1427193097908,-9.93246715210367,0 -36.1426712078366,-9.93253809815425,0 -36.1426551811165,-9.93259753137872,0 -36.1426521810001,-9.932604314057,0 -36.142647472383,-9.93261132695252,0 -36.1426283077642,-9.9326395758062,0 -36.1425912886632,-9.93268808322767,0 -36.1425686061398,-9.93274982560813,0 -36.1425512481522,-9.93279393178451,0 -36.142541600669,-9.93285144856834,0 -36.1425339284223,-9.9328964404977,0 -36.1425286436378,-9.93294345320244,0 -36.1425229288029,-9.93299172108127,0 -36.1425243687578,-9.93305689659885,0 -36.142524261971,-9.93313516127442,0 -36.1425242186736,-9.93320064657146,0 -36.1425301485661,-9.93322452641116,0 -36.1425301252191,-9.93324619140844,0 -36.1425311712674,-9.93327401202157,0 -36.1425318317491,-9.9333444949828,0 -36.1425375237833,-9.93336501503964,0 -36.1425360567461,-9.93339119565524,0 -36.1425355305975,-9.93343637909726,0 -36.1425425144756,-9.93350248496152,0 -36.1425529625605,-9.93354284738882,0 -36.142562888249,-9.93363865502331,0 -36.1425730569536,-9.93366896128378,0 -36.1425809236757,-9.93370484592267,0 -36.1426064364347,-9.9337655064571,0 -36.142611067135,-9.93377810122979,0 -36.1426127238036,-9.93379040781408,0 -36.1426182221267,-9.9338199681895,0 -36.1426184116443,-9.93382585046242,0 -36.1426173116467,-9.93384003445828,0 -36.1426164320059,-9.93384580263364,0 -36.1426015517115,-9.93387736055038,0 -36.1425869101285,-9.93391814070872,0 -36.1425531649755,-9.93403750135018,0 -36.1425475691692,-9.93409821110369,0 -36.1425454228817,-9.93416535042503,0 -36.1425583952559,-9.93421934715809,0 -36.142570766724,-9.93426472686577,0 -36.1426041131069,-9.9343374249915,0 -36.1426307714166,-9.9344048526162,0 -36.1426391397943,-9.93442419014038,0 -36.1426457394145,-9.93444882095165,0 -36.1426546251038,-9.93449293328616,0 -36.1426696677858,-9.93454100391924,0 -36.1426802931861,-9.93457645525709,0 -36.1426863066549,-9.93459711724176,0 -36.1426910920811,-9.93461614245219,0 -36.1426940217376,-9.93462949447617,0 -36.1426960221164,-9.93464640163568,0 -36.1426982304374,-9.93466302071469,0 -36.1426985694385,-9.93467507468926,0 -36.1427006635551,-9.93471424224198,0 -36.1427044467064,-9.93473347390015,0 -36.1426951139686,-9.93477130535087,0 -36.1426924246222,-9.9347846432734,0 -36.142689371317,-9.93479257736692,0 -36.1426761404178,-9.93482549581678,0 -36.1426557117274,-9.93489506903633,0 -36.142640719036,-9.93493143476077,0 -36.1426364928631,-9.93493741870884,0 -36.1426207468878,-9.93495679074757,0 -36.142592128898,-9.93499601400849,0 -36.1425686782278,-9.93503939767724,0 -36.1425633791615,-9.93504921125053,0 -36.1425562435459,-9.9350580967456,0 -36.142555662758,-9.93505899470765,0 -36.1425423137051,-9.93505179676025,0 -36.1425282444216,-9.93504490275901,0 -36.1425254647336,-9.9350423377887,0 -36.1425145685754,-9.93503182824345,0 -36.1425078361127,-9.93502495244667,0 -36.1425070608161,-9.93502392905884,0 -36.1424997177904,-9.93501159286603,0 -36.142499222673,-9.93501017067553,0 -36.1424980386082,-9.93500522046651,0 -36.1424960441192,-9.93499275227035,0 -36.1424930608338,-9.93496905348425,0 -36.1424868121285,-9.93493337054014,0 -36.1424712152935,-9.93487823683071,0 -36.1424705265586,-9.93487337422826,0 -36.1424666840996,-9.9348479565478,0 -36.1424520993652,-9.93479466192064,0 -36.1424409977329,-9.93474734064938,0 -36.1424215753305,-9.93470068077976,0 -36.1424089512295,-9.93467126032281,0 -36.1423956006034,-9.93463721426772,0 -36.1423789293943,-9.93460802854031,0 -36.1423436867047,-9.93453999414473,0 -36.1423381580576,-9.93453166886837,0 -36.1423366353603,-9.93452593898366,0 -36.1423201890816,-9.93449449918388,0 -36.1423101417916,-9.93446944034527,0 -36.1422757337603,-9.93440552367198,0 -36.1422362640989,-9.93435555521547,0 -36.1422140001532,-9.93433144108785,0 -36.1422112739038,-9.93432794193434,0 -36.1421819293989,-9.93428052688942,0 -36.1421232861727,-9.93421928048838,0 -36.1420159374045,-9.9341619086972,0 -36.1418984251714,-9.93416287610168,0 -36.1417991069175,-9.93417513607904,0 -36.1417272942261,-9.93420231808416,0 -36.1416866139194,-9.93421724029691,0 -36.1416381691997,-9.93423365327273,0 -36.1416326668858,-9.93423517104166,0 -36.1416173691514,-9.93423411577893,0 -36.1415936638414,-9.93423108510381,0 -36.1415683516287,-9.93422922240615,0 -36.1415533456981,-9.93422769112589,0 -36.1415319701299,-9.9342243142109,0 -36.1415060994942,-9.93422101463833,0 -36.1414852137456,-9.93421815702672,0 -36.1414591862984,-9.93421413724338,0 -36.1414387814733,-9.93421160207676,0 -36.1414227573326,-9.93420850123576,0 -36.141394752883,-9.93420242498617,0 -36.14136790429,-9.93419813349817,0 -36.1413324914869,-9.93419263236788,0 -36.1412831963334,-9.93419016315209,0 -36.1412384397917,-9.93419824660581,0 -36.1412063079265,-9.93420428948847,0 -36.1411786806835,-9.93421203153685,0 -36.1411570809659,-9.93421685200339,0 -36.1411234589237,-9.93422598187116,0 -36.1410979956375,-9.9342341076461,0 -36.1410647825493,-9.9342455352324,0 -36.1410679832343,-9.93445550859112,0 -36.1410702910834,-9.93445381649837,0 -36.1410918807697,-9.93443623489529,0 -36.1411201707492,-9.9344177206056,0 -36.1411557926296,-9.93440546423477,0 -36.1411754699325,-9.93439918487009,0 -36.1412011823301,-9.93439220282369,0 -36.1412235054848,-9.93438722090886,0 -36.1412481523853,-9.93438031405324,0 -36.1412717504289,-9.93437587608803,0 -36.1412950857955,-9.93437166150506,0 -36.1413137381933,-9.93437259581436,0 -36.1413392976527,-9.93437656630054,0 -36.1413607450132,-9.93437999445727,0 -36.1413858187401,-9.93438543481868,0 -36.141409963959,-9.93439010717807,0 -36.1414338265763,-9.93439307195682,0 -36.1414587312078,-9.93439691833177,0 -36.1414820175131,-9.93440010439391,0 -36.1415060010698,-9.93440316328992,0 -36.1415296609346,-9.93440690108184,0 -36.141552275164,-9.93440920875453,0 -36.1415752530133,-9.93441089967279,0 -36.1415993764337,-9.93441398380583,0 -36.1416317169268,-9.9344162147105,0 -36.1416624033191,-9.93441450325454,0 -36.1416921003645,-9.93440631156925,0 -36.1417477032754,-9.93438747342071,0 -36.1417914104411,-9.93437144091205,0 -36.1418435031123,-9.93435172319173,0 -36.1419104794265,-9.9343434555556,0 -36.1419706584008,-9.93434296015239,0 -36.1420111770433,-9.93436461506337,0 -36.1420366045371,-9.93439117130051,0 -36.1420610721213,-9.93443070621938,0 -36.1420744394983,-9.9344478633216,0 -36.1420971135741,-9.93447242167883,0 -36.1421224562138,-9.9345045053986,0 -36.1421445699145,-9.93454558405499,0 -36.1421542182296,-9.93456964784873,0 -36.1421655649662,-9.93459133905031,0 -36.1421695436663,-9.93460631086427,0 -36.1421860760647,-9.93463120609039,0 -36.1422185270102,-9.9346938512206,0 -36.1422305328694,-9.93471486949841,0 -36.1422401423319,-9.93473937507305,0 -36.1422535014588,-9.93477050854986,0 -36.1422668737189,-9.93480263376212,0 -36.1422753576045,-9.93483879684332,0 -36.1422880363131,-9.93488512668872,0 -36.1422901830278,-9.93489932715662,0 -36.1422924540088,-9.93491536078909,0 -36.142308850592,-9.93497332167261,0 -36.142312771047,-9.9349957093234,0 -36.1423155892962,-9.93501809718726,0 -36.1423191354864,-9.93504026564973,0 -36.1423240028006,-9.93506061443453,0 -36.1423334478677,-9.93508774478209,0 -36.1423552689171,-9.93512440391295,0 -36.1423690517551,-9.93514259720767,0 -36.1423856297938,-9.93515952820365,0 -36.1423998370654,-9.93517323138682,0 -36.1424186142374,-9.93519055812075,0 -36.142438831543,-9.93520262426702,0 -36.1424583779365,-9.9352122020774,0 -36.1424773180309,-9.93522241477643,0 -36.1424959497322,-9.93523374826554,0 -36.1425118304559,-9.93524119053304,0 -36.142529324765,-9.93524402678262,0 -36.142544757914,-9.93524566528984,0 -36.1425583439082,-9.93524452387746,0 -36.142576205424,-9.93524063260711,0 -36.1425903813422,-9.93523869031455,0 -36.1426037977655,-9.93523445680076,0 -36.1426230001931,-9.93522732800904,0 -36.1426555014022,-9.93521501294499,0 -36.1426706690784,-9.93520365389817,0 -36.1426828280713,-9.93519401651717,0 -36.1426911543128,-9.93518421229869,0 -36.1427046130899,-9.93516340354017,0 -36.142716236731,-9.93514892940682,0 -36.1427292981998,-9.93512474019294,0 -36.1427469609851,-9.93509206407153,0 -36.1427656163039,-9.9350664954426,0 -36.1427822421621,-9.93504604088945,0 -36.142801688825,-9.93501850583977,0 -36.1428280099411,-9.93495466223666,0 -36.1428486637999,-9.93488432205963,0 -36.1428591531783,-9.93485822447754,0 -36.1428681273552,-9.934834904815,0 -36.1428730494221,-9.93481049356557,0 -36.1428890099343,-9.93474579543842,0 -36.1428866630853,-9.93471594328294,0 -36.1428819648171,-9.93469205969648,0 -36.1428806663415,-9.93466777376445,0 -36.1428801289387,-9.93464866553748,0 -36.1428768615967,-9.93462407672883,0 -36.1428739770296,-9.9345996965454,0 -36.1428685739502,-9.93457507186512,0 -36.1428623174371,-9.93455019817594,0 -36.1428551810143,-9.93452567782508,0 -36.142844038704,-9.93448850190405,0 -36.1428314750669,-9.93444835342103,0 -36.1428233255314,-9.93440789578168,0 -36.142811849303,-9.93436506480023,0 -36.1427993789918,-9.9343362486283,0 -36.1427720047661,-9.93426701031738,0 -36.142742805246,-9.93420335281035,0 -36.1427350304926,-9.93417483434424,0 -36.1427283334312,-9.93414695829358,0 -36.1427295371407,-9.93410930366691,0 -36.1427331252248,-9.93407037577302,0 -36.1427606884393,-9.93397288121426,0 -36.1427703152343,-9.93394606835336,0 -36.1427904910229,-9.93390327978484,0 -36.1427951734445,-9.93388226602247,0 -36.1427984939184,-9.93386049220247,0 -36.1428008661064,-9.93382990364471,0 -36.1427999217045,-9.9338005916881,0 -36.1427927540305,-9.93376205657988,0 -36.1427890718723,-9.93373470373475,0 -36.1427762265716,-9.93369976660366,0 -36.1427554837778,-9.93365044747027,0 -36.1427490550843,-9.93362112258192,0 -36.1427421202084,-9.93360045428788,0 -36.1427328510626,-9.93351098442007,0 -36.1427223572323,-9.93347044536409,0 -36.1427178712021,-9.93342798309485,0 -36.1427182290352,-9.93339725241567,0 -36.14271984879,-9.93336834613125,0 -36.1427209962741,-9.93334510066991,0 -36.142713833963,-9.93331928024985,0 -36.1427133703278,-9.93326980665314,0 -36.1427123594349,-9.93324292143001,0 -36.1427124027477,-9.9332027079333,0 -36.1427064636999,-9.9331787912821,0 -36.1427064923316,-9.93313540563851,0 -36.1427066019402,-9.93305504019401,0 -36.14270539286,-9.93300031594079,0 -36.1427096936101,-9.93296399135017,0 -36.1427144672224,-9.93292152576153,0 -36.1427213220703,-9.93288132713492,0 -36.1427279012045,-9.93284210325019,0 -36.1427391236867,-9.93281358719165,0 -36.1427531387256,-9.93277543787181,0 -36.1427766863318,-9.93274458260525,0 -36.1427989239783,-9.93271180406022,0 -36.1428126840384,-9.93269131016256,0 -36.1428276433041,-9.93265749014713,0 -36.1428394033864,-9.93261387918149,0 -36.1428807258222,-9.93255293226892,0 -36.142896648681,-9.93251826690818,0 -36.1428994003721,-9.93249560825448,0 -36.1429091087473,-9.93247056711256,0 -36.1429192963016,-9.9324468135789,0 -36.1429415496355,-9.93239466631577,0 -36.1429589271431,-9.93237082656623,0 -36.142993066989,-9.93233238945306,0 -36.1430106544217,-9.93230874197888,0 -36.1430373087914,-9.93228268637264,0 -36.1430673609972,-9.93226030389301,0 -36.1431021416932,-9.9322367335893,0 -36.1431229335041,-9.93221987204419,0 -36.1431477238277,-9.93221064269199,0 -36.1431941041917,-9.93218956661302,0 -36.143217563577,-9.93218232901119,0 -36.1432637901948,-9.93216125303937,0 -36.1433006044759,-9.93214717566901,0 -36.1433246260824,-9.93214112675491,0 -36.1433478937137,-9.93213382754802,0 -36.1434086252295,-9.93212862032278,0 -36.1434387765104,-9.93212081781455,0 -36.1434704880774,-9.93211642016861,0 -36.143504210893,-9.93211486571822,0 -36.143536568369,-9.9321126152526,0 -36.143570239085,-9.93211214049723,0 -36.1436073614994,-9.93211518535465,0 -36.14364287878,-9.93211848293703,0 -36.1436669096489,-9.93212290808078,0 -36.1437284636125,-9.93212919062933,0 -36.1437856021158,-9.9321392207754,0 -36.1438191917414,-9.93214549470049,0 -36.143856827936,-9.93214529022568,0 -36.1438933471787,-9.9321509223909,0 -36.1439181430622,-9.9321537056263,0 -36.1439469115882,-9.93215655374266,0 -36.1439762258682,-9.93216972738065,0 -36.1440002357674,-9.93218200673478,0 -36.1440195661993,-9.93219150240912,0 -36.1440439997333,-9.93219825298478,0 -36.1440779604986,-9.93220670404735,0 -36.1441158607516,-9.93221245967888,0 -36.1441409288666,-9.93222054011316,0 -36.1441743736031,-9.9322283346768,0 -36.1442009601231,-9.93223516303324,0 -36.1442601034043,-9.93225806086715,0 -36.1442950026013,-9.93226730579241,0 -36.1443284389419,-9.9322746032155,0 -36.1443550978783,-9.93227859090557,0 -36.1443795630655,-9.93228795908467,0 -36.144404660455,-9.93228922329376,0 -36.1444331737215,-9.93229625512037,0 -36.1444584395541,-9.93230217975325,0 -36.1444911937158,-9.93231017352206,0 -36.1445154222507,-9.93231322318242,0 -36.1445405026405,-9.93231489328579,0 -36.1445731830507,-9.93231844375008,0 -36.1446042789537,-9.93232097113752,0 -36.1446343203249,-9.93232765636306,0 -36.1446580602132,-9.93233661269833,0 -36.1446840237564,-9.9323463382457,0 -36.1447164795228,-9.93236322266186,0 -36.1447409881059,-9.93237023636121,0 -36.1447587636249,-9.9323800315654,0 -36.1447777795487,-9.93238907189603,0 -36.1447999229318,-9.93240433342871,0 -36.1448204186994,-9.93242103332625,0 -36.144834425808,-9.93243787754592,0 -36.1448505987499,-9.93245360341628,0 -36.1448677144698,-9.93246990340364,0 -36.1448832028954,-9.93248913374197,0 -36.1448964346244,-9.93250713818485,0 -36.1449132179923,-9.93252432797682,0 -36.1449282171594,-9.93254459589966,0 -36.1449428087176,-9.93256435849355,0 -36.1449566790201,-9.93258410897091,0 -36.1449728959337,-9.93260355865394,0 -36.1449851381395,-9.93262063190917,0 -36.145016761388,-9.93266410613142,0 -36.1450282176607,-9.93268648263932,0 -36.1450574026205,-9.9327208252528,0 -36.1450670194959,-9.93273973182348,0 -36.1450820685387,-9.93276953540453,0 -36.1450915486551,-9.93278651231447,0 -36.1451055172065,-9.93280227276776,0 -36.1451164434305,-9.93281941958256,0 -36.1451254309254,-9.93283788388853,0 -36.1451334767927,-9.93285386440226,0 -36.1451508191736,-9.93287450889078,0 -36.1451639216553,-9.93289651298816,0 -36.1451778049295,-9.93291551403371,0 -36.1451956924396,-9.93294752195672,0 -36.1452061036588,-9.932974612172,0 -36.1452202971709,-9.93300224900873,0 -36.1452360460314,-9.93302741752395,0 -36.1452548029373,-9.93305097848612,0 -36.1452766689961,-9.93308520747295,0 -36.1452860260938,-9.9331091027855,0 -36.1452949896421,-9.93313213580329,0 -36.1453055664253,-9.93315880379921,0 -36.1453123604495,-9.93318257050148,0 -36.1453183925937,-9.93320391649894,0 -36.1453291521331,-9.93322322945247,0 -36.1453408167395,-9.93324441523204,0 -36.1453615259584,-9.93327753540259,0 -36.1453944135087,-9.93331690266443,0 -36.1454253111591,-9.93335405970191,0 -36.1454482934131,-9.93337006428594,0 -36.1454696486732,-9.93338415892055,0 -36.1455162621291,-9.93340427357644,0 -36.1455373994295,-9.93340608077698,0 -36.1455605902308,-9.93340275320863,0 -36.1455885864556,-9.9333964013697,0 -36.1456109378484,-9.93338739870958,0 -36.1456459403903,-9.93336381372641,0 -36.1456724133978,-9.93333775403645,0 -36.1457009959564,-9.93332122569984,0 -36.1457299523238,-9.93330503840354,0 -36.145753032027,-9.93328661425526,0 -36.1457992523,-9.93325862004124,0 -36.1458407863061,-9.93325044001685,0 -36.1458655317982,-9.93325673132553,0 -36.1458884141893,-9.93326177957327,0 -36.1459130106748,-9.93326697795606,0 -36.1459359073071,-9.93327462294116,0 -36.1459580609943,-9.93328634014799,0 -36.1459739207858,-9.93329718580588,0 -36.1459918197134,-9.93330669973138,0 -36.1460119538885,-9.93331790393469,0 -36.1460287666877,-9.9333308699844,0 -36.146061962223,-9.93334370927043,0 -36.1460975556077,-9.93335079018015,0 -36.1461213919078,-9.9333538426804,0 -36.1461441102817,-9.93336368692257,0 -36.1461715447425,-9.93337386899269,0 -36.1461939346894,-9.93338356479527,0 -36.1462204946872,-9.93339424525003,0 -36.1462403429836,-9.93340378601541,0 -36.1462745328963,-9.93342528353458,0 -36.146307533083,-9.93344602048782,0 -36.146335857074,-9.93346463564827,0 -36.1463601804328,-9.93348456862358,0 -36.1463853442487,-9.93350776219524,0 -36.1464100885796,-9.93352982960298,0 -36.146427389987,-9.93354511975817,0 -36.1464458062454,-9.93355889417292,0 -36.1464645976682,-9.93357439616579,0 -36.1464805901355,-9.93359039759025,0 -36.1464976199533,-9.93360452943635,0 -36.1465177062202,-9.93361906821159,0 -36.1465368397273,-9.93363659151929,0 -36.1465528673301,-9.93365846174038,0 -36.1465674611217,-9.93367732033475,0 -36.1465867885446,-9.93370622599206,0 -36.1465982438608,-9.93373230964211,0 -36.1466093360224,-9.93376177651502,0 -36.1466173828394,-9.93379260877071,0 -36.1466238525532,-9.93381735890137,0 -36.1466322565641,-9.93386700692738,0 -36.1466354159164,-9.93389139319587,0 -36.1466391803584,-9.93391711866559,0 -36.1466398708104,-9.93395359667418,0 -36.1466450653432,-9.93399399224366,0 -36.1466446408324,-9.93401693494541,0 -36.1466460047078,-9.93404018855839,0 -36.1466503209698,-9.93407574670782,0 -36.1466488586513,-9.93410388155195,0 -36.1466481258869,-9.93413558324323,0 -36.1466493755568,-9.93416513356279,0 -36.1466507361623,-9.93418882818159,0 -36.1466552928633,-9.93421884559617,0 -36.1466563474728,-9.93424722674911,0 -36.1466572295281,-9.93427073056989,0 -36.1466600050627,-9.93429117114679,0 -36.1466694418357,-9.93431305161007,0 -36.1466806615764,-9.93433696367476,0 -36.1466920018175,-9.93435995488991,0 -36.1467007312312,-9.93438206890828,0 -36.1467117074801,-9.93440192447451,0 -36.1467288978344,-9.93442314283413,0 -36.1467418095964,-9.93444376444232,0 -36.146755858722,-9.93446482855743,0 -36.1467727099234,-9.93448693098764,0 -36.1468074563358,-9.93453675647519,0 -36.1468247809002,-9.93455857505371,0 -36.1468363931768,-9.93457510910039,0 -36.1468488024869,-9.93459664652104,0 -36.1468630562953,-9.93462142594553,0 -36.1468733808939,-9.93464261845273,0 -36.146882883007,-9.93466536639788,0 -36.1468967197525,-9.93469154461953,0 -36.1469058192279,-9.93471640557688,0 -36.1469142508486,-9.93474099110271,0 -36.1469200130714,-9.934768582341,0 -36.146924974582,-9.93480044462314,0 -36.1469317434671,-9.93483369883246,0 -36.146933149698,-9.93487454969942,0 -36.1469339845147,-9.93490375195201,0 -36.1469306448852,-9.93493559952122,0 -36.1469245855367,-9.93496756406715,0 -36.146921451626,-9.9349917351882,0 -36.146916440564,-9.93501637345917,0 -36.1469101515607,-9.93504336931411,0 -36.1469058298988,-9.93506685244153,0 -36.146902440715,-9.93508891343888,0 -36.1469031486276,-9.93511185037473,0 -36.1469073837759,-9.93513531988571,0 -36.1469119955677,-9.93515728006918,0 -36.1469224030479,-9.93517350393935,0 -36.1469389257533,-9.93519005689134,0 -36.1469648754819,-9.93521795892191,0 -36.1469871080625,-9.93522773070372,0 -36.1470094335485,-9.93523498197739,0 -36.1470284661101,-9.93523329758477,0 -36.1470502817482,-9.93523143477076,0 -36.1470784072787,-9.93522833977964,0 -36.1471012372512,-9.93522589214974,0 -36.1471255724972,-9.93522189864393,0 -36.1471508706952,-9.93521760928319,0 -36.1471760866466,-9.93521477449197,0 -36.147201993729,-9.93521066801449,0 -36.1472242389403,-9.93521090068949,0 -36.147245863644,-9.93520904865825,0 -36.147269501025,-9.9352080018447,0 -36.1472931679233,-9.93520774719199,0 -36.147312158267,-9.93520857132259,0 -36.1473319850952,-9.93520899956177,0 -36.1473588555606,-9.93521042014798,0 -36.1473697571256,-9.93521168178676,0 -36.1473840627595,-9.93521376112968,0 -36.1474038063392,-9.93521646304736,0 -36.1474206055806,-9.93521712422048,0 -36.1474327602882,-9.93521585727259,0 -36.1474520450005,-9.93521100390333,0 -36.147459360466,-9.93520899962674,0 -36.1474712141655,-9.93520424541859,0 -36.1474867726213,-9.93520006480548,0 -36.1475042172912,-9.93519532932431,0 -36.1475268986155,-9.93519080518585,0 -36.1475472363079,-9.93518613088368,0 -36.1475610562389,-9.93518031889434,0 -36.1475745719969,-9.93517465670972,0 -36.1475957951019,-9.93516863397162,0 -36.1476161030901,-9.93516052716952,0 -36.1476384641047,-9.93515000820436,0 -36.1476620759243,-9.93514017334389,0 -36.1476846386044,-9.93513021315773,0 -36.1477081689601,-9.93511985994103,0 -36.1477302525844,-9.93511005003558,0 -36.1477508112942,-9.9350990572654,0 -36.1477726141017,-9.93508731378267,0 -36.1477940521779,-9.93507548026386,0 -36.147817622763,-9.93506227633959,0 -36.1478406069222,-9.93505275562622,0 -36.1478603218757,-9.93504365252293,0 -36.1478833295835,-9.93503389875968,0 -36.1479085178636,-9.9350256391359,0 -36.1479317192605,-9.93502010121723,0 -36.1479519838673,-9.93501598048972,0 -36.1479713184349,-9.93501195628182,0 -36.1479918794025,-9.93500923800114,0 -36.1480146754855,-9.93500662433612,0 -36.1480391929895,-9.93500415928866,0 -36.1480622655399,-9.93500345349603,0 -36.1480888390003,-9.93500310388843,0 -36.1481161804748,-9.93500613959695,0 -36.148145158877,-9.9350112883879,0 -36.1481738248624,-9.93501542480484,0 -36.148201564667,-9.93502171558631,0 -36.1482236274529,-9.93502533391,0 -36.1482502570605,-9.93503245557279,0 -36.1482723831308,-9.93503949396929,0 -36.1482942576224,-9.93504450092213,0 -36.148311161985,-9.93504853447631,0 -36.1483408126928,-9.9350568353587,0 -36.148354492646,-9.93506040453337,0 -36.1483806815025,-9.93507186507071,0 -36.1484060556335,-9.93508125972799,0 -36.148435753473,-9.93510134544211,0 -36.1484552185402,-9.93511226809362,0 -36.1484735688262,-9.93512121345553,0 -36.148493782377,-9.93513017780422,0 -36.1485158269723,-9.9351403078533,0 -36.1485348481464,-9.93515490699211,0 -36.1485537904615,-9.93516898188369,0 -36.148571602398,-9.93518296301335,0 -36.1485882404742,-9.93519667204468,0 -36.1486061333845,-9.93521317925563,0 -36.1486224867837,-9.93523459324791,0 -36.1486382491239,-9.93524642522323,0 -36.1486514037543,-9.93526597682253,0 -36.1486644220267,-9.93528405670563,0 -36.1486766048208,-9.93530097394927,0 -36.1486890555693,-9.93531825216071,0 -36.1487043775969,-9.93533575310533,0 -36.1487191509966,-9.93535676874995,0 -36.1487338358954,-9.93538157227799,0 -36.1487446500711,-9.93540764148273,0 -36.1487543391064,-9.93542944220274,0 -36.1487635191826,-9.93544911473787,0 -36.1487703042519,-9.93546932262293,0 -36.1487767492962,-9.93549192927533,0 -36.1487859275581,-9.93551362705977,0 -36.1487965783709,-9.93553395196702,0 -36.1488061680649,-9.93555585725167,0 -36.1488155458886,-9.93557880459799,0 -36.1488247930364,-9.93560167604717,0 -36.1488322802996,-9.93562581171806,0 -36.1488401388125,-9.93565025192231,0 -36.1488452656586,-9.9356751500191,0 -36.148848345043,-9.93569953499311,0 -36.1488521687809,-9.93572201969466,0 -36.1488559547777,-9.93574695205419,0 -36.1488610924666,-9.93576801053693,0 -36.148867264155,-9.93578761204989,0 -36.1488755781272,-9.93581290231254,0 -36.1488827764022,-9.93583075242997,0 -36.1488885791129,-9.93584990580143,0 -36.1488963600834,-9.93586938411091,0 -36.1489108213073,-9.93589501717742,0 -36.1489182344103,-9.935916859524,0 -36.1489260743482,-9.93593134292358,0 -36.1489388828121,-9.93594828204008,0 -36.148947129414,-9.93595575156764,0 -36.1489666263983,-9.93597320567,0 -36.1489840625749,-9.93598991642669,0 -36.1489984159976,-9.93600629254149,0 -36.1490064998803,-9.93601509705747,0 -36.1490243251569,-9.93602979345372,0 -36.1490423507494,-9.9360439483273,0 -36.1490564946,-9.93605871437085,0 -36.1490683613107,-9.93607576604626,0 -36.1490799831862,-9.93608985383064,0 -36.1490964614606,-9.93610407609518,0 -36.1491149173744,-9.93612243339348,0 -36.1491262590965,-9.93614279383489,0 -36.1491397611275,-9.93615799532012,0 -36.1491583831032,-9.93617248702373,0 -36.1491857121602,-9.93619693073417,0 -36.1492086286339,-9.93622162694028,0 -36.149219459791,-9.93623877140658,0 -36.1492317700472,-9.93625532498437,0 -36.1492443831209,-9.93626387787807,0 -36.1492643399095,-9.93627716747504,0 -36.1492828627049,-9.93629654414701,0 -36.1492928328793,-9.93631354835648,0 -36.1493036721707,-9.93633710096127,0 -36.1493103618884,-9.93635069393623,0 -36.1493284045832,-9.93636564426772,0 -36.1493413481049,-9.93637624018758,0 -36.1493596824465,-9.93638601879575,0 -36.1493845509606,-9.93639579080525,0 -36.1494061906353,-9.93640547085252,0 -36.1494232646103,-9.93641125642243,0 -36.1494436361337,-9.93641453949658,0 -36.149466207757,-9.93641885715314,0 -36.1494888780035,-9.9364230959523,0 -36.1495204161173,-9.93643018329986,0 -36.1495439669446,-9.93643332231209,0 -36.1495685157759,-9.93643148669482,0 -36.1495915109257,-9.93643156431128,0 -36.1496101916568,-9.93642913806335,0 -36.1496263702138,-9.93642810097027,0 -36.1496550181243,-9.9364315759432,0 -36.1496735688319,-9.93643481622533,0 -36.1496885425292,-9.93644019664013,0 -36.1497040614836,-9.93644685958429,0 -36.1497224400164,-9.93645269559025,0 -36.1497386699219,-9.93646042206287,0 -36.149761374975,-9.93646562817276,0 -36.149785420272,-9.93646891548448,0 -36.1498105997352,-9.93647307925331,0 -36.1498348464579,-9.93647808743002,0 -36.1498633747389,-9.93648130204266,0 -36.1498910955884,-9.93648753591035,0 -36.1499164364559,-9.93649206113654,0 -36.149928777942,-9.93649635473088,0</coordinates></LinearRing></outerBoundaryIs></Polygon></MultiGeometry>
  </Placemark>
</Folder>
</Document></kml>
