<?xml version="1.0" encoding="utf-8" ?>
<kml xmlns="http://www.opengis.net/kml/2.2">
<Document id="root_doc">
<Schema name="NOVO_TALHAO_1020_ID_1146" id="NOVO_TALHAO_1020_ID_1146">
	<SimpleField name="TALHAO" type="string"></SimpleField>
	<SimpleField name="FAZENDA" type="string"></SimpleField>
	<SimpleField name="ZONA" type="string"></SimpleField>
	<SimpleField name="ID" type="float"></SimpleField>
	<SimpleField name="AREA_TOTAL" type="float"></SimpleField>
	<SimpleField name="FAZ_NOME" type="string"></SimpleField>
	<SimpleField name="CODE" type="string"></SimpleField>
</Schema>
<Folder><name>NOVO_TALHAO_1020_ID_1146</name>
  <Placemark id="NOVO_TALHAO_1020_ID_1146.1">
	<Style><LineStyle><color>ff0000ff</color></LineStyle><PolyStyle><fill>0</fill></PolyStyle></Style>
	<ExtendedData><SchemaData schemaUrl="#NOVO_TALHAO_1020_ID_1146">
		<SimpleData name="TALHAO">1020</SimpleData>
		<SimpleData name="FAZENDA">1943</SimpleData>
		<SimpleData name="ZONA">1</SimpleData>
		<SimpleData name="ID">1146</SimpleData>
		<SimpleData name="AREA_TOTAL">0.16</SimpleData>
		<SimpleData name="FAZ_NOME">NOVO</SimpleData>
		<SimpleData name="CODE"></SimpleData>
	</SchemaData></ExtendedData>
      <MultiGeometry><Polygon><outerBoundaryIs><LinearRing><coordinates>-36.1532373518178,-9.90765752034043,0 -36.1533152456056,-9.90780820808625,0 -36.1533205387048,-9.90779171330752,0 -36.1533270012606,-9.90776483474453,0 -36.1533337608313,-9.90773474991589,0 -36.1533439340638,-9.90770412438716,0 -36.1533571296078,-9.90767699759983,0 -36.1533661340333,-9.90765124537495,0 -36.1533705361741,-9.90762276337927,0 -36.1533812413625,-9.90759346004037,0 -36.1533908345731,-9.90756680828699,0 -36.153399027033,-9.90754069883129,0 -36.1534029722255,-9.90751296540448,0 -36.15341061203,-9.907484258974,0 -36.153414812732,-9.90745697063304,0 -36.1534171791042,-9.90742611332773,0 -36.1534246067018,-9.90739506407169,0 -36.1534328126814,-9.90736675441063,0 -36.1534387659081,-9.90733887420093,0 -36.1534454762472,-9.90730979212768,0 -36.1534505925464,-9.9072803282763,0 -36.1534576781784,-9.90725119809428,0 -36.1534644239416,-9.90722170864838,0 -36.1534721892954,-9.90719331068633,0 -36.1534792377951,-9.90716422723204,0 -36.1534872077386,-9.90713564179806,0 -36.1534948081187,-9.90710729034945,0 -36.1535030395358,-9.90707793733294,0 -36.153513671394,-9.90704996652639,0 -36.1535247990655,-9.90702334579728,0 -36.1535339348043,-9.90699627601244,0 -36.1535438952929,-9.9069681538388,0 -36.1535564236268,-9.90695037115655,0 -36.1535693367628,-9.90692409551128,0 -36.1535825937152,-9.90689761138548,0 -36.1535955097411,-9.90687520281118,0 -36.1536041652339,-9.90684793854306,0 -36.1536148532228,-9.90682029369818,0 -36.1536257830146,-9.90679273296166,0 -36.1536369204527,-9.90676512322204,0 -36.1536484162274,-9.90673713175934,0 -36.1536612109951,-9.90670946927565,0 -36.1536724062091,-9.90668150315565,0 -36.1536848089884,-9.90665330676233,0 -36.1536970064641,-9.90662616642235,0 -36.1537089441134,-9.90659867768325,0 -36.1537201376988,-9.90657121013557,0 -36.1537316918416,-9.90654362497728,0 -36.1537437531761,-9.90651682121615,0 -36.1537545948623,-9.90648965714313,0 -36.1537644433777,-9.90646278356651,0 -36.1537723722103,-9.90643206748029,0 -36.1537797567106,-9.90640544176518,0 -36.1537824899786,-9.90637888480939,0 -36.153781077159,-9.90635159379155,0 -36.1537772202801,-9.90632442932478,0 -36.1537703702397,-9.90629717920887,0 -36.1537628344408,-9.90626916728816,0 -36.1537536876836,-9.90624191275783,0 -36.1537433847533,-9.90621477993913,0 -36.1537330700857,-9.90618836355361,0 -36.1537185139547,-9.90616324863979,0 -36.153714829896,-9.90615586240653,0 -36.1537112191882,-9.90619040864932,0 -36.153708531733,-9.90622706406707,0 -36.1537061158306,-9.90626300707997,0 -36.1537039807527,-9.90629365614978,0 -36.1537010955916,-9.90632000759499,0 -36.1536973796439,-9.90634992396592,0 -36.1536918617243,-9.90638085881158,0 -36.1536850930397,-9.90640999166028,0 -36.1536776898838,-9.90643895181267,0 -36.1536696206939,-9.90646733215904,0 -36.1536612881775,-9.90649492636134,0 -36.1536522401816,-9.90652160679941,0 -36.1536427948383,-9.9065486571537,0 -36.153633421645,-9.9065749491753,0 -36.1536244153173,-9.90660130021117,0 -36.1536146495574,-9.90662785524413,0 -36.1536049471508,-9.90665437318942,0 -36.1535943664613,-9.9066813611793,0 -36.1535840301073,-9.9067083798526,0 -36.1535733861123,-9.90673486918191,0 -36.1535633226668,-9.90676049262235,0 -36.1535530045722,-9.90678598278218,0 -36.1535426831149,-9.90681191550135,0 -36.1535323626942,-9.90683731938462,0 -36.1535223475042,-9.90686322790353,0 -36.1535120459075,-9.90688967362969,0 -36.1535013492549,-9.90691553654244,0 -36.1534906915788,-9.90694129682782,0 -36.153480214731,-9.90696672027516,0 -36.1534705431525,-9.90699281256829,0 -36.1534599411653,-9.90701834559729,0 -36.1534502499288,-9.90704355817489,0 -36.1534399784668,-9.90707002913631,0 -36.1534294754826,-9.90709793560601,0 -36.1534191826606,-9.90712651377894,0 -36.1534084184613,-9.90715574640382,0 -36.1533977954907,-9.90718407680452,0 -36.153388195997,-9.90721106751295,0 -36.1533780831467,-9.9072382733894,0 -36.1533684779116,-9.90726556859369,0 -36.1533586932284,-9.90729134626116,0 -36.1533500654305,-9.90731564533579,0 -36.153342850572,-9.90733645468397,0 -36.1533357543282,-9.90735670951872,0 -36.1533287906731,-9.90737579885797,0 -36.1533153030623,-9.90741205198531,0 -36.1533087678146,-9.90742969502797,0 -36.1532956111808,-9.90746337364912,0 -36.153289444106,-9.90748000852961,0 -36.1532834133621,-9.90749652547487,0 -36.1532721609396,-9.90752799359018,0 -36.153262053369,-9.90755671500541,0 -36.1532534628513,-9.90758530671484,0 -36.1532467105254,-9.90761485271065,0 -36.1532373518178,-9.90765752034043,0</coordinates></LinearRing></outerBoundaryIs></Polygon></MultiGeometry>
  </Placemark>
</Folder>
</Document></kml>
