<?xml version="1.0" encoding="utf-8" ?>
<kml xmlns="http://www.opengis.net/kml/2.2">
<Document id="root_doc">
<Schema name="NOVO_TALHAO_1054_ID_1113" id="NOVO_TALHAO_1054_ID_1113">
	<SimpleField name="TALHAO" type="string"></SimpleField>
	<SimpleField name="FAZENDA" type="string"></SimpleField>
	<SimpleField name="ZONA" type="string"></SimpleField>
	<SimpleField name="ID" type="float"></SimpleField>
	<SimpleField name="AREA_TOTAL" type="float"></SimpleField>
	<SimpleField name="FAZ_NOME" type="string"></SimpleField>
	<SimpleField name="CODE" type="string"></SimpleField>
</Schema>
<Folder><name>NOVO_TALHAO_1054_ID_1113</name>
  <Placemark id="NOVO_TALHAO_1054_ID_1113.1">
	<Style><LineStyle><color>ff0000ff</color></LineStyle><PolyStyle><fill>0</fill></PolyStyle></Style>
	<ExtendedData><SchemaData schemaUrl="#NOVO_TALHAO_1054_ID_1113">
		<SimpleData name="TALHAO">1054</SimpleData>
		<SimpleData name="FAZENDA">1943</SimpleData>
		<SimpleData name="ZONA">1</SimpleData>
		<SimpleData name="ID">1113</SimpleData>
		<SimpleData name="AREA_TOTAL">13.20</SimpleData>
		<SimpleData name="FAZ_NOME">NOVO</SimpleData>
		<SimpleData name="CODE"></SimpleData>
	</SchemaData></ExtendedData>
      <MultiGeometry><Polygon><outerBoundaryIs><LinearRing><coordinates>-36.1417643826896,-9.93054419359289,0 -36.1424110804873,-9.93072659062646,0 -36.1423603845037,-9.93100554440419,0 -36.1430226560316,-9.93123993804002,0 -36.1444455537711,-9.93170576837765,0 -36.146035972886,-9.93228332306179,0 -36.1481137157001,-9.93283133730302,0 -36.1499544264884,-9.93322829246017,0 -36.1499600733817,-9.93218909785124,0 -36.1466838340623,-9.93172553141078,0 -36.1466495549213,-9.93173579491637,0 -36.1466090565334,-9.93174643434453,0 -36.1465751772364,-9.9317525364834,0 -36.1465431681209,-9.93175848316737,0 -36.1465257070589,-9.93176097256119,0 -36.1465169913094,-9.93176476449338,0 -36.1464756526221,-9.93177840404126,0 -36.1464504291378,-9.93178521109307,0 -36.1464383154614,-9.93178911990881,0 -36.14642671244,-9.93179294715453,0 -36.1464000538228,-9.93180396653456,0 -36.1463671501706,-9.93181399359862,0 -36.1463195840931,-9.93182921436714,0 -36.1462726582838,-9.93183392038982,0 -36.146221951261,-9.93184148673397,0 -36.146175045227,-9.93183617185043,0 -36.1461554853632,-9.93183530701679,0 -36.146110587542,-9.93183052643286,0 -36.1460642316795,-9.93181927011521,0 -36.1460605148614,-9.93181816024946,0 -36.1460091337353,-9.93181033357123,0 -36.145952608261,-9.93179606388717,0 -36.1459000988311,-9.93178280803223,0 -36.1458275737167,-9.93175967386521,0 -36.1458048081735,-9.93174649991085,0 -36.1457711250067,-9.93173536895209,0 -36.1457475322035,-9.93172016533416,0 -36.145722019468,-9.93171269302745,0 -36.1456892059657,-9.93169998448484,0 -36.1456746316474,-9.93169402533748,0 -36.1456410120805,-9.9316848909223,0 -36.1455744559406,-9.93166167823787,0 -36.1455387964493,-9.93164193205441,0 -36.1455065756067,-9.93162892410366,0 -36.1454844814288,-9.93161535246726,0 -36.1454503655021,-9.93160223995819,0 -36.1453990186594,-9.93156504320262,0 -36.1453910715486,-9.93155858541101,0 -36.1453735866978,-9.93154982134355,0 -36.1453391215563,-9.93153383948978,0 -36.1453284363471,-9.93152818354653,0 -36.1453170086888,-9.93152370850936,0 -36.1452708408761,-9.93150504248176,0 -36.1452279685289,-9.93147905329867,0 -36.1452136788468,-9.93146884485666,0 -36.145181709528,-9.93145199909184,0 -36.1451611618262,-9.93143309835005,0 -36.1451284698122,-9.93142175816375,0 -36.1450766309782,-9.93138553838534,0 -36.1450508772379,-9.93136624852089,0 -36.1450253023136,-9.93134903720827,0 -36.144996141583,-9.93132383439663,0 -36.1449740177746,-9.93131172483006,0 -36.1449462325816,-9.93129512348218,0 -36.1448949537862,-9.93126370677962,0 -36.1448733072599,-9.93124686700886,0 -36.1448662856936,-9.9312417692773,0 -36.1448607432328,-9.93123827688536,0 -36.1448248348064,-9.93122047256616,0 -36.1447935724039,-9.93119556927166,0 -36.1447820421316,-9.93118793430729,0 -36.144743343448,-9.93116340069136,0 -36.1447183285839,-9.93114080598271,0 -36.1446914360922,-9.93112223283705,0 -36.1446794245184,-9.93111056039094,0 -36.1446669465956,-9.93110305743112,0 -36.1446238092362,-9.93106814567095,0 -36.1445901400055,-9.93103327489095,0 -36.1445825490627,-9.93102446090064,0 -36.1445533373267,-9.93099933278862,0 -36.1445270153622,-9.93096214548119,0 -36.1445090217649,-9.93094092103039,0 -36.1444955207877,-9.93091892752068,0 -36.1444848809564,-9.9309047909719,0 -36.1444545975371,-9.93086172878898,0 -36.1444382015121,-9.9308244915423,0 -36.1444232622431,-9.93079494551518,0 -36.1444084666202,-9.93075149806545,0 -36.1444026936578,-9.9307323907671,0 -36.1443975019642,-9.93071747959083,0 -36.144388505703,-9.93069025611053,0 -36.1443867133128,-9.93068329836459,0 -36.1443733748516,-9.93066533349967,0 -36.1443711716963,-9.93066180010654,0 -36.1443584389435,-9.93064932885331,0 -36.1442780658415,-9.93059543590193,0 -36.1442425031088,-9.93056819747179,0 -36.144226612313,-9.9305522735266,0 -36.1441382060294,-9.93048275845182,0 -36.1440773855194,-9.9304500772378,0 -36.143968055617,-9.9303524451318,0 -36.1439045000987,-9.93028091402478,0 -36.1438788156761,-9.9302492360088,0 -36.143834941477,-9.93021726788419,0 -36.143798761985,-9.93018528122453,0 -36.1437929533141,-9.93018009374309,0 -36.1437521380552,-9.93015569709205,0 -36.1437053475007,-9.93011121225092,0 -36.1436367473517,-9.9300528430459,0 -36.1436051644282,-9.93002069233088,0 -36.1435548894789,-9.92997624394844,0 -36.1435288544717,-9.929953524019,0 -36.1434985260449,-9.92992595153286,0 -36.1434918095596,-9.92991861439588,0 -36.1434697383369,-9.92990453261884,0 -36.1434403293914,-9.92987817530622,0 -36.1434271915211,-9.92986622503924,0 -36.1434165244121,-9.92985697025101,0 -36.143393259222,-9.92983735209624,0 -36.1433738289837,-9.92981643944549,0 -36.1433527717616,-9.92979879845594,0 -36.1433279850937,-9.92977317654247,0 -36.143311585771,-9.92975950154594,0 -36.1432809667368,-9.92973007259252,0 -36.1432695757089,-9.92971740662415,0 -36.1432593549848,-9.92970929200021,0 -36.1432258226586,-9.92967962644001,0 -36.1432109031903,-9.92966571010141,0 -36.1432035678326,-9.92965945217068,0 -36.1431601643481,-9.9296282843489,0 -36.1431446832868,-9.92960944953971,0 -36.1430840897589,-9.92956905075584,0 -36.1430533055223,-9.92952882166746,0 -36.1430526092101,-9.929528190764,0 -36.1430314113079,-9.92951183624617,0 -36.1430105546475,-9.92949274784501,0 -36.1430087701465,-9.92949130935198,0 -36.1429873485277,-9.9294786254012,0 -36.1429588501196,-9.92945397954856,0 -36.1429444930789,-9.92944229251218,0 -36.1429151493197,-9.92941730624332,0 -36.1428831726033,-9.92938490949461,0 -36.1428642089663,-9.9293630370589,0 -36.1428519545208,-9.92935121410864,0 -36.1428149494716,-9.92931766881986,0 -36.1427845568482,-9.92927593564617,0 -36.1427492336468,-9.92922686528293,0 -36.1427386820239,-9.92920673541421,0 -36.142731920274,-9.92919793322454,0 -36.1427049294247,-9.92916021214344,0 -36.1426931983937,-9.92913832316861,0 -36.1426827936786,-9.92912324918185,0 -36.1426614207903,-9.9290903149202,0 -36.1426484917037,-9.92906641105681,0 -36.1426449716801,-9.9290609350362,0 -36.1426289921814,-9.92904161030099,0 -36.1425853945767,-9.92897552641598,0 -36.1425559958361,-9.92895147708627,0 -36.1425201320313,-9.9288972416148,0 -36.1425030405786,-9.92886883345325,0 -36.142491508257,-9.92884904446209,0 -36.1424775676636,-9.92882794761899,0 -36.1424616502084,-9.92880172119028,0 -36.1424472951715,-9.92877814931532,0 -36.1424228413572,-9.92873691660761,0 -36.1424100163026,-9.92870376235095,0 -36.1424092973707,-9.92870231851199,0 -36.1423990605698,-9.92868658092108,0 -36.1423747824049,-9.92864619323656,0 -36.1423571248086,-9.92860520964104,0 -36.1423469389971,-9.92858108766904,0 -36.1423300115412,-9.92854350636237,0 -36.1423162243833,-9.9284969950775,0 -36.1423065844481,-9.92845024857485,0 -36.1423037941692,-9.92841902588562,0 -36.1423020017264,-9.92840560938508,0 -36.1422970277972,-9.92839437825828,0 -36.1422863721526,-9.92835960584125,0 -36.1422733623626,-9.92831235906757,0 -36.1422719412814,-9.9282626890174,0 -36.1422712575631,-9.92825370930522,0 -36.1422708311965,-9.92825130305715,0 -36.1422592097727,-9.92820643156831,0 -36.1422639315919,-9.92806250901952,0 -36.1422631737202,-9.92799574900076,0 -36.1422601649533,-9.92792411433289,0 -36.1422535831199,-9.92786118401041,0 -36.1422578490426,-9.92780309754706,0 -36.1422598930345,-9.92775771968753,0 -36.1422648660589,-9.9277302846029,0 -36.1422659630092,-9.92771997261349,0 -36.142266685182,-9.92770649061664,0 -36.1422676839845,-9.9276752026426,0 -36.1422737086754,-9.92762350096812,0 -36.14228172262,-9.92758955284384,0 -36.1422841156348,-9.92757964861677,0 -36.1422870842944,-9.92756466996597,0 -36.142291183263,-9.92754422490558,0 -36.1422937105567,-9.92752969360052,0 -36.1422987046245,-9.92750015547929,0 -36.1422979506399,-9.92749141700078,0 -36.1423029248967,-9.92740916072023,0 -36.1422951607661,-9.92740459065286,0 -36.1422850175038,-9.92740512408979,0 -36.1422511276526,-9.92740634474248,0 -36.1422307083435,-9.9274060173352,0 -36.1422041199889,-9.92740855430176,0 -36.1421930257716,-9.92741132110675,0 -36.1421590286674,-9.9274156131798,0 -36.142127289326,-9.92741956155296,0 -36.1420941366041,-9.92742273245704,0 -36.1420744212686,-9.92742445978326,0 -36.1420512507078,-9.92742824175706,0 -36.1420153221468,-9.92743125205975,0 -36.1419877013934,-9.92743467471129,0 -36.1419817621988,-9.92743556198123,0 -36.1419534996366,-9.927443375324,0 -36.141890812009,-9.92745267218757,0 -36.141843558496,-9.92745106840808,0 -36.1418228652084,-9.92744976771316,0 -36.141809535874,-9.92744916443371,0 -36.1418065190792,-9.9274491808036,0 -36.1417496203461,-9.92747680298064,0 -36.1417020991112,-9.92748419075665,0 -36.1416874457437,-9.92748784915694,0 -36.1416902358984,-9.92750744510204,0 -36.141689916168,-9.92753563755431,0 -36.1416959868712,-9.92757953621183,0 -36.1416827044216,-9.92765966739897,0 -36.1416670469481,-9.92771295330839,0 -36.141659219151,-9.92773034251038,0 -36.1416564816627,-9.92775164641071,0 -36.1416423870599,-9.92780402218573,0 -36.141622150417,-9.92784938455011,0 -36.1416085755173,-9.92787777122501,0 -36.1415948273616,-9.92791287539641,0 -36.1415677052594,-9.92796163175846,0 -36.1415414520422,-9.92799844576691,0 -36.1415183499267,-9.92802852029082,0 -36.141489988627,-9.92806207495273,0 -36.1414616765525,-9.92808959401313,0 -36.1414442625256,-9.9281064863467,0 -36.1414277611203,-9.92812362815147,0 -36.1414055077205,-9.92814668649749,0 -36.1413844897386,-9.92816712539,0 -36.1413736155712,-9.92817832556079,0 -36.14137290747,-9.92817921070014,0 -36.1413721363071,-9.9281810752382,0 -36.1413605072892,-9.92821661111954,0 -36.1413515007444,-9.92823445772364,0 -36.1413404089197,-9.92827996324325,0 -36.1412120117309,-9.92845889363357,0 -36.1410342813655,-9.9284373936104,0 -36.1410357334401,-9.93003661061337,0 -36.141077490141,-9.93003564647972,0 -36.1411031075491,-9.93003869828688,0 -36.1411273093959,-9.93004590976058,0 -36.1411516352856,-9.93005231970997,0 -36.1411764589927,-9.93006270789095,0 -36.1411993622663,-9.93007558464443,0 -36.1412210976332,-9.93008931264401,0 -36.1412470521261,-9.93010371363481,0 -36.1412707965552,-9.93012335237284,0 -36.1412865448438,-9.93014697847596,0 -36.1413076664743,-9.93017728352168,0 -36.1413209799433,-9.93020176289582,0 -36.1413319330709,-9.93022562479076,0 -36.1413429746172,-9.93024854841705,0 -36.1413545481061,-9.93027130529352,0 -36.1413666546558,-9.9302931435388,0 -36.1413806102348,-9.93031696652794,0 -36.1413891191329,-9.93034156711547,0 -36.1413989785573,-9.93036203803353,0 -36.1414138400377,-9.93038513012631,0 -36.141425761156,-9.93040636206755,0 -36.1414377082981,-9.93042916627894,0 -36.1414463273162,-9.93045183221418,0 -36.1414579158309,-9.93047421350971,0 -36.141469660054,-9.93049605971693,0 -36.1414836587988,-9.93051571875587,0 -36.1414968431524,-9.93053657265876,0 -36.1415112597178,-9.93055751240514,0 -36.1415212723812,-9.9305783917359,0 -36.1415301498223,-9.93059300290523,0 -36.1415437510111,-9.93061332313137,0 -36.1415582808471,-9.93063203776385,0 -36.1415715572319,-9.93065711937426,0 -36.1415734510249,-9.9306637980592,0 -36.1417643826896,-9.93054419359289,0</coordinates></LinearRing></outerBoundaryIs></Polygon></MultiGeometry>
  </Placemark>
</Folder>
</Document></kml>
