<?xml version="1.0" encoding="utf-8" ?>
<kml xmlns="http://www.opengis.net/kml/2.2">
<Document id="root_doc">
<Schema name="NOVO_TALHAO_1038_ID_896" id="NOVO_TALHAO_1038_ID_896">
	<SimpleField name="TALHAO" type="string"></SimpleField>
	<SimpleField name="FAZENDA" type="string"></SimpleField>
	<SimpleField name="ZONA" type="string"></SimpleField>
	<SimpleField name="ID" type="float"></SimpleField>
	<SimpleField name="AREA_TOTAL" type="float"></SimpleField>
	<SimpleField name="FAZ_NOME" type="string"></SimpleField>
	<SimpleField name="CODE" type="string"></SimpleField>
</Schema>
<Folder><name>NOVO_TALHAO_1038_ID_896</name>
  <Placemark id="NOVO_TALHAO_1038_ID_896.1">
	<Style><LineStyle><color>ff0000ff</color></LineStyle><PolyStyle><fill>0</fill></PolyStyle></Style>
	<ExtendedData><SchemaData schemaUrl="#NOVO_TALHAO_1038_ID_896">
		<SimpleData name="TALHAO">1038</SimpleData>
		<SimpleData name="FAZENDA">1943</SimpleData>
		<SimpleData name="ZONA">1</SimpleData>
		<SimpleData name="ID">896</SimpleData>
		<SimpleData name="AREA_TOTAL">7.80</SimpleData>
		<SimpleData name="FAZ_NOME">NOVO</SimpleData>
		<SimpleData name="CODE"></SimpleData>
	</SchemaData></ExtendedData>
      <MultiGeometry><Polygon><outerBoundaryIs><LinearRing><coordinates>-36.1411060932563,-9.92209273365534,0 -36.1411016435532,-9.92260542318275,0 -36.1411265153874,-9.92260757742412,0 -36.1411859272721,-9.92261085847156,0 -36.1412120306124,-9.92261120928372,0 -36.1412327767531,-9.92260852022665,0 -36.1412916407534,-9.92260341672121,0 -36.1413198453819,-9.92260297080714,0 -36.1413466470487,-9.92259891161634,0 -36.1413732865335,-9.92259063847867,0 -36.1414241512833,-9.92257257614772,0 -36.1414636873806,-9.92255708315291,0 -36.1415120529785,-9.92253309098765,0 -36.1415372014098,-9.92251783973032,0 -36.1415604627641,-9.92250199183176,0 -36.1416539835535,-9.92239664435368,0 -36.1416706717489,-9.92235893094701,0 -36.1417028400756,-9.92226704476209,0 -36.1417257874119,-9.92215525640416,0 -36.1417352202444,-9.92209732228085,0 -36.1417664721266,-9.92195696274263,0 -36.1417839137535,-9.92188886550025,0 -36.1417914761265,-9.92182025902643,0 -36.1417911954001,-9.92179364749047,0 -36.1417875838701,-9.92176449084464,0 -36.1417912814753,-9.92170998915205,0 -36.1417968743914,-9.92165152210953,0 -36.1417936742596,-9.92157866240932,0 -36.1418036166485,-9.92152034812493,0 -36.1418062633116,-9.92149216050548,0 -36.141818411919,-9.92141929062333,0 -36.1418316945636,-9.92137734856236,0 -36.1418369106868,-9.92135130688761,0 -36.1418400578682,-9.92130928084671,0 -36.1418458661058,-9.92128109050866,0 -36.1418590828386,-9.92120859347499,0 -36.1418812061038,-9.92109522418979,0 -36.1418869256485,-9.92106753284524,0 -36.1419029250172,-9.9209970756157,0 -36.1419281787662,-9.92092873130728,0 -36.1419765036051,-9.92082436186557,0 -36.1419862965783,-9.92079729993018,0 -36.1420203915052,-9.92074663179407,0 -36.1420339370171,-9.92072204590308,0 -36.142048319469,-9.92069875832888,0 -36.1420585397109,-9.92067373191888,0 -36.1421191868553,-9.92057406148563,0 -36.1421322914523,-9.9205484824873,0 -36.1421529580929,-9.92050993771475,0 -36.1421677661366,-9.92048480995812,0 -36.1422392638698,-9.92037873863373,0 -36.1422496501794,-9.92035685350777,0 -36.1422627761142,-9.92033180984008,0 -36.1422750089653,-9.92030707934306,0 -36.1422926812648,-9.92027478109729,0 -36.1423049777672,-9.920250934179,0 -36.1423186129197,-9.92022824476731,0 -36.1423358523268,-9.92018713668508,0 -36.1423664993482,-9.92015488740378,0 -36.1424417219788,-9.92009589656312,0 -36.1424736146353,-9.92007699651837,0 -36.1425055180681,-9.92005871922122,0 -36.1425314153324,-9.92004691373693,0 -36.1425694208503,-9.9200290794583,0 -36.1426039954583,-9.92000736493861,0 -36.1426253047322,-9.91999045042255,0 -36.1426457915057,-9.91997337575094,0 -36.1427053940384,-9.91992229276167,0 -36.1427201074981,-9.91991004685091,0 -36.1427655341571,-9.91987620863742,0 -36.1428028751518,-9.91986699515691,0 -36.1428521066071,-9.91989417480011,0 -36.1428783059811,-9.91993275207859,0 -36.1428825364644,-9.91996796898122,0 -36.1429643506231,-9.91784338236509,0 -36.1429608091596,-9.91784344522265,0 -36.1429572671292,-9.91784344696437,0 -36.1429537256046,-9.91784338758971,0 -36.1429501856585,-9.91784326711669,0 -36.142946648363,-9.91784308558176,0 -36.1429431147894,-9.91784284303993,0 -36.1429395860079,-9.91784253956464,0 -36.1429360630874,-9.91784217524782,0 -36.1429325470948,-9.91784175019979,0 -36.1429290390949,-9.9178412645493,0 -36.1429255401504,-9.91784071844345,0 -36.1429220513208,-9.91784011204762,0 -36.1429185736628,-9.91783944554547,0 -36.1429151082298,-9.91783871913888,0 -36.1429116560712,-9.91783793304784,0 -36.1429082182328,-9.91783708751046,0 -36.1429047957556,-9.91783618278278,0 -36.1429013896762,-9.91783521913888,0 -36.1428980010263,-9.91783419687057,0 -36.1428946308322,-9.91783311628748,0 -36.1428912801145,-9.91783197771688,0 -36.1428879498882,-9.91783078150363,0 -36.1428846411618,-9.91782952801002,0 -36.1428813549375,-9.91782821761567,0 -36.1428780922105,-9.9178268507175,0 -36.1428748539691,-9.91782542772948,0 -36.142871641194,-9.91782394908258,0 -36.1428684548582,-9.91782241522469,0 -36.1428652959269,-9.91782082662029,0 -36.1428621653567,-9.9178191837506,0 -36.1428590640958,-9.91781748711315,0 -36.1428559930836,-9.9178157372218,0 -36.14285295325,-9.91781393460656,0 -36.1428499455158,-9.91781207981338,0 -36.1428469707919,-9.91781017340403,0 -36.1428440299793,-9.91780821595589,0 -36.1428411239687,-9.91780620806183,0 -36.1428382536402,-9.91780415032997,0 -36.1428354198631,-9.91780204338352,0 -36.1428326234957,-9.91779988786064,0 -36.142829865385,-9.91779768441417,0 -36.1428271463663,-9.91779543371143,0 -36.142824467263,-9.91779313643416,0 -36.1428218288867,-9.91779079327807,0 -36.1428192320364,-9.91778840495287,0 -36.1428166774987,-9.9177859721819,0 -36.1428141660471,-9.91778349570197,0 -36.1428116984423,-9.91778097626314,0 -36.1428092754318,-9.91777841462847,0 -36.1428068977493,-9.9177758115738,0 -36.142804566115,-9.91777316788751,0 -36.1428022812351,-9.91777048437032,0 -36.1428000438015,-9.91776776183495,0 -36.1427978544921,-9.917765001106,0 -36.1427957139697,-9.9177622030196,0 -36.1427936228827,-9.91775936842323,0 -36.1427915818645,-9.91775649817536,0 -36.1427895915331,-9.91775359314533,0 -36.1427876524915,-9.91775065421301,0 -36.1427857653268,-9.91774768226846,0 -36.1427839306107,-9.91774467821182,0 -36.1427821488989,-9.91774164295293,0 -36.1427804207308,-9.91773857741108,0 -36.1427787466301,-9.91773548251472,0 -36.1427771271036,-9.91773235920121,0 -36.1427755626419,-9.91772920841651,0 -36.1427740537189,-9.91772603111488,0 -36.1427726007914,-9.91772282825865,0 -36.1427712042997,-9.91771960081785,0 -36.1427698646665,-9.91771634976999,0 -36.1427685822978,-9.9177130760997,0 -36.1427673575817,-9.91770978079849,0 -36.1427661908894,-9.91770646486439,0 -36.142765082574,-9.9177031293017,0 -36.1427640329714,-9.91769977512066,0 -36.1427630423994,-9.91769640333719,0 -36.1427621111579,-9.91769301497244,0 -36.1427612395292,-9.91768961105268,0 -36.142760427777,-9.91768619260883,0 -36.1427596761474,-9.91768276067625,0 -36.1427589848678,-9.91767931629438,0 -36.1427583541478,-9.91767586050638,0 -36.1427577841783,-9.91767239435894,0 -36.1427572751319,-9.91766891890184,0 -36.1427568271629,-9.91766543518769,0 -36.1427564404069,-9.91766194427158,0 -36.1412784811229,-9.9176844300414,0 -36.1412343814762,-9.91771838600268,0 -36.1411005427296,-9.91782101337163,0 -36.1410808470879,-9.91784287485805,0 -36.1410638648417,-9.91786500472063,0 -36.1410579675276,-9.91788736606166,0 -36.141064517,-9.91794279019627,0 -36.1410627487815,-9.91811195926961,0 -36.1410607106084,-9.9183788957096,0 -36.1410621514503,-9.91930659967104,0 -36.1410971473288,-9.92165605747418,0 -36.1410996989663,-9.9217806094594,0 -36.1411060932563,-9.92209273365534,0</coordinates></LinearRing></outerBoundaryIs></Polygon></MultiGeometry>
  </Placemark>
</Folder>
</Document></kml>
