<?xml version="1.0" encoding="utf-8" ?>
<kml xmlns="http://www.opengis.net/kml/2.2">
<Document id="root_doc">
<Schema name="NOVO_TALHAO_1006_ID_890" id="NOVO_TALHAO_1006_ID_890">
	<SimpleField name="TALHAO" type="string"></SimpleField>
	<SimpleField name="FAZENDA" type="string"></SimpleField>
	<SimpleField name="ZONA" type="string"></SimpleField>
	<SimpleField name="ID" type="float"></SimpleField>
	<SimpleField name="AREA_TOTAL" type="float"></SimpleField>
	<SimpleField name="FAZ_NOME" type="string"></SimpleField>
	<SimpleField name="CODE" type="string"></SimpleField>
</Schema>
<Folder><name>NOVO_TALHAO_1006_ID_890</name>
  <Placemark id="NOVO_TALHAO_1006_ID_890.1">
	<Style><LineStyle><color>ff0000ff</color></LineStyle><PolyStyle><fill>0</fill></PolyStyle></Style>
	<ExtendedData><SchemaData schemaUrl="#NOVO_TALHAO_1006_ID_890">
		<SimpleData name="TALHAO">1006</SimpleData>
		<SimpleData name="FAZENDA">1943</SimpleData>
		<SimpleData name="ZONA">1</SimpleData>
		<SimpleData name="ID">890</SimpleData>
		<SimpleData name="AREA_TOTAL">12.73</SimpleData>
		<SimpleData name="FAZ_NOME">NOVO</SimpleData>
		<SimpleData name="CODE"></SimpleData>
	</SchemaData></ExtendedData>
      <MultiGeometry><Polygon><outerBoundaryIs><LinearRing><coordinates>-36.1547326422041,-9.89224629753476,0 -36.1565706594939,-9.89591988436846,0 -36.1567558805147,-9.89629007621456,0 -36.1567596812182,-9.89626694357747,0 -36.1567599860492,-9.89626589915832,0 -36.1567775055411,-9.89620587344639,0 -36.156777599855,-9.89620558655246,0 -36.1568005594588,-9.89613574560011,0 -36.1568007646798,-9.89613523071455,0 -36.156814868548,-9.89609984506806,0 -36.1568150421717,-9.89609946244707,0 -36.1568314446055,-9.89606331578444,0 -36.1568505190967,-9.89602555156032,0 -36.1568701240836,-9.89598673703216,0 -36.1568706853698,-9.89598588217631,0 -36.156891622237,-9.89595399469067,0 -36.1569116923637,-9.89592342726829,0 -36.1569129288991,-9.89592216589996,0 -36.1569402343442,-9.89589431208339,0 -36.156965547186,-9.89586698930745,0 -36.1569659777386,-9.89586658153728,0 -36.1569928192998,-9.89584116027601,0 -36.1570234504849,-9.89581385097589,0 -36.1570249999277,-9.89581293991159,0 -36.1570880737683,-9.89577585280822,0 -36.1570893892212,-9.89577533170555,0 -36.1571571323862,-9.89574849595993,0 -36.1571578595487,-9.89574827554694,0 -36.1571933387303,-9.89573752131384,0 -36.1572289671453,-9.89572722620651,0 -36.1572291271905,-9.89572718307817,0 -36.1572888876051,-9.89571107906304,0 -36.1572891057331,-9.89571102597142,0 -36.1573260418741,-9.89570203583592,0 -36.1573269240316,-9.89570190992715,0 -36.1573828987334,-9.89569392075221,0 -36.1574398001938,-9.89568563649031,0 -36.1574414586604,-9.89568569549724,0 -36.1575027635199,-9.89568787667024,0 -36.1575582099354,-9.89568302766738,0 -36.15761982031,-9.89566918832901,0 -36.1576838354692,-9.89565157692745,0 -36.1577394272368,-9.89563097475272,0 -36.1577752051432,-9.89561559184469,0 -36.1577846297639,-9.89560917178164,0 -36.1577871754489,-9.89558898468121,0 -36.1578343731508,-9.89526078247423,0 -36.156587487642,-9.89591110754218,0 -36.1565694992566,-9.89587966062882,0 -36.1578399226421,-9.89521705905766,0 -36.158261244526,-9.89137677986512,0 -36.1579169518101,-9.89141207930975,0 -36.1573428807519,-9.89144779038906,0 -36.156927665312,-9.89147112964798,0 -36.1566032570283,-9.89148478015065,0 -36.1562866568922,-9.89150952080075,0 -36.156122301974,-9.89154246304469,0 -36.155892854195,-9.89164308064047,0 -36.1558026968282,-9.89168721221932,0 -36.1554548595309,-9.89186898192014,0 -36.1549914513811,-9.89211900631128,0 -36.1547326422041,-9.89224629753476,0</coordinates></LinearRing></outerBoundaryIs></Polygon></MultiGeometry>
  </Placemark>
</Folder>
</Document></kml>
