<?xml version="1.0" encoding="utf-8" ?>
<kml xmlns="http://www.opengis.net/kml/2.2">
<Document id="root_doc">
<Schema name="NOVO_TALHAO_1051_ID_882" id="NOVO_TALHAO_1051_ID_882">
	<SimpleField name="TALHAO" type="string"></SimpleField>
	<SimpleField name="FAZENDA" type="string"></SimpleField>
	<SimpleField name="ZONA" type="string"></SimpleField>
	<SimpleField name="ID" type="float"></SimpleField>
	<SimpleField name="AREA_TOTAL" type="float"></SimpleField>
	<SimpleField name="FAZ_NOME" type="string"></SimpleField>
	<SimpleField name="CODE" type="string"></SimpleField>
</Schema>
<Folder><name>NOVO_TALHAO_1051_ID_882</name>
  <Placemark id="NOVO_TALHAO_1051_ID_882.1">
	<Style><LineStyle><color>ff0000ff</color></LineStyle><PolyStyle><fill>0</fill></PolyStyle></Style>
	<ExtendedData><SchemaData schemaUrl="#NOVO_TALHAO_1051_ID_882">
		<SimpleData name="TALHAO">1051</SimpleData>
		<SimpleData name="FAZENDA">1943</SimpleData>
		<SimpleData name="ZONA">1</SimpleData>
		<SimpleData name="ID">882</SimpleData>
		<SimpleData name="AREA_TOTAL">7.56</SimpleData>
		<SimpleData name="FAZ_NOME">NOVO</SimpleData>
		<SimpleData name="CODE"></SimpleData>
	</SchemaData></ExtendedData>
      <MultiGeometry><Polygon><outerBoundaryIs><LinearRing><coordinates>-36.1410342482831,-9.92840098716271,0 -36.1411948913971,-9.92842042014416,0 -36.141306635253,-9.92826469733342,0 -36.1413170501065,-9.92822196918316,0 -36.1413266870697,-9.92820287339917,0 -36.1413378941449,-9.92816862689696,0 -36.1413407691319,-9.92816167567804,0 -36.141341787463,-9.92815996325529,0 -36.1413461469676,-9.92815451379593,0 -36.1413585957845,-9.92814169176884,0 -36.1413795748025,-9.92812129076741,0 -36.1414014124572,-9.92809866320549,0 -36.1414183286767,-9.92808109048876,0 -36.1414361756219,-9.92806377820697,0 -36.1414632006992,-9.92803751009627,0 -36.1414898705285,-9.92800595663894,0 -36.1415120665365,-9.92797706169551,0 -36.1415367733834,-9.92794241611358,0 -36.1415617360177,-9.92789754175039,0 -36.1415750788838,-9.92786347244184,0 -36.1415890135992,-9.92783433335641,0 -36.1416079063194,-9.92779198353123,0 -36.141620637506,-9.92774467425049,0 -36.1416237456878,-9.92772048552871,0 -36.1416327519248,-9.92770047846432,0 -36.1416470981993,-9.92765165487662,0 -36.1416591331572,-9.92757904968196,0 -36.1416534427398,-9.92753790092537,0 -36.1416537616527,-9.92750978083812,0 -36.1416480083892,-9.9274693742171,0 -36.1416465618292,-9.92745845093541,0 -36.1416567989708,-9.92745823799936,0 -36.1416948113685,-9.92744874771917,0 -36.1417385368133,-9.92744195004582,0 -36.1417934044432,-9.92741531389002,0 -36.1417971961219,-9.92741309634984,0 -36.1418102676044,-9.92741302542039,0 -36.1418248492945,-9.92741368538043,0 -36.1418453352539,-9.92741497304296,0 -36.1418887222753,-9.92741644559294,0 -36.1419458804468,-9.9274079687713,0 -36.1419741241056,-9.9274001606534,0 -36.141982725555,-9.92739887566281,0 -36.1420115262164,-9.92739530680099,0 -36.1420467491153,-9.92739235562176,0 -36.142069850675,-9.92738858490976,0 -36.1420907827137,-9.9273867509835,0 -36.1421232700802,-9.9273836437166,0 -36.1421544582392,-9.92737976390952,0 -36.1421862544858,-9.92737574968991,0 -36.142199499106,-9.92737244659186,0 -36.1422051012737,-9.92737215921017,0 -36.1422292527912,-9.92736985475697,0 -36.1422507605002,-9.92737019961531,0 -36.1422833905993,-9.92736902433562,0 -36.1423042644871,-9.92736792657121,0 -36.1423283606117,-9.92738210985967,0 -36.1423369170806,-9.92738728370285,0 -36.1423389245076,-9.92738950042713,0 -36.1423404353802,-9.92739263132149,0 -36.1423344894421,-9.92749095590745,0 -36.1423354100541,-9.92750162553903,0 -36.1423296404487,-9.9275357507092,0 -36.1423270198419,-9.92755081855003,0 -36.1423228381908,-9.92757167602929,0 -36.1423197328176,-9.92758734448988,0 -36.1423171874516,-9.92759787927309,0 -36.142309672786,-9.92762971239967,0 -36.1423040631373,-9.92767785237941,0 -36.1423031000864,-9.92770802051933,0 -36.1423023069288,-9.9277228277367,0 -36.1423009714365,-9.92773538217635,0 -36.142296193798,-9.92776173937583,0 -36.1422942354446,-9.92780521611222,0 -36.1422901659313,-9.9278606282722,0 -36.1422965321082,-9.92792149659069,0 -36.1422996107089,-9.92799479371333,0 -36.1423003837947,-9.92806289324361,0 -36.1422958053685,-9.92820244560428,0 -36.1423064827073,-9.92824367186636,0 -36.1423074644054,-9.92824921218768,0 -36.1423083478982,-9.92826081565005,0 -36.142309669628,-9.92830701295728,0 -36.1423213944661,-9.92834959323984,0 -36.1423312694197,-9.92838181802671,0 -36.142337452289,-9.92839577893492,0 -36.1423400278345,-9.92841505697292,0 -36.1423427053751,-9.92844501810383,0 -36.1423516238584,-9.92848826607776,0 -36.1423642879035,-9.9285309884999,0 -36.1423803917532,-9.92856674127682,0 -36.1423906922743,-9.92859113489683,0 -36.1424073392217,-9.92862977274796,0 -36.1424300380025,-9.92866753305731,0 -36.1424410551624,-9.92868447033343,0 -36.1424434419547,-9.92868926375354,0 -36.1424557887846,-9.9287211817345,0 -36.1424786044415,-9.92875965226164,0 -36.1424928639071,-9.92878306719787,0 -36.1425084357131,-9.92880872411198,0 -36.1425225538865,-9.92883008969004,0 -36.1425344705413,-9.92885053817724,0 -36.1425510355669,-9.92887807134496,0 -36.1425834484357,-9.92892708808859,0 -36.1426150878298,-9.92895297035758,0 -36.1426191372459,-9.92896066105226,0 -36.1426584195133,-9.92902020387306,0 -36.1426745362754,-9.92903969460417,0 -36.1426799627873,-9.92904813650374,0 -36.1426928545857,-9.92907197142197,0 -36.1427131630169,-9.92910326541722,0 -36.14272442635,-9.92911958333685,0 -36.1427360125199,-9.92914120201026,0 -36.142761288227,-9.92917652608719,0 -36.1427695754501,-9.92918731407837,0 -36.1427803895216,-9.92920794462943,0 -36.1428141638339,-9.92925486329553,0 -36.1428423057601,-9.9292935059523,0 -36.1428769655941,-9.92932492528618,0 -36.1428907891403,-9.92933826208543,0 -36.142910043599,-9.92936046994856,0 -36.1429400928724,-9.92939091393246,0 -36.1429679321877,-9.92941461916176,0 -36.1429823973671,-9.92942639422481,0 -36.1430088420496,-9.92944926398235,0 -36.1430297182738,-9.9294616249983,0 -36.1430344343874,-9.92946542667508,0 -36.1430550045961,-9.92948425290827,0 -36.1430761303531,-9.92950055176322,0 -36.1430796500506,-9.92950374083421,0 -36.143081227598,-9.92950552677571,0 -36.1431094594985,-9.92954242044576,0 -36.1431604614676,-9.92957642436335,0 -36.143169228652,-9.92958211226618,0 -36.1431854046492,-9.92960179255675,0 -36.1432261824027,-9.92963107485106,0 -36.1432352875502,-9.92963884262168,0 -36.1432504461115,-9.92965298197592,0 -36.1432828947246,-9.92968168878792,0 -36.1432947432657,-9.92969109579692,0 -36.1433072865818,-9.92970504302164,0 -36.1433360295053,-9.92973266878054,0 -36.1433529372587,-9.92974676774346,0 -36.1433777529314,-9.92977241963622,0 -36.1433990915669,-9.92979029638175,0 -36.1434185616387,-9.92981125190263,0 -36.1434403320869,-9.92982960962813,0 -36.1434515145802,-9.92983931156287,0 -36.1434648689762,-9.92985145878129,0 -36.1434919672273,-9.92987574516728,0 -36.1435146930239,-9.92989024457082,0 -36.1435156951079,-9.92989094069693,0 -36.1435243900758,-9.92990043914143,0 -36.1435532127661,-9.92992664271415,0 -36.1435790578386,-9.92994919689104,0 -36.1436219969129,-9.92998715957957,0 -36.1436270890809,-9.92999045265806,0 -36.1436294411968,-9.92999361567442,0 -36.1436617192665,-9.93002647402903,0 -36.1437298462969,-9.93008444066924,0 -36.1437744325002,-9.93012682977929,0 -36.1438134479127,-9.93015015059906,0 -36.1438151171479,-9.93015125510775,0 -36.1438230864145,-9.93015837212629,0 -36.143857912248,-9.93018916199942,0 -36.1439042368766,-9.93022291558015,0 -36.1439323910932,-9.93025763972489,0 -36.1439940116772,-9.93032699307352,0 -36.1440985590338,-9.93042035433422,0 -36.1441583644692,-9.93045249010563,0 -36.1442509778036,-9.93052531323492,0 -36.144266704531,-9.93054107276769,0 -36.1442994364891,-9.93056614303072,0 -36.1443816520086,-9.93062127138089,0 -36.1443998827774,-9.9306391277321,0 -36.1444035999257,-9.93064508924734,0 -36.1444202699848,-9.93066754126061,0 -36.1444235177724,-9.93068014859967,0 -36.144432046784,-9.93070595813236,0 -36.1444373905481,-9.93072130606836,0 -36.1444431989723,-9.93074053073059,0 -36.1444569810231,-9.93078100180535,0 -36.1444712162384,-9.93080915538871,0 -36.1444865564989,-9.93084399486457,0 -36.1445144416357,-9.93088364674942,0 -36.1445257594261,-9.93089868406212,0 -36.1445387097532,-9.93091978054209,0 -36.1445559362472,-9.93094010014866,0 -36.1445806005543,-9.9309749455355,0 -36.1446084940804,-9.93099893971232,0 -36.1446171836619,-9.93100902935192,0 -36.1446485893267,-9.93104155578251,0 -36.1446880220932,-9.93107346935268,0 -36.1447019267941,-9.93108183023143,0 -36.1447147699745,-9.93109431080387,0 -36.1447411137894,-9.93111250500689,0 -36.1447655931184,-9.93113461599068,0 -36.1448019819812,-9.9311576852583,0 -36.1448151487867,-9.93116640387998,0 -36.1448446231875,-9.93118988286943,0 -36.1448787156836,-9.93120678680187,0 -36.1448868487397,-9.93121191156829,0 -36.1448953286439,-9.931218068068,0 -36.1449158474759,-9.93123403055499,0 -36.1449652184561,-9.93126427840375,0 -36.1449922375858,-9.93128042203578,0 -36.1450168071924,-9.93129387031961,0 -36.1450197887703,-9.93129633547015,0 -36.1450475920285,-9.93132036505355,0 -36.1450721097952,-9.93133686492264,0 -36.1450981188086,-9.93135634598788,0 -36.1451453067881,-9.93138931621279,0 -36.1451803754685,-9.93140148081372,0 -36.1452030123815,-9.9314223033086,0 -36.1452329731472,-9.93143809069383,0 -36.1452481564151,-9.93144893750595,0 -36.1452873352633,-9.93147268769078,0 -36.1453305844804,-9.93149017370417,0 -36.1453437630578,-9.93149533439553,0 -36.1453554357628,-9.93150151304403,0 -36.1453895325728,-9.93151732409699,0 -36.1454110826903,-9.93152812582849,0 -36.1454213382171,-9.93153645942929,0 -36.1454680022332,-9.93157026384175,0 -36.1455008047192,-9.93158287152615,0 -36.145523162178,-9.93159660488531,0 -36.1455546140754,-9.9316093024019,0 -36.1455894987539,-9.93162861953699,0 -36.1456518891238,-9.93165037932966,0 -36.1456864406462,-9.93165976695522,0 -36.1457027853655,-9.93166644998353,0 -36.1457338341679,-9.9316784750636,0 -36.1457629457918,-9.93168700143074,0 -36.145787075421,-9.93170255098778,0 -36.1458199170321,-9.93171340384395,0 -36.1458425161519,-9.93172648149163,0 -36.1459101861961,-9.93174806697861,0 -36.1459616013149,-9.93176104657602,0 -36.1460164146254,-9.93177488402789,0 -36.1460590398675,-9.93178137695686,0 -36.1460661525232,-9.93178210576131,0 -36.1460738284972,-9.93178439785627,0 -36.1461168963591,-9.93179485576704,0 -36.1461582457813,-9.93179925852685,0 -36.1461779297098,-9.93180012884528,0 -36.146221297086,-9.93180504276552,0 -36.1462681096063,-9.93179805754504,0 -36.1463120693554,-9.93179364897697,0 -36.1463561984943,-9.93177952799996,0 -36.1463876584459,-9.93176994088864,0 -36.1464139299742,-9.93175908151153,0 -36.1464269230115,-9.93175479577,0 -36.1464399971298,-9.93175057704048,0 -36.1464651042298,-9.93174380139658,0 -36.1465038867014,-9.93173100526162,0 -36.1465154638691,-9.93172596842127,0 -36.1465160351531,-9.93172584515289,0 -36.1465372154467,-9.93172282551409,0 -36.1465685637259,-9.9317170015999,0 -36.1466011192577,-9.93171113788887,0 -36.1466396162153,-9.93170102426,0 -36.1466741040202,-9.93169069827736,0 -36.1467442972037,-9.93166270737499,0 -36.1468334355699,-9.93157483151761,0 -36.1468521229484,-9.93148552424639,0 -36.1468554294376,-9.9314587919557,0 -36.146866485211,-9.93136788238034,0 -36.1467906373801,-9.93124383948577,0 -36.146748653331,-9.93122067133084,0 -36.1467476348594,-9.93121960634579,0 -36.146720728559,-9.93119560038712,0 -36.1467014785007,-9.93117855447284,0 -36.1466621000916,-9.93114403414258,0 -36.1466489670349,-9.93113759802455,0 -36.1466374750763,-9.93112279382409,0 -36.1466156064673,-9.93109733501204,0 -36.1466092626315,-9.93108952696748,0 -36.1466050164183,-9.93108260654492,0 -36.1465870703939,-9.93105190348724,0 -36.1465763162768,-9.93103757363812,0 -36.1465644422927,-9.93101316311415,0 -36.1465454293757,-9.93098787714266,0 -36.1465345514996,-9.9309678612188,0 -36.1465040413966,-9.93092356286382,0 -36.1464773252936,-9.93089551898097,0 -36.1464742215998,-9.93088571122356,0 -36.146462487326,-9.93084851181825,0 -36.1464483775228,-9.93080916721811,0 -36.1464164273997,-9.93071922477961,0 -36.1463665140134,-9.93066232555633,0 -36.1463331551277,-9.93063057547572,0 -36.1463157417353,-9.93061620793291,0 -36.1462883236945,-9.93057957625998,0 -36.1462643192187,-9.93055496673582,0 -36.1462607612386,-9.93052176569237,0 -36.1462565455485,-9.93047147971959,0 -36.1462476066202,-9.93044821385095,0 -36.1462473439927,-9.93043922212259,0 -36.1462482335314,-9.93042452864198,0 -36.1462488805744,-9.93040369680372,0 -36.1462529234413,-9.93035701864568,0 -36.1462407923292,-9.93030326489524,0 -36.1462350436117,-9.93027626783119,0 -36.1462274735736,-9.93024568057968,0 -36.1462205488861,-9.93021975929938,0 -36.1462140583058,-9.93019543773789,0 -36.1462152702238,-9.93017186340762,0 -36.1462108395829,-9.93012325891264,0 -36.1462048722095,-9.93009410120908,0 -36.146201777263,-9.93007226863273,0 -36.1461985571429,-9.93005111701588,0 -36.1461975134685,-9.93004112645752,0 -36.1461975386364,-9.93003260692479,0 -36.1461983778527,-9.93002046019567,0 -36.1461991857868,-9.93001460637329,0 -36.1462030895123,-9.93000482411561,0 -36.1462116162718,-9.9299786449072,0 -36.1462230078932,-9.92994044972157,0 -36.1462269787949,-9.92990935788679,0 -36.1462319156247,-9.92987673393391,0 -36.1462323305193,-9.92982567178132,0 -36.1462224878942,-9.92977380849457,0 -36.1462061296101,-9.92972943138874,0 -36.146197999224,-9.92971121826675,0 -36.1461834075801,-9.92967366556265,0 -36.1461587560263,-9.92963972768749,0 -36.146155157481,-9.92963443603314,0 -36.1461504313458,-9.92962538045264,0 -36.1461326662153,-9.92958987555987,0 -36.1461255662057,-9.92957601084343,0 -36.1461211403934,-9.92956651293218,0 -36.1461194453357,-9.92956157795684,0 -36.1461152285822,-9.92954787248433,0 -36.146107119056,-9.92952264816992,0 -36.1460962018253,-9.9294899739791,0 -36.1460919012618,-9.92947953817955,0 -36.1460898160553,-9.92947153253611,0 -36.1460828930275,-9.92944984643748,0 -36.1460744337244,-9.92942094190754,0 -36.1460605533548,-9.92938335905378,0 -36.146052783445,-9.9293659637344,0 -36.1460494284782,-9.92935412087593,0 -36.1460425519403,-9.92932901611275,0 -36.1460344690115,-9.92929853015726,0 -36.1460268180474,-9.92927400739711,0 -36.1460229110163,-9.92925744998363,0 -36.1460177356554,-9.92923165994352,0 -36.146009932434,-9.92919680931123,0 -36.1460024807827,-9.92917135020821,0 -36.1459977493743,-9.92914840870614,0 -36.1459894066226,-9.92911528860056,0 -36.1459796943173,-9.92908149151754,0 -36.1459643848169,-9.92903633485115,0 -36.1459617201996,-9.92903132832881,0 -36.1459569736915,-9.9290057704557,0 -36.1459489576712,-9.92896103883429,0 -36.1459417996126,-9.92894067229798,0 -36.1459387058313,-9.92891379576251,0 -36.1459223138024,-9.92886331944798,0 -36.1459093812704,-9.92881545266616,0 -36.1458984948508,-9.92879188676161,0 -36.1458984091833,-9.92879159468393,0 -36.1459483492941,-9.92873625180892,0 -36.1459668981943,-9.92876671273014,0 -36.1459945575366,-9.92880914741805,0 -36.1460181099562,-9.92884813237112,0 -36.1460535953503,-9.92889851158359,0 -36.1460909041642,-9.92894404193877,0 -36.146149933332,-9.92899128345038,0 -36.146200118648,-9.92904171406072,0 -36.1462231207454,-9.92906519054547,0 -36.1462560671896,-9.92909431999959,0 -36.1463781245603,-9.92918131384786,0 -36.1465037238338,-9.92921283940758,0 -36.1465627398855,-9.92922506441385,0 -36.146633630866,-9.92921620025278,0 -36.1466730977372,-9.92920877606301,0 -36.146708945388,-9.92921113884183,0 -36.1467388294675,-9.92920881360354,0 -36.1467702642645,-9.92920846627098,0 -36.1468283017138,-9.92919585915991,0 -36.1468982513859,-9.92916423822536,0 -36.1469463677418,-9.92911580435496,0 -36.1469472541569,-9.92911553287303,0 -36.1469627272778,-9.92911129974063,0 -36.1469866314574,-9.92910472832478,0 -36.1470435061264,-9.92908719971409,0 -36.1471232712557,-9.92906248850439,0 -36.1472561905417,-9.92903337341569,0 -36.1472843811418,-9.92902604875003,0 -36.1473275794374,-9.9290133521347,0 -36.1473669873942,-9.92899512450755,0 -36.1473957087103,-9.92898021252882,0 -36.1474495055515,-9.9289438284938,0 -36.1474981244096,-9.9288828527634,0 -36.1475107225887,-9.92885604961932,0 -36.1475259699666,-9.92883454986469,0 -36.1475494709414,-9.92878388026094,0 -36.14756214443,-9.92874472254381,0 -36.1475694147226,-9.92871739662205,0 -36.1475731704795,-9.92870417621451,0 -36.1475796675133,-9.92868742151535,0 -36.1475870956801,-9.92866693369707,0 -36.1476049053108,-9.92862424929337,0 -36.1476123687749,-9.92856896409181,0 -36.1476134284769,-9.9285555847218,0 -36.1476287723052,-9.92850558722041,0 -36.1476246374797,-9.92847173102735,0 -36.1476286306385,-9.92845553653412,0 -36.1476344632118,-9.92840589013682,0 -36.1476342125598,-9.92837774049588,0 -36.1476346703989,-9.92836740953716,0 -36.1476360494619,-9.9283515734299,0 -36.1476415548935,-9.92831735044394,0 -36.147642993072,-9.92827969719345,0 -36.1476433541084,-9.92826966277488,0 -36.1476436574581,-9.92826797560296,0 -36.1476497796519,-9.92824607181015,0 -36.1476640738669,-9.92817362752597,0 -36.147661261578,-9.92813483392639,0 -36.147663991575,-9.92810156267284,0 -36.1476538386959,-9.92803346392039,0 -36.1476535383952,-9.9280293373192,0 -36.147656403479,-9.92798989614635,0 -36.1476528834965,-9.92794503285845,0 -36.1476529578082,-9.92791677860234,0 -36.1476539777478,-9.92787049271429,0 -36.1476522500552,-9.92784877974064,0 -36.1476560646599,-9.92782939136646,0 -36.1476554893764,-9.92778111692702,0 -36.1476599455689,-9.92773988459016,0 -36.1476532875729,-9.92769938244571,0 -36.1476523184607,-9.92767925323045,0 -36.1476499817162,-9.92765522721416,0 -36.1476530116676,-9.92762594123013,0 -36.1476539456241,-9.92758268604953,0 -36.1476562373289,-9.92755298357052,0 -36.1476646485711,-9.92749075009168,0 -36.1476643984514,-9.92747078994336,0 -36.1476713275532,-9.92743698693658,0 -36.1477171298877,-9.92737142621709,0 -36.1477225242454,-9.92733627554384,0 -36.1477307549089,-9.92732284124622,0 -36.1477471841188,-9.92729244276046,0 -36.1477723042517,-9.92724329960536,0 -36.1477925066755,-9.92718523953719,0 -36.1478110892665,-9.92715579827672,0 -36.147841411923,-9.92710850672111,0 -36.1478428749103,-9.92710463499413,0 -36.147845798902,-9.9271202815039,0 -36.147854794214,-9.92719365795216,0 -36.1478854070117,-9.92725352412753,0 -36.1479063907915,-9.92728816417696,0 -36.1479284873789,-9.92734496694383,0 -36.1479576718576,-9.92737972989838,0 -36.1479619935387,-9.92738652116883,0 -36.1479833855129,-9.92742034275187,0 -36.1480067142119,-9.92744692335523,0 -36.1480150895859,-9.9274571756014,0 -36.1480243264772,-9.92747037166402,0 -36.1480407950859,-9.92749253637782,0 -36.1480442046057,-9.92750645998076,0 -36.1480592148177,-9.92753458957082,0 -36.1480626715956,-9.92754504298736,0 -36.1480883522295,-9.92761043463748,0 -36.1481048809787,-9.9276513092453,0 -36.1481123512194,-9.92768373450664,0 -36.1481201889468,-9.92774885952523,0 -36.1481523168782,-9.92782832349934,0 -36.1481780316724,-9.92788228535587,0 -36.1482116095527,-9.92794033910756,0 -36.1482407061017,-9.92798109655399,0 -36.1482474406352,-9.92799754783,0 -36.1482530762176,-9.92801226759613,0 -36.1482678036083,-9.92805678161535,0 -36.1482996423908,-9.9281100785834,0 -36.1483470667982,-9.92817705491248,0 -36.1484023527774,-9.92824820219622,0 -36.1484544449819,-9.92830230838604,0 -36.1484968376696,-9.92835764796786,0 -36.1485384659098,-9.92842201365639,0 -36.1485734906948,-9.92848856402517,0 -36.1486022385916,-9.9285465490113,0 -36.148622601381,-9.92859840439492,0 -36.1486530795984,-9.92867153253788,0 -36.1486920645069,-9.92875173347552,0 -36.148717068445,-9.92881642796382,0 -36.1487368383629,-9.92886538985998,0 -36.1487524906125,-9.92891682963725,0 -36.1487880935433,-9.92899936557051,0 -36.1488581356002,-9.92908249686359,0 -36.1489309104028,-9.92915815449522,0 -36.1490270718555,-9.92920245968215,0 -36.1491256404277,-9.92924317313367,0 -36.1492209381372,-9.9292635587554,0 -36.1492749353118,-9.92927473893869,0 -36.1493130876479,-9.92928516935023,0 -36.1493292958408,-9.92929247341397,0 -36.149370306185,-9.92932098658446,0 -36.1494361891659,-9.9293705320518,0 -36.1494614417834,-9.92939135018646,0 -36.1495150558921,-9.92943571060218,0 -36.1496261160313,-9.9295361872141,0 -36.1497184736639,-9.92958389066766,0 -36.1497897585552,-9.92961964020593,0 -36.1498651343741,-9.92964779841942,0 -36.1499583826119,-9.92966903335049,0 -36.1500436550192,-9.92968083760506,0 -36.1501224881907,-9.9296929701401,0 -36.150171533299,-9.92969400000261,0 -36.1501919310819,-9.92969601197149,0 -36.150221547612,-9.92970569851139,0 -36.1502336788294,-9.92971235867088,0 -36.1502440580919,-9.92972243436709,0 -36.1502739235504,-9.92976135864256,0 -36.1503151654418,-9.92981857769873,0 -36.1503422535854,-9.92987016872454,0 -36.1503703099847,-9.92993144893696,0 -36.1503913226595,-9.92998845760221,0 -36.1504128974323,-9.93004044493172,0 -36.1504298372638,-9.93009741367893,0 -36.150446891485,-9.93015041022408,0 -36.1504760465,-9.93022367805347,0 -36.1505151728444,-9.93029735495901,0 -36.1505490321511,-9.93035398275793,0 -36.1505832366973,-9.9304101263438,0 -36.150585717655,-9.93041418710168,0 -36.1505897911334,-9.93043663731534,0 -36.1506025503304,-9.93048386749243,0 -36.1506328360721,-9.93054595560951,0 -36.1506646753292,-9.93059622720817,0 -36.1506728588062,-9.93060377993299,0 -36.1506842987156,-9.93062412890817,0 -36.1507005781181,-9.93065258278417,0 -36.1507090074223,-9.93066574770553,0 -36.1507221146936,-9.93069319190198,0 -36.1507238693527,-9.93069681116412,0 -36.1507252262072,-9.93070418312238,0 -36.1507301630528,-9.93071995722739,0 -36.1507350427652,-9.93075562490464,0 -36.1507620057021,-9.93081172226162,0 -36.1507762672279,-9.93083892384375,0 -36.1507897545459,-9.93086735348573,0 -36.1508065334984,-9.93090400843699,0 -36.1508093899099,-9.930908854168,0 -36.1508134205497,-9.93092903579377,0 -36.1508207541512,-9.93095406581001,0 -36.1508264355314,-9.93098915178194,0 -36.1508328308643,-9.93101124842778,0 -36.1508227609463,-9.93102750750929,0 -36.1508146361806,-9.93105110496796,0 -36.150806484062,-9.93105950498587,0 -36.1507898194295,-9.93107609652193,0 -36.1507580171337,-9.93111060478127,0 -36.1507306040936,-9.93115658163189,0 -36.1507200308862,-9.93118137431417,0 -36.1507166287556,-9.93118828362036,0 -36.1507020537529,-9.93121407686171,0 -36.1506757824113,-9.93127298715584,0 -36.1506623521929,-9.93132255574024,0 -36.1506556296981,-9.93136800137532,0 -36.150654108523,-9.93141622158128,0 -36.1506539300927,-9.93147315806784,0 -36.1506618795048,-9.93151041327047,0 -36.1506654848604,-9.93153867793496,0 -36.1506740747564,-9.93157800627434,0 -36.1506848470681,-9.93162994795401,0 -36.1507054916751,-9.93167320508652,0 -36.1507052750384,-9.9316870128784,0 -36.1507063624194,-9.93171038018044,0 -36.1507075816829,-9.93173878384496,0 -36.1507095738322,-9.93177309750815,0 -36.1507149926467,-9.93181325831785,0 -36.1507202296729,-9.93183131009792,0 -36.1507211167435,-9.93183588661341,0 -36.1507229541005,-9.93184779169305,0 -36.1507246186115,-9.93186231373776,0 -36.1507279176458,-9.93189175141022,0 -36.1507335565002,-9.93191625509408,0 -36.1507351903256,-9.93193065107369,0 -36.1507353256497,-9.93194432399629,0 -36.1507315465309,-9.93197812187145,0 -36.1507343947235,-9.93200676138249,0 -36.1507332888671,-9.93201919825949,0 -36.1507328954068,-9.93202752697795,0 -36.1507237633454,-9.93206757863433,0 -36.1507379585885,-9.93219654354697,0 -36.150822789763,-9.93228230904345,0 -36.1508890938751,-9.93231648861836,0 -36.150898513731,-9.93232311112043,0 -36.1509678494041,-9.93236642640975,0 -36.1509987040135,-9.93237889415617,0 -36.1510085510572,-9.93238455912988,0 -36.15102140373,-9.93239110097261,0 -36.1510340279605,-9.93239952149275,0 -36.1510562415947,-9.93241235248725,0 -36.1511019652926,-9.93244022849611,0 -36.1511278377047,-9.93245414335423,0 -36.1511623182077,-9.93247566874427,0 -36.1511868261963,-9.9324855467518,0 -36.1512111930309,-9.93249889049729,0 -36.1513027054467,-9.93253863653191,0 -36.1514084971192,-9.93257474956677,0 -36.1514584619721,-9.93258104256999,0 -36.1514694088484,-9.9325828848465,0 -36.1514886089984,-9.93258695704717,0 -36.1515207202392,-9.93259564007166,0 -36.151555840561,-9.93260165765723,0 -36.1515887885191,-9.93260712678558,0 -36.1516127392118,-9.93260801336298,0 -36.151626066291,-9.93261324062923,0 -36.1516665016354,-9.93262406008403,0 -36.151686653663,-9.93262731986722,0 -36.1517041011862,-9.93263257716682,0 -36.1517364637062,-9.93264014531963,0 -36.1517975755367,-9.93265855161035,0 -36.1518951214604,-9.93267624260014,0 -36.1519064131828,-9.93267687505227,0 -36.1519157379989,-9.93268628118168,0 -36.1520137611065,-9.93274177664593,0 -36.1520950521878,-9.9327666957218,0 -36.1521630038195,-9.93278039048454,0 -36.1522822898761,-9.93276027371404,0 -36.1523528886732,-9.93269396269818,0 -36.1523855850875,-9.93265336764018,0 -36.1524073501746,-9.93262316821178,0 -36.1524273013898,-9.93259641804995,0 -36.1524324531758,-9.93259181435308,0 -36.1524433208613,-9.93258091403553,0 -36.1524692159286,-9.93256778929954,0 -36.1525771701555,-9.93256788351755,0 -36.152590307661,-9.93256168716465,0 -36.1525912046655,-9.93256634546585,0 -36.152700099169,-9.93265537687367,0 -36.1527881452364,-9.93269417217149,0 -36.1529434879938,-9.93270323164709,0 -36.1530628953217,-9.93260072403548,0 -36.1531098201815,-9.9324948316134,0 -36.1531156637989,-9.93239178491952,0 -36.1531103543726,-9.93234145459566,0 -36.1531318314902,-9.93232175538549,0 -36.1531341737816,-9.93232003857872,0 -36.1531768128938,-9.93229458596715,0 -36.1532228234164,-9.93226673513466,0 -36.1532863454003,-9.93222124472122,0 -36.1533656110159,-9.93209504237197,0 -36.1533522902032,-9.93193718939114,0 -36.1533376818879,-9.93187831202975,0 -36.1533171800495,-9.93183458460149,0 -36.1533164466106,-9.93183133030225,0 -36.1533132868261,-9.9318175509338,0 -36.1533110290753,-9.93179688499269,0 -36.1533101076853,-9.93177609206344,0 -36.1533133413074,-9.93172257948234,0 -36.1533105527216,-9.93167927587806,0 -36.1533011571813,-9.93161269017921,0 -36.1532857115372,-9.93155955026365,0 -36.1532285045579,-9.9314527121019,0 -36.1531291856726,-9.93139724217861,0 -36.1530735107687,-9.93138231062208,0 -36.1530714182047,-9.93138167520289,0 -36.1530601432107,-9.93137644032267,0 -36.1530570382806,-9.9313752770818,0 -36.1530301403933,-9.93135555586781,0 -36.1530018636161,-9.93134128962532,0 -36.152948779582,-9.931298813178,0 -36.152884840589,-9.93124862490966,0 -36.1528766247521,-9.93124323632224,0 -36.1528696338563,-9.93123472235208,0 -36.1528509155302,-9.93120486633373,0 -36.1528460275819,-9.93119453532312,0 -36.1528376852009,-9.93116200329093,0 -36.1528288451018,-9.93113777677481,0 -36.1528242858127,-9.93111994257302,0 -36.1528158942109,-9.93109134322592,0 -36.1528075633733,-9.9310635072968,0 -36.1528019129972,-9.93104159082562,0 -36.1527963581291,-9.93100403393004,0 -36.1527890654607,-9.93097273848998,0 -36.1527819870167,-9.93094086316432,0 -36.1527747876257,-9.93090946850113,0 -36.1527671855923,-9.93088391941018,0 -36.1527540329618,-9.93083381166403,0 -36.1527416236779,-9.93076855659499,0 -36.1527262563826,-9.9307063011519,0 -36.1527231481373,-9.93069133141863,0 -36.1527223334701,-9.9306817227227,0 -36.15271950819,-9.93063930388064,0 -36.1527166670288,-9.93058656412945,0 -36.1527000696586,-9.93050180053355,0 -36.1526888466874,-9.93045415537439,0 -36.152683036327,-9.93042355858043,0 -36.1526826104305,-9.93041490129373,0 -36.1526863225047,-9.93040219373887,0 -36.1526886868657,-9.93039447873023,0 -36.1526903156244,-9.93039121785983,0 -36.1526992772343,-9.93038495929496,0 -36.1527144086903,-9.93037795322546,0 -36.1527619234324,-9.93035546854384,0 -36.1528061007632,-9.93032728349941,0 -36.1528458808282,-9.93030487652972,0 -36.1528629750754,-9.9302932323561,0 -36.1528658466055,-9.9302922706267,0 -36.1528990948925,-9.93028453018777,0 -36.1529270083478,-9.9302779124143,0 -36.1529994687044,-9.93026355451485,0 -36.1530316615146,-9.93025780057778,0 -36.1530459736477,-9.9302540153077,0 -36.1530593702125,-9.93025285288326,0 -36.1530836896212,-9.93025286355152,0 -36.1531371011794,-9.93025399828676,0 -36.1532006544657,-9.93024562054026,0 -36.1532825369459,-9.93023346599432,0 -36.1532893166523,-9.93023295886862,0 -36.1533343581632,-9.93023408904951,0 -36.1533690214412,-9.93023717940374,0 -36.1533884478706,-9.93023635823245,0 -36.1535522295133,-9.93025874779321,0 -36.1535937862028,-9.93026233422233,0 -36.1536448065256,-9.93027008721731,0 -36.1537014238203,-9.93027919545824,0 -36.1537668880794,-9.93027944318563,0 -36.1538012265717,-9.93027771701538,0 -36.1538255450807,-9.9302788186168,0 -36.1538637897761,-9.9302788205342,0 -36.1538905699046,-9.93027665967726,0 -36.1539154984727,-9.93027572519611,0 -36.1539372378336,-9.93027464415838,0 -36.1539534466991,-9.93027422036695,0 -36.1539732780784,-9.93027607396878,0 -36.1540018737456,-9.93027535973336,0 -36.1540132465461,-9.9302755688109,0 -36.1540345730215,-9.93027945825919,0 -36.1540782818114,-9.93028052162152,0 -36.1541463874846,-9.93030059262809,0 -36.1542274526014,-9.93031255735307,0 -36.1542820020175,-9.9303101993119,0 -36.1544078358574,-9.93031931576543,0 -36.154502466241,-9.93030928240847,0 -36.1545851185425,-9.93030784578403,0 -36.1546142307708,-9.93030348270701,0 -36.1546523582003,-9.93030147803205,0 -36.1546651211318,-9.93029837928528,0 -36.1546730420212,-9.93029946623316,0 -36.154694348524,-9.9303063307384,0 -36.1547290097942,-9.93031065900921,0 -36.1547460573114,-9.93031383743532,0 -36.154767783206,-9.93031764358972,0 -36.1548075886254,-9.93032485449737,0 -36.1548608423234,-9.9303228793069,0 -36.1548736038285,-9.93032446894273,0 -36.1549130830556,-9.93033388792112,0 -36.1549894797055,-9.93033951400792,0 -36.1550119189278,-9.93033625931824,0 -36.1550246129646,-9.93034247910954,0 -36.15504132036,-9.93034837910976,0 -36.1550808451367,-9.93037740932961,0 -36.155170914169,-9.93039805122397,0 -36.1552231431704,-9.93040149282631,0 -36.1552462648101,-9.93040408779661,0 -36.1552730600177,-9.93040623946974,0 -36.1552856750455,-9.93040683315849,0 -36.1552862255368,-9.93040699946775,0 -36.1553321858262,-9.9304195000582,0 -36.1553727993217,-9.9304208508049,0 -36.1553980838526,-9.930424541445,0 -36.1554232909234,-9.93042594750589,0 -36.1554328923209,-9.93042814885113,0 -36.1554624188898,-9.9304401089834,0 -36.1555362442528,-9.93046635401719,0 -36.1555956090134,-9.93047018468981,0 -36.155675749867,-9.93048572120223,0 -36.1557476001015,-9.93046496156817,0 -36.1557870195594,-9.9304551160847,0 -36.1558475911514,-9.93043185180996,0 -36.1558948464005,-9.93042062118475,0 -36.1559133257547,-9.93041318215975,0 -36.1559950890527,-9.9303938333185,0 -36.1560392448887,-9.93038333155074,0 -36.1561268581977,-9.9303797307884,0 -36.1561633265264,-9.93036514639112,0 -36.1561726452732,-9.93036344129596,0 -36.1562147148011,-9.93035165603135,0 -36.1562431031551,-9.93034831776893,0 -36.1562640567676,-9.93034750684124,0 -36.1562820986936,-9.93035309307613,0 -36.1563067636586,-9.9303612524926,0 -36.1563350839791,-9.93037447535859,0 -36.1563695554775,-9.93039129224064,0 -36.1564750413969,-9.93047037671429,0 -36.1565183687733,-9.93049735072103,0 -36.1565967224004,-9.93053134068917,0 -36.156631469039,-9.93053023718393,0 -36.1566557833049,-9.93034908277981,0 -36.1566320447759,-9.93034945147797,0 -36.1566038144208,-9.93033720509504,0 -36.1565786456368,-9.93032153595694,0 -36.1564656047717,-9.9302367874563,0 -36.1564141366907,-9.93021167882332,0 -36.1563746581545,-9.93019324615163,0 -36.1563381035892,-9.93018115354381,0 -36.1562883666023,-9.93016575372569,0 -36.1562287952718,-9.93016805921257,0 -36.1561789877813,-9.93017391621564,0 -36.1561312450349,-9.93018729077226,0 -36.1561121916478,-9.93019077706264,0 -36.1560878712826,-9.93020050325768,0 -36.1560139800911,-9.93020354006947,0 -36.155952681407,-9.93021811900399,0 -36.1558575758106,-9.93024062524001,0 -36.1558390142901,-9.93024809734528,0 -36.1557931932306,-9.93025898712767,0 -36.1557316395068,-9.93028262862992,0 -36.1556998337621,-9.93029057250101,0 -36.1556672700759,-9.93029998110998,0 -36.1556191080402,-9.93029064417697,0 -36.1555736399022,-9.93028771023115,0 -36.1555276638084,-9.93027136566361,0 -36.1554882374277,-9.93025539548645,0 -36.1554491261421,-9.9302464283145,0 -36.1554165103779,-9.93024460899974,0 -36.1553891770835,-9.93024061931671,0 -36.1553597215582,-9.930239639674,0 -36.1553368990356,-9.93023343225303,0 -36.1553170346791,-9.9302274310238,0 -36.1552847389818,-9.93022591112908,0 -36.1552638734876,-9.9302242356191,0 -36.1552394429376,-9.93022149375166,0 -36.1551976494926,-9.93021873980233,0 -36.1551588420943,-9.93020984598491,0 -36.1551280077153,-9.93018719870883,0 -36.1550957960863,-9.93017582359724,0 -36.15506892957,-9.93016265961533,0 -36.1550452232539,-9.93015283815897,0 -36.1550231126307,-9.93015203805835,0 -36.1549829615283,-9.93015786177178,0 -36.1549413343607,-9.9301547962238,0 -36.1549063803476,-9.93014645687811,0 -36.1548688469896,-9.93014178154398,0 -36.1548207148625,-9.93014356678428,0 -36.1548000148185,-9.93013981689283,0 -36.1547787518621,-9.93013609184384,0 -36.1547572608397,-9.93013208495116,0 -36.1547342482419,-9.93012921129405,0 -36.1547140116912,-9.93012269150729,0 -36.1546622570331,-9.93011558945638,0 -36.1546449812581,-9.93011725615096,0 -36.1546256272147,-9.93012195517597,0 -36.1545957436244,-9.93012352640737,0 -36.1545698359602,-9.93012740921826,0 -36.1544911580761,-9.93012877677085,0 -36.1544047628293,-9.93013793699925,0 -36.1542846825576,-9.93012923739577,0 -36.1542369868163,-9.9301312991783,0 -36.1541859610809,-9.93012376809341,0 -36.1541129726041,-9.93010225811461,0 -36.1540909164652,-9.93010010025073,0 -36.1540534083842,-9.93009918774837,0 -36.1540315414166,-9.93009519972948,0 -36.1540012679746,-9.9300946431877,0 -36.1539795574901,-9.93009518545538,0 -36.1539596188756,-9.93009332183291,0 -36.1539302706792,-9.93009408916568,0 -36.1539074914096,-9.93009522191878,0 -36.1538797313609,-9.93009626254588,0 -36.1538563912823,-9.93009814583325,0 -36.1538297104788,-9.93009814449955,0 -36.1538007703101,-9.93009683354595,0 -36.1537626188315,-9.93009875139883,0 -36.1537164575385,-9.93009857672471,0 -36.1536732043849,-9.93009161843008,0 -36.1536155144689,-9.93008285193925,0 -36.153572588946,-9.93007914738419,0 -36.153397081507,-9.93005515488504,0 -36.1533733193291,-9.93005615933672,0 -36.1533448345118,-9.93005361981781,0 -36.1532847556333,-9.9300521123284,0 -36.1532621636786,-9.93005380222242,0 -36.1531751527381,-9.93006671804597,0 -36.1531269847791,-9.93007306767014,0 -36.1530856821255,-9.93007219019547,0 -36.1530514514465,-9.93007217518428,0 -36.153014307885,-9.93007539814893,0 -36.1529919446685,-9.93008131277222,0 -36.1529654438557,-9.93008604936177,0 -36.1528879474853,-9.93010140515067,0 -36.1528570757806,-9.93010872427628,0 -36.1528157445789,-9.9301183464812,0 -36.1527806586931,-9.93013009740768,0 -36.1527491004049,-9.93015159412854,0 -36.1527117149857,-9.93017265226531,0 -36.1526730153355,-9.93019734256515,0 -36.1526366059839,-9.93021457201458,0 -36.1526075379616,-9.93022803090595,0 -36.1525590609876,-9.9302618860151,0 -36.1525441874743,-9.93027665266512,0 -36.1525187035544,-9.9303276729308,0 -36.1525116166138,-9.93035079787895,0 -36.1524991150537,-9.93039359443113,0 -36.1525016328265,-9.93044477429813,0 -36.1525104932019,-9.93049143231629,0 -36.1525218332649,-9.9305395746866,0 -36.1525353693296,-9.9306087042466,0 -36.1525375979979,-9.93065007488387,0 -36.1525406063863,-9.93069524330168,0 -36.1525424683954,-9.93071720515202,0 -36.1525484481327,-9.9307460044621,0 -36.1525634541005,-9.93080679625086,0 -36.1525761097243,-9.93087334691604,0 -36.1525915695724,-9.93093224462824,0 -36.1525983709358,-9.93095510285403,0 -36.1526041527129,-9.93098031573651,0 -36.1526112995619,-9.93101249918353,0 -36.1526171328248,-9.93103753185646,0 -36.1526229950574,-9.93107716702138,0 -36.1526318709749,-9.93111159468097,0 -36.1526410532602,-9.93114227562222,0 -36.1526484212384,-9.93116738641629,0 -36.1526544156128,-9.93119083417779,0 -36.1526632784824,-9.93121512313628,0 -36.152673685941,-9.93125570825555,0 -36.1526904876369,-9.93129121982479,0 -36.1527209892111,-9.93133987035043,0 -36.1527528723099,-9.93137869969976,0 -36.1527778177646,-9.93139506088638,0 -36.1528349951647,-9.93143994173261,0 -36.1528775061907,-9.93147395795582,0 -36.152889815268,-9.93148724303314,0 -36.1529089662787,-9.93149714250081,0 -36.1529339797526,-9.93150976234354,0 -36.1529689951579,-9.93153543523575,0 -36.1529891900577,-9.9315430011218,0 -36.1530057691562,-9.93155069865395,0 -36.1530230222137,-9.93155593764803,0 -36.1530596024713,-9.93156574818328,0 -36.1530925708103,-9.9315841611191,0 -36.1531158595521,-9.93162765456876,0 -36.1531224736406,-9.93165041003273,0 -36.1531291286334,-9.93169757380754,0 -36.1531307617326,-9.93172293422476,0 -36.1531276366164,-9.93177465068616,0 -36.1531292292557,-9.93181059209295,0 -36.1531332511524,-9.93184740603857,0 -36.1531386747656,-9.93187105769994,0 -36.1531436288405,-9.9318930391943,0 -36.153164959964,-9.93193853542653,0 -36.1531718939152,-9.93196648209205,0 -36.1531789753476,-9.93205039833792,0 -36.1531505953816,-9.93209558332754,0 -36.1531218409312,-9.93211617543841,0 -36.1530823345681,-9.93214008921188,0 -36.153032783522,-9.93216966777456,0 -36.1530154388198,-9.93218238075432,0 -36.1529645160051,-9.93222908809463,0 -36.1529470047118,-9.93225929892543,0 -36.1529289135676,-9.93228843617808,0 -36.1529247300174,-9.93230602602551,0 -36.1529256101817,-9.93232706011927,0 -36.1529328973658,-9.93239613882376,0 -36.1529297256061,-9.93245206929385,0 -36.1529125704548,-9.93249078222382,0 -36.1528802185436,-9.93251855537151,0 -36.1528318979746,-9.93251573735586,0 -36.1527968433257,-9.93250029140824,0 -36.1527578729528,-9.93246842951589,0 -36.1527486956488,-9.93242077030816,0 -36.1527370881071,-9.93239474405588,0 -36.152722724749,-9.93238639231398,0 -36.1526789075412,-9.93236783977309,0 -36.1526607299295,-9.9323562863654,0 -36.1526419624981,-9.93234672492229,0 -36.1526103755016,-9.93233930612102,0 -36.1525856139109,-9.93236382452997,0 -36.1525361094536,-9.93238717350917,0 -36.1524551248699,-9.93238710283483,0 -36.1524265441468,-9.93238650334535,0 -36.1523577885062,-9.93242135168124,0 -36.1523353115192,-9.93243224333256,0 -36.1523065454674,-9.93246109575833,0 -36.1522916783671,-9.93247438117228,0 -36.1522599440465,-9.9325169298551,0 -36.1522401465424,-9.93254439921751,0 -36.1522183796515,-9.93257142444174,0 -36.1521971524527,-9.93259136241843,0 -36.1521659750817,-9.93259662027066,0 -36.1521402283282,-9.93259143135232,0 -36.1520867290823,-9.9325750316327,0 -36.1520280148755,-9.93254179079091,0 -36.1520063145948,-9.93251990129098,0 -36.1519650662138,-9.93249919812297,0 -36.1519167395541,-9.93249649134664,0 -36.1518405950696,-9.93248268174714,0 -36.1517839134932,-9.93246560981431,0 -36.1517515616547,-9.93245804416525,0 -36.1517280042011,-9.93245094582065,0 -36.1517050143959,-9.9324472270041,0 -36.1516835095495,-9.93244147286573,0 -36.151663846459,-9.93243376043535,0 -36.1516480262149,-9.93242917077456,0 -36.1516319088765,-9.93242792311134,0 -36.1516073100135,-9.93242701254541,0 -36.1515864028564,-9.9324235421079,0 -36.1515603010892,-9.93241906978378,0 -36.1515316772969,-9.93241132978527,0 -36.1515037328876,-9.93240540300055,0 -36.1514852043606,-9.93240228479248,0 -36.1514500784541,-9.93239786074034,0 -36.1513690381549,-9.93237019684496,0 -36.1512919772224,-9.93233672745171,0 -36.1512654695711,-9.93232221135968,0 -36.1512458251276,-9.93231429362122,0 -36.1512199300713,-9.93229812793573,0 -36.1511932058366,-9.93228375495231,0 -36.1511498493695,-9.93225732216621,0 -36.1511308570101,-9.93224635184329,0 -36.1511141995868,-9.93223524113754,0 -36.1510959516109,-9.93222595316074,0 -36.1510792094055,-9.93221632142582,0 -36.1510514524755,-9.93220510539805,0 -36.1509998671136,-9.9321728790734,0 -36.1509842788504,-9.93216191996089,0 -36.1509325902512,-9.93213527465604,0 -36.1509122661104,-9.9321147266816,0 -36.1509082213015,-9.932077979461,0 -36.1509141768896,-9.93205185920855,0 -36.1509151451474,-9.93203136301552,0 -36.1509169790525,-9.93201073809998,0 -36.1509164202179,-9.93199580757102,0 -36.1509147709063,-9.93197922329525,0 -36.1509176556322,-9.9319534241349,0 -36.1509173211918,-9.9319196347188,0 -36.1509134998238,-9.93188596400892,0 -36.1509078892934,-9.9318615834691,0 -36.1509057099907,-9.93184213739278,0 -36.1509036217485,-9.93182391859209,0 -36.1509007271265,-9.93180516307628,0 -36.1508976338623,-9.93178920456074,0 -36.1508938344573,-9.93177610821905,0 -36.1508911082756,-9.93175590357852,0 -36.1508895899077,-9.93172975079059,0 -36.150888414772,-9.93170237547459,0 -36.1508875713916,-9.93168425184539,0 -36.1508878557762,-9.93166612535041,0 -36.1508865767002,-9.9316468823808,0 -36.1508831526104,-9.93162418035251,0 -36.1508735404954,-9.93160290091561,0 -36.1508589336458,-9.93157229487785,0 -36.1508523793354,-9.93154069154524,0 -36.1508452752558,-9.93150816601598,0 -36.1508417245801,-9.93148033014581,0 -36.150836220192,-9.9314545337054,0 -36.1508363305049,-9.93141932690641,0 -36.1508374453587,-9.93138398619664,0 -36.1508411080681,-9.93135922533797,0 -36.1508481295685,-9.9313333101628,0 -36.1508652405519,-9.93129494082189,0 -36.1508781273128,-9.93127213522909,0 -36.1508859535195,-9.93125624115858,0 -36.1508936911398,-9.93123809751142,0 -36.1509052814755,-9.93121865831589,0 -36.1509217081967,-9.93120083388834,0 -36.1509367139254,-9.93118589397677,0 -36.150951671403,-9.9311704816511,0 -36.1509640477671,-9.93115585236623,0 -36.1509745821034,-9.9311407474649,0 -36.1509822301538,-9.93112360394058,0 -36.1509886665827,-9.9311049100418,0 -36.1509983224014,-9.93108931956163,0 -36.1510049976564,-9.9310715160889,0 -36.1510120985828,-9.93105005774104,0 -36.1510154495282,-9.93102851337529,0 -36.1510165414427,-9.93100585388166,0 -36.1510171192901,-9.93098701614412,0 -36.1510109787738,-9.93097173241617,0 -36.1510046231284,-9.93094977293977,0 -36.1509988944064,-9.9309143947286,0 -36.1509906356057,-9.93088620700937,0 -36.1509821935571,-9.93084393734758,0 -36.1509685976225,-9.93082087268342,0 -36.1509551824949,-9.93079156631074,0 -36.1509396269368,-9.93075877710781,0 -36.1509251531037,-9.93073117061448,0 -36.1509117938055,-9.93070337615072,0 -36.1509087014813,-9.93068077326885,0 -36.1509025247661,-9.93066103759596,0 -36.1508987364548,-9.93064045529553,0 -36.1508865866172,-9.93061539436369,0 -36.1508688889847,-9.93057833884598,0 -36.1508568511308,-9.93055953809491,0 -36.150843140595,-9.93053557422448,0 -36.1508319169238,-9.93051560990807,0 -36.1508206728615,-9.93049336273791,0 -36.1508063095388,-9.93048010649656,0 -36.1507925105206,-9.930458318988,0 -36.1507741130082,-9.93042060270776,0 -36.150767791206,-9.93039720161094,0 -36.1507618777441,-9.93036461077535,0 -36.1507585875762,-9.93034841281791,0 -36.1507391607809,-9.93031661564875,0 -36.150705404047,-9.9302612071583,0 -36.1506742745728,-9.93020914490264,0 -36.1506419173265,-9.93014821462216,0 -36.1506186450861,-9.93008973054763,0 -36.1506040587847,-9.93004440322485,0 -36.1505850165972,-9.92998036436639,0 -36.1505612312951,-9.92992305054955,0 -36.1505390988721,-9.9298630040326,0 -36.1505061594471,-9.92979105850689,0 -36.1504708840505,-9.92972387443044,0 -36.1504206049556,-9.92965411720407,0 -36.1503810446058,-9.92960255741265,0 -36.1503435392521,-9.92956614901252,0 -36.1502948698889,-9.92953942905911,0 -36.1502299513898,-9.92951819648063,0 -36.1501824993795,-9.92951351598174,0 -36.1501384639194,-9.92951259132117,0 -36.1500702320758,-9.92950209035457,0 -36.1499914412973,-9.92949118336477,0 -36.1499178957193,-9.92947443522924,0 -36.1498632245376,-9.92945401167602,0 -36.1498016994661,-9.92942315672324,0 -36.1497313897296,-9.92938684120331,0 -36.1496349097694,-9.92929955538789,0 -36.1495780755105,-9.92925253063914,0 -36.1495495628588,-9.92922902496025,0 -36.1494777201242,-9.92917499765267,0 -36.1494200855733,-9.92913492622493,0 -36.1493753955944,-9.92911478713216,0 -36.149317824404,-9.92909904783878,0 -36.1492587810159,-9.9290868228406,0 -36.1491803494144,-9.929070045149,0 -36.1491005390906,-9.92903707974959,0 -36.1490389818657,-9.9290087180444,0 -36.1489941457986,-9.92896210591142,0 -36.1489451132386,-9.92890391034671,0 -36.1489240255783,-9.92885502427476,0 -36.1489089891526,-9.92880560844292,0 -36.1488867475636,-9.92875052532148,0 -36.1488595152126,-9.92868006520457,0 -36.148819503772,-9.92859775255471,0 -36.1487917339591,-9.92853112293511,0 -36.1487692202934,-9.92847379026601,0 -36.1487360626657,-9.92840691085837,0 -36.1486962589366,-9.92833128013127,0 -36.148646332318,-9.928254083539,0 -36.1485933513175,-9.92818492198436,0 -36.1485408242495,-9.92813036415522,0 -36.1484938888782,-9.92806996327688,0 -36.1484528392508,-9.9280119899416,0 -36.148434745768,-9.92798170213752,0 -36.1484249255684,-9.92795202031437,0 -36.1484170718225,-9.92793150688396,0 -36.1484016276146,-9.92789377946358,0 -36.1483653683527,-9.92784298878022,0 -36.148339707812,-9.92779862358624,0 -36.148319422286,-9.92775605496598,0 -36.1482982837521,-9.92770377181636,0 -36.1482921527375,-9.92765282840888,0 -36.1482793470355,-9.92759724422968,0 -36.1482578317836,-9.92754403837716,0 -36.1482342834383,-9.92748407634974,0 -36.148227542122,-9.92746369041034,0 -36.1482159201407,-9.92744191049232,0 -36.1482114414506,-9.92742362071441,0 -36.1481959912284,-9.92739679055406,0 -36.148172567845,-9.92736526559811,0 -36.1481609464264,-9.92734866295134,0 -36.1481462950849,-9.92733072834352,0 -36.1481302029791,-9.92731239309153,0 -36.1481162440373,-9.92729032345528,0 -36.1481053953641,-9.92727327541163,0 -36.1480877216867,-9.92725222351092,0 -36.1480707332264,-9.92720855205266,0 -36.1480449869677,-9.92716605014025,0 -36.1480318229769,-9.92714030676146,0 -36.1480260109632,-9.92709289729641,0 -36.1480157612266,-9.92703805031621,0 -36.1479847313404,-9.92697306386902,0 -36.1479451258169,-9.92690243014039,0 -36.1479105055209,-9.92685394405461,0 -36.1478722463536,-9.92679476548196,0 -36.1478481614558,-9.9267834014488,0 -36.1478089239895,-9.92679121142296,0 -36.1477783789402,-9.92683659802521,0 -36.1477666116225,-9.92685572834774,0 -36.1477360039789,-9.92690337236867,0 -36.147701925934,-9.92696265921267,0 -36.1476774332407,-9.92702747792302,0 -36.1476569583639,-9.92705941075094,0 -36.1476334927333,-9.92709658841567,0 -36.1476244504126,-9.92711422191637,0 -36.1476041128061,-9.92717267041627,0 -36.1475855798796,-9.92720892682188,0 -36.1475724560325,-9.92723320947434,0 -36.1475584361363,-9.92725609308914,0 -36.1475472697963,-9.92727716761525,0 -36.1475433181621,-9.92730291714801,0 -36.1475095077061,-9.92735131285287,0 -36.1474965284022,-9.92738257149003,0 -36.1474819424369,-9.92745372764729,0 -36.1474822693382,-9.92747981628615,0 -36.1474749352653,-9.9275340797385,0 -36.1474718663286,-9.92757385553573,0 -36.1474709828617,-9.9276147713193,0 -36.1474668544329,-9.92765467441758,0 -36.1474705078892,-9.92769223886239,0 -36.1474717617317,-9.92771828245389,0 -36.1474761341239,-9.92774488082965,0 -36.1474731459991,-9.92777252926017,0 -36.1474736281688,-9.92781299197697,0 -36.1474686294861,-9.92783839855568,0 -36.1474715925241,-9.92787563713604,0 -36.1474707346001,-9.92791456961072,0 -36.1474706366219,-9.92795181433655,0 -36.1474736652753,-9.92799041575588,0 -36.1474708370756,-9.92802934887722,0 -36.1474725729185,-9.92805320226011,0 -36.1474806718453,-9.92810752467653,0 -36.147478501081,-9.92813398021885,0 -36.1474805734261,-9.92816256701833,0 -36.1474722912848,-9.92820454149399,0 -36.147465760049,-9.9282279087022,0 -36.1474616993148,-9.92825049364782,0 -36.1474608874384,-9.92827305808672,0 -36.1474598721457,-9.92829963930095,0 -36.1474550611373,-9.92832954549783,0 -36.1474527862851,-9.92835566800353,0 -36.14745194858,-9.92837457025493,0 -36.147452141149,-9.92839619817602,0 -36.1474489325609,-9.92842350929713,0 -36.1474436299056,-9.92844501448501,0 -36.1474404574875,-9.92846665244793,0 -36.1474432432588,-9.92848946261231,0 -36.1474368097584,-9.92851042598413,0 -36.1474329701236,-9.92852614951781,0 -36.147431089515,-9.92854989316666,0 -36.1474274378515,-9.9285769425616,0 -36.1474170636939,-9.92860180631169,0 -36.1474088585488,-9.92862443710589,0 -36.1474000530475,-9.92864714490652,0 -36.1473935998819,-9.9286698602566,0 -36.14738716555,-9.92869404411559,0 -36.147379315514,-9.92871829860896,0 -36.1473673474871,-9.92874410241703,0 -36.1473523683132,-9.92876522397521,0 -36.1473419529514,-9.92878738306924,0 -36.1473238168463,-9.92881012860353,0 -36.1473017781617,-9.92882503387037,0 -36.1472861552161,-9.92883314523521,0 -36.1472628063805,-9.92884394493244,0 -36.1472353743429,-9.9288520076159,0 -36.147213420687,-9.92885771176139,0 -36.1470763552969,-9.9288877350451,0 -36.1469892851285,-9.92891470936755,0 -36.1469352276497,-9.9289313697365,0 -36.1469141461688,-9.92893716517705,0 -36.1468961143749,-9.92894209831313,0 -36.1468620211657,-9.92895254002763,0 -36.1468419703394,-9.92896638080071,0 -36.1468253306996,-9.92897680136443,0 -36.1468105070688,-9.92899509326567,0 -36.1467920358896,-9.92901368633268,0 -36.1467703527318,-9.92902348826366,0 -36.1467495327069,-9.92902801087025,0 -36.1467306762879,-9.92902821922269,0 -36.146707854938,-9.92902999492414,0 -36.1466803732712,-9.92902818356482,0 -36.1466597073394,-9.9290269811193,0 -36.1466407806991,-9.92903095885005,0 -36.1466052185241,-9.92903764852579,0 -36.1465701757667,-9.92904203025567,0 -36.1465447374285,-9.92903676077973,0 -36.1464563933421,-9.92901458633282,0 -36.1463702066462,-9.9289531585862,0 -36.1463492790637,-9.928934655566,0 -36.1463303344298,-9.92891532023606,0 -36.1462724126462,-9.92885711537783,0 -36.1462202639064,-9.92881538035249,0 -36.1461992063954,-9.92878968252958,0 -36.1461711634805,-9.9287498695632,0 -36.1461492924932,-9.9287136678216,0 -36.1461214602461,-9.92867096790357,0 -36.1460936147785,-9.92862524024195,0 -36.1460742222476,-9.92857677044912,0 -36.146054805023,-9.92853964908138,0 -36.1460435453413,-9.92850836933724,0 -36.1460271416337,-9.92845621531942,0 -36.1460185580933,-9.92843062646618,0 -36.1460132708295,-9.92841145019156,0 -36.146007820714,-9.92839053804845,0 -36.1459991908525,-9.92836723079203,0 -36.1459889379713,-9.92834319044197,0 -36.1457972496553,-9.92784458790154,0 -36.1457769640293,-9.92780039192805,0 -36.1457666359692,-9.92777808022037,0 -36.1457517137154,-9.92774730331593,0 -36.1457376132266,-9.92770863069088,0 -36.1457276549355,-9.9276793920841,0 -36.1457210957765,-9.92764821767991,0 -36.145699635664,-9.92760282016004,0 -36.1456867749267,-9.92755742163339,0 -36.1456402718603,-9.9273948765458,0 -36.1456349081874,-9.92737075484997,0 -36.1456025833792,-9.92727884511425,0 -36.1455851379683,-9.92726464574661,0 -36.1455595187228,-9.92726860654227,0 -36.1455397079275,-9.92729019053285,0 -36.1455352984581,-9.92730024787877,0 -36.1455293706627,-9.92732554396429,0 -36.1455147897728,-9.92734740943276,0 -36.1455001040035,-9.92736418991748,0 -36.1454909897061,-9.92738266072325,0 -36.1454842142616,-9.92740933975548,0 -36.1454820359948,-9.92743146420715,0 -36.1454769204169,-9.92747054397201,0 -36.1454672454927,-9.92752632057151,0 -36.1454596587723,-9.92760652498231,0 -36.145453639571,-9.92767066237036,0 -36.145442923453,-9.9277514913346,0 -36.1454417472021,-9.9278005833504,0 -36.1454449548583,-9.92785958292205,0 -36.1454595612995,-9.92791397285363,0 -36.1454573482569,-9.92795134397435,0 -36.1454589529001,-9.92797363275944,0 -36.1454687681118,-9.92799451813397,0 -36.1454856249377,-9.92805397004575,0 -36.1454994538088,-9.92807914924001,0 -36.1455024950452,-9.92810885629831,0 -36.1455043972327,-9.92812599528825,0 -36.1455081029199,-9.92814471271907,0 -36.1455158426427,-9.92816940792021,0 -36.1455258826445,-9.92819518814157,0 -36.1455371352408,-9.92824300811444,0 -36.1455480354639,-9.92828075698393,0 -36.1455543886028,-9.92831889469426,0 -36.145564907152,-9.92834695026987,0 -36.1455728594205,-9.92837730262403,0 -36.145583922805,-9.92840361206577,0 -36.1455923449307,-9.92842656817806,0 -36.1455959954423,-9.92844836588339,0 -36.1456045687889,-9.92846868354783,0 -36.1456133393457,-9.92849359847325,0 -36.1456206218333,-9.92851752163145,0 -36.145631437521,-9.9285399745535,0 -36.1456405360943,-9.92856308912702,0 -36.1456454861154,-9.92857848296732,0 -36.1456505505899,-9.92859211214081,0 -36.1456545120643,-9.92860756692073,0 -36.1456587283569,-9.92862007872002,0 -36.1456660906538,-9.92864103063417,0 -36.14567463864,-9.92866561704027,0 -36.1456803545482,-9.92868942419105,0 -36.1456889729701,-9.92871316602259,0 -36.1456936506958,-9.92873691800434,0 -36.1456969179708,-9.9287589910311,0 -36.1457061004913,-9.92877829402536,0 -36.1457153513084,-9.92880499584763,0 -36.1457211644956,-9.92883432390185,0 -36.1457272486594,-9.92885506749311,0 -36.1457373230953,-9.92887687571996,0 -36.1457474645066,-9.9289144118923,0 -36.1457597033227,-9.92895209920089,0 -36.1457630458157,-9.92898113650799,0 -36.1457720859504,-9.92900685808365,0 -36.1457776545118,-9.92903793230357,0 -36.1457875498924,-9.92909121476989,0 -36.1457963454167,-9.92910774061056,0 -36.1458056064746,-9.92913505693039,0 -36.1458133327879,-9.92916194317116,0 -36.1458200004019,-9.92918841316506,0 -36.1458254205746,-9.92921469439793,0 -36.1458332982009,-9.92924160892909,0 -36.1458394020093,-9.92926886973817,0 -36.1458447795465,-9.92929566734764,0 -36.1458508375602,-9.92932134036617,0 -36.1458592224621,-9.92934821558361,0 -36.1458664987357,-9.92937565917948,0 -36.1458737754804,-9.92940222506796,0 -36.1458808744374,-9.92942728406778,0 -36.1458915004856,-9.92945107375864,0 -36.1459011659038,-9.92947724414011,0 -36.1459084952956,-9.92950228793392,0 -36.1459146017385,-9.92952141614891,0 -36.1459185445328,-9.92953655358236,0 -36.1459251661538,-9.92955262171161,0 -36.1459338101986,-9.92957849252668,0 -36.1459412606568,-9.92960166688158,0 -36.14594600006,-9.92961707112135,0 -36.1459517134888,-9.92963370517288,0 -36.1459615532547,-9.9296548215997,0 -36.1459697969833,-9.92967091975943,0 -36.145987874028,-9.92970704807713,0 -36.1459981627185,-9.92972676189462,0 -36.1460092366744,-9.92974304614082,0 -36.1460218058306,-9.92976035015453,0 -36.1460295561156,-9.92978029613057,0 -36.14603704682,-9.92979707630449,0 -36.1460461775288,-9.92982184632762,0 -36.1460499643135,-9.92984179991667,0 -36.1460497958449,-9.92986253237183,0 -36.1460464560041,-9.92988460289611,0 -36.1460440753575,-9.9299032430888,0 -36.1460375088443,-9.92992526003964,0 -36.1460314815943,-9.92994376512446,0 -36.1460244338177,-9.92996142596733,0 -36.1460201129217,-9.92997943220382,0 -36.1460169956551,-9.93000201802671,0 -36.1460153275507,-9.93002616180741,0 -36.1460152565425,-9.93005019406109,0 -36.1460177349526,-9.9300739187346,0 -36.1460214505355,-9.93009832493091,0 -36.1460251846342,-9.93012466636223,0 -36.1460302534399,-9.93014943356578,0 -36.1460326217157,-9.93017541390828,0 -36.146031382805,-9.93019951304157,0 -36.1460320590079,-9.93022111040338,0 -36.1460377885464,-9.93024126747806,0 -36.146044393474,-9.93026601755248,0 -36.1460508913651,-9.93029034125269,0 -36.1460573571593,-9.93031646679287,0 -36.1460627200492,-9.9303416520052,0 -36.1460689595644,-9.93036929977648,0 -36.1460668913071,-9.9303931793201,0 -36.1460661721108,-9.93041633375648,0 -36.1460649561496,-9.93043641893124,0 -36.146065526418,-9.93045594390989,0 -36.1460666481663,-9.93047700127596,0 -36.1460703974393,-9.93049452712647,0 -36.1460770772336,-9.93051191304335,0 -36.1460793308635,-9.93053879517667,0 -36.1460828866971,-9.93057197636582,0 -36.1460806447402,-9.93059446223205,0 -36.1460840915878,-9.93061379198271,0 -36.1460963637723,-9.93064267316663,0 -36.1461490680966,-9.93069670598006,0 -36.1461824053728,-9.93074124603544,0 -36.1462116201393,-9.93076535073896,0 -36.1462343975902,-9.93078702971028,0 -36.1462561008253,-9.93081177053089,0 -36.14627658675,-9.93086944032201,0 -36.1462896122896,-9.93090576155689,0 -36.146300348786,-9.93093979769124,0 -36.1463085821022,-9.93096581524333,0 -36.146320932776,-9.93099512307535,0 -36.1463443175585,-9.93101902319112,0 -36.1463616728774,-9.93103724107476,0 -36.1463786655353,-9.9310619131454,0 -36.1463913433908,-9.93108524115982,0 -36.1464078961532,-9.93110725530083,0 -36.1464197332901,-9.93113159010162,0 -36.1464346375117,-9.93115144997707,0 -36.1464483217368,-9.93117486173398,0 -36.1464598169749,-9.93119359653967,0 -36.1464752553704,-9.93121259825615,0 -36.1464958144284,-9.93123653254313,0 -36.1465094493159,-9.93125409732571,0 -36.1465237671703,-9.93127190408923,0 -36.1465401306486,-9.93128580033964,0 -36.1465595831153,-9.93129533341772,0 -36.1465804293871,-9.93131360791264,0 -36.1465990849338,-9.93133012739635,0 -36.1466203670425,-9.93134911542917,0 -36.1466356285948,-9.93136507398346,0 -36.1466598327013,-9.93137843060111,0 -36.1466780325976,-9.93140819506515,0 -36.1466745316978,-9.93143698217759,0 -36.1466721635785,-9.93145612785758,0 -36.1466661253597,-9.93148498453521,0 -36.1466420122718,-9.93150875609274,0 -36.146613643043,-9.93152006887878,0 -36.1465899227027,-9.9315271709816,0 -36.1465614328892,-9.93153465561394,0 -36.1465354961791,-9.93153932718538,0 -36.1465074520786,-9.93154453725053,0 -36.146483648925,-9.93154793082936,0 -36.1464589156078,-9.93155326764584,0 -36.1464383636894,-9.93156220910533,0 -36.1464123622874,-9.93157078817664,0 -36.1463878371088,-9.93157740678093,0 -36.1463699607839,-9.93158317507931,0 -36.1463500176718,-9.93158975329935,0 -36.1463256815869,-9.93159981266195,0 -36.1463014401331,-9.93160720001013,0 -36.1462744956755,-9.93161582202939,0 -36.1462453662173,-9.93161874332337,0 -36.146218026196,-9.93162282292286,0 -36.1461923520974,-9.93161991381553,0 -36.1461720478459,-9.9316190160732,0 -36.1461484404078,-9.93161650242937,0 -36.1461218125406,-9.93161003654805,0 -36.1461021175455,-9.93160415549917,0 -36.1460822572748,-9.93160212050299,0 -36.146052819037,-9.93159763630126,0 -36.1460065665406,-9.93158596000764,0 -36.145960622975,-9.93157436169589,0 -36.1459172282714,-9.9315605196002,0 -36.1458954612684,-9.93154792348565,0 -36.145866827434,-9.93153846114063,0 -36.1458431165438,-9.93152318143131,0 -36.1458208907042,-9.93151558105669,0 -36.1457929076172,-9.93150738522685,0 -36.1457706823108,-9.9314987774564,0 -36.1457454855899,-9.93148847502641,0 -36.1457062742922,-9.93147782135066,0 -36.1456647127636,-9.93146332600889,0 -36.145633702148,-9.93144615411408,0 -36.1456060949755,-9.93143500876666,0 -36.1455824211124,-9.93142046679445,0 -36.1455561858281,-9.93141038323054,0 -36.145532935943,-9.9313935405233,0 -36.1455111383361,-9.93137582788167,0 -36.1454692618903,-9.93135483783886,0 -36.1454370067371,-9.93133988078912,0 -36.1454203965544,-9.93133108861646,0 -36.1453984633845,-9.93132249965752,0 -36.1453698071407,-9.93131091370928,0 -36.145349095784,-9.9312983585078,0 -36.1453294445874,-9.93128431984716,0 -36.1453095265859,-9.93127382435507,0 -36.1452923294397,-9.93125800562031,0 -36.1452704051116,-9.93124336151203,0 -36.1452506996382,-9.93123446305321,0 -36.1452294916077,-9.93122710643053,0 -36.1452055578985,-9.93121038396316,0 -36.1451782725195,-9.93118994689443,0 -36.1451590405405,-9.93117700424054,0 -36.1451380293216,-9.93115884483712,0 -36.1451201345499,-9.93114404955571,0 -36.1450833365814,-9.93112390803406,0 -36.1450601477675,-9.93111005297978,0 -36.1450203158616,-9.93108564939564,0 -36.1450054355014,-9.93107407332518,0 -36.1449896639079,-9.93106262298786,0 -36.1449685778771,-9.9310493363547,0 -36.1449435650308,-9.93103693435208,0 -36.1449230306385,-9.93102057688405,0 -36.1449016811671,-9.93100643997956,0 -36.1448768414074,-9.93099069244806,0 -36.1448550397538,-9.93097100008744,0 -36.1448314393236,-9.93095470059632,0 -36.1448144381092,-9.93093817939393,0 -36.1447933995189,-9.93092552892387,0 -36.1447724897178,-9.93090860629541,0 -36.144752401886,-9.93088780160695,0 -36.1447382191089,-9.93087133372316,0 -36.1447169166336,-9.93085300921912,0 -36.1447005406181,-9.93082987343177,0 -36.144687149643,-9.93081407804474,0 -36.1446769525684,-9.93079746671236,0 -36.1446622449803,-9.93077792558148,0 -36.1446463512647,-9.93075532518199,0 -36.1446362898344,-9.93073247455879,0 -36.1446255748925,-9.93071128319302,0 -36.1446168607118,-9.93068569399238,0 -36.144610874978,-9.93066588251079,0 -36.1446047708601,-9.93064835077614,0 -36.1445985781014,-9.93062961098133,0 -36.1445940349185,-9.93061197518529,0 -36.1445911200688,-9.93059990839813,0 -36.1445825027016,-9.93058256887019,0 -36.1445706712201,-9.93056534469238,0 -36.1445547252464,-9.93054386792879,0 -36.1445434381271,-9.93052576580588,0 -36.1444977172715,-9.93048098397741,0 -36.1444062896648,-9.93041967863755,0 -36.1443877115797,-9.93040544920367,0 -36.1443728051946,-9.93039051173247,0 -36.144259156606,-9.93030114834013,0 -36.1442044265424,-9.93027173977943,0 -36.1441237919185,-9.93019973273455,0 -36.1440718460094,-9.93014126817373,0 -36.1440313428171,-9.93009131339035,0 -36.1439727660409,-9.93004863253478,0 -36.1439447085002,-9.93002382659129,0 -36.1439272627585,-9.9300082465374,0 -36.1439111216719,-9.92999756622008,0 -36.143885904662,-9.92998249317616,0 -36.1438523402166,-9.92995058271661,0 -36.1437865787789,-9.92989462889943,0 -36.1437687016273,-9.92987643036935,0 -36.1437542231842,-9.92985696044388,0 -36.143733040873,-9.9298432619622,0 -36.1436998995751,-9.92981396156057,0 -36.1436750041764,-9.92979223614599,0 -36.1436537101701,-9.92977287713705,0 -36.143636944639,-9.92975456236275,0 -36.1436163224031,-9.92974023654854,0 -36.1436031116164,-9.92973180787033,0 -36.1435875668387,-9.92971787611238,0 -36.1435731298138,-9.92970474413716,0 -36.143559370399,-9.92969280647101,0 -36.1435450736615,-9.92968075088857,0 -36.1435254044219,-9.92965958101703,0 -36.1435026587193,-9.9296405254923,0 -36.1434776980225,-9.92961472370319,0 -36.143458248115,-9.92959850490942,0 -36.1434388857474,-9.92957989511887,0 -36.1434205809883,-9.92955954161501,0 -36.1434005933618,-9.92954367268446,0 -36.1433735633141,-9.92951975961084,0 -36.143357209288,-9.92950450517911,0 -36.143339255191,-9.92948918821306,0 -36.1433116060927,-9.92946933354991,0 -36.1432958474148,-9.92945016099625,0 -36.1432784706069,-9.92943706934856,0 -36.1432611989823,-9.92942586400971,0 -36.1432363081335,-9.92940926884868,0 -36.143222533514,-9.92939126807949,0 -36.1432100620742,-9.9293771491705,0 -36.1431937360058,-9.92936235671702,0 -36.1431729709747,-9.92934633617661,0 -36.143153833025,-9.9293288207825,0 -36.1431344588475,-9.92931320319359,0 -36.1431163095958,-9.92930245685067,0 -36.1431001335422,-9.92928846756403,0 -36.1430851276693,-9.92927625236779,0 -36.1430648105743,-9.92925895233287,0 -36.143044398519,-9.92923827216867,0 -36.1430236899513,-9.92921438716911,0 -36.1430020208995,-9.92919348112849,0 -36.1429790871443,-9.92917269156357,0 -36.1429621987112,-9.92914950148686,0 -36.1429361688499,-9.92911334130292,0 -36.1429240425337,-9.92909020734068,0 -36.1429081279395,-9.92906949034532,0 -36.1428914279495,-9.92904615128565,0 -36.142880566086,-9.92902588411898,0 -36.1428650096596,-9.92900334653694,0 -36.1428500235184,-9.92898025387154,0 -36.1428373181614,-9.92895676367891,0 -36.1428223592,-9.92893349238826,0 -36.1428055561208,-9.92891317167827,0 -36.142776537128,-9.92886918564385,0 -36.1427647887308,-9.92884687298427,0 -36.1427493701408,-9.92882858703152,0 -36.1427207113743,-9.92880514304884,0 -36.1427055531986,-9.92878221993753,0 -36.1426916203107,-9.92875906173793,0 -36.1426777819878,-9.92873531577118,0 -36.1426627759135,-9.92871260651873,0 -36.1426489323552,-9.92868979717681,0 -36.1426351507471,-9.92866716693412,0 -36.1426205258847,-9.92864250730686,0 -36.1426105701822,-9.9286167707038,0 -36.1425998440781,-9.92859522938059,0 -36.1425849251198,-9.92857229367999,0 -36.1425701232671,-9.9285476702436,0 -36.1425585295718,-9.92852076111299,0 -36.1425476555014,-9.92849500925317,0 -36.1425356696886,-9.92846839912369,0 -36.1425286212205,-9.9284446210149,0 -36.1425233100095,-9.92841886568526,0 -36.1425211961648,-9.92839521234673,0 -36.1425180057371,-9.92837133199887,0 -36.1425144428234,-9.92834603443421,0 -36.1425024775058,-9.92831901680514,0 -36.1424965060159,-9.92829953016878,0 -36.1424912059539,-9.92828028234159,0 -36.142490380993,-9.9282514487521,0 -36.1424884986186,-9.92822672653723,0 -36.1424847402514,-9.9282055158485,0 -36.1424787833515,-9.92818251572027,0 -36.1424826448265,-9.92806481430484,0 -36.1424817956666,-9.92799001721578,0 -36.1424783678907,-9.92790840781785,0 -36.1424730800035,-9.92785784952042,0 -36.1424761674784,-9.92781580888071,0 -36.1424776976452,-9.92778183776198,0 -36.1424814983578,-9.92776086998988,0 -36.1424840265533,-9.92773710329613,0 -36.1424851746305,-9.92771566997458,0 -36.1424859589269,-9.92769110100648,0 -36.1424894933757,-9.9276607695051,0 -36.142494511652,-9.92763951137048,0 -36.1424978187717,-9.9276258238054,0 -36.1425016077114,-9.92760670629491,0 -36.1425062027738,-9.92758378672071,0 -36.1425092899444,-9.92756603620017,0 -36.1425144648137,-9.92753542859023,0 -36.1425193188413,-9.92751339858475,0 -36.1425171834685,-9.9274886503804,0 -36.1425251565406,-9.92735680296843,0 -36.1424920070365,-9.92728810923933,0 -36.1424546380001,-9.92724684408153,0 -36.1424223178553,-9.92722730105837,0 -36.1423946777486,-9.92721103174394,0 -36.1423722911958,-9.92719734250986,0 -36.1423479578464,-9.92718566523491,0 -36.1423226508174,-9.92718540444718,0 -36.1423001760829,-9.92718721500942,0 -36.1422752560654,-9.92718852556517,0 -36.1422489247223,-9.92718947397878,0 -36.1422219750178,-9.92718904186608,0 -36.1421916585656,-9.92719193456112,0 -36.1421723080882,-9.92719292721009,0 -36.1421523980631,-9.9271978926087,0 -36.142131606097,-9.92720051756033,0 -36.1421031738482,-9.92720405453669,0 -36.142074013256,-9.92720684361737,0 -36.1420469977051,-9.92720921054446,0 -36.1420242411513,-9.92721292494752,0 -36.14199254656,-9.92721558050899,0 -36.141957846363,-9.92721988042296,0 -36.1419359336486,-9.9272231540175,0 -36.1419077845067,-9.92723093601107,0 -36.1418782735967,-9.92723531262057,0 -36.1418542190207,-9.92723449621453,0 -36.1418347697016,-9.92723327371378,0 -36.1418139262367,-9.92723233035201,0 -36.1417947410184,-9.92723243445932,0 -36.1417760266111,-9.92723085529608,0 -36.1417533942578,-9.92723488576512,0 -36.1417301385491,-9.92724255120043,0 -36.1417069145784,-9.92725613360209,0 -36.1416831191705,-9.92726768537512,0 -36.1416583726632,-9.92727153253503,0 -36.1416323286828,-9.92727803475238,0 -36.1416032160986,-9.92727864030594,0 -36.1415773759491,-9.92728572774157,0 -36.1415600330263,-9.92728736700968,0 -36.1415367595252,-9.92729649271419,0 -36.1415134461181,-9.92730940488138,0 -36.1414928702418,-9.92732625949519,0 -36.1414804779667,-9.92734690888182,0 -36.1414695273132,-9.92736992786431,0 -36.1414671055823,-9.92738812602211,0 -36.1414657563085,-9.92741045429792,0 -36.1414655564578,-9.92743276680884,0 -36.1414645544938,-9.92744656863812,0 -36.141463898638,-9.92746696916106,0 -36.1414674468238,-9.92749376238109,0 -36.1414713904333,-9.92752145945659,0 -36.1414710756082,-9.92754921771883,0 -36.1414748646059,-9.92757661697207,0 -36.141469067129,-9.92761159221539,0 -36.1414612768604,-9.92763810420204,0 -36.14145167143,-9.92765944233236,0 -36.1414447784842,-9.9276836516513,0 -36.1414414167611,-9.9277098133982,0 -36.1414355026683,-9.92773179021592,0 -36.1414233295665,-9.9277590773512,0 -36.1414075957717,-9.92779197848781,0 -36.1413962793555,-9.92782087348382,0 -36.1413821140652,-9.92784633786108,0 -36.1413651390703,-9.92787014131544,0 -36.1413474736004,-9.92789313835916,0 -36.1413292611215,-9.92791468579793,0 -36.1413086710285,-9.92793469916315,0 -36.1412886594926,-9.9279541111852,0 -36.1412696692028,-9.92797383846075,0 -36.1412499102726,-9.92799431210313,0 -36.141229126074,-9.92801452364941,0 -36.1412088040116,-9.92803545495406,0 -36.141191200813,-9.92805745926215,0 -36.1411771386792,-9.92808110609287,0 -36.1411666833857,-9.92810638514898,0 -36.1411575860266,-9.92813418475775,0 -36.1411447969694,-9.92815952643851,0 -36.141137766978,-9.92818836774608,0 -36.141109289773,-9.92822805269956,0 -36.1410407723931,-9.928219764157,0 -36.1410340762678,-9.92821170797043,0 -36.1410342482831,-9.92840098716271,0</coordinates></LinearRing></outerBoundaryIs></Polygon></MultiGeometry>
  </Placemark>
</Folder>
</Document></kml>
