<?xml version="1.0" encoding="utf-8" ?>
<kml xmlns="http://www.opengis.net/kml/2.2">
<Document id="root_doc">
<Schema name="NOVO_TALHAO_1025_ID_1158" id="NOVO_TALHAO_1025_ID_1158">
	<SimpleField name="TALHAO" type="string"></SimpleField>
	<SimpleField name="FAZENDA" type="string"></SimpleField>
	<SimpleField name="ZONA" type="string"></SimpleField>
	<SimpleField name="ID" type="float"></SimpleField>
	<SimpleField name="AREA_TOTAL" type="float"></SimpleField>
	<SimpleField name="FAZ_NOME" type="string"></SimpleField>
	<SimpleField name="CODE" type="string"></SimpleField>
</Schema>
<Folder><name>NOVO_TALHAO_1025_ID_1158</name>
  <Placemark id="NOVO_TALHAO_1025_ID_1158.1">
	<Style><LineStyle><color>ff0000ff</color></LineStyle><PolyStyle><fill>0</fill></PolyStyle></Style>
	<ExtendedData><SchemaData schemaUrl="#NOVO_TALHAO_1025_ID_1158">
		<SimpleData name="TALHAO">1025</SimpleData>
		<SimpleData name="FAZENDA">1943</SimpleData>
		<SimpleData name="ZONA">1</SimpleData>
		<SimpleData name="ID">1158</SimpleData>
		<SimpleData name="AREA_TOTAL">10.79</SimpleData>
		<SimpleData name="FAZ_NOME">NOVO</SimpleData>
		<SimpleData name="CODE"></SimpleData>
	</SchemaData></ExtendedData>
      <MultiGeometry><Polygon><outerBoundaryIs><LinearRing><coordinates>-36.1496822737459,-9.90503920204614,0 -36.1478108969833,-9.90140184249483,0 -36.1477242482809,-9.90140360517704,0 -36.1476382981869,-9.90141580690026,0 -36.1475143847174,-9.90144063261258,0 -36.1474546857597,-9.90144837092232,0 -36.1473577893992,-9.9014583574018,0 -36.1472179257481,-9.90148001446961,0 -36.147132097888,-9.9014994958886,0 -36.1469837131817,-9.90153005707006,0 -36.1469251086374,-9.90154010259714,0 -36.1468526341524,-9.9015564829052,0 -36.1467894888926,-9.90157946482539,0 -36.146711799053,-9.9016035922831,0 -36.1466250681817,-9.90162979662307,0 -36.1465514138583,-9.90163836185301,0 -36.1464735573804,-9.90164905016375,0 -36.1464106343262,-9.90165950206245,0 -36.1463233018437,-9.9016722654891,0 -36.146281625884,-9.90167743123277,0 -36.1462534583357,-9.90168539364099,0 -36.1462046775676,-9.90170226289746,0 -36.1461707208059,-9.90171611026555,0 -36.1461325763449,-9.90173931248233,0 -36.1461128331775,-9.90175581652143,0 -36.146093737464,-9.90178322392128,0 -36.1460718884469,-9.90179914601045,0 -36.1460557853462,-9.90181391492696,0 -36.1460376277586,-9.90183118075515,0 -36.1460222474309,-9.90184858778848,0 -36.1460083037235,-9.9018660145014,0 -36.1459989041622,-9.90188278267277,0 -36.1459892698465,-9.90190511034158,0 -36.1459776173017,-9.90192651864736,0 -36.1459681344161,-9.90194839619631,0 -36.1459585260006,-9.90196997708703,0 -36.1459494422341,-9.90199278851364,0 -36.1459407930744,-9.90201420132969,0 -36.1459329404265,-9.90203598448546,0 -36.1459247739961,-9.90205847010129,0 -36.1459174388565,-9.90207935148801,0 -36.1459081929238,-9.90211725564664,0 -36.1479561200588,-9.90600646422096,0 -36.1496645873019,-9.90512827994742,0 -36.1496701341155,-9.90511275299579,0 -36.1496756848657,-9.90509549969974,0 -36.1496782022339,-9.90507525768826,0 -36.1496808595251,-9.90505584589262,0 -36.1496822737459,-9.90503920204614,0</coordinates></LinearRing></outerBoundaryIs></Polygon></MultiGeometry>
  </Placemark>
</Folder>
</Document></kml>
