<?xml version="1.0" encoding="utf-8" ?>
<kml xmlns="http://www.opengis.net/kml/2.2">
<Document id="root_doc">
<Schema name="NOVO_TALHAO_1004_ID_1309" id="NOVO_TALHAO_1004_ID_1309">
	<SimpleField name="TALHAO" type="string"></SimpleField>
	<SimpleField name="FAZENDA" type="string"></SimpleField>
	<SimpleField name="ZONA" type="string"></SimpleField>
	<SimpleField name="ID" type="float"></SimpleField>
	<SimpleField name="AREA_TOTAL" type="float"></SimpleField>
	<SimpleField name="FAZ_NOME" type="string"></SimpleField>
	<SimpleField name="CODE" type="string"></SimpleField>
</Schema>
<Folder><name>NOVO_TALHAO_1004_ID_1309</name>
  <Placemark id="NOVO_TALHAO_1004_ID_1309.1">
	<Style><LineStyle><color>ff0000ff</color></LineStyle><PolyStyle><fill>0</fill></PolyStyle></Style>
	<ExtendedData><SchemaData schemaUrl="#NOVO_TALHAO_1004_ID_1309">
		<SimpleData name="TALHAO">1004</SimpleData>
		<SimpleData name="FAZENDA">1943</SimpleData>
		<SimpleData name="ZONA">1</SimpleData>
		<SimpleData name="ID">1309</SimpleData>
		<SimpleData name="AREA_TOTAL">1.20</SimpleData>
		<SimpleData name="FAZ_NOME">NOVO</SimpleData>
		<SimpleData name="CODE"></SimpleData>
	</SchemaData></ExtendedData>
      <MultiGeometry><Polygon><outerBoundaryIs><LinearRing><coordinates>-36.1590747297402,-9.90869650087668,0 -36.1590848789141,-9.90868148073101,0 -36.1586870369348,-9.90874917784308,0 -36.1585281087154,-9.90877001920717,0 -36.1580155659483,-9.90883713088635,0 -36.157874783026,-9.90886206430214,0 -36.1576623533038,-9.90889016024645,0 -36.1575502067832,-9.90891036147523,0 -36.1574451493641,-9.90888614638801,0 -36.1574039665626,-9.90885068889069,0 -36.1572682050566,-9.90869188219756,0 -36.1572689449953,-9.90869666974369,0 -36.157272921586,-9.90872450969335,0 -36.157277482157,-9.90874877843947,0 -36.1572856043979,-9.90876368129885,0 -36.1572950547778,-9.90879261509096,0 -36.1573036613764,-9.90881920164482,0 -36.157313177337,-9.9088476703887,0 -36.1573235399285,-9.90886361087457,0 -36.1573348028359,-9.90889208886176,0 -36.1573412104764,-9.90891421124287,0 -36.1573486469621,-9.90893356416727,0 -36.1573604487286,-9.90895470035359,0 -36.1573758505346,-9.90897504981599,0 -36.1573907250138,-9.9090027302305,0 -36.1573977977649,-9.90903200822115,0 -36.157405665908,-9.90905872975704,0 -36.1574139823085,-9.90908478911767,0 -36.1574195210671,-9.90911114809711,0 -36.1574271002208,-9.90913715836341,0 -36.1574326979645,-9.9091635539097,0 -36.157441525505,-9.90919014933813,0 -36.1574464014933,-9.90921820000357,0 -36.1574532843827,-9.90924505718365,0 -36.1574609923788,-9.90927182275547,0 -36.1574676298634,-9.90929521617795,0 -36.1574901701248,-9.90931848365312,0 -36.1574928141724,-9.90935058301294,0 -36.1575049378962,-9.9093732128856,0 -36.1575138665855,-9.90940234880973,0 -36.1575215889754,-9.90942035547995,0 -36.1575358832575,-9.90943460959212,0 -36.1575583026156,-9.90944794628308,0 -36.1575761641802,-9.90946767170871,0 -36.1575977017544,-9.90948191998962,0 -36.1576169010215,-9.90949839345139,0 -36.1576389898242,-9.90951519339283,0 -36.1576597609762,-9.90952273853608,0 -36.1576878308057,-9.90952736484269,0 -36.1577152935049,-9.90953479692116,0 -36.157739329995,-9.90953873619711,0 -36.1577646433324,-9.90953794544732,0 -36.1577952483696,-9.90954123311629,0 -36.1578219494926,-9.90953835473202,0 -36.1578573284728,-9.90953610701659,0 -36.1578785304737,-9.90954227439447,0 -36.1579039710169,-9.90953734868142,0 -36.1579355688878,-9.9095275045213,0 -36.1579671491204,-9.90952587194788,0 -36.1579975354532,-9.90952538195189,0 -36.1580271349556,-9.90952889354355,0 -36.1580546784807,-9.90953257038963,0 -36.1580817951067,-9.90953351780818,0 -36.1581136685786,-9.90953321966202,0 -36.1581467821223,-9.90954260542104,0 -36.1581705702092,-9.9095467450885,0 -36.1581975888895,-9.90955070251483,0 -36.1582257811534,-9.90954963318695,0 -36.15825520727,-9.90954954042275,0 -36.1582827402145,-9.90954953919828,0 -36.1583109541221,-9.90954798216374,0 -36.1583387687379,-9.90954597428405,0 -36.158367810146,-9.90954357038806,0 -36.1583948217527,-9.90953954415811,0 -36.1584220215793,-9.90953482299479,0 -36.158448470361,-9.90952916043632,0 -36.1584747391691,-9.90951974674465,0 -36.1585012901606,-9.9095110395255,0 -36.1585255120229,-9.90950045505172,0 -36.158549520629,-9.90948705412355,0 -36.158574013226,-9.90947431012728,0 -36.1585954108522,-9.90945984856292,0 -36.1586150504956,-9.90944335930456,0 -36.1586344208291,-9.9094256091463,0 -36.1586536760673,-9.90940846696663,0 -36.1586750741501,-9.90937896127575,0 -36.1586888839068,-9.90936085537601,0 -36.158707328218,-9.90932153940035,0 -36.1587234961653,-9.90929738366943,0 -36.1587370215492,-9.90927416326029,0 -36.1587503122183,-9.90924783152047,0 -36.1587644560265,-9.90922349923095,0 -36.1587801561564,-9.90920531068313,0 -36.1587946462574,-9.90918392515345,0 -36.1588099666063,-9.9091618827687,0 -36.1588224808171,-9.90913982742799,0 -36.1588353931346,-9.90911794674273,0 -36.1588546038078,-9.90909334434498,0 -36.1588683713848,-9.90907488592483,0 -36.1588810029399,-9.9090513963298,0 -36.1588973883479,-9.9090279415334,0 -36.1589104504758,-9.90900935265158,0 -36.1589230091502,-9.90897763163738,0 -36.1589421524109,-9.90894871029873,0 -36.1589552438542,-9.9089350045207,0 -36.1589642264128,-9.90891899083651,0 -36.1589726791801,-9.90890018165674,0 -36.158987180508,-9.90887385135628,0 -36.1590040019934,-9.90885321063492,0 -36.159013632059,-9.90883148868125,0 -36.1590185686064,-9.90880555341738,0 -36.1590313444204,-9.9087796293648,0 -36.1590432003624,-9.90875778455721,0 -36.1590525427354,-9.90873866298869,0 -36.1590603234152,-9.90871554059388,0 -36.1590747297402,-9.90869650087668,0</coordinates></LinearRing></outerBoundaryIs></Polygon></MultiGeometry>
  </Placemark>
</Folder>
</Document></kml>
