<?xml version="1.0" encoding="UTF-8"?>
<kml xmlns="http://www.opengis.net/kml/2.2" xmlns:gx="http://www.google.com/kml/ext/2.2" xmlns:kml="http://www.opengis.net/kml/2.2" xmlns:atom="http://www.w3.org/2005/Atom">
<Document>
  <name>1044.kml</name>
  <StyleMap id="FFFF4000">
    <Pair>
      <key>normal</key>
      <styleUrl>#s_FFFF4000</styleUrl>
    </Pair>
    <Pair>
      <key>highlight</key>
      <styleUrl>#s_FFFF4000_hl</styleUrl>
    </Pair>
  </StyleMap>
  <Style id="s_FFFF4000">
   <IconStyle>
      <scale>1.1</scale>
      <Icon>
        <href>http://maps.google.com/mapfiles/kml/pushpin/agrocad.png</href>
      </Icon>
      <hotSpot x="20" y="2" xunits="pixels" yunits="pixels"/>
    </IconStyle>
    <LineStyle>
      <color>FFFF4000</color>
      <width>1</width>
    </LineStyle>
    <PolyStyle>
      <color>40ffffff</color>
      <fill>1</fill>
    </PolyStyle>
  </Style>
  <Style id="s_FFFF4000_hl">
    <IconStyle>
      <scale>1.3</scale>
      <Icon>
        <href>http://maps.google.com/mapfiles/kml/pushpin/agrocad.png</href>
      </Icon>
      <hotSpot x="20" y="2" xunits="pixels" yunits="pixels"/>
    </IconStyle>
    <LineStyle>
      <color>ff000000</color>
      <width>1</width>
    </LineStyle>
    <PolyStyle>
      <color>40ffffff</color>
      <fill>1</fill>
    </PolyStyle>
  </Style>
  <Placemark>
    <name>AgroCAD: 9105</name>
    <styleUrl>FFFF4000</styleUrl>
    <Polygon>
      <outerBoundaryIs>
        <LinearRing>
          <coordinates>
           -36.19228709766369,-9.82239097618880 -36.19468117549745,-9.82309460037866 -36.19469356776634,-9.82309013959207 -36.19495543195484,-9.82299721835551 -36.19513143500269,-9.82293527419826 -36.19524447638752,-9.82289162027202 -36.19534691598345,-9.82285140068612 -36.19544644892290,-9.82281374252261 -36.19555651910005,-9.82277139266532 -36.19567876047278,-9.82272079900965 -36.19579720442324,-9.82268077482656 -36.19590631823148,-9.82265375194671 -36.19600578841590,-9.82263507845189 -36.19610062589734,-9.82261889842423 -36.19618061688566,-9.82260097126573 -36.19621063572222,-9.82259417008931 -36.19628644131797,-9.82257605932264 -36.19636832484723,-9.82255207888850 -36.19645560457098,-9.82252574916137 -36.19654085752080,-9.82249771461505 -36.19661634485180,-9.82246590968735 -36.19669300518873,-9.82242704521403 -36.19677118856688,-9.82238162094775 -36.19684607677175,-9.82233512060012 -36.19691539795644,-9.82228566362517 -36.19697355532724,-9.82223087671772 -36.19703054213217,-9.82216401854828 -36.19710905491159,-9.82206399471776 -36.19716560091237,-9.82197507426304 -36.19719709700258,-9.82190345972847 -36.19722275267160,-9.82182336592585 -36.19727335325843,-9.82168584303749 -36.19731846126722,-9.82158195338490 -36.19735450802089,-9.82149451322329 -36.19739073222127,-9.82141170096605 -36.19742165920475,-9.82133674756164 -36.19750945487443,-9.82113252744068 -36.19756097982664,-9.82102383909310 -36.19760484134719,-9.82091678988789 -36.19764678938191,-9.82081213671284 -36.19768005338774,-9.82071866938099 -36.19770753120277,-9.82063712421070 -36.19772923666968,-9.82055083486896 -36.19774669717255,-9.82046524491898 -36.19775359417112,-9.82038194643255 -36.19774858167450,-9.82030007493924 -36.19774236652931,-9.82022280916869 -36.19773983768425,-9.82015739273159 -36.19773807665700,-9.82008759064882 -36.19773275009109,-9.82001782062421 -36.19772160283579,-9.81994452088800 -36.19769761882242,-9.81987380056403 -36.19766627964464,-9.81982637203867 -36.19762242170977,-9.81978376533075 -36.19756133399668,-9.81974700361126 -36.19748434554046,-9.81971911646652 -36.19741131660346,-9.81969688203594 -36.19734795801917,-9.81967549840265 -36.19727448892049,-9.81964532353640 -36.19720673378817,-9.81961579271610 -36.19712512428908,-9.81957739270820 -36.19705335272471,-9.81953424183108 -36.19699045691525,-9.81949647678728 -36.19345162580110,-9.81848250776581 -36.19228709766369,-9.82239097618880
          </coordinates>
        </LinearRing>
      </outerBoundaryIs>
    </Polygon>
  </Placemark>
</Document>
</kml>
