<?xml version="1.0" encoding="UTF-8"?>
<kml xmlns="http://www.opengis.net/kml/2.2" xmlns:gx="http://www.google.com/kml/ext/2.2" xmlns:kml="http://www.opengis.net/kml/2.2" xmlns:atom="http://www.w3.org/2005/Atom">
<Document>
  <name>1003.kml</name>
  <StyleMap id="FFFF4000">
    <Pair>
      <key>normal</key>
      <styleUrl>#s_FFFF4000</styleUrl>
    </Pair>
    <Pair>
      <key>highlight</key>
      <styleUrl>#s_FFFF4000_hl</styleUrl>
    </Pair>
  </StyleMap>
  <Style id="s_FFFF4000">
   <IconStyle>
      <scale>1.1</scale>
      <Icon>
        <href>http://maps.google.com/mapfiles/kml/pushpin/agrocad.png</href>
      </Icon>
      <hotSpot x="20" y="2" xunits="pixels" yunits="pixels"/>
    </IconStyle>
    <LineStyle>
      <color>FFFF4000</color>
      <width>1</width>
    </LineStyle>
    <PolyStyle>
      <color>40ffffff</color>
      <fill>1</fill>
    </PolyStyle>
  </Style>
  <Style id="s_FFFF4000_hl">
    <IconStyle>
      <scale>1.3</scale>
      <Icon>
        <href>http://maps.google.com/mapfiles/kml/pushpin/agrocad.png</href>
      </Icon>
      <hotSpot x="20" y="2" xunits="pixels" yunits="pixels"/>
    </IconStyle>
    <LineStyle>
      <color>ff000000</color>
      <width>1</width>
    </LineStyle>
    <PolyStyle>
      <color>40ffffff</color>
      <fill>1</fill>
    </PolyStyle>
  </Style>
  <Placemark>
    <name>AgroCAD: 8F9D</name>
    <styleUrl>FFFF4000</styleUrl>
    <Polygon>
      <outerBoundaryIs>
        <LinearRing>
          <coordinates>
           -36.18016140260046,-9.84468953114173 -36.17999483740098,-9.84456043105029 -36.17996296277249,-9.84463334589513 -36.17991250036455,-9.84470977542921 -36.17985919222269,-9.84479761005695 -36.17787156984217,-9.84727022011374 -36.17778599844986,-9.84737619887681 -36.17825364472882,-9.84773678372939 -36.17827712905882,-9.84769963890306 -36.17848521753216,-9.84733063306966 -36.17859203355607,-9.84714507863507 -36.17869442628660,-9.84700685032459 -36.17883411101351,-9.84683420358659 -36.17892435832245,-9.84672236118562 -36.17902046481530,-9.84660391500902 -36.17928525087319,-9.84627737311828 -36.17936212268859,-9.84618164700563 -36.17945619385859,-9.84609172777256 -36.17961963382279,-9.84593236428101 -36.17964870656798,-9.84590193229215 -36.17967921475838,-9.84587305684404 -36.17971294259631,-9.84583408145720 -36.17974631478797,-9.84579017533486 -36.17977390764686,-9.84574724623440 -36.17980219192182,-9.84570647864090 -36.17982648855050,-9.84566472812369 -36.17985419561023,-9.84562309281195 -36.17987734063280,-9.84558351148325 -36.17988959916954,-9.84555797857170 -36.17991425624892,-9.84550797191041 -36.17993328593824,-9.84545543527218 -36.17995235802773,-9.84540461138218 -36.17996588928413,-9.84535384879794 -36.17997835008377,-9.84530514544292 -36.17999415236202,-9.84525246321603 -36.18000854019591,-9.84520324983105 -36.18002508336464,-9.84515333593500 -36.18007683648754,-9.84496862411069 -36.18011030985674,-9.84486080146411 -36.18014533203515,-9.84473249826646 -36.18016170814739,-9.84468976796260 -36.18016140260046,-9.84468953114173
          </coordinates>
        </LinearRing>
      </outerBoundaryIs>
    </Polygon>
  </Placemark>
  <Placemark>
    <name>AgroCAD: 8F9A</name>
    <styleUrl>FFFF4000</styleUrl>
    <Polygon>
      <outerBoundaryIs>
        <LinearRing>
          <coordinates>
           -36.17450371855789,-9.84484531940178 -36.17770782360162,-9.84731592100713 -36.17802247705090,-9.84692594642667 -36.17848484887575,-9.84633268063271 -36.17889263947769,-9.84581241128520 -36.17910863445604,-9.84553529254594 -36.17938998290379,-9.84518507719848 -36.17949103869991,-9.84505455671942 -36.17957691506524,-9.84494144352747 -36.17966537882371,-9.84482891747972 -36.17973967383012,-9.84472676454783 -36.17977848681898,-9.84467455682667 -36.17982624453157,-9.84460370154627 -36.17984932143972,-9.84454814086309 -36.17988128533219,-9.84447241988543 -36.17673045159421,-9.84203026445590 -36.17450371855789,-9.84484531940178
          </coordinates>
        </LinearRing>
      </outerBoundaryIs>
    </Polygon>
  </Placemark>
</Document>
</kml>
