<?xml version="1.0" encoding="UTF-8"?>
<kml xmlns="http://www.opengis.net/kml/2.2" xmlns:gx="http://www.google.com/kml/ext/2.2" xmlns:kml="http://www.opengis.net/kml/2.2" xmlns:atom="http://www.w3.org/2005/Atom">
<Document>
  <name>1001.kml</name>
  <StyleMap id="FFFF4000">
    <Pair>
      <key>normal</key>
      <styleUrl>#s_FFFF4000</styleUrl>
    </Pair>
    <Pair>
      <key>highlight</key>
      <styleUrl>#s_FFFF4000_hl</styleUrl>
    </Pair>
  </StyleMap>
  <Style id="s_FFFF4000">
   <IconStyle>
      <scale>1.1</scale>
      <Icon>
        <href>http://maps.google.com/mapfiles/kml/pushpin/agrocad.png</href>
      </Icon>
      <hotSpot x="20" y="2" xunits="pixels" yunits="pixels"/>
    </IconStyle>
    <LineStyle>
      <color>FFFF4000</color>
      <width>1</width>
    </LineStyle>
    <PolyStyle>
      <color>40ffffff</color>
      <fill>1</fill>
    </PolyStyle>
  </Style>
  <Style id="s_FFFF4000_hl">
    <IconStyle>
      <scale>1.3</scale>
      <Icon>
        <href>http://maps.google.com/mapfiles/kml/pushpin/agrocad.png</href>
      </Icon>
      <hotSpot x="20" y="2" xunits="pixels" yunits="pixels"/>
    </IconStyle>
    <LineStyle>
      <color>ff000000</color>
      <width>1</width>
    </LineStyle>
    <PolyStyle>
      <color>40ffffff</color>
      <fill>1</fill>
    </PolyStyle>
  </Style>
  <Placemark>
    <name>AgroCAD: 8FA0</name>
    <styleUrl>FFFF4000</styleUrl>
    <Polygon>
      <outerBoundaryIs>
        <LinearRing>
          <coordinates>
           -36.17298449295976,-9.84677398672505 -36.17492528234687,-9.84827063137407 -36.17490299478716,-9.84827849539298 -36.17486079395289,-9.84828272672850 -36.17481299108272,-9.84828328989429 -36.17470852385046,-9.84829107749130 -36.17465460260576,-9.84829419818233 -36.17460055331655,-9.84829697345766 -36.17456853411191,-9.84829944540889 -36.17439691086956,-9.84831650340832 -36.17432940941541,-9.84832603141993 -36.17427282217298,-9.84833310213500 -36.17421853285512,-9.84834389545455 -36.17416524311655,-9.84835314152855 -36.17410960958105,-9.84836200944604 -36.17405656950722,-9.84837277592884 -36.17400328517813,-9.84838351430011 -36.17394653079923,-9.84839449694791 -36.17388930494194,-9.84840429949830 -36.17383359998628,-9.84841734652853 -36.17377919072846,-9.84843043438077 -36.17372266654696,-9.84844383468923 -36.17367008755349,-9.84845868374187 -36.17361824425574,-9.84847129725148 -36.17356698009287,-9.84848632697173 -36.17351806860692,-9.84850298482933 -36.17347327072662,-9.84851274194315 -36.17344156551418,-9.84851922460028 -36.17337078903088,-9.84853296410831 -36.17323092811645,-9.84856908061012 -36.17317649459755,-9.84858240530635 -36.17312232199694,-9.84859407237658 -36.17307264126464,-9.84860668894246 -36.17293779890289,-9.84862741484099 -36.17288155929301,-9.84863467012518 -36.17282370458822,-9.84864300446829 -36.17276813447644,-9.84865279713321 -36.17270837488718,-9.84865806609710 -36.17265150665993,-9.84866349069697 -36.17259423849684,-9.84867194680926 -36.17254618080320,-9.84867731218882 -36.17244089174665,-9.84869541868415 -36.17232853131979,-9.84872873780365 -36.17229632376373,-9.84873557115616 -36.17212167830770,-9.84879009859181 -36.17201523406794,-9.84884426928214 -36.17197379739341,-9.84886339801459 -36.17192451508099,-9.84888579336122 -36.17187527605110,-9.84890754357032 -36.17182451036804,-9.84893135830398 -36.17177682915148,-9.84895346731691 -36.17172740241630,-9.84897825183569 -36.17167664932139,-9.84900300312750 -36.17162732196640,-9.84902919241950 -36.17157650875638,-9.84905526406308 -36.17152834026784,-9.84908501850588 -36.17147706839399,-9.84910818756750 -36.17142613025017,-9.84913758484136 -36.17137767841783,-9.84917257531203 -36.17133067558500,-9.84920797207931 -36.17128346780559,-9.84924620625114 -36.17123846456262,-9.84928633353851 -36.17118003062614,-9.84933498735408 -36.17114456265303,-9.84936573750528 -36.17110051703261,-9.84940598590917 -36.17105674527400,-9.84944457843861 -36.17101384177607,-9.84948247246961 -36.17095726574238,-9.84952744259376 -36.17091737763476,-9.84956498773214 -36.17086984293826,-9.84960493731274 -36.17082109159761,-9.84964139389792 -36.17077577705860,-9.84967485312063 -36.17073873216657,-9.84970354522280 -36.17065043562651,-9.84975809261097 -36.17055640442051,-9.84981931131753 -36.17048706041312,-9.84987044418384 -36.17045213341766,-9.84989022072267 -36.17045055258704,-9.84986609997383 -36.17048971420530,-9.84979985858259 -36.17053061775121,-9.84973706126424 -36.17065145304423,-9.84956179515141 -36.17077307261624,-9.84938523825512 -36.17094548901466,-9.84916166150197 -36.17114456842244,-9.84893662859222 -36.17137232267957,-9.84868970759427 -36.17162333649081,-9.84842722452695 -36.17178124503554,-9.84825564655022 -36.17194111791581,-9.84806869945474 -36.17208677910798,-9.84788913032927 -36.17281648432604,-9.84697745972399 -36.17298449295976,-9.84677398672505
          </coordinates>
        </LinearRing>
      </outerBoundaryIs>
    </Polygon>
  </Placemark>
</Document>
</kml>
