<?xml version="1.0" encoding="UTF-8"?>
<kml xmlns="http://www.opengis.net/kml/2.2" xmlns:gx="http://www.google.com/kml/ext/2.2" xmlns:kml="http://www.opengis.net/kml/2.2" xmlns:atom="http://www.w3.org/2005/Atom">
<Document>
  <name>1002.kml</name>
  <StyleMap id="FFFF4000">
    <Pair>
      <key>normal</key>
      <styleUrl>#s_FFFF4000</styleUrl>
    </Pair>
    <Pair>
      <key>highlight</key>
      <styleUrl>#s_FFFF4000_hl</styleUrl>
    </Pair>
  </StyleMap>
  <Style id="s_FFFF4000">
   <IconStyle>
      <scale>1.1</scale>
      <Icon>
        <href>http://maps.google.com/mapfiles/kml/pushpin/agrocad.png</href>
      </Icon>
      <hotSpot x="20" y="2" xunits="pixels" yunits="pixels"/>
    </IconStyle>
    <LineStyle>
      <color>FFFF4000</color>
      <width>1</width>
    </LineStyle>
    <PolyStyle>
      <color>40ffffff</color>
      <fill>1</fill>
    </PolyStyle>
  </Style>
  <Style id="s_FFFF4000_hl">
    <IconStyle>
      <scale>1.3</scale>
      <Icon>
        <href>http://maps.google.com/mapfiles/kml/pushpin/agrocad.png</href>
      </Icon>
      <hotSpot x="20" y="2" xunits="pixels" yunits="pixels"/>
    </IconStyle>
    <LineStyle>
      <color>ff000000</color>
      <width>1</width>
    </LineStyle>
    <PolyStyle>
      <color>40ffffff</color>
      <fill>1</fill>
    </PolyStyle>
  </Style>
  <Placemark>
    <name>AgroCAD: 8F9F</name>
    <styleUrl>FFFF4000</styleUrl>
    <Polygon>
      <outerBoundaryIs>
        <LinearRing>
          <coordinates>
           -36.17496619620015,-9.84825629228438 -36.17508841528918,-9.84828310501151 -36.17511295020523,-9.84828549821775 -36.17516985122893,-9.84828929771338 -36.17522653230142,-9.84829381990629 -36.17528523941713,-9.84830087757589 -36.17534315385908,-9.84830725113904 -36.17540171533275,-9.84831279566248 -36.17545759850916,-9.84831848691824 -36.17551510883784,-9.84832656230139 -36.17558675910982,-9.84833921354594 -36.17564269659669,-9.84834807181614 -36.17577473304666,-9.84835649550302 -36.17582301507627,-9.84835887113493 -36.17587839908176,-9.84835682544112 -36.17593515577630,-9.84835443308873 -36.17599557501047,-9.84835396341309 -36.17614358472887,-9.84838045321348 -36.17616853469236,-9.84838965343712 -36.17621559606990,-9.84840182047818 -36.17627174729210,-9.84841332831165 -36.17632525255750,-9.84842984393115 -36.17637819198451,-9.84844701708809 -36.17643039954771,-9.84846230925447 -36.17648140739522,-9.84847462647645 -36.17653323207330,-9.84848607561488 -36.17658806203769,-9.84849560791634 -36.17664238494106,-9.84849960267573 -36.17677083117205,-9.84849396339090 -36.17688195317889,-9.84847748223981 -36.17702191549558,-9.84844575587655 -36.17716904462946,-9.84840415438569 -36.17732079573729,-9.84835312181890 -36.17749826305685,-9.84829495816673 -36.17758106125833,-9.84824429444267 -36.17769042803933,-9.84816462966326 -36.17775510374773,-9.84807169646470 -36.17779762578248,-9.84796706538638 -36.17778479640789,-9.84794259327870 -36.17773718088781,-9.84789981718870 -36.17754740937394,-9.84776597554287 -36.17750346368236,-9.84772950746356 -36.17745330000579,-9.84767239971388 -36.17751299697307,-9.84758274178005 -36.17773380243882,-9.84738172538797 -36.17448135281025,-9.84487384672148 -36.17300324532988,-9.84674267288250 -36.17496598796350,-9.84825624660086 -36.17496619620015,-9.84825629228438
          </coordinates>
        </LinearRing>
      </outerBoundaryIs>
    </Polygon>
  </Placemark>
  <Placemark>
    <name>AgroCAD: 8F9E</name>
    <styleUrl>FFFF4000</styleUrl>
    <Polygon>
      <outerBoundaryIs>
        <LinearRing>
          <coordinates>
           -36.17756749800850,-9.84763671821096 -36.17756996461969,-9.84765805321983 -36.17757953857528,-9.84768465319884 -36.17759965405721,-9.84771658282315 -36.17777400232216,-9.84783588713614 -36.17784837052577,-9.84789025858296 -36.17789171970986,-9.84792812959841 -36.17790810783002,-9.84794713384077 -36.17787211530147,-9.84803251825364 -36.17783402003939,-9.84811508595238 -36.17780731866940,-9.84816725049231 -36.17782973406697,-9.84818985924469 -36.17787240297668,-9.84817796612470 -36.17793325624969,-9.84814812124181 -36.17800365437058,-9.84808087993365 -36.17821524103919,-9.84779752626463 -36.17823418960405,-9.84776755561031 -36.17775939889462,-9.84740146191156 -36.17756749800850,-9.84763671821096
          </coordinates>
        </LinearRing>
      </outerBoundaryIs>
    </Polygon>
  </Placemark>
</Document>
</kml>
