<?xml version="1.0" encoding="UTF-8"?>
<kml xmlns="http://www.opengis.net/kml/2.2" xmlns:gx="http://www.google.com/kml/ext/2.2" xmlns:kml="http://www.opengis.net/kml/2.2" xmlns:atom="http://www.w3.org/2005/Atom">
<Document>
  <name>1034.kml</name>
  <StyleMap id="FFFF4000">
    <Pair>
      <key>normal</key>
      <styleUrl>#s_FFFF4000</styleUrl>
    </Pair>
    <Pair>
      <key>highlight</key>
      <styleUrl>#s_FFFF4000_hl</styleUrl>
    </Pair>
  </StyleMap>
  <Style id="s_FFFF4000">
   <IconStyle>
      <scale>1.1</scale>
      <Icon>
        <href>http://maps.google.com/mapfiles/kml/pushpin/agrocad.png</href>
      </Icon>
      <hotSpot x="20" y="2" xunits="pixels" yunits="pixels"/>
    </IconStyle>
    <LineStyle>
      <color>FFFF4000</color>
      <width>1</width>
    </LineStyle>
    <PolyStyle>
      <color>40ffffff</color>
      <fill>1</fill>
    </PolyStyle>
  </Style>
  <Style id="s_FFFF4000_hl">
    <IconStyle>
      <scale>1.3</scale>
      <Icon>
        <href>http://maps.google.com/mapfiles/kml/pushpin/agrocad.png</href>
      </Icon>
      <hotSpot x="20" y="2" xunits="pixels" yunits="pixels"/>
    </IconStyle>
    <LineStyle>
      <color>ff000000</color>
      <width>1</width>
    </LineStyle>
    <PolyStyle>
      <color>40ffffff</color>
      <fill>1</fill>
    </PolyStyle>
  </Style>
  <Placemark>
    <name>AgroCAD: 911A</name>
    <styleUrl>FFFF4000</styleUrl>
    <Polygon>
      <outerBoundaryIs>
        <LinearRing>
          <coordinates>
           -36.20191478573333,-9.80811421571350 -36.20192449897263,-9.80810111168370 -36.20198587030590,-9.80801197966628 -36.20204633611084,-9.80792416271154 -36.20205873509237,-9.80790033209084 -36.20208295540269,-9.80786187986112 -36.20211098949565,-9.80781508515800 -36.20213152838586,-9.80777699493855 -36.20215025954037,-9.80774270803117 -36.20215724325045,-9.80773059390350 -36.20217788425023,-9.80768862820352 -36.20218553419152,-9.80767401361282 -36.20219662937070,-9.80765293940844 -36.20220790785039,-9.80763151703868 -36.20221574335040,-9.80761747023688 -36.20222292616542,-9.80760459351033 -36.20222929936473,-9.80759168779291 -36.20223515405005,-9.80757983206413 -36.20223906278494,-9.80756890602188 -36.20224338273196,-9.80755683052186 -36.20224725905204,-9.80754412632270 -36.20225173411019,-9.80752945982560 -36.20225487128914,-9.80752119840175 -36.20226642373844,-9.80749189274561 -36.20227474859847,-9.80747101483714 -36.20227897413087,-9.80745746195269 -36.20228354177636,-9.80744281177999 -36.20228748869204,-9.80742953553020 -36.20229128524925,-9.80741676504001 -36.20229461726286,-9.80740351275777 -36.20230251877437,-9.80737495077802 -36.20231093242979,-9.80734716630495 -36.20231517818594,-9.80733324274889 -36.20232013142930,-9.80731910809659 -36.20232452276548,-9.80730657690986 -36.20232835611731,-9.80729342363279 -36.20233233150275,-9.80727978299789 -36.20233579714619,-9.80726666825635 -36.20233944956808,-9.80725284670309 -36.20234344134906,-9.80723863597260 -36.20234733205994,-9.80722478504956 -36.20235117263587,-9.80721082749831 -36.20235507075149,-9.80719666083248 -36.20235892358980,-9.80718301964096 -36.20236256198464,-9.80717013769698 -36.20236911170743,-9.80714314883659 -36.20237214508257,-9.80712928301601 -36.20237527383978,-9.80711498119367 -36.20237832480284,-9.80710117836536 -36.20238161991666,-9.80708627097506 -36.20238994144668,-9.80705762580812 -36.20239382373866,-9.80704377685931 -36.20239764069454,-9.80703016097633 -36.20240436553048,-9.80700387101022 -36.20241091639206,-9.80697826117022 -36.20241340999026,-9.80696518403526 -36.20241668028405,-9.80694803368607 -36.20242295285739,-9.80693121989236 -36.20242762896370,-9.80691868546782 -36.20243442535927,-9.80689430727004 -36.20248938490489,-9.80664040708142 -36.20255312715189,-9.80634593204472 -36.20222738283406,-9.80575314797564 -36.20207030634729,-9.80554609310142 -36.20177508874197,-9.80523512806855 -36.20152503306323,-9.80500196067812 -36.20111043143616,-9.80464884607462 -36.20086533415272,-9.80446960912305 -36.20069851213174,-9.80436672598229 -36.19852146155531,-9.80353612458620 -36.19799163912460,-9.80333396991000 -36.19698319951674,-9.80667154913568 -36.20191478573333,-9.80811421571350
          </coordinates>
        </LinearRing>
      </outerBoundaryIs>
    </Polygon>
  </Placemark>
</Document>
</kml>
