<?xml version="1.0" encoding="UTF-8"?>
<kml xmlns="http://www.opengis.net/kml/2.2" xmlns:gx="http://www.google.com/kml/ext/2.2" xmlns:kml="http://www.opengis.net/kml/2.2" xmlns:atom="http://www.w3.org/2005/Atom">
<Document>
  <name>1037.kml</name>
  <StyleMap id="FFFF4000">
    <Pair>
      <key>normal</key>
      <styleUrl>#s_FFFF4000</styleUrl>
    </Pair>
    <Pair>
      <key>highlight</key>
      <styleUrl>#s_FFFF4000_hl</styleUrl>
    </Pair>
  </StyleMap>
  <Style id="s_FFFF4000">
   <IconStyle>
      <scale>1.1</scale>
      <Icon>
        <href>http://maps.google.com/mapfiles/kml/pushpin/agrocad.png</href>
      </Icon>
      <hotSpot x="20" y="2" xunits="pixels" yunits="pixels"/>
    </IconStyle>
    <LineStyle>
      <color>FFFF4000</color>
      <width>1</width>
    </LineStyle>
    <PolyStyle>
      <color>40ffffff</color>
      <fill>1</fill>
    </PolyStyle>
  </Style>
  <Style id="s_FFFF4000_hl">
    <IconStyle>
      <scale>1.3</scale>
      <Icon>
        <href>http://maps.google.com/mapfiles/kml/pushpin/agrocad.png</href>
      </Icon>
      <hotSpot x="20" y="2" xunits="pixels" yunits="pixels"/>
    </IconStyle>
    <LineStyle>
      <color>ff000000</color>
      <width>1</width>
    </LineStyle>
    <PolyStyle>
      <color>40ffffff</color>
      <fill>1</fill>
    </PolyStyle>
  </Style>
  <Placemark>
    <name>AgroCAD: 9104</name>
    <styleUrl>FFFF4000</styleUrl>
    <Polygon>
      <outerBoundaryIs>
        <LinearRing>
          <coordinates>
           -36.19347227664449,-9.81841319670232 -36.19701481016766,-9.81942822629973 -36.19702606410339,-9.81942716587994 -36.19703995206521,-9.81942001623097 -36.19711826394688,-9.81934892659912 -36.19715179739383,-9.81929185343651 -36.19717387294474,-9.81924485031676 -36.19717946120790,-9.81920764924351 -36.19715362890583,-9.81915419076532 -36.19710017319649,-9.81907898509087 -36.19702237286285,-9.81900103259765 -36.19694000808258,-9.81889716886408 -36.19688591155763,-9.81881673769201 -36.19667725599114,-9.81847222728942 -36.19664798507676,-9.81843497862897 -36.19652017706368,-9.81829647498271 -36.19651466775740,-9.81828988405287 -36.19647076454569,-9.81823562889061 -36.19640017941699,-9.81811571441081 -36.19637640641895,-9.81804212333325 -36.19635461119520,-9.81790125282774 -36.19635569808816,-9.81776861092538 -36.19637180462543,-9.81763880473363 -36.19639200602378,-9.81751828408771 -36.19639559493945,-9.81739262014238 -36.19637980077432,-9.81726966972532 -36.19635130414053,-9.81714792452393 -36.19631097312392,-9.81702641305412 -36.19626732552929,-9.81691636692401 -36.19621785237288,-9.81678855331592 -36.19617367115286,-9.81664454604381 -36.19614533650923,-9.81651417012328 -36.19612776111929,-9.81640379917882 -36.19609761868072,-9.81627643852583 -36.19606575031796,-9.81614577145439 -36.19603330648224,-9.81601538621555 -36.19600849478808,-9.81590650388524 -36.19598534425477,-9.81580537144567 -36.19595278726812,-9.81570300178845 -36.19590491548400,-9.81559687720140 -36.19589711427170,-9.81558028070441 -36.19586099541712,-9.81549905241744 -36.19582962690188,-9.81543027407114 -36.19580347472434,-9.81536944309005 -36.19578673187358,-9.81531220283571 -36.19577984893810,-9.81524998467564 -36.19577906755275,-9.81518955558828 -36.19578683058119,-9.81512763166992 -36.19580440803876,-9.81507684326155 -36.19582199981408,-9.81503988347620 -36.19582465962176,-9.81503421540357 -36.19583690600157,-9.81500879863586 -36.19586909190771,-9.81494461268140 -36.19589354896264,-9.81488127678426 -36.19463411940578,-9.81451359497373 -36.19347227664449,-9.81841319670232
          </coordinates>
        </LinearRing>
      </outerBoundaryIs>
    </Polygon>
  </Placemark>
</Document>
</kml>
