<?xml version="1.0" encoding="UTF-8"?>
<kml xmlns="http://www.opengis.net/kml/2.2" xmlns:gx="http://www.google.com/kml/ext/2.2" xmlns:kml="http://www.opengis.net/kml/2.2" xmlns:atom="http://www.w3.org/2005/Atom">
<Document>
  <name>1009.kml</name>
  <StyleMap id="FFFF4000">
    <Pair>
      <key>normal</key>
      <styleUrl>#s_FFFF4000</styleUrl>
    </Pair>
    <Pair>
      <key>highlight</key>
      <styleUrl>#s_FFFF4000_hl</styleUrl>
    </Pair>
  </StyleMap>
  <Style id="s_FFFF4000">
   <IconStyle>
      <scale>1.1</scale>
      <Icon>
        <href>http://maps.google.com/mapfiles/kml/pushpin/agrocad.png</href>
      </Icon>
      <hotSpot x="20" y="2" xunits="pixels" yunits="pixels"/>
    </IconStyle>
    <LineStyle>
      <color>FFFF4000</color>
      <width>1</width>
    </LineStyle>
    <PolyStyle>
      <color>40ffffff</color>
      <fill>1</fill>
    </PolyStyle>
  </Style>
  <Style id="s_FFFF4000_hl">
    <IconStyle>
      <scale>1.3</scale>
      <Icon>
        <href>http://maps.google.com/mapfiles/kml/pushpin/agrocad.png</href>
      </Icon>
      <hotSpot x="20" y="2" xunits="pixels" yunits="pixels"/>
    </IconStyle>
    <LineStyle>
      <color>ff000000</color>
      <width>1</width>
    </LineStyle>
    <PolyStyle>
      <color>40ffffff</color>
      <fill>1</fill>
    </PolyStyle>
  </Style>
  <Placemark>
    <name>AgroCAD: 8F98</name>
    <styleUrl>FFFF4000</styleUrl>
    <Polygon>
      <outerBoundaryIs>
        <LinearRing>
          <coordinates>
           -36.18458033500282,-9.83777422378176 -36.18466139861644,-9.83777086179297 -36.18509869568343,-9.83767801876105 -36.18519962789849,-9.83766227196870 -36.18530196158678,-9.83764708427650 -36.18540136366387,-9.83763038870102 -36.18550059881121,-9.83760163845390 -36.18558268735157,-9.83754378625752 -36.18564661763646,-9.83746850900473 -36.18571129430247,-9.83738675229201 -36.18578864544887,-9.83728131538329 -36.18593294047727,-9.83704061669782 -36.18599907147862,-9.83692685991571 -36.18605165955004,-9.83683723127642 -36.18609728055833,-9.83674877823527 -36.18612983561199,-9.83668234870099 -36.18618505501848,-9.83662702604876 -36.18624986884145,-9.83657289298838 -36.18632286060595,-9.83648540473015 -36.18639032740118,-9.83640336256819 -36.18645851366833,-9.83631856317180 -36.18653038025688,-9.83622106105371 -36.18659022221368,-9.83612244371355 -36.18664271491406,-9.83602674666229 -36.18668785667936,-9.83593183587842 -36.18673017844337,-9.83583454316758 -36.18678010716553,-9.83570652410275 -36.18681884883715,-9.83559767985474 -36.18691130637874,-9.83529108326751 -36.18694527032626,-9.83516433329961 -36.18698554542399,-9.83504987252187 -36.18704331394253,-9.83492800492419 -36.18710734751974,-9.83483207996773 -36.18716331971133,-9.83473627485761 -36.18720376008553,-9.83464935338865 -36.18721810370975,-9.83459087671599 -36.18720412753441,-9.83455439026672 -36.18711192096959,-9.83450141411460 -36.18691341618299,-9.83438771471421 -36.18648428123094,-9.83413790052826 -36.18409618632449,-9.83271663020943 -36.18176826303917,-9.83566024116774 -36.18452392179039,-9.83778830599804 -36.18458033500282,-9.83777422378176
          </coordinates>
        </LinearRing>
      </outerBoundaryIs>
    </Polygon>
  </Placemark>
</Document>
</kml>
