<?xml version="1.0" encoding="UTF-8"?>
<kml xmlns="http://www.opengis.net/kml/2.2" xmlns:gx="http://www.google.com/kml/ext/2.2" xmlns:kml="http://www.opengis.net/kml/2.2" xmlns:atom="http://www.w3.org/2005/Atom">
<Document>
  <name>1050.kml</name>
  <StyleMap id="FFFF4000">
    <Pair>
      <key>normal</key>
      <styleUrl>#s_FFFF4000</styleUrl>
    </Pair>
    <Pair>
      <key>highlight</key>
      <styleUrl>#s_FFFF4000_hl</styleUrl>
    </Pair>
  </StyleMap>
  <Style id="s_FFFF4000">
   <IconStyle>
      <scale>1.1</scale>
      <Icon>
        <href>http://maps.google.com/mapfiles/kml/pushpin/agrocad.png</href>
      </Icon>
      <hotSpot x="20" y="2" xunits="pixels" yunits="pixels"/>
    </IconStyle>
    <LineStyle>
      <color>FFFF4000</color>
      <width>1</width>
    </LineStyle>
    <PolyStyle>
      <color>40ffffff</color>
      <fill>1</fill>
    </PolyStyle>
  </Style>
  <Style id="s_FFFF4000_hl">
    <IconStyle>
      <scale>1.3</scale>
      <Icon>
        <href>http://maps.google.com/mapfiles/kml/pushpin/agrocad.png</href>
      </Icon>
      <hotSpot x="20" y="2" xunits="pixels" yunits="pixels"/>
    </IconStyle>
    <LineStyle>
      <color>ff000000</color>
      <width>1</width>
    </LineStyle>
    <PolyStyle>
      <color>40ffffff</color>
      <fill>1</fill>
    </PolyStyle>
  </Style>
  <Placemark>
    <name>AgroCAD: 92E2</name>
    <styleUrl>FFFF4000</styleUrl>
    <Polygon>
      <outerBoundaryIs>
        <LinearRing>
          <coordinates>
           -36.17582770503951,-9.82786910715960 -36.17446910226462,-9.82710061331996 -36.17362272096836,-9.82662264451813 -36.17299040317266,-9.82625851311798 -36.17291887529346,-9.82621035529705 -36.17289856775148,-9.82618500369617 -36.17289782057667,-9.82614417097685 -36.17289887004094,-9.82614127981700 -36.17290845427091,-9.82610700631638 -36.17293053630355,-9.82605188565326 -36.17295616530908,-9.82599506079498 -36.17298113436313,-9.82593770572378 -36.17301377009583,-9.82587948925969 -36.17306055429586,-9.82580702917706 -36.17311544471041,-9.82571386633997 -36.17318734303331,-9.82559681263163 -36.17324483243002,-9.82550767497698 -36.17327937615181,-9.82546030496997 -36.17330400595748,-9.82543577170414 -36.17333383256120,-9.82542689744899 -36.17336618182120,-9.82543266214575 -36.17337039178436,-9.82544435583353 -36.17622886888332,-9.82626786077173 -36.17626220240075,-9.82627743330908 -36.17630105690427,-9.82629165266228 -36.17582770503951,-9.82786910715960 -36.17582770503951,-9.82786910715960
          </coordinates>
        </LinearRing>
      </outerBoundaryIs>
    </Polygon>
  </Placemark>
  <Placemark>
    <name>AgroCAD: 92E1</name>
    <styleUrl>FFFF4000</styleUrl>
    <Polygon>
      <outerBoundaryIs>
        <LinearRing>
          <coordinates>
           -36.17630813071653,-9.82626807886411 -36.17747813811717,-9.82236890427684 -36.17745026102564,-9.82235753895870 -36.17742804523211,-9.82235035878454 -36.17740771344601,-9.82234626573656 -36.17739501398923,-9.82234199090524 -36.17562410327840,-9.82181534066316 -36.17560614468417,-9.82180659491553 -36.17558512565234,-9.82179857659150 -36.17556073482817,-9.82180118574102 -36.17555087561838,-9.82180789914139 -36.17549921089785,-9.82187040500786 -36.17544576101042,-9.82195073277821 -36.17539096291339,-9.82203158116989 -36.17533199366151,-9.82212190194862 -36.17527039604104,-9.82221677745258 -36.17520412575058,-9.82232428232018 -36.17513827799800,-9.82243451542530 -36.17508284172134,-9.82253173211531 -36.17503595370813,-9.82260969275746 -36.17498135558823,-9.82269336325965 -36.17491711809600,-9.82279141919913 -36.17485406779489,-9.82288998857731 -36.17479414284937,-9.82298979045043 -36.17473649128150,-9.82309054528116 -36.17467617685000,-9.82319107520461 -36.17461637446429,-9.82328352625231 -36.17455977254352,-9.82337099568672 -36.17450704114038,-9.82345623847437 -36.17444870488091,-9.82355470320751 -36.17438245137989,-9.82366006904856 -36.17431880917531,-9.82376218665402 -36.17423830949738,-9.82389656705966 -36.17415764538156,-9.82402550006199 -36.17408205467275,-9.82414140147366 -36.17401240648515,-9.82425147122992 -36.17394660902964,-9.82435657335323 -36.17387756610864,-9.82447044467548 -36.17381055496250,-9.82457823636568 -36.17374819838639,-9.82467755269915 -36.17369515203826,-9.82475827466295 -36.17364686300438,-9.82484207659595 -36.17359712575078,-9.82492951356325 -36.17354019662585,-9.82502584682328 -36.17348473234793,-9.82512118686535 -36.17342697774532,-9.82521639977977 -36.17336323774324,-9.82532172156626 -36.17333999519839,-9.82536026332766 -36.17332579734096,-9.82538748641734 -36.17333714115041,-9.82539525239702 -36.17334740255388,-9.82540612476699 -36.17336112331885,-9.82540656806516 -36.17337861804943,-9.82541443303366 -36.17622281928644,-9.82624180886402 -36.17623628754677,-9.82624510645855 -36.17625695368972,-9.82625126053028 -36.17628241392634,-9.82625901635504 -36.17630813071653,-9.82626807886411
          </coordinates>
        </LinearRing>
      </outerBoundaryIs>
    </Polygon>
  </Placemark>
</Document>
</kml>
