<?xml version="1.0" encoding="UTF-8"?>
<kml xmlns="http://www.opengis.net/kml/2.2" xmlns:gx="http://www.google.com/kml/ext/2.2" xmlns:kml="http://www.opengis.net/kml/2.2" xmlns:atom="http://www.w3.org/2005/Atom">
<Document>
	<name>33.kml</name>
	<StyleMap id="m_ylw-pushpin">
		<Pair>
			<key>normal</key>
			<styleUrl>#s_ylw-pushpin</styleUrl>
		</Pair>
		<Pair>
			<key>highlight</key>
			<styleUrl>#s_ylw-pushpin_hl</styleUrl>
		</Pair>
	</StyleMap>
	<Style id="s_ylw-pushpin">
		<IconStyle>
			<scale>1.1</scale>
			<Icon>
				<href>http://maps.google.com/mapfiles/kml/pushpin/ylw-pushpin.png</href>
			</Icon>
			<hotSpot x="20" y="2" xunits="pixels" yunits="pixels"/>
		</IconStyle>
	</Style>
	<Style id="s_ylw-pushpin_hl">
		<IconStyle>
			<scale>1.3</scale>
			<Icon>
				<href>http://maps.google.com/mapfiles/kml/pushpin/ylw-pushpin.png</href>
			</Icon>
			<hotSpot x="20" y="2" xunits="pixels" yunits="pixels"/>
		</IconStyle>
	</Style>
	<Placemark>
		<name>33</name>
		<styleUrl>#m_ylw-pushpin</styleUrl>
		<LineString>
			<tessellate>1</tessellate>
			<coordinates>
				-36.25865054324123,-9.911638062826265,0 -36.25904109308653,-9.911561244881135,0 -36.25921774318381,-9.911550984685617,0 -36.25946112686026,-9.911494627162483,0 -36.25967062345108,-9.911447854093929,0 -36.25976923978095,-9.911393904342399,0 -36.25980014302059,-9.911370191269107,0 -36.26032297234593,-9.91147287089316,0 -36.26088588040244,-9.911590655857609,0 -36.26020778735219,-9.912352918070297,0 -36.25997571915827,-9.912621621178367,0 -36.25957030858298,-9.912363927427721,0 -36.25886470410802,-9.911874154245901,0 -36.25869588011609,-9.911757828563266,0 -36.25864541158664,-9.91171678527893,0 -36.25863454167179,-9.911673462658934,0 -36.25865054324123,-9.911638062826265,0 
			</coordinates>
		</LineString>
		<atom:link rel="app" href="https://www.google.com/earth/about/versions/#earth-pro" title="Google Earth Pro 7.3.7.1155"></atom:link>
	</Placemark>
</Document>
</kml>
