<?xml version="1.0" encoding="UTF-8"?>
<kml xmlns="http://www.opengis.net/kml/2.2" xmlns:gx="http://www.google.com/kml/ext/2.2" xmlns:kml="http://www.opengis.net/kml/2.2" xmlns:atom="http://www.w3.org/2005/Atom">
<Document>
  <name>2025.kml</name>
  <StyleMap id="FFFF4000">
    <Pair>
      <key>normal</key>
      <styleUrl>#s_FFFF4000</styleUrl>
    </Pair>
    <Pair>
      <key>highlight</key>
      <styleUrl>#s_FFFF4000_hl</styleUrl>
    </Pair>
  </StyleMap>
  <Style id="s_FFFF4000">
   <IconStyle>
      <scale>1.1</scale>
      <Icon>
        <href>http://maps.google.com/mapfiles/kml/pushpin/agrocad.png</href>
      </Icon>
      <hotSpot x="20" y="2" xunits="pixels" yunits="pixels"/>
    </IconStyle>
    <LineStyle>
      <color>FFFF4000</color>
      <width>1</width>
    </LineStyle>
    <PolyStyle>
      <color>40ffffff</color>
      <fill>1</fill>
    </PolyStyle>
  </Style>
  <Style id="s_FFFF4000_hl">
    <IconStyle>
      <scale>1.3</scale>
      <Icon>
        <href>http://maps.google.com/mapfiles/kml/pushpin/agrocad.png</href>
      </Icon>
      <hotSpot x="20" y="2" xunits="pixels" yunits="pixels"/>
    </IconStyle>
    <LineStyle>
      <color>ff000000</color>
      <width>1</width>
    </LineStyle>
    <PolyStyle>
      <color>40ffffff</color>
      <fill>1</fill>
    </PolyStyle>
  </Style>
  <Placemark>
    <name>AgroCAD: 9584</name>
    <styleUrl>FFFF4000</styleUrl>
    <Polygon>
      <outerBoundaryIs>
        <LinearRing>
          <coordinates>
           -36.30244130636690,-9.82609322015861 -36.30674095739617,-9.82897415755629 -36.30674544780659,-9.82898175900423 -36.30674694439962,-9.82899350073738 -36.30674552200627,-9.82900285077215 -36.30673524351001,-9.82902018472978 -36.30669081698787,-9.82906887767992 -36.30662472604760,-9.82914204902284 -36.30657467346894,-9.82919642168370 -36.30649406933436,-9.82928470174347 -36.30643673735158,-9.82934805113217 -36.30634963115309,-9.82944230575798 -36.30626053485578,-9.82952912173988 -36.30617531042883,-9.82961526013898 -36.30612338695491,-9.82966871087407 -36.30606772238973,-9.82972218484382 -36.30596628103698,-9.82981678521456 -36.30589785254816,-9.82988280653603 -36.30583454138463,-9.82994467380819 -36.30577508705711,-9.83000135312445 -36.30568918466330,-9.83007962098779 -36.30564203246149,-9.83012311596579 -36.30560081540232,-9.83016222837740 -36.30554103413153,-9.83022638203716 -36.30550005310387,-9.83027186137059 -36.30545951074063,-9.83031392945244 -36.30540660057317,-9.83036759404784 -36.30536422592193,-9.83040818894025 -36.30532238258953,-9.83044373017549 -36.30527146463724,-9.83048424855846 -36.30523890571701,-9.83050942054543 -36.30519001602863,-9.83054270821559 -36.30515502652735,-9.83056337171886 -36.30510334346768,-9.83059091962207 -36.30506585700143,-9.83060980797954 -36.30502761616130,-9.83062693910482 -36.30498922406984,-9.83064236781521 -36.30495439916999,-9.83065538982572 -36.30490829404230,-9.83067315688321 -36.30487973929250,-9.83068370632107 -36.30485388924526,-9.83069419906427 -36.30481410910129,-9.83070818353990 -36.30478464799927,-9.83071875913542 -36.30473813848989,-9.83073598015178 -36.30470853182682,-9.83074604367820 -36.30467935507080,-9.83075539036996 -36.30463174950879,-9.83077128938573 -36.30459817605694,-9.83078263669204 -36.30456230819462,-9.83079542361739 -36.30452354144174,-9.83080508054912 -36.30450479326600,-9.83080271000055 -36.30448768553086,-9.83079526475308 -36.30447033973761,-9.83078185978188 -36.30444522796409,-9.83075162886901 -36.30442451821404,-9.83071701174562 -36.30441162577388,-9.83069297035424 -36.30439918584308,-9.83066796821658 -36.30438629810623,-9.83063903805609 -36.30437129978950,-9.83060409717226 -36.30436203114280,-9.83058213648475 -36.30434816342666,-9.83054956425501 -36.30434344608747,-9.83053837704415 -36.30323507635754,-9.82796171776464 -36.30244023406687,-9.82609070705916 -36.30244130636690,-9.82609322015861
          </coordinates>
        </LinearRing>
      </outerBoundaryIs>
    </Polygon>
  </Placemark>
</Document>
</kml>
