<?xml version="1.0" encoding="UTF-8"?>
<kml xmlns="http://www.opengis.net/kml/2.2" xmlns:gx="http://www.google.com/kml/ext/2.2" xmlns:kml="http://www.opengis.net/kml/2.2" xmlns:atom="http://www.w3.org/2005/Atom">
<Document>
  <name>2021.kml</name>
  <StyleMap id="FF0040FF">
    <Pair>
      <key>normal</key>
      <styleUrl>#s_FF0040FF</styleUrl>
    </Pair>
    <Pair>
      <key>highlight</key>
      <styleUrl>#s_FF0040FF_hl</styleUrl>
    </Pair>
  </StyleMap>
  <Style id="s_FF0040FF">
   <IconStyle>
      <scale>1.1</scale>
      <Icon>
        <href>http://maps.google.com/mapfiles/kml/pushpin/agrocad.png</href>
      </Icon>
      <hotSpot x="20" y="2" xunits="pixels" yunits="pixels"/>
    </IconStyle>
    <LineStyle>
      <color>FF0040FF</color>
      <width>1</width>
    </LineStyle>
    <PolyStyle>
      <color>40ffffff</color>
      <fill>1</fill>
    </PolyStyle>
  </Style>
  <Style id="s_FF0040FF_hl">
    <IconStyle>
      <scale>1.3</scale>
      <Icon>
        <href>http://maps.google.com/mapfiles/kml/pushpin/agrocad.png</href>
      </Icon>
      <hotSpot x="20" y="2" xunits="pixels" yunits="pixels"/>
    </IconStyle>
    <LineStyle>
      <color>ff000000</color>
      <width>1</width>
    </LineStyle>
    <PolyStyle>
      <color>40ffffff</color>
      <fill>1</fill>
    </PolyStyle>
  </Style>
  <Placemark>
    <name>AgroCAD: 8325</name>
    <styleUrl>FF0040FF</styleUrl>
    <Polygon>
      <outerBoundaryIs>
        <LinearRing>
          <coordinates>
           -36.29872335857797,-9.81782736191238 -36.29874315596032,-9.81786679524318 -36.29876657286705,-9.81793675811675 -36.29880738190621,-9.81803058388904 -36.29883811574749,-9.81809935898122 -36.29886581099930,-9.81815970623045 -36.29888986307387,-9.81821787351201 -36.29892406064164,-9.81829539436826 -36.29899381472053,-9.81844579582148 -36.29906138442811,-9.81859466397186 -36.29910444076533,-9.81869054735519 -36.29915004941143,-9.81878676830468 -36.29919687277695,-9.81888443967942 -36.29926225449886,-9.81902469848305 -36.29930167975314,-9.81911179018820 -36.29933626972196,-9.81919078614611 -36.29936888157252,-9.81926395994929 -36.29941824637401,-9.81937260148445 -36.29946903465185,-9.81948292100231 -36.29949993306357,-9.81954865901102 -36.29952777986844,-9.81960858925976 -36.29956739780541,-9.81969054740561 -36.29959516319622,-9.81974281560334 -36.29961981976887,-9.81979088248379 -36.29964233703290,-9.81983705379153 -36.29966346434223,-9.81988315188703 -36.29969434593537,-9.81994312461224 -36.29971281331266,-9.81998007113368 -36.29974172969131,-9.82003945887530 -36.29976699621376,-9.82008970371911 -36.29978857573949,-9.82013783291998 -36.29980750189364,-9.82017730249330 -36.29982377316804,-9.82020984204990 -36.29985239361589,-9.82027307447266 -36.29987212916730,-9.82031621153135 -36.29989029802714,-9.82035942255997 -36.29991172223947,-9.82040402035235 -36.29994229224780,-9.82047156837823 -36.29996178640580,-9.82051828758833 -36.29998960474114,-9.82057611350916 -36.30000819359182,-9.82061788167523 -36.30003505890696,-9.82067715848524 -36.30004566235066,-9.82070167589732 -36.30012593186216,-9.82086687059709 -36.30026821127771,-9.82113500321166 -36.30035760338642,-9.82129123272059 -36.30045904969985,-9.82153484989976 -36.30058556521714,-9.82183003497813 -36.30119176577129,-9.82167509336602 -36.30167601774957,-9.82154588447115 -36.30221006773216,-9.82140757534952 -36.30271650769608,-9.82127563631389 -36.30321839295515,-9.82114882315328 -36.30383481917157,-9.82098321658682 -36.30494694876048,-9.82069478767448 -36.30544440914514,-9.82056436654146 -36.30592282490967,-9.82044070426659 -36.30633445323223,-9.82033353475319 -36.30679996438997,-9.82021234083784 -36.30727747361576,-9.82009207094939 -36.30797079060890,-9.81991799793080 -36.30788069161852,-9.81954188057801 -36.30784784430924,-9.81940571330572 -36.30776113038681,-9.81908302596278 -36.30768166715021,-9.81878033706170 -36.30760244398575,-9.81847073915113 -36.30736191655112,-9.81752094226412 -36.30728639657329,-9.81723086084095 -36.30722738916884,-9.81698113948634 -36.30715886141418,-9.81670418821991 -36.30708984442419,-9.81643349310002 -36.30701559952121,-9.81616599795262 -36.30694578947768,-9.81587788532647 -36.30687936714597,-9.81563311450381 -36.30554077684536,-9.81597058412617 -36.30349944969452,-9.81650240221190 -36.30334546764685,-9.81654069260916 -36.30306258451920,-9.81661873625681 -36.30203243990440,-9.81688343769892 -36.30092378707847,-9.81717013453095 -36.30085248977943,-9.81719084135635 -36.29955874886245,-9.81751567580919 -36.29883723231613,-9.81770219390896 -36.29880463942308,-9.81770969009449 -36.29868575427258,-9.81773392205658 -36.29867568879930,-9.81773566054539 -36.29872335857797,-9.81782736191238
          </coordinates>
        </LinearRing>
      </outerBoundaryIs>
    </Polygon>
  </Placemark>
</Document>
</kml>
