<?xml version="1.0" encoding="UTF-8"?>
<kml xmlns="http://www.opengis.net/kml/2.2" xmlns:gx="http://www.google.com/kml/ext/2.2" xmlns:kml="http://www.opengis.net/kml/2.2" xmlns:atom="http://www.w3.org/2005/Atom">
<Document>
  <name>2039.kml</name>
  <StyleMap id="FF0040FF">
    <Pair>
      <key>normal</key>
      <styleUrl>#s_FF0040FF</styleUrl>
    </Pair>
    <Pair>
      <key>highlight</key>
      <styleUrl>#s_FF0040FF_hl</styleUrl>
    </Pair>
  </StyleMap>
  <Style id="s_FF0040FF">
   <IconStyle>
      <scale>1.1</scale>
      <Icon>
        <href>http://maps.google.com/mapfiles/kml/pushpin/agrocad.png</href>
      </Icon>
      <hotSpot x="20" y="2" xunits="pixels" yunits="pixels"/>
    </IconStyle>
    <LineStyle>
      <color>FF0040FF</color>
      <width>1</width>
    </LineStyle>
    <PolyStyle>
      <color>40ffffff</color>
      <fill>1</fill>
    </PolyStyle>
  </Style>
  <Style id="s_FF0040FF_hl">
    <IconStyle>
      <scale>1.3</scale>
      <Icon>
        <href>http://maps.google.com/mapfiles/kml/pushpin/agrocad.png</href>
      </Icon>
      <hotSpot x="20" y="2" xunits="pixels" yunits="pixels"/>
    </IconStyle>
    <LineStyle>
      <color>ff000000</color>
      <width>1</width>
    </LineStyle>
    <PolyStyle>
      <color>40ffffff</color>
      <fill>1</fill>
    </PolyStyle>
  </Style>
  <Placemark>
    <name>AgroCAD: 832A</name>
    <styleUrl>FF0040FF</styleUrl>
    <Polygon>
      <outerBoundaryIs>
        <LinearRing>
          <coordinates>
           -36.28632842447369,-9.82032326376055 -36.28657867920914,-9.82073806060253 -36.28659074344612,-9.82077095545564 -36.28660689308035,-9.82076681674431 -36.28854436288295,-9.82027005785346 -36.28996645881841,-9.81990024613240 -36.29131233194471,-9.81956263596626 -36.29316483151225,-9.81908054206431 -36.29321478440053,-9.81906932854190 -36.29314825295764,-9.81891017230538 -36.29302736911743,-9.81864727635200 -36.29287958965785,-9.81832891047876 -36.29274183805402,-9.81804675909732 -36.29260035374770,-9.81775433681336 -36.29246490562861,-9.81746757973103 -36.29232089596776,-9.81716718779544 -36.29217093244680,-9.81689004112886 -36.29199834492985,-9.81657890320346 -36.29187318702762,-9.81631396217241 -36.29170875010544,-9.81597916591998 -36.29156850751373,-9.81570376044757 -36.29143139781700,-9.81541321888154 -36.29128280163895,-9.81512003306355 -36.28819493171287,-9.81591393262885 -36.28805912743089,-9.81595125039446 -36.28795068849380,-9.81602555529291 -36.28785511466167,-9.81629499399066 -36.28772142111340,-9.81666191837257 -36.28759925849843,-9.81698353309109 -36.28746463362344,-9.81734116253426 -36.28734305115167,-9.81765921194944 -36.28721457407658,-9.81800441231580 -36.28709202085385,-9.81832519928164 -36.28696002843259,-9.81867017473549 -36.28679647953663,-9.81910148339317 -36.28668562998643,-9.81939409507603 -36.28653837394843,-9.81978128379761 -36.28638323837294,-9.82018885100317 -36.28632842447369,-9.82032326376055
          </coordinates>
        </LinearRing>
      </outerBoundaryIs>
    </Polygon>
  </Placemark>
  <Placemark>
    <name>AgroCAD: 8329</name>
    <styleUrl>FF0040FF</styleUrl>
    <Polygon>
      <outerBoundaryIs>
        <LinearRing>
          <coordinates>
           -36.28630486723725,-9.82035832393330 -36.28614485100416,-9.82084813847718 -36.28612148504752,-9.82090513011785 -36.28651209108142,-9.82079111190079 -36.28653026094330,-9.82078645546520 -36.28651264607189,-9.82075511420961 -36.28638486219620,-9.82050565344376 -36.28630486723725,-9.82035832393330
          </coordinates>
        </LinearRing>
      </outerBoundaryIs>
    </Polygon>
  </Placemark>
</Document>
</kml>
