<?xml version="1.0" encoding="UTF-8"?>
<kml xmlns="http://www.opengis.net/kml/2.2" xmlns:gx="http://www.google.com/kml/ext/2.2" xmlns:kml="http://www.opengis.net/kml/2.2" xmlns:atom="http://www.w3.org/2005/Atom">
<Document>
  <name>2018.kml</name>
  <StyleMap id="FF0040FF">
    <Pair>
      <key>normal</key>
      <styleUrl>#s_FF0040FF</styleUrl>
    </Pair>
    <Pair>
      <key>highlight</key>
      <styleUrl>#s_FF0040FF_hl</styleUrl>
    </Pair>
  </StyleMap>
  <Style id="s_FF0040FF">
   <IconStyle>
      <scale>1.1</scale>
      <Icon>
        <href>http://maps.google.com/mapfiles/kml/pushpin/agrocad.png</href>
      </Icon>
      <hotSpot x="20" y="2" xunits="pixels" yunits="pixels"/>
    </IconStyle>
    <LineStyle>
      <color>FF0040FF</color>
      <width>1</width>
    </LineStyle>
    <PolyStyle>
      <color>40ffffff</color>
      <fill>1</fill>
    </PolyStyle>
  </Style>
  <Style id="s_FF0040FF_hl">
    <IconStyle>
      <scale>1.3</scale>
      <Icon>
        <href>http://maps.google.com/mapfiles/kml/pushpin/agrocad.png</href>
      </Icon>
      <hotSpot x="20" y="2" xunits="pixels" yunits="pixels"/>
    </IconStyle>
    <LineStyle>
      <color>ff000000</color>
      <width>1</width>
    </LineStyle>
    <PolyStyle>
      <color>40ffffff</color>
      <fill>1</fill>
    </PolyStyle>
  </Style>
  <Placemark>
    <name>AgroCAD: 8335</name>
    <styleUrl>FF0040FF</styleUrl>
    <Polygon>
      <outerBoundaryIs>
        <LinearRing>
          <coordinates>
           -36.30237042816566,-9.80758146166837 -36.30340013189302,-9.80731256591566 -36.30454885061972,-9.80701854637752 -36.30432196723572,-9.80738861155657 -36.30402082518559,-9.80786349493985 -36.30377610585679,-9.80824488369573 -36.30355057718821,-9.80860192330422 -36.30328301190330,-9.80837652981469 -36.30297679261579,-9.80811316164154 -36.30273902828430,-9.80791193758857 -36.30238759374524,-9.80761567234016 -36.30237287079891,-9.80758055566048 -36.30237042816566,-9.80758146166837
          </coordinates>
        </LinearRing>
      </outerBoundaryIs>
    </Polygon>
  </Placemark>
  <Placemark>
    <name>AgroCAD: 8320</name>
    <styleUrl>FF0040FF</styleUrl>
    <Polygon>
      <outerBoundaryIs>
        <LinearRing>
          <coordinates>
           -36.30577054951218,-9.81129234755895 -36.30559319156165,-9.81134050635273 -36.30519011788846,-9.81144433281282 -36.30481666186453,-9.81154140443143 -36.30443303603378,-9.81163958847753 -36.30400497410321,-9.81174890220465 -36.30362870395744,-9.81184540459782 -36.30323981306099,-9.81194524455650 -36.30283243805004,-9.81205166095361 -36.30245171506498,-9.81215024759498 -36.30207940056500,-9.81224549151538 -36.30166548953264,-9.81235136506703 -36.30140441378022,-9.81241742755311 -36.30138634724432,-9.81241495721597 -36.30136182465220,-9.81239424146630 -36.30136349658025,-9.81234971937715 -36.30140881266493,-9.81225054851775 -36.30142071733905,-9.81223523706386 -36.30146852921100,-9.81214351068122 -36.30150894092354,-9.81207825664334 -36.30158889887470,-9.81194359183378 -36.30181079225728,-9.81159593098324 -36.30205928651543,-9.81119574944239 -36.30231774017552,-9.81078740874176 -36.30256506229282,-9.81039236631270 -36.30279685921153,-9.81002780070751 -36.30306761640282,-9.80959403971637 -36.30326698503938,-9.80927591700478 -36.30348240544183,-9.80894226460200 -36.30367752228887,-9.80863522119803 -36.30384695885790,-9.80835666719640 -36.30399428869082,-9.80811656591120 -36.30415633910246,-9.80785325878395 -36.30430447549178,-9.80761724989669 -36.30447978713247,-9.80734040688279 -36.30467029727750,-9.80705000277311 -36.30479645490048,-9.80749134279623 -36.30486353078797,-9.80775542162816 -36.30494214590946,-9.80805487223703 -36.30501024691903,-9.80833454996295 -36.30507674078705,-9.80859905099628 -36.30513833953758,-9.80884313039486 -36.30521032783150,-9.80912103163962 -36.30528510558517,-9.80940502889621 -36.30535588935128,-9.80968511818762 -36.30542483716081,-9.80994751573243 -36.30549840701831,-9.81024674352826 -36.30557058355031,-9.81051020696264 -36.30563106612548,-9.81075666820724 -36.30577054951218,-9.81129234755895
          </coordinates>
        </LinearRing>
      </outerBoundaryIs>
    </Polygon>
  </Placemark>
  <Placemark>
    <name>AgroCAD: 8318</name>
    <styleUrl>FF0040FF</styleUrl>
    <Polygon>
      <outerBoundaryIs>
        <LinearRing>
          <coordinates>
           -36.30353592915998,-9.80863157306899 -36.30307235840959,-9.80937928178514 -36.30283058061002,-9.80975638355078 -36.30259298644399,-9.81013701032962 -36.30234755849035,-9.81053833307087 -36.30210921827052,-9.81091673020767 -36.30187085417822,-9.81130253675331 -36.30163698650998,-9.81167482323856 -36.30142678805587,-9.81203126746257 -36.30137108901528,-9.81210339811973 -36.30131522253456,-9.81217966199955 -36.30125919195410,-9.81227420917568 -36.30125817045646,-9.81227653953703 -36.30123835061225,-9.81228969273325 -36.30119816581889,-9.81229097743453 -36.30119324555464,-9.81228894092329 -36.30114211559320,-9.81211036802898 -36.30106731738659,-9.81180491390466 -36.30099607169227,-9.81150687644749 -36.30092566071230,-9.81121906551884 -36.30085660700709,-9.81093386096868 -36.30079314209091,-9.81065021601288 -36.30071327355851,-9.81034842339118 -36.30065064405775,-9.81005233450917 -36.30056130270076,-9.80975316941583 -36.30049255931620,-9.80945901488104 -36.30042429863878,-9.80916078912810 -36.30034379119385,-9.80886241323312 -36.30019801770173,-9.80828218410738 -36.30019085570314,-9.80824028857221 -36.30019040571254,-9.80823000594043 -36.30018817933122,-9.80821009436999 -36.30018830938198,-9.80819403720914 -36.30019303781503,-9.80818726092548 -36.30019498897482,-9.80817852830238 -36.30019928625610,-9.80816886124143 -36.30020280377721,-9.80816153774156 -36.30020664926983,-9.80815543445580 -36.30021592039474,-9.80814570841103 -36.30022158526712,-9.80813882572130 -36.30022559861509,-9.80813674427158 -36.30022754619856,-9.80813375150183 -36.30026885707601,-9.80812132616290 -36.30035668783040,-9.80809608434260 -36.30052878127489,-9.80805372783181 -36.30088180529744,-9.80796172692149 -36.30119717299959,-9.80788159510211 -36.30149307049547,-9.80780848350974 -36.30189381191931,-9.80770331042093 -36.30220727626215,-9.80762145383598 -36.30223106212103,-9.80761038465547 -36.30235919445345,-9.80763504309845 -36.30269667483042,-9.80792224408639 -36.30295320666153,-9.80813560904725 -36.30353592915998,-9.80863157306899
          </coordinates>
        </LinearRing>
      </outerBoundaryIs>
    </Polygon>
  </Placemark>
</Document>
</kml>
