<?xml version="1.0" encoding="UTF-8"?>
<kml xmlns="http://www.opengis.net/kml/2.2" xmlns:gx="http://www.google.com/kml/ext/2.2" xmlns:kml="http://www.opengis.net/kml/2.2" xmlns:atom="http://www.w3.org/2005/Atom">
<Document>
  <name>2019.kml</name>
  <StyleMap id="FFFF4000">
    <Pair>
      <key>normal</key>
      <styleUrl>#s_FFFF4000</styleUrl>
    </Pair>
    <Pair>
      <key>highlight</key>
      <styleUrl>#s_FFFF4000_hl</styleUrl>
    </Pair>
  </StyleMap>
  <Style id="s_FFFF4000">
   <IconStyle>
      <scale>1.1</scale>
      <Icon>
        <href>http://maps.google.com/mapfiles/kml/pushpin/agrocad.png</href>
      </Icon>
      <hotSpot x="20" y="2" xunits="pixels" yunits="pixels"/>
    </IconStyle>
    <LineStyle>
      <color>FFFF4000</color>
      <width>1</width>
    </LineStyle>
    <PolyStyle>
      <color>40ffffff</color>
      <fill>1</fill>
    </PolyStyle>
  </Style>
  <Style id="s_FFFF4000_hl">
    <IconStyle>
      <scale>1.3</scale>
      <Icon>
        <href>http://maps.google.com/mapfiles/kml/pushpin/agrocad.png</href>
      </Icon>
      <hotSpot x="20" y="2" xunits="pixels" yunits="pixels"/>
    </IconStyle>
    <LineStyle>
      <color>ff000000</color>
      <width>1</width>
    </LineStyle>
    <PolyStyle>
      <color>40ffffff</color>
      <fill>1</fill>
    </PolyStyle>
  </Style>
  <Placemark>
    <name>AgroCAD: 95A0</name>
    <styleUrl>FFFF4000</styleUrl>
    <Polygon>
      <outerBoundaryIs>
        <LinearRing>
          <coordinates>
           -36.29595937452259,-9.81023890508114 -36.29596991923339,-9.81025206113061 -36.29598072415448,-9.81026327774018 -36.29599952264917,-9.81027496985787 -36.29600949806663,-9.81027513952625 -36.29602499210960,-9.81027117720835 -36.29605925656952,-9.81026088765372 -36.29612391233091,-9.81024293729977 -36.29616171862359,-9.81023172973470 -36.29620090407184,-9.81022220090617 -36.29623896394270,-9.81021280490105 -36.29626425690871,-9.81020616091677 -36.29632913549864,-9.81018863899904 -36.29636822542262,-9.81017837905259 -36.29639494917809,-9.81017197393149 -36.29642081220426,-9.81016556805005 -36.29646085840837,-9.81015509558692 -36.29648690544355,-9.81014764516353 -36.29652535489118,-9.81013756386117 -36.29655001490635,-9.81013120568372 -36.29657479551628,-9.81012439501999 -36.29661298957217,-9.81011500155529 -36.29663766365024,-9.81010758674140 -36.29667819060805,-9.81009696928496 -36.29670491862002,-9.81009070537505 -36.29672929252448,-9.81008488802178 -36.29676578326901,-9.81007468037455 -36.29679040555962,-9.81006743675430 -36.29681546396004,-9.81006075414447 -36.29684011408399,-9.81005464320328 -36.29687505940061,-9.81004623581681 -36.29689817678612,-9.81004022998356 -36.29692217020628,-9.81003354122609 -36.29696083486126,-9.81002319885944 -36.29698525579768,-9.81001824399647 -36.29700804220359,-9.81001199554013 -36.29704297276106,-9.81000228092627 -36.29706677973361,-9.80999606606021 -36.29707815115293,-9.80999244464274 -36.29711829909604,-9.80996152804347 -36.29713481152832,-9.80994831497776 -36.29716222443933,-9.80992838211749 -36.29718303334383,-9.80991713999640 -36.29720200125758,-9.80990710967869 -36.29723171309806,-9.80989100933250 -36.29726387913615,-9.80987494856798 -36.29729626661957,-9.80985797752872 -36.29731553917590,-9.80984939152567 -36.29734291649806,-9.80983321943145 -36.29737148121586,-9.80981425027408 -36.29740174141480,-9.80979351185491 -36.29743279966603,-9.80977250741202 -36.29746280820893,-9.80975213623289 -36.29748376314211,-9.80973865916554 -36.29751276792607,-9.80972471361322 -36.29752508549295,-9.80971530392151 -36.29753775087799,-9.80970523538276 -36.29754727981888,-9.80969957205463 -36.29758068100571,-9.80967520236376 -36.29772770154383,-9.80954725374613 -36.29775338563492,-9.80952547546745 -36.29780054577690,-9.80948131171875 -36.29781973992658,-9.80946491066606 -36.29784826108230,-9.80943912604091 -36.29785698701967,-9.80943005630533 -36.29799662472901,-9.80924232427819 -36.29806656544243,-9.80912171810686 -36.29812875524527,-9.80900976238235 -36.29817007220685,-9.80893359399513 -36.29823648692413,-9.80882028812668 -36.29826635930089,-9.80876312409919 -36.29830398070681,-9.80868509568417 -36.29833663293731,-9.80859882062367 -36.29813053879153,-9.80864038468698 -36.29797426207412,-9.80867504348625 -36.29789956899048,-9.80869624272536 -36.29782908951590,-9.80871488415056 -36.29779879190961,-9.80872389254159 -36.29776887990877,-9.80874361479641 -36.29774042526411,-9.80878106650663 -36.29769519344236,-9.80886899116041 -36.29764198236280,-9.80896968731801 -36.29760040709356,-9.80904211631864 -36.29750481499435,-9.80915145668664 -36.29742990723982,-9.80921474470907 -36.29731521463561,-9.80930297196790 -36.29719953949962,-9.80938919923607 -36.29708699453674,-9.80946439174652 -36.29701181899406,-9.80950087182326 -36.29690399962840,-9.80955097628624 -36.29680781715645,-9.80961259022391 -36.29674703694337,-9.80965873076800 -36.29667513016682,-9.80970799803657 -36.29658942572638,-9.80976871117032 -36.29645986967270,-9.80985960299124 -36.29631697268848,-9.80995661104613 -36.29620261036706,-9.81003337561416 -36.29613879187627,-9.81009490429194 -36.29606772985352,-9.81017239280308 -36.29600278163316,-9.81021591705151 -36.29595855046231,-9.81023787694691 -36.29595764351906,-9.81023795672734 -36.29595937452259,-9.81023890508114
          </coordinates>
        </LinearRing>
      </outerBoundaryIs>
    </Polygon>
  </Placemark>
  <Placemark>
    <name>AgroCAD: 959F</name>
    <styleUrl>FFFF4000</styleUrl>
    <Polygon>
      <outerBoundaryIs>
        <LinearRing>
          <coordinates>
           -36.29606959597100,-9.81028976016603 -36.29606974516379,-9.81028976528816 -36.29609500816732,-9.81028360015746 -36.29613269909002,-9.81027333668230 -36.29617008499459,-9.81026225374104 -36.29620855053861,-9.81025289997444 -36.29624689609779,-9.81024343344116 -36.29627252656303,-9.81023670080285 -36.29633740210005,-9.81021917971128 -36.29637604904053,-9.81020903603586 -36.29640255612385,-9.81020268284714 -36.29642873913734,-9.81019619771033 -36.29646934112973,-9.81018557990429 -36.29649539808033,-9.81017812664538 -36.29653343991880,-9.81016815221759 -36.29655828316378,-9.81016174679796 -36.29658289070492,-9.81015498370084 -36.29662145430331,-9.81014549935156 -36.29664636010111,-9.81013801490418 -36.29668592889962,-9.81012764847212 -36.29671231406768,-9.81012146491089 -36.29673735239474,-9.81011548897959 -36.29677464409307,-9.81010505728050 -36.29679907944439,-9.81009786865647 -36.29682346945218,-9.81009136429513 -36.29684773766911,-9.81008534803202 -36.29688285729408,-9.81007689871011 -36.29690653030288,-9.81007074852803 -36.29693063488716,-9.81006402878146 -36.29696818767131,-9.81005398382893 -36.29699270732569,-9.81004900893720 -36.29701659427464,-9.81004245869211 -36.29705133490095,-9.81003279690133 -36.29707571722674,-9.81002643183852 -36.29709325760581,-9.81002084581353 -36.29713808676925,-9.80998632436240 -36.29715425694698,-9.80997338516501 -36.29717935183703,-9.80995513781679 -36.29719815899671,-9.80994497714919 -36.29721714470237,-9.80993493742335 -36.29724652855702,-9.80991901480768 -36.29727849534377,-9.80990305353151 -36.29731025932807,-9.80988640920639 -36.29733027675343,-9.80987749136143 -36.29735995457305,-9.80985996033778 -36.29738941340600,-9.80984039741983 -36.29741978449952,-9.80981958300080 -36.29745078423376,-9.80979861813266 -36.29748048796503,-9.80977845387393 -36.29749945021121,-9.80976625839418 -36.29752962547104,-9.80975175007519 -36.29754478466161,-9.80974016959753 -36.29755599875303,-9.80973125478655 -36.29756495924514,-9.80972592930418 -36.29760067808795,-9.80969986863876 -36.29774857527555,-9.80957115709197 -36.29777470149841,-9.80954900391671 -36.29782190576455,-9.80950479884660 -36.29784088774756,-9.80948857908616 -36.29787055993164,-9.80946175387026 -36.29788144567177,-9.80945043923615 -36.29802335761271,-9.80925964966836 -36.29809434871896,-9.80913723218047 -36.29815675676759,-9.80902488355064 -36.29819816496467,-9.80894854695994 -36.29824944998901,-9.80885352410951 -36.29827212421762,-9.80881126108523 -36.29832246531269,-9.80871861792009 -36.29835515546474,-9.80864614188835 -36.29836287346503,-9.80862426912717 -36.29837539569380,-9.80859430661848 -36.29838936208273,-9.80858886649404 -36.29840897556923,-9.80858059612449 -36.29843908633126,-9.80857597039046 -36.30000602884080,-9.80816921716455 -36.30002705122333,-9.80816396868882 -36.30005317200004,-9.80815729044580 -36.30007065132504,-9.80815117843231 -36.30008171654196,-9.80814997823785 -36.30012407452074,-9.80814540576388 -36.30013659558220,-9.80815303743226 -36.30014292160929,-9.80816404345026 -36.30014642769133,-9.80817264783675 -36.30015267502617,-9.80820709980157 -36.30018320681681,-9.80835824897057 -36.30024325498298,-9.80858837847955 -36.30081696078394,-9.81092338040994 -36.30110277033541,-9.81211970194113 -36.30118041318616,-9.81242110494330 -36.29678259900556,-9.81356181457151 -36.29669343191548,-9.81338360668327 -36.29619568234538,-9.81226403197393 -36.29583160545108,-9.81147954433937 -36.29572405207797,-9.81125925003718 -36.29557914323073,-9.81091534369037 -36.29547014130234,-9.81067478920809 -36.29539928291590,-9.81051524457075 -36.29538591456526,-9.81048100341205 -36.29537610668295,-9.81044413540519 -36.29537363932558,-9.81041761497725 -36.29537601698185,-9.81039424935115 -36.29538264786759,-9.81037846505480 -36.29542993563708,-9.81035216714551 -36.29543951330147,-9.81035033497767 -36.29549432165623,-9.81033838266300 -36.29555127177582,-9.81032472628741 -36.29560703618768,-9.81031091202641 -36.29566642791740,-9.81029798220890 -36.29572814779308,-9.81028482352501 -36.29582568022828,-9.81026389645021 -36.29588362841496,-9.81025075881747 -36.29591523864429,-9.81024998215541 -36.29593012840302,-9.81025900769612 -36.29594529187635,-9.81026731521195 -36.29595885564068,-9.81027809818375 -36.29597857081901,-9.81030162439782 -36.29599756178711,-9.81030745579295 -36.29601037052326,-9.81030384563116 -36.29602151937365,-9.81030048931041 -36.29605545681325,-9.81029193324540 -36.29606974516379,-9.81028976528816 -36.29606959597100,-9.81028976016603
          </coordinates>
        </LinearRing>
      </outerBoundaryIs>
    </Polygon>
  </Placemark>
</Document>
</kml>
