<?xml version="1.0" encoding="UTF-8"?>
<kml xmlns="http://www.opengis.net/kml/2.2" xmlns:gx="http://www.google.com/kml/ext/2.2" xmlns:kml="http://www.opengis.net/kml/2.2" xmlns:atom="http://www.w3.org/2005/Atom">
<Document>
  <name>2029.kml</name>
  <StyleMap id="FFFF4000">
    <Pair>
      <key>normal</key>
      <styleUrl>#s_FFFF4000</styleUrl>
    </Pair>
    <Pair>
      <key>highlight</key>
      <styleUrl>#s_FFFF4000_hl</styleUrl>
    </Pair>
  </StyleMap>
  <Style id="s_FFFF4000">
   <IconStyle>
      <scale>1.1</scale>
      <Icon>
        <href>http://maps.google.com/mapfiles/kml/pushpin/agrocad.png</href>
      </Icon>
      <hotSpot x="20" y="2" xunits="pixels" yunits="pixels"/>
    </IconStyle>
    <LineStyle>
      <color>FFFF4000</color>
      <width>1</width>
    </LineStyle>
    <PolyStyle>
      <color>40ffffff</color>
      <fill>1</fill>
    </PolyStyle>
  </Style>
  <Style id="s_FFFF4000_hl">
    <IconStyle>
      <scale>1.3</scale>
      <Icon>
        <href>http://maps.google.com/mapfiles/kml/pushpin/agrocad.png</href>
      </Icon>
      <hotSpot x="20" y="2" xunits="pixels" yunits="pixels"/>
    </IconStyle>
    <LineStyle>
      <color>ff000000</color>
      <width>1</width>
    </LineStyle>
    <PolyStyle>
      <color>40ffffff</color>
      <fill>1</fill>
    </PolyStyle>
  </Style>
  <Placemark>
    <name>AgroCAD: 9582</name>
    <styleUrl>FFFF4000</styleUrl>
    <Polygon>
      <outerBoundaryIs>
        <LinearRing>
          <coordinates>
           -36.29137271968921,-9.82480755928482 -36.29133349886629,-9.82482809903368 -36.29130752227208,-9.82484161234591 -36.29128311010498,-9.82485452825313 -36.29125909085507,-9.82486823098077 -36.29123501493398,-9.82488203705347 -36.29119934831405,-9.82490461624292 -36.29117685203260,-9.82491949477075 -36.29114421689485,-9.82494269830289 -36.29112429538429,-9.82495713702344 -36.29109619086143,-9.82498068448296 -36.29107839274912,-9.82499810731477 -36.29105016908413,-9.82502779167328 -36.29103116386210,-9.82504846746399 -36.29101336845567,-9.82506703880737 -36.29099426606592,-9.82508894805944 -36.29096795670793,-9.82512099228751 -36.29095095820851,-9.82514188955302 -36.29093382209626,-9.82516338921112 -36.29091728654478,-9.82518555349624 -36.29090042823277,-9.82520809139531 -36.29087589025242,-9.82524177041444 -36.29085966746882,-9.82526585526040 -36.29084178469603,-9.82529136434140 -36.29081653948868,-9.82532568464135 -36.29079720660442,-9.82535194042454 -36.29077160553895,-9.82538698348818 -36.29075094605847,-9.82541258408652 -36.29073084293984,-9.82543630945839 -36.29071278452258,-9.82545816437846 -36.29068500643234,-9.82548789465120 -36.29065666512221,-9.82551608918409 -36.29065380093253,-9.82551805414050 -36.29065307584005,-9.82551787759580 -36.29064928201105,-9.82552151296940 -36.29062808778231,-9.82554086417469 -36.29059016159751,-9.82557440613137 -36.29056264033112,-9.82560019962522 -36.29052387243524,-9.82564097020040 -36.29050305395285,-9.82566509650435 -36.29048279453683,-9.82568910918187 -36.29046663927968,-9.82571103112411 -36.29044598982461,-9.82574610316047 -36.29043495848946,-9.82577047794472 -36.29041967814739,-9.82580842404061 -36.29041270342193,-9.82583485840853 -36.29040928801735,-9.82586094579262 -36.29040828985068,-9.82588694148878 -36.29040850144465,-9.82591331499872 -36.29041129036723,-9.82595371566587 -36.29041769736522,-9.82599426639096 -36.29042352669626,-9.82602146181215 -36.29043400227445,-9.82606085288216 -36.29044726051620,-9.82609914318916 -36.29046438172780,-9.82613601863042 -36.29048715864577,-9.82617609282347 -36.29050935225079,-9.82621038589801 -36.29052582382901,-9.82623252867367 -36.29054350373162,-9.82625247919544 -36.29056190630275,-9.82627143937420 -36.29059244808973,-9.82629828859636 -36.29061368876293,-9.82631439210636 -36.29063567807856,-9.82633050008707 -36.29067311338218,-9.82635661595526 -36.29069733809315,-9.82637404150566 -36.29071984135157,-9.82639232207295 -36.29075530399689,-9.82642146571847 -36.29077756240847,-9.82644003664193 -36.29080048098045,-9.82645841777992 -36.29082664458741,-9.82647990228941 -36.29087014725508,-9.82651263718879 -36.29091689182108,-9.82654394305611 -36.29094729891541,-9.82656115573522 -36.29098946614192,-9.82658293371351 -36.29103620191902,-9.82660465680250 -36.29109192768389,-9.82662685303873 -36.29114302853501,-9.82664428832730 -36.29117526603089,-9.82665627353323 -36.29120567224623,-9.82666643279520 -36.29125703751901,-9.82668230050610 -36.29129401086751,-9.82669197137668 -36.29132974927247,-9.82670093200087 -36.29136033613568,-9.82670582480033 -36.29141063650406,-9.82671082965128 -36.29144359385423,-9.82671103552232 -36.29149852023835,-9.82670961264831 -36.29153418903147,-9.82670772319349 -36.29159102454948,-9.82670339959006 -36.29163323649546,-9.82669974485506 -36.29167330434491,-9.82669545438427 -36.29173459154742,-9.82668906609682 -36.29179064990792,-9.82669005918639 -36.29184364937880,-9.82669962951880 -36.29188129414959,-9.82671327763537 -36.29193618012639,-9.82674231792324 -36.29196681563175,-9.82676358530408 -36.29200125577354,-9.82678963595677 -36.29205328385717,-9.82683125060921 -36.29208467392262,-9.82685782462971 -36.29211438883299,-9.82688441806715 -36.29214470681524,-9.82691449140584 -36.29218932763865,-9.82696363597499 -36.29221646373525,-9.82699388767156 -36.29225833342267,-9.82703681613239 -36.29228806193737,-9.82706558158787 -36.29231660761532,-9.82709693136684 -36.29234163960369,-9.82712511755769 -36.29237914564448,-9.82716884429517 -36.29241367902891,-9.82720884637076 -36.29244269420494,-9.82723803026265 -36.29246385704042,-9.82725799969121 -36.29248600062177,-9.82727821961306 -36.29250769173657,-9.82729865336693 -36.29254449538231,-9.82733266758630 -36.29257811548065,-9.82736223736744 -36.29261514368373,-9.82739309487585 -36.29265387261773,-9.82742435615196 -36.29270685424714,-9.82746686550640 -36.29274203469225,-9.82749334618662 -36.29279865070569,-9.82753389010434 -36.29286269966464,-9.82757858961221 -36.29299969164782,-9.82765524937700 -36.29311476133322,-9.82771479890348 -36.29316104161898,-9.82773204369127 -36.29315094006589,-9.82769697701118 -36.29312727634709,-9.82764475882654 -36.29302755895409,-9.82745063061317 -36.29171393194070,-9.82496572151635 -36.29168652236678,-9.82491242991185 -36.29167215495375,-9.82487215689192 -36.29164932007321,-9.82481047301260 -36.29162323955188,-9.82477313762340 -36.29160824001341,-9.82475951747165 -36.29159468439708,-9.82475256537962 -36.29158297707466,-9.82474965155621 -36.29156494635860,-9.82474753985905 -36.29155322753840,-9.82474928237309 -36.29153382263579,-9.82475374648437 -36.29151315127250,-9.82475795609796 -36.29149157915904,-9.82476223259210 -36.29147314665763,-9.82476759943289 -36.29144772680017,-9.82477601843607 -36.29141793671421,-9.82478746334659 -36.29139690744324,-9.82479607992683 -36.29137271968921,-9.82480755928482
          </coordinates>
        </LinearRing>
      </outerBoundaryIs>
    </Polygon>
  </Placemark>
  <Placemark>
    <name>AgroCAD: 957C</name>
    <styleUrl>FFFF4000</styleUrl>
    <Polygon>
      <outerBoundaryIs>
        <LinearRing>
          <coordinates>
           -36.29393221457303,-9.82805752264754 -36.29708654486755,-9.82727567806634 -36.29517784600127,-9.82331890343096 -36.29299708639922,-9.82388651951926 -36.29290246762754,-9.82394859476398 -36.29286794979675,-9.82397306485106 -36.29283805116023,-9.82399415163069 -36.29279180042027,-9.82402398066204 -36.29276204421888,-9.82404226619707 -36.29272015887628,-9.82406451367406 -36.29268569239687,-9.82408101985132 -36.29265865431201,-9.82409388681787 -36.29262950827415,-9.82410673143293 -36.29259923691499,-9.82412188674874 -36.29256754383700,-9.82413743663622 -36.29253409696852,-9.82415392993958 -36.29249477905112,-9.82417384829977 -36.29243089761453,-9.82420824398783 -36.29238542125219,-9.82423171427977 -36.29231641332334,-9.82426825655342 -36.29227118317441,-9.82429283543819 -36.29220495057192,-9.82433162107368 -36.29216124593598,-9.82435468571065 -36.29211902205607,-9.82437780378403 -36.29208050508363,-9.82439792802177 -36.29205436593397,-9.82441192614459 -36.29200590307069,-9.82443874086078 -36.29195885560044,-9.82446682015728 -36.29193438051722,-9.82448309694269 -36.29191299366112,-9.82449876656798 -36.29188156635964,-9.82452375223657 -36.29185765028945,-9.82454416976161 -36.29183733139715,-9.82456369572737 -36.29181643580341,-9.82458374180258 -36.29179686166802,-9.82460373426754 -36.29176838380238,-9.82463357600468 -36.29170084729671,-9.82471314673055 -36.29169760773117,-9.82471907713055 -36.29168821970973,-9.82473756330108 -36.29168350568845,-9.82475869014359 -36.29168194876113,-9.82477678316963 -36.29168408764963,-9.82480683591123 -36.29168803512026,-9.82482831595893 -36.29169627264758,-9.82485089243140 -36.29171212242453,-9.82488751637363 -36.29174626677350,-9.82495291305132 -36.29304364418092,-9.82740085252997 -36.29304536724388,-9.82740421761777 -36.29305444469171,-9.82742191114633 -36.29306899628757,-9.82745206449104 -36.29309822998730,-9.82751154986663 -36.29312815504884,-9.82757333905342 -36.29315499847235,-9.82762688602186 -36.29317756413267,-9.82767659386920 -36.29319041909480,-9.82770420607075 -36.29321194588968,-9.82774679584988 -36.29323195405810,-9.82777221993065 -36.29325925967997,-9.82779311224680 -36.29329352884547,-9.82781456659745 -36.29332227259194,-9.82783040248640 -36.29336862076539,-9.82785418159548 -36.29339812116898,-9.82786919895072 -36.29343212874462,-9.82788455951259 -36.29347302804925,-9.82790373359262 -36.29351948000511,-9.82792466152035 -36.29356597329356,-9.82794683487279 -36.29361364386947,-9.82796961658552 -36.29364030830326,-9.82798188182115 -36.29366735142564,-9.82799381963233 -36.29369554185526,-9.82800724754204 -36.29373747184383,-9.82802682187168 -36.29376354914867,-9.82803515257497 -36.29379159228383,-9.82804129325937 -36.29379355162822,-9.82804164206778 -36.29379363292613,-9.82804172186462 -36.29380466575547,-9.82804390932591 -36.29384441303704,-9.82804878244824 -36.29387136060229,-9.82805218008773 -36.29390229802144,-9.82805567283048 -36.29393221457303,-9.82805752264754
          </coordinates>
        </LinearRing>
      </outerBoundaryIs>
    </Polygon>
  </Placemark>
</Document>
</kml>
