<?xml version="1.0" encoding="UTF-8"?>
<kml xmlns="http://www.opengis.net/kml/2.2" xmlns:gx="http://www.google.com/kml/ext/2.2" xmlns:kml="http://www.opengis.net/kml/2.2" xmlns:atom="http://www.w3.org/2005/Atom">
<Document>
  <name>2024.kml</name>
  <StyleMap id="FFFF4000">
    <Pair>
      <key>normal</key>
      <styleUrl>#s_FFFF4000</styleUrl>
    </Pair>
    <Pair>
      <key>highlight</key>
      <styleUrl>#s_FFFF4000_hl</styleUrl>
    </Pair>
  </StyleMap>
  <Style id="s_FFFF4000">
   <IconStyle>
      <scale>1.1</scale>
      <Icon>
        <href>http://maps.google.com/mapfiles/kml/pushpin/agrocad.png</href>
      </Icon>
      <hotSpot x="20" y="2" xunits="pixels" yunits="pixels"/>
    </IconStyle>
    <LineStyle>
      <color>FFFF4000</color>
      <width>1</width>
    </LineStyle>
    <PolyStyle>
      <color>40ffffff</color>
      <fill>1</fill>
    </PolyStyle>
  </Style>
  <Style id="s_FFFF4000_hl">
    <IconStyle>
      <scale>1.3</scale>
      <Icon>
        <href>http://maps.google.com/mapfiles/kml/pushpin/agrocad.png</href>
      </Icon>
      <hotSpot x="20" y="2" xunits="pixels" yunits="pixels"/>
    </IconStyle>
    <LineStyle>
      <color>ff000000</color>
      <width>1</width>
    </LineStyle>
    <PolyStyle>
      <color>40ffffff</color>
      <fill>1</fill>
    </PolyStyle>
  </Style>
  <Placemark>
    <name>AgroCAD: 9585</name>
    <styleUrl>FFFF4000</styleUrl>
    <Polygon>
      <outerBoundaryIs>
        <LinearRing>
          <coordinates>
           -36.30243764575451,-9.82601444235938 -36.30912870005645,-9.82435572857918 -36.30957422852603,-9.82599425729198 -36.30970424362826,-9.82644916156985 -36.30977523872568,-9.82670178932507 -36.30982015439160,-9.82685421452837 -36.30986146054857,-9.82696678748017 -36.30988079156468,-9.82700920991672 -36.30989570374166,-9.82704234799898 -36.30991895542602,-9.82709078016185 -36.30993140110430,-9.82712402711961 -36.30994054161607,-9.82715440832334 -36.30994587656342,-9.82717606630586 -36.30994476697901,-9.82720984629293 -36.30992217358830,-9.82724803467388 -36.30988981284532,-9.82727841483040 -36.30982894825121,-9.82732172917209 -36.30977920526266,-9.82735215877467 -36.30972170836152,-9.82738691835096 -36.30966537799708,-9.82742420125291 -36.30960702520609,-9.82746119171735 -36.30954957571614,-9.82750083036918 -36.30947012412617,-9.82755710352358 -36.30942029111928,-9.82758839141012 -36.30933919864646,-9.82763179902692 -36.30928273080606,-9.82765829925254 -36.30922435743838,-9.82768198480531 -36.30916289494346,-9.82770607334075 -36.30907070986398,-9.82774271674451 -36.30900912514354,-9.82776875380327 -36.30891546022888,-9.82780665634710 -36.30882221557531,-9.82784366476293 -36.30875872304632,-9.82787039142755 -36.30869805453409,-9.82789837203303 -36.30864088366511,-9.82792664568921 -36.30855738918736,-9.82797476209427 -36.30850108142559,-9.82801482825461 -36.30844795338873,-9.82805066801786 -36.30839365205878,-9.82808307478589 -36.30830146099028,-9.82813669020696 -36.30823513776415,-9.82817660311392 -36.30817010957655,-9.82821601277940 -36.30808056024328,-9.82827075828418 -36.30802454429411,-9.82830338554360 -36.30797189229769,-9.82833192244816 -36.30788602175031,-9.82837524360625 -36.30782012479779,-9.82840763824878 -36.30775970243905,-9.82843848668094 -36.30767253636322,-9.82847967560972 -36.30761738346167,-9.82850499058059 -36.30757011950156,-9.82852578163956 -36.30752342872569,-9.82854631679200 -36.30745816674686,-9.82857496026245 -36.30740843924739,-9.82859585438691 -36.30733727572049,-9.82862892821830 -36.30728974923369,-9.82865166403676 -36.30724085400701,-9.82867626443831 -36.30717141036575,-9.82871153676037 -36.30713000908366,-9.82873472755785 -36.30707643957208,-9.82876613800288 -36.30703729315601,-9.82879181246983 -36.30698063838428,-9.82882971501370 -36.30694559273934,-9.82885234364396 -36.30689584303868,-9.82888535631788 -36.30683178906380,-9.82892585902717 -36.30678180276916,-9.82892520043598 -36.30243764575451,-9.82601444235938
          </coordinates>
        </LinearRing>
      </outerBoundaryIs>
    </Polygon>
  </Placemark>
</Document>
</kml>
