<?xml version="1.0" encoding="UTF-8"?>
<kml xmlns="http://www.opengis.net/kml/2.2" xmlns:gx="http://www.google.com/kml/ext/2.2" xmlns:kml="http://www.opengis.net/kml/2.2" xmlns:atom="http://www.w3.org/2005/Atom">
<Document>
  <name>2044.kml</name>
  <StyleMap id="FFFF4000">
    <Pair>
      <key>normal</key>
      <styleUrl>#s_FFFF4000</styleUrl>
    </Pair>
    <Pair>
      <key>highlight</key>
      <styleUrl>#s_FFFF4000_hl</styleUrl>
    </Pair>
  </StyleMap>
  <Style id="s_FFFF4000">
   <IconStyle>
      <scale>1.1</scale>
      <Icon>
        <href>http://maps.google.com/mapfiles/kml/pushpin/agrocad.png</href>
      </Icon>
      <hotSpot x="20" y="2" xunits="pixels" yunits="pixels"/>
    </IconStyle>
    <LineStyle>
      <color>FFFF4000</color>
      <width>1</width>
    </LineStyle>
    <PolyStyle>
      <color>40ffffff</color>
      <fill>1</fill>
    </PolyStyle>
  </Style>
  <Style id="s_FFFF4000_hl">
    <IconStyle>
      <scale>1.3</scale>
      <Icon>
        <href>http://maps.google.com/mapfiles/kml/pushpin/agrocad.png</href>
      </Icon>
      <hotSpot x="20" y="2" xunits="pixels" yunits="pixels"/>
    </IconStyle>
    <LineStyle>
      <color>ff000000</color>
      <width>1</width>
    </LineStyle>
    <PolyStyle>
      <color>40ffffff</color>
      <fill>1</fill>
    </PolyStyle>
  </Style>
  <Placemark>
    <name>AgroCAD: 95A4</name>
    <styleUrl>FFFF4000</styleUrl>
    <Polygon>
      <outerBoundaryIs>
        <LinearRing>
          <coordinates>
           -36.28303342466848,-9.81420886313153 -36.28300037637564,-9.81422409378429 -36.28296612680422,-9.81424097662154 -36.28294361903556,-9.81425161077260 -36.28292144483881,-9.81426350546199 -36.28288572977410,-9.81428107635835 -36.28286194282298,-9.81429293641004 -36.28283850057337,-9.81430475613747 -36.28281678673657,-9.81431673068062 -36.28279509272990,-9.81432804487556 -36.28276116191864,-9.81434476434839 -36.28273915136437,-9.81435622800188 -36.28271709587841,-9.81436734955148 -36.28268450016851,-9.81438482561131 -36.28266211625938,-9.81439616868186 -36.28262893838477,-9.81441287167343 -36.28260638721705,-9.81442375218824 -36.28257291481715,-9.81444129865721 -36.28254992298407,-9.81445261258703 -36.28251798215071,-9.81447008466482 -36.28249603381824,-9.81448156008357 -36.28247371400065,-9.81449363924933 -36.28244487556403,-9.81450991242592 -36.28244187289423,-9.81451317603656 -36.28235264022578,-9.81456458319436 -36.28233010061855,-9.81458284276122 -36.28231588579893,-9.81459491627491 -36.28229579250848,-9.81461244532229 -36.28228499784351,-9.81462577152625 -36.28227701474477,-9.81463999311768 -36.28227094142605,-9.81466403432710 -36.28226962786319,-9.81468198882514 -36.28227118368199,-9.81470523537798 -36.28227191646292,-9.81470944368230 -36.28228182976629,-9.81472806242022 -36.28240572544941,-9.81497181868027 -36.28247544695788,-9.81514877661865 -36.28252909548681,-9.81528842453112 -36.28274578573325,-9.81569375636582 -36.28322882264195,-9.81657957775507 -36.28357010514321,-9.81719673592636 -36.28435828702697,-9.81678079656239 -36.28428600340868,-9.81660638646819 -36.28353549462165,-9.81523961085964 -36.28318479055453,-9.81457613653772 -36.28310330754671,-9.81436139664767 -36.28310522607254,-9.81422860294355 -36.28311350620837,-9.81419429792365 -36.28311693599556,-9.81417876019897 -36.28311235351893,-9.81417906436243 -36.28309656250748,-9.81418337338038 -36.28307272991584,-9.81418937617040 -36.28305276269254,-9.81419846607230 -36.28303342466848,-9.81420886313153
          </coordinates>
        </LinearRing>
      </outerBoundaryIs>
    </Polygon>
  </Placemark>
</Document>
</kml>
