<?xml version="1.0" encoding="UTF-8"?>
<kml xmlns="http://www.opengis.net/kml/2.2" xmlns:gx="http://www.google.com/kml/ext/2.2" xmlns:kml="http://www.opengis.net/kml/2.2" xmlns:atom="http://www.w3.org/2005/Atom">
<Document>
  <name>2028.kml</name>
  <StyleMap id="FFFF4000">
    <Pair>
      <key>normal</key>
      <styleUrl>#s_FFFF4000</styleUrl>
    </Pair>
    <Pair>
      <key>highlight</key>
      <styleUrl>#s_FFFF4000_hl</styleUrl>
    </Pair>
  </StyleMap>
  <Style id="s_FFFF4000">
   <IconStyle>
      <scale>1.1</scale>
      <Icon>
        <href>http://maps.google.com/mapfiles/kml/pushpin/agrocad.png</href>
      </Icon>
      <hotSpot x="20" y="2" xunits="pixels" yunits="pixels"/>
    </IconStyle>
    <LineStyle>
      <color>FFFF4000</color>
      <width>1</width>
    </LineStyle>
    <PolyStyle>
      <color>40ffffff</color>
      <fill>1</fill>
    </PolyStyle>
  </Style>
  <Style id="s_FFFF4000_hl">
    <IconStyle>
      <scale>1.3</scale>
      <Icon>
        <href>http://maps.google.com/mapfiles/kml/pushpin/agrocad.png</href>
      </Icon>
      <hotSpot x="20" y="2" xunits="pixels" yunits="pixels"/>
    </IconStyle>
    <LineStyle>
      <color>ff000000</color>
      <width>1</width>
    </LineStyle>
    <PolyStyle>
      <color>40ffffff</color>
      <fill>1</fill>
    </PolyStyle>
  </Style>
  <Placemark>
    <name>AgroCAD: 957B</name>
    <styleUrl>FFFF4000</styleUrl>
    <Polygon>
      <outerBoundaryIs>
        <LinearRing>
          <coordinates>
           -36.29809144281912,-9.82929853551884 -36.29807764283489,-9.82926272581287 -36.29807175793541,-9.82925196605671 -36.29805895297931,-9.82923120573519 -36.29802413356313,-9.82917741390651 -36.29798084138936,-9.82910795670574 -36.29793069486556,-9.82901665155491 -36.29784117251045,-9.82884001753829 -36.29711463306684,-9.82733390497335 -36.29395159525845,-9.82811790776605 -36.29396976359842,-9.82812346716447 -36.29401090379430,-9.82813782372151 -36.29404917890145,-9.82815326805777 -36.29408821596089,-9.82816832592988 -36.29411480352391,-9.82817858608150 -36.29415534045449,-9.82819685698189 -36.29417959778292,-9.82821082163724 -36.29421407408140,-9.82823450952454 -36.29423699197809,-9.82825065649928 -36.29427181380975,-9.82827265436728 -36.29429543166473,-9.82828642153189 -36.29433136698112,-9.82830598713966 -36.29435610050792,-9.82831867091825 -36.29438188928175,-9.82833166713253 -36.29440760866979,-9.82834503318990 -36.29443234910676,-9.82835904327919 -36.29445590789627,-9.82837288134767 -36.29449250210929,-9.82838746829246 -36.29452974547006,-9.82840670564853 -36.29455372157957,-9.82842097778730 -36.29457727469354,-9.82843596803052 -36.29461434859413,-9.82845913214861 -36.29463650470255,-9.82847548839354 -36.29466813432709,-9.82849889128222 -36.29469690490669,-9.82852112701849 -36.29472356933647,-9.82854223650002 -36.29474659915973,-9.82856114350857 -36.29476616154977,-9.82857678058499 -36.29478855429383,-9.82859367935781 -36.29482252721971,-9.82861837030954 -36.29484580093654,-9.82863453279583 -36.29487003236123,-9.82865031653180 -36.29490597425955,-9.82867185537855 -36.29493115007193,-9.82868409184002 -36.29495566782008,-9.82869531960353 -36.29498279288708,-9.82870792897708 -36.29500587129808,-9.82871723886850 -36.29504180099741,-9.82873143878656 -36.29506511465002,-9.82873991849728 -36.29507253824890,-9.82874242259135 -36.29507449651743,-9.82874310505069 -36.29509964315897,-9.82875174194955 -36.29513810018804,-9.82876714328876 -36.29517578890870,-9.82878223316037 -36.29520159307690,-9.82879099961672 -36.29524232070477,-9.82880613432096 -36.29526921591587,-9.82881553708769 -36.29531036820164,-9.82883034818571 -36.29535102113174,-9.82884382568822 -36.29539203293216,-9.82885714672915 -36.29543528505494,-9.82887235245688 -36.29546163992451,-9.82888123584704 -36.29550132520309,-9.82889353011402 -36.29554087898176,-9.82890531213648 -36.29558218528461,-9.82891757385746 -36.29560860656441,-9.82892512395748 -36.29563512556428,-9.82893275037374 -36.29567499794033,-9.82894382276728 -36.29570126125031,-9.82895054985067 -36.29574108153525,-9.82896094494365 -36.29578152367431,-9.82897145774439 -36.29581126455632,-9.82897907533786 -36.29584296322227,-9.82898751001073 -36.29587554498876,-9.82899403299471 -36.29592078037880,-9.82900137611116 -36.29595008446577,-9.82900584115553 -36.29600131951462,-9.82901554162631 -36.29603296181920,-9.82902608005316 -36.29608128258425,-9.82904819967843 -36.29613156258075,-9.82906933334094 -36.29618745554730,-9.82909251675497 -36.29623859046019,-9.82911517450521 -36.29627230243979,-9.82912982378394 -36.29631754796710,-9.82914853443148 -36.29636281107155,-9.82916735998110 -36.29641037376071,-9.82918787182982 -36.29643894755889,-9.82919966195748 -36.29647718230447,-9.82921570050460 -36.29650238197927,-9.82922609698228 -36.29654107319357,-9.82924149552234 -36.29656685442893,-9.82925140316038 -36.29659312509695,-9.82926087884847 -36.29661263718161,-9.82926693086111 -36.29663489428121,-9.82927140414425 -36.29664827865485,-9.82927494687551 -36.29666388602704,-9.82927938774352 -36.29668652118872,-9.82928815750165 -36.29670573770343,-9.82929404955630 -36.29672852741943,-9.82930047513121 -36.29676500123557,-9.82930940037206 -36.29679958163173,-9.82931833412416 -36.29683195489142,-9.82932771180247 -36.29685072682260,-9.82933409215168 -36.29686860761438,-9.82933897877876 -36.29689009046298,-9.82934262587050 -36.29691399424480,-9.82934736885915 -36.29693621175672,-9.82935323364182 -36.29695984170083,-9.82935987695943 -36.29698233904941,-9.82936530124676 -36.29702102342316,-9.82937351755905 -36.29705910392552,-9.82938220862856 -36.29709716435298,-9.82938742321918 -36.29713608557084,-9.82939147301146 -36.29717339099100,-9.82939446450454 -36.29721384384325,-9.82939665323316 -36.29725476525521,-9.82939877326532 -36.29728238236513,-9.82939974483081 -36.29732383083893,-9.82940201952944 -36.29735196239174,-9.82940291947464 -36.29739380758845,-9.82940411004113 -36.29742202550248,-9.82940428819199 -36.29745446902171,-9.82940402765382 -36.29748970781849,-9.82940274125103 -36.29754160844584,-9.82940064396709 -36.29757397396989,-9.82939912337536 -36.29762004240745,-9.82939600558119 -36.29766663890318,-9.82939212350047 -36.29770804429330,-9.82938568035463 -36.29773629479640,-9.82937979823394 -36.29778121531543,-9.82937034566916 -36.29780996309675,-9.82936440816054 -36.29783903123684,-9.82935883711390 -36.29786807847316,-9.82935302682478 -36.29791424437042,-9.82934422046904 -36.29794195401399,-9.82933912202225 -36.29805197090057,-9.82932130086253 -36.29807488924013,-9.82931323736082 -36.29807925193706,-9.82931070143829 -36.29808550716879,-9.82930652304735 -36.29808991631291,-9.82930102468887 -36.29809144281912,-9.82929853551884 -36.29809126651583,-9.82929869895220 -36.29809144281912,-9.82929853551884
          </coordinates>
        </LinearRing>
      </outerBoundaryIs>
    </Polygon>
  </Placemark>
</Document>
</kml>
