<?xml version="1.0" encoding="utf-8" ?>
<kml xmlns="http://www.opengis.net/kml/2.2">
<Document id="root_doc">
<Schema name="ALVORADA_TALHAO_1028_ID_49" id="ALVORADA_TALHAO_1028_ID_49">
	<SimpleField name="CODE" type="string"></SimpleField>
	<SimpleField name="TALHAO" type="float"></SimpleField>
	<SimpleField name="AREA_TOTAL" type="float"></SimpleField>
	<SimpleField name="FAZENDA" type="float"></SimpleField>
	<SimpleField name="ZONA" type="float"></SimpleField>
	<SimpleField name="FAZ_NOME" type="string"></SimpleField>
</Schema>
<Folder><name>ALVORADA_TALHAO_1028_ID_49</name>
  <Placemark id="ALVORADA_TALHAO_1028_ID_49.1">
	<Style><LineStyle><color>ff0000ff</color></LineStyle><PolyStyle><fill>0</fill></PolyStyle></Style>
	<ExtendedData><SchemaData schemaUrl="#ALVORADA_TALHAO_1028_ID_49">
		<SimpleData name="CODE">50</SimpleData>
		<SimpleData name="TALHAO">1028</SimpleData>
		<SimpleData name="AREA_TOTAL">12.588</SimpleData>
		<SimpleData name="FAZENDA">2078</SimpleData>
		<SimpleData name="ZONA">1</SimpleData>
		<SimpleData name="FAZ_NOME">ALVORADA</SimpleData>
	</SchemaData></ExtendedData>
      <MultiGeometry><Polygon><outerBoundaryIs><LinearRing><coordinates>-36.1532041416006,-9.6985071241654 -36.1554027147502,-9.69829779545211 -36.1551804704132,-9.69567309867067 -36.155055193414,-9.69382845377718 -36.1527371427888,-9.69401595752932 -36.1532041416006,-9.6985071241654</coordinates></LinearRing></outerBoundaryIs></Polygon></MultiGeometry>
  </Placemark>
</Folder>
</Document></kml>
