<?xml version="1.0" encoding="utf-8" ?>
<kml xmlns="http://www.opengis.net/kml/2.2">
<Document id="root_doc">
<Schema name="ALVORADA_TALHAO_1002_ID_383" id="ALVORADA_TALHAO_1002_ID_383">
	<SimpleField name="CODE" type="string"></SimpleField>
	<SimpleField name="TALHAO" type="float"></SimpleField>
	<SimpleField name="AREA_TOTAL" type="float"></SimpleField>
	<SimpleField name="FAZENDA" type="float"></SimpleField>
	<SimpleField name="ZONA" type="float"></SimpleField>
	<SimpleField name="FAZ_NOME" type="string"></SimpleField>
</Schema>
<Folder><name>ALVORADA_TALHAO_1002_ID_383</name>
  <Placemark id="ALVORADA_TALHAO_1002_ID_383.1">
	<Style><LineStyle><color>ff0000ff</color></LineStyle><PolyStyle><fill>0</fill></PolyStyle></Style>
	<ExtendedData><SchemaData schemaUrl="#ALVORADA_TALHAO_1002_ID_383">
		<SimpleData name="CODE">384</SimpleData>
		<SimpleData name="TALHAO">1002</SimpleData>
		<SimpleData name="AREA_TOTAL">13.948</SimpleData>
		<SimpleData name="FAZENDA">2078</SimpleData>
		<SimpleData name="ZONA">1</SimpleData>
		<SimpleData name="FAZ_NOME">ALVORADA</SimpleData>
	</SchemaData></ExtendedData>
      <MultiGeometry><Polygon><outerBoundaryIs><LinearRing><coordinates>-36.1445769780618,-9.67496186245324 -36.1446125049548,-9.67483130971139 -36.1453876365923,-9.67473306330369 -36.14550307507,-9.67358344760058 -36.1455036895787,-9.67293470684175 -36.1455640599296,-9.67213611167478 -36.1455608689965,-9.67167396629733 -36.1456365586719,-9.67136081374051 -36.1457418025049,-9.67089934223583 -36.1458616421248,-9.66978367981196 -36.1460024246826,-9.66836789789258 -36.1460685819595,-9.66751808830283 -36.1459130549441,-9.66751543599753 -36.1457630015338,-9.66751914611139 -36.1456454779157,-9.66750940314747 -36.1456278889245,-9.66756295759908 -36.1455916313834,-9.66771610979098 -36.145569542187,-9.66790474503766 -36.1454710703152,-9.66793954111905 -36.1453314684011,-9.66793725179445 -36.1449241287407,-9.66786996647494 -36.1449023604944,-9.66794167578227 -36.144840837395,-9.66819757528213 -36.1447949883956,-9.66843654328202 -36.144765400196,-9.66859068648188 -36.1447467085961,-9.6686385471819 -36.1447446130961,-9.66864726438188 -36.1447291065963,-9.66873250828184 -36.1447304476964,-9.66876117438182 -36.1447151087965,-9.66883920988175 -36.1447047990967,-9.66888095178181 -36.144674372797,-9.66901422408175 -36.1446661584971,-9.66904171668168 -36.1446581118971,-9.66906300678167 -36.1446431920973,-9.66911388488165 -36.1446302839974,-9.66913358238158 -36.1446312897974,-9.66916191318162 -36.1446180463976,-9.66925134808159 -36.1446109217976,-9.66929459868159 -36.1445992708978,-9.66933885518154 -36.1445746280981,-9.66945050208146 -36.1445711076981,-9.66946869088148 -36.1445480574984,-9.66959559288141 -36.1445413519984,-9.66962006798143 -36.1445422739984,-9.66962794698136 -36.1444937427989,-9.66980497278124 -36.1444522522994,-9.67000722818117 -36.1444058166,-9.67027050368104 -36.1443825987003,-9.67042556888099 -36.1443401025008,-9.67064727028093 -36.1442984444014,-9.67089277618081 -36.1442751427017,-9.67106125248074 -36.144255864402,-9.6711755815807 -36.1442295452023,-9.67131874448061 -36.1442207442025,-9.67140901758058 -36.1442115241025,-9.67141413058062 -36.1441877195029,-9.67157212948045 -36.1441816007029,-9.67159693988049 -36.144170788003,-9.67163180858045 -36.1441464805034,-9.6717942498804 -36.1440986198038,-9.67195308698031 -36.1440949318039,-9.67197353878028 -36.144080682604,-9.67200497098029 -36.1440713787042,-9.67214394288023 -36.1440398627046,-9.67231585568016 -36.144018991805,-9.67250025758014 -36.1439958577053,-9.67262766248005 -36.1439733942055,-9.67273939327997 -36.1439274614061,-9.67298498307984 -36.1438899943066,-9.67319905687982 -36.1438451511071,-9.67340516787971 -36.1438097795076,-9.67364774017961 -36.1437604939082,-9.67392442677944 -36.1437057600088,-9.67416892687937 -36.1436623418093,-9.67440362017925 -36.1436238689098,-9.67460227127912 -36.1435791933104,-9.674852051979 -36.143516496711,-9.67512287127891 -36.1435041753111,-9.67516980997887 -36.1434576876359,-9.67544871611256 -36.1434003235125,-9.67575369327858 -36.1433599227131,-9.6760444614785 -36.1433460088132,-9.67608955617849 -36.1433305861134,-9.67618150567847 -36.143326385098,-9.67621465807647 -36.1433215187978,-9.67629715237841 -36.1433336317768,-9.67634229149095 -36.1436413630313,-9.67614047839315 -36.1437321628065,-9.67608510804899 -36.1440440987451,-9.67568742470755 -36.1444782450574,-9.67512696261771 -36.1445769780618,-9.67496186245324</coordinates></LinearRing></outerBoundaryIs></Polygon></MultiGeometry>
  </Placemark>
</Folder>
</Document></kml>
