<?xml version="1.0" encoding="utf-8" ?>
<kml xmlns="http://www.opengis.net/kml/2.2">
<Document id="root_doc">
<Schema name="ALVORADA_TALHAO_1061_ID_346" id="ALVORADA_TALHAO_1061_ID_346">
	<SimpleField name="CODE" type="string"></SimpleField>
	<SimpleField name="TALHAO" type="float"></SimpleField>
	<SimpleField name="AREA_TOTAL" type="float"></SimpleField>
	<SimpleField name="FAZENDA" type="float"></SimpleField>
	<SimpleField name="ZONA" type="float"></SimpleField>
	<SimpleField name="FAZ_NOME" type="string"></SimpleField>
</Schema>
<Folder><name>ALVORADA_TALHAO_1061_ID_346</name>
  <Placemark id="ALVORADA_TALHAO_1061_ID_346.1">
	<Style><LineStyle><color>ff0000ff</color></LineStyle><PolyStyle><fill>0</fill></PolyStyle></Style>
	<ExtendedData><SchemaData schemaUrl="#ALVORADA_TALHAO_1061_ID_346">
		<SimpleData name="CODE">347</SimpleData>
		<SimpleData name="TALHAO">1061</SimpleData>
		<SimpleData name="AREA_TOTAL">8.594</SimpleData>
		<SimpleData name="FAZENDA">2078</SimpleData>
		<SimpleData name="ZONA">1</SimpleData>
		<SimpleData name="FAZ_NOME">ALVORADA</SimpleData>
	</SchemaData></ExtendedData>
      <MultiGeometry><Polygon><outerBoundaryIs><LinearRing><coordinates>-36.1414717051514,-9.71357025192749 -36.1388602192851,-9.71354841406667 -36.1388200026021,-9.71469229893947 -36.1387121967023,-9.71690367064135 -36.138701130954,-9.71712709054512 -36.1416079248001,-9.71504107851188 -36.1414717051514,-9.71357025192749</coordinates></LinearRing></outerBoundaryIs></Polygon></MultiGeometry>
  </Placemark>
</Folder>
</Document></kml>
