<?xml version="1.0" encoding="utf-8" ?>
<kml xmlns="http://www.opengis.net/kml/2.2">
<Document id="root_doc">
<Schema name="ALVORADA_TALHAO_6201_ID_350" id="ALVORADA_TALHAO_6201_ID_350">
	<SimpleField name="CODE" type="string"></SimpleField>
	<SimpleField name="TALHAO" type="float"></SimpleField>
	<SimpleField name="AREA_TOTAL" type="float"></SimpleField>
	<SimpleField name="FAZENDA" type="float"></SimpleField>
	<SimpleField name="ZONA" type="float"></SimpleField>
	<SimpleField name="FAZ_NOME" type="string"></SimpleField>
</Schema>
<Folder><name>ALVORADA_TALHAO_6201_ID_350</name>
  <Placemark id="ALVORADA_TALHAO_6201_ID_350.1">
	<Style><LineStyle><color>ff0000ff</color></LineStyle><PolyStyle><fill>0</fill></PolyStyle></Style>
	<ExtendedData><SchemaData schemaUrl="#ALVORADA_TALHAO_6201_ID_350">
		<SimpleData name="CODE">351</SimpleData>
		<SimpleData name="TALHAO">6201</SimpleData>
		<SimpleData name="AREA_TOTAL">5.034</SimpleData>
		<SimpleData name="FAZENDA">2078</SimpleData>
		<SimpleData name="ZONA">1</SimpleData>
		<SimpleData name="FAZ_NOME">ALVORADA</SimpleData>
	</SchemaData></ExtendedData>
      <MultiGeometry><Polygon><outerBoundaryIs><LinearRing><coordinates>-36.1417209769889,-9.72145002103482 -36.1416736057387,-9.72211132405744 -36.1417596047974,-9.72211382944942 -36.1418941812179,-9.72208823873194 -36.1420188150845,-9.72211147059292 -36.1421558022059,-9.72215164067181 -36.1422848233121,-9.72211519500171 -36.1423369995375,-9.7221327328019 -36.142529309129,-9.72212259857118 -36.1429302618626,-9.72200393285768 -36.1431287132419,-9.72198761069858 -36.1435244093006,-9.72212460373649 -36.1436967624582,-9.72222744723819 -36.1439674010671,-9.72246585246533 -36.1441533696279,-9.72280357772508 -36.1443037882731,-9.7229074239031 -36.1445261649895,-9.72292293198376 -36.144753376415,-9.72300759181699 -36.1448473856399,-9.72308314151177 -36.1449975380763,-9.72308485333481 -36.1451643570948,-9.7229231308266 -36.1453307209917,-9.72289471109685 -36.1454791862646,-9.72301665746918 -36.1456609641898,-9.72308114084214 -36.1458495835096,-9.72311473868749 -36.1459521492309,-9.72306592883167 -36.146030418501,-9.72299173712693 -36.1460736568308,-9.72290120014936 -36.1460271322546,-9.72277303993464 -36.1459314694263,-9.72266568760817 -36.1457824933826,-9.72233180868356 -36.145721956932,-9.72222162306729 -36.1455951412471,-9.7220803965234 -36.1454454547393,-9.72191150088082 -36.1453988706692,-9.72170895185122 -36.145389051206,-9.72148068188792 -36.1417209769889,-9.72145002103482</coordinates></LinearRing></outerBoundaryIs></Polygon></MultiGeometry>
  </Placemark>
</Folder>
</Document></kml>
