<?xml version="1.0" encoding="utf-8" ?>
<kml xmlns="http://www.opengis.net/kml/2.2">
<Document id="root_doc">
<Schema name="ALVORADA_TALHAO_1032_ID_30" id="ALVORADA_TALHAO_1032_ID_30">
	<SimpleField name="CODE" type="string"></SimpleField>
	<SimpleField name="TALHAO" type="float"></SimpleField>
	<SimpleField name="AREA_TOTAL" type="float"></SimpleField>
	<SimpleField name="FAZENDA" type="float"></SimpleField>
	<SimpleField name="ZONA" type="float"></SimpleField>
	<SimpleField name="FAZ_NOME" type="string"></SimpleField>
</Schema>
<Folder><name>ALVORADA_TALHAO_1032_ID_30</name>
  <Placemark id="ALVORADA_TALHAO_1032_ID_30.1">
	<Style><LineStyle><color>ff0000ff</color></LineStyle><PolyStyle><fill>0</fill></PolyStyle></Style>
	<ExtendedData><SchemaData schemaUrl="#ALVORADA_TALHAO_1032_ID_30">
		<SimpleData name="CODE">31</SimpleData>
		<SimpleData name="TALHAO">1032</SimpleData>
		<SimpleData name="AREA_TOTAL">6.100</SimpleData>
		<SimpleData name="FAZENDA">2078</SimpleData>
		<SimpleData name="ZONA">1</SimpleData>
		<SimpleData name="FAZ_NOME">ALVORADA</SimpleData>
	</SchemaData></ExtendedData>
      <MultiGeometry><Polygon><outerBoundaryIs><LinearRing><coordinates>-36.1463314578238,-9.69909803164144 -36.1469579266547,-9.69844033184343 -36.1471288856692,-9.69825682355122 -36.1469743114068,-9.69663552074014 -36.144726413463,-9.69703141921495 -36.1449086494929,-9.69922169579331 -36.1463314578238,-9.69909803164144</coordinates></LinearRing></outerBoundaryIs></Polygon></MultiGeometry>
  </Placemark>
</Folder>
</Document></kml>
