<?xml version="1.0" encoding="utf-8" ?>
<kml xmlns="http://www.opengis.net/kml/2.2">
<Document id="root_doc">
<Schema name="ALVORADA_TALHAO_1050_ID_357" id="ALVORADA_TALHAO_1050_ID_357">
	<SimpleField name="CODE" type="string"></SimpleField>
	<SimpleField name="TALHAO" type="float"></SimpleField>
	<SimpleField name="AREA_TOTAL" type="float"></SimpleField>
	<SimpleField name="FAZENDA" type="float"></SimpleField>
	<SimpleField name="ZONA" type="float"></SimpleField>
	<SimpleField name="FAZ_NOME" type="string"></SimpleField>
</Schema>
<Folder><name>ALVORADA_TALHAO_1050_ID_357</name>
  <Placemark id="ALVORADA_TALHAO_1050_ID_357.1">
	<Style><LineStyle><color>ff0000ff</color></LineStyle><PolyStyle><fill>0</fill></PolyStyle></Style>
	<ExtendedData><SchemaData schemaUrl="#ALVORADA_TALHAO_1050_ID_357">
		<SimpleData name="CODE">358</SimpleData>
		<SimpleData name="TALHAO">1050</SimpleData>
		<SimpleData name="AREA_TOTAL">6.504</SimpleData>
		<SimpleData name="FAZENDA">2078</SimpleData>
		<SimpleData name="ZONA">1</SimpleData>
		<SimpleData name="FAZ_NOME">ALVORADA</SimpleData>
	</SchemaData></ExtendedData>
      <MultiGeometry><Polygon><outerBoundaryIs><LinearRing><coordinates>-36.1594877133795,-9.70485826015808 -36.1572112385622,-9.70526379588551 -36.1572131690432,-9.70527446596253 -36.1572031325147,-9.70531113168692 -36.1572059493342,-9.70534550748887 -36.1572087652428,-9.70537988328329 -36.1572115812374,-9.70541426013421 -36.1572143970723,-9.70544863503982 -36.1572172129932,-9.7054830110018 -36.1572200289729,-9.7055173876856 -36.1572228475029,-9.7055517631829 -36.1572256634165,-9.70558613807445 -36.1572284802249,-9.70562051478044 -36.15723129613,-9.70565489057554 -36.1572341120483,-9.70568926653799 -36.1572369288493,-9.70572364217344 -36.1572397447531,-9.70575801796889 -36.1572425606701,-9.70579239393164 -36.157245376573,-9.70582676972716 -36.1572481924892,-9.7058611456901 -36.1572510101772,-9.70589552206959 -36.157253826997,-9.70592989696957 -36.1572566428905,-9.70596427366875 -36.1572594587244,-9.70599864964635 -36.1572622744714,-9.70603302456764 -36.1572650903773,-9.70606740143438 -36.1572679061963,-9.70610177724483 -36.1572707251289,-9.70613615176848 -36.1572768399625,-9.70616994080371 -36.1572763578285,-9.7062049042721 -36.1572758756832,-9.70623986847394 -36.1572848064307,-9.70630803166934 -36.15728762323,-9.70634240837695 -36.1572904398938,-9.70637678343671 -36.1572937739253,-9.70641106671176 -36.1572969181151,-9.70644538470662 -36.1573000614016,-9.70647970179076 -36.1573032055906,-9.70651401978582 -36.1573063488687,-9.70654833777347 -36.1573094930647,-9.70658265486547 -36.1573126372527,-9.70661697286084 -36.1573157805373,-9.70665128994539 -36.1573189239182,-9.7066856080846 -36.157322068919,-9.70671992503329 -36.1573252122026,-9.70675424211811 -36.1573283563888,-9.706788560114 -36.1573315005821,-9.70682287720654 -36.1573346438646,-9.7068571942917 -36.1573377873247,-9.70689151331901 -36.1573409322343,-9.70692583028403 -36.1573440755081,-9.70696014827282 -36.1573472187156,-9.70699446554126 -36.1573503638909,-9.70702878245909 -36.1573535071636,-9.70706310044809 -36.1573566503699,-9.70709741771681 -36.1573597935759,-9.70713173498551 -36.1573629388158,-9.70716605262425 -36.1573660830051,-9.70720036971781 -36.1573692271789,-9.70723468861831 -36.157372370457,-9.70726900570455 -36.1573755146453,-9.70730332279843 -36.1573786588256,-9.7073376407958 -36.1573818021027,-9.70737195788237 -36.1573849462899,-9.70740627497653 -36.1573880904691,-9.7074405929742 -36.1573912337451,-9.70747491006101 -36.157405311272,-9.70750728077094 -36.1574308892077,-9.70754127287017 -36.1576410185861,-9.70750384160308 -36.1580178324197,-9.70739816818827 -36.1583353209885,-9.70730673278378 -36.1586527985061,-9.70721530055737 -36.1588264316525,-9.70714949174675 -36.1589900998951,-9.7070854584338 -36.1591537680946,-9.70702142502456 -36.1592824165622,-9.70696362893044 -36.1594101521252,-9.70690599684741 -36.1595378867447,-9.70684836469649 -36.1596011293585,-9.70680221901694 -36.1596129107626,-9.70676524322981 -36.1596246921706,-9.70672826653812 -36.1596364735673,-9.70669129074856 -36.1596482549679,-9.70665431405452 -36.159660036365,-9.70661733735914 -36.1596718177507,-9.70658036156598 -36.1596835982224,-9.70654338576403 -36.1596953805267,-9.70650640816923 -36.159707160991,-9.70646943236487 -36.1597189432879,-9.70643245476763 -36.1597307237449,-9.70639547896088 -36.1597425051088,-9.70635850316043 -36.1597542864843,-9.70632152555199 -36.1597660678409,-9.70628454974907 -36.1597778491938,-9.70624757394501 -36.1597896305583,-9.70621059633295 -36.1598014119039,-9.70617362052638 -36.1598131932535,-9.70613664381528 -36.1598249745995,-9.70609966710297 -36.1598367559342,-9.70606269129281 -36.1598382642204,-9.70602754367271 -36.1598283385219,-9.70599443504407 -36.1598184119217,-9.70596132550474 -36.159808486233,-9.70592821597315 -36.1597985596274,-9.70589510733752 -36.1597886339485,-9.70586199690305 -36.159778707345,-9.70582888826785 -36.1597687816531,-9.70579577964051 -36.159758855067,-9.70576266919909 -36.159748929385,-9.70572955966877 -36.1597390027934,-9.70569645013111 -36.1597290761954,-9.705663341497 -36.1597191505166,-9.70563023196732 -36.159709223936,-9.70559712152699 -36.1596992982518,-9.70556401290104 -36.1596893716582,-9.7055309042678 -36.1596794459913,-9.70549779383571 -36.1596695193999,-9.70546468520284 -36.1596595937353,-9.70543157477113 -36.159649667146,-9.70539846613869 -36.1596397403495,-9.70536535681146 -36.1596298148965,-9.70533224707538 -36.1596198892287,-9.70529913754782 -36.1596099626438,-9.70526602891633 -36.1596000358032,-9.70523291942873 -36.1595901090122,-9.70519981010252 -36.1595801838367,-9.70516669941716 -36.159570258159,-9.70513359169732 -36.1595603315872,-9.70510048216351 -36.1595504050241,-9.70506737172655 -36.1595404793574,-9.70503426310404 -36.1595305536918,-9.70500115448175 -36.159520627132,-9.70496804404541 -36.1595107005657,-9.70493493451262 -36.159500774911,-9.70490182498761 -36.1594877133795,-9.70485826015808</coordinates></LinearRing></outerBoundaryIs></Polygon></MultiGeometry>
  </Placemark>
</Folder>
</Document></kml>
