<?xml version="1.0" encoding="utf-8" ?>
<kml xmlns="http://www.opengis.net/kml/2.2">
<Document id="root_doc">
<Schema name="ALVORADA_TALHAO_1038_ID_327" id="ALVORADA_TALHAO_1038_ID_327">
	<SimpleField name="CODE" type="string"></SimpleField>
	<SimpleField name="TALHAO" type="float"></SimpleField>
	<SimpleField name="AREA_TOTAL" type="float"></SimpleField>
	<SimpleField name="FAZENDA" type="float"></SimpleField>
	<SimpleField name="ZONA" type="float"></SimpleField>
	<SimpleField name="FAZ_NOME" type="string"></SimpleField>
</Schema>
<Folder><name>ALVORADA_TALHAO_1038_ID_327</name>
  <Placemark id="ALVORADA_TALHAO_1038_ID_327.1">
	<Style><LineStyle><color>ff0000ff</color></LineStyle><PolyStyle><fill>0</fill></PolyStyle></Style>
	<ExtendedData><SchemaData schemaUrl="#ALVORADA_TALHAO_1038_ID_327">
		<SimpleData name="CODE">328</SimpleData>
		<SimpleData name="TALHAO">1038</SimpleData>
		<SimpleData name="AREA_TOTAL">8.975</SimpleData>
		<SimpleData name="FAZENDA">2078</SimpleData>
		<SimpleData name="ZONA">1</SimpleData>
		<SimpleData name="FAZ_NOME">ALVORADA</SimpleData>
	</SchemaData></ExtendedData>
      <MultiGeometry><Polygon><outerBoundaryIs><LinearRing><coordinates>-36.1530876189124,-9.70690077835566 -36.1533312568592,-9.70846934655769 -36.153744249716,-9.70840775135391 -36.1563172594852,-9.70781267781839 -36.1560409011565,-9.70477663476838 -36.1530876189124,-9.70690077835566</coordinates></LinearRing></outerBoundaryIs></Polygon></MultiGeometry>
  </Placemark>
</Folder>
</Document></kml>
