<?xml version="1.0" encoding="utf-8" ?>
<kml xmlns="http://www.opengis.net/kml/2.2">
<Document id="root_doc">
<Schema name="ALVORADA_TALHAO_1040_ID_330" id="ALVORADA_TALHAO_1040_ID_330">
	<SimpleField name="CODE" type="string"></SimpleField>
	<SimpleField name="TALHAO" type="float"></SimpleField>
	<SimpleField name="AREA_TOTAL" type="float"></SimpleField>
	<SimpleField name="FAZENDA" type="float"></SimpleField>
	<SimpleField name="ZONA" type="float"></SimpleField>
	<SimpleField name="FAZ_NOME" type="string"></SimpleField>
</Schema>
<Folder><name>ALVORADA_TALHAO_1040_ID_330</name>
  <Placemark id="ALVORADA_TALHAO_1040_ID_330.1">
	<Style><LineStyle><color>ff0000ff</color></LineStyle><PolyStyle><fill>0</fill></PolyStyle></Style>
	<ExtendedData><SchemaData schemaUrl="#ALVORADA_TALHAO_1040_ID_330">
		<SimpleData name="CODE">331</SimpleData>
		<SimpleData name="TALHAO">1040</SimpleData>
		<SimpleData name="AREA_TOTAL">34.012</SimpleData>
		<SimpleData name="FAZENDA">2078</SimpleData>
		<SimpleData name="ZONA">1</SimpleData>
		<SimpleData name="FAZ_NOME">ALVORADA</SimpleData>
	</SchemaData></ExtendedData>
      <MultiGeometry><Polygon><outerBoundaryIs><LinearRing><coordinates>-36.1526080389461,-9.70713413007231 -36.1526909100809,-9.70707452632996 -36.152989158363,-9.70686001549225 -36.1521222658087,-9.7012788591319 -36.1518224885144,-9.70148349966349 -36.1517391923108,-9.70154036084863 -36.1501458954795,-9.70262800106406 -36.1501975061565,-9.70270242503925 -36.1494473786199,-9.70321448290234 -36.1493957680961,-9.70314005884081 -36.1477432007576,-9.70426813454859 -36.1481786518817,-9.70920939466655 -36.1500772133197,-9.70895436721647 -36.1526080389461,-9.70713413007231</coordinates></LinearRing></outerBoundaryIs></Polygon></MultiGeometry>
  </Placemark>
</Folder>
</Document></kml>
