<?xml version="1.0" encoding="utf-8" ?>
<kml xmlns="http://www.opengis.net/kml/2.2">
<Document id="root_doc">
<Schema name="ALVORADA_TALHAO_1027_ID_364" id="ALVORADA_TALHAO_1027_ID_364">
	<SimpleField name="CODE" type="string"></SimpleField>
	<SimpleField name="TALHAO" type="float"></SimpleField>
	<SimpleField name="AREA_TOTAL" type="float"></SimpleField>
	<SimpleField name="FAZENDA" type="float"></SimpleField>
	<SimpleField name="ZONA" type="float"></SimpleField>
	<SimpleField name="FAZ_NOME" type="string"></SimpleField>
</Schema>
<Folder><name>ALVORADA_TALHAO_1027_ID_364</name>
  <Placemark id="ALVORADA_TALHAO_1027_ID_364.1">
	<Style><LineStyle><color>ff0000ff</color></LineStyle><PolyStyle><fill>0</fill></PolyStyle></Style>
	<ExtendedData><SchemaData schemaUrl="#ALVORADA_TALHAO_1027_ID_364">
		<SimpleData name="CODE">365</SimpleData>
		<SimpleData name="TALHAO">1027</SimpleData>
		<SimpleData name="AREA_TOTAL">10.924</SimpleData>
		<SimpleData name="FAZENDA">2078</SimpleData>
		<SimpleData name="ZONA">1</SimpleData>
		<SimpleData name="FAZ_NOME">ALVORADA</SimpleData>
	</SchemaData></ExtendedData>
      <MultiGeometry><Polygon><outerBoundaryIs><LinearRing><coordinates>-36.1574504099419,-9.69754329281645 -36.1605440391623,-9.69543086675764 -36.1603572635518,-9.69450899892862 -36.1602833813255,-9.6942129928938 -36.1564441543246,-9.69403163777318 -36.1574504099419,-9.69754329281645</coordinates></LinearRing></outerBoundaryIs></Polygon></MultiGeometry>
  </Placemark>
</Folder>
</Document></kml>
