<?xml version="1.0" encoding="utf-8" ?>
<kml xmlns="http://www.opengis.net/kml/2.2">
<Document id="root_doc">
<Schema name="ALVORADA_TALHAO_1041_ID_388" id="ALVORADA_TALHAO_1041_ID_388">
	<SimpleField name="CODE" type="string"></SimpleField>
	<SimpleField name="TALHAO" type="float"></SimpleField>
	<SimpleField name="AREA_TOTAL" type="float"></SimpleField>
	<SimpleField name="FAZENDA" type="float"></SimpleField>
	<SimpleField name="ZONA" type="float"></SimpleField>
	<SimpleField name="FAZ_NOME" type="string"></SimpleField>
</Schema>
<Folder><name>ALVORADA_TALHAO_1041_ID_388</name>
  <Placemark id="ALVORADA_TALHAO_1041_ID_388.1">
	<Style><LineStyle><color>ff0000ff</color></LineStyle><PolyStyle><fill>0</fill></PolyStyle></Style>
	<ExtendedData><SchemaData schemaUrl="#ALVORADA_TALHAO_1041_ID_388">
		<SimpleData name="CODE">389</SimpleData>
		<SimpleData name="TALHAO">1041</SimpleData>
		<SimpleData name="AREA_TOTAL">9.823</SimpleData>
		<SimpleData name="FAZENDA">2078</SimpleData>
		<SimpleData name="ZONA">1</SimpleData>
		<SimpleData name="FAZ_NOME">ALVORADA</SimpleData>
	</SchemaData></ExtendedData>
      <MultiGeometry><Polygon><outerBoundaryIs><LinearRing><coordinates>-36.1455373700828,-9.70380430567006 -36.1456965240588,-9.70279399250748 -36.1457684854251,-9.70280519582662 -36.1456119027916,-9.70379918742795 -36.1457332260535,-9.70379085599193 -36.1468746642324,-9.70369893113634 -36.1476122337335,-9.70364159602318 -36.1473375365793,-9.70064256202575 -36.1449691906206,-9.6997828222997 -36.1450023284129,-9.70011975955927 -36.1453661337195,-9.70381886745232 -36.1455373700828,-9.70380430567006</coordinates></LinearRing></outerBoundaryIs></Polygon></MultiGeometry>
  </Placemark>
</Folder>
</Document></kml>
