<?xml version="1.0" encoding="UTF-8"?>
<kml xmlns="http://www.opengis.net/kml/2.2" xmlns:gx="http://www.google.com/kml/ext/2.2" xmlns:kml="http://www.opengis.net/kml/2.2" xmlns:atom="http://www.w3.org/2005/Atom">
<Document>
  <name>07.kml</name>
  <StyleMap id="FFFF0000">
    <Pair>
      <key>normal</key>
      <styleUrl>#s_FFFF0000</styleUrl>
    </Pair>
    <Pair>
      <key>highlight</key>
      <styleUrl>#s_FFFF0000_hl</styleUrl>
    </Pair>
  </StyleMap>
  <Style id="s_FFFF0000">
   <IconStyle>
      <scale>1.1</scale>
      <Icon>
        <href>http://maps.google.com/mapfiles/kml/pushpin/agrocad.png</href>
      </Icon>
      <hotSpot x="20" y="2" xunits="pixels" yunits="pixels"/>
    </IconStyle>
    <LineStyle>
      <color>FFFF0000</color>
      <width>1</width>
    </LineStyle>
    <PolyStyle>
      <color>40ffffff</color>
      <fill>1</fill>
    </PolyStyle>
  </Style>
  <Style id="s_FFFF0000_hl">
    <IconStyle>
      <scale>1.3</scale>
      <Icon>
        <href>http://maps.google.com/mapfiles/kml/pushpin/agrocad.png</href>
      </Icon>
      <hotSpot x="20" y="2" xunits="pixels" yunits="pixels"/>
    </IconStyle>
    <LineStyle>
      <color>ff000000</color>
      <width>1</width>
    </LineStyle>
    <PolyStyle>
      <color>40ffffff</color>
      <fill>1</fill>
    </PolyStyle>
  </Style>
  <Placemark>
    <name>AgroCAD: D95C</name>
    <styleUrl>FFFF0000</styleUrl>
    <Polygon>
      <outerBoundaryIs>
        <LinearRing>
          <coordinates>
           -36.34588961654838,-9.74526865556903 -36.34587595278137,-9.74516238182598 -36.34585925262177,-9.74505155349391 -36.34583496148047,-9.74495590712518 -36.34580004296497,-9.74483293322251 -36.34577271543097,-9.74474791422807 -36.34571046938147,-9.74464164048497 -36.34566644168797,-9.74458243082816 -36.34560875022737,-9.74451107560065 -36.34557534990817,-9.74446249331816 -36.34554498598156,-9.74442909299890 -36.34542808486415,-9.74436684694940 -36.34524438310835,-9.74425146402837 -36.34510774543865,-9.74416189044491 -36.34503639021115,-9.74408901702112 -36.34491645270116,-9.74400703441935 -36.34478436962043,-9.74389772428361 -36.34467809587744,-9.74380359611119 -36.34450502149583,-9.74358649403609 -36.34437749300412,-9.74343011981417 -36.34420897321162,-9.74323579068400 -36.34410877225381,-9.74307182548040 -36.34400401670711,-9.74286990536862 -36.34394784344291,-9.74274237687692 -36.34392962508700,-9.74262547575959 -36.34394328885390,-9.74251768382023 -36.34399035294013,-9.74243418302212 -36.34404500800801,-9.74235979140199 -36.34518460412785,-9.74180868613447 -36.34884478570376,-9.74858363725421 -36.34876963498545,-9.74861703757343 -36.34864590198456,-9.74866941534680 -36.34846827301395,-9.74872862500363 -36.34824661634995,-9.74878403916961 -36.34803862345274,-9.74883793513931 -36.34779571204003,-9.74838399443682 -36.34737365346043,-9.74857528717433 -36.34693641291760,-9.74780024794818 -36.34684152564691,-9.74757024120428 -36.34680812532771,-9.74747155844288 -36.34671247895889,-9.74731518422098 -36.34662442357180,-9.74715425541006 -36.34659557784160,-9.74707379100462 -36.34638910314079,-9.74670638749292 -36.34627979300507,-9.74645284870589 -36.34616744647669,-9.74621601007855 -36.34600499946937,-9.74579395149895 -36.34597767193548,-9.74573322364578 -36.34590328031538,-9.74546753928816 -36.34588961654838,-9.74526865556903 -36.34588961654838,-9.74526865556903
          </coordinates>
        </LinearRing>
      </outerBoundaryIs>
    </Polygon>
  </Placemark>
</Document>
</kml>
