<?xml version="1.0" encoding="UTF-8"?>
<kml xmlns="http://www.opengis.net/kml/2.2" xmlns:gx="http://www.google.com/kml/ext/2.2" xmlns:kml="http://www.opengis.net/kml/2.2" xmlns:atom="http://www.w3.org/2005/Atom">
<Document>
  <name>1043.kml</name>
  <StyleMap id="FF0040FF">
    <Pair>
      <key>normal</key>
      <styleUrl>#s_FF0040FF</styleUrl>
    </Pair>
    <Pair>
      <key>highlight</key>
      <styleUrl>#s_FF0040FF_hl</styleUrl>
    </Pair>
  </StyleMap>
  <Style id="s_FF0040FF">
   <IconStyle>
      <scale>1.1</scale>
      <Icon>
        <href>http://maps.google.com/mapfiles/kml/pushpin/agrocad.png</href>
      </Icon>
      <hotSpot x="20" y="2" xunits="pixels" yunits="pixels"/>
    </IconStyle>
    <LineStyle>
      <color>FF0040FF</color>
      <width>1</width>
    </LineStyle>
    <PolyStyle>
      <color>40ffffff</color>
      <fill>1</fill>
    </PolyStyle>
  </Style>
  <Style id="s_FF0040FF_hl">
    <IconStyle>
      <scale>1.3</scale>
      <Icon>
        <href>http://maps.google.com/mapfiles/kml/pushpin/agrocad.png</href>
      </Icon>
      <hotSpot x="20" y="2" xunits="pixels" yunits="pixels"/>
    </IconStyle>
    <LineStyle>
      <color>ff000000</color>
      <width>1</width>
    </LineStyle>
    <PolyStyle>
      <color>40ffffff</color>
      <fill>1</fill>
    </PolyStyle>
  </Style>
  <Placemark>
    <name>AgroCAD: 826C</name>
    <styleUrl>FF0040FF</styleUrl>
    <Polygon>
      <outerBoundaryIs>
        <LinearRing>
          <coordinates>
           -36.28212784257787,-9.85039819349027 -36.28212857689297,-9.85039123279858 -36.28223688026020,-9.84999420331110 -36.28254098876141,-9.84883652033974 -36.28264593244833,-9.84836629884117 -36.28267344013782,-9.84826075867876 -36.28272456431895,-9.84825140028557 -36.28284783706224,-9.84827259813997 -36.28356211809834,-9.84846088052248 -36.28633283928719,-9.84918192706626 -36.28732252186603,-9.84943960216082 -36.28726794112544,-9.84965095040723 -36.28716156078591,-9.85010231607850 -36.28714612556059,-9.85020189968727 -36.28713807497727,-9.85028257627573 -36.28711717130535,-9.85028260158858 -36.28698870191040,-9.85028657421724 -36.28673790894791,-9.85029322099921 -36.28647947442654,-9.85029263249234 -36.28635102411646,-9.85029282617428 -36.28622475600385,-9.85028938008982 -36.28609919753539,-9.85028975969755 -36.28603715455139,-9.85029232619117 -36.28591210803175,-9.85029092424782 -36.28566008165335,-9.85029025266960 -36.28540685081522,-9.85028854957275 -36.28516098265631,-9.85027854084345 -36.28497466008533,-9.85028208832589 -36.28472723126718,-9.85027691864353 -36.28454667608230,-9.85027819797834 -36.28432129290048,-9.85027929412722 -36.28403667529319,-9.85028259586144 -36.28386866658076,-9.85027462307130 -36.28370273322298,-9.85027558714893 -36.28357671333111,-9.85028328395807 -36.28339102701614,-9.85030071180554 -36.28332944299533,-9.85030644453857 -36.28314466413448,-9.85033561768504 -36.28302307355429,-9.85036461712336 -36.28279237797908,-9.85039526960517 -36.28262469906164,-9.85041840533592 -36.28240602736657,-9.85042517760779 -36.28229102604179,-9.85042198835547 -36.28212784257787,-9.85039819349027 -36.28212784257787,-9.85039819349027
          </coordinates>
        </LinearRing>
      </outerBoundaryIs>
    </Polygon>
  </Placemark>
</Document>
</kml>
