<?xml version="1.0" encoding="UTF-8"?>
<kml xmlns="http://www.opengis.net/kml/2.2" xmlns:gx="http://www.google.com/kml/ext/2.2" xmlns:kml="http://www.opengis.net/kml/2.2" xmlns:atom="http://www.w3.org/2005/Atom">
<Document>
  <name>1003.kml</name>
  <StyleMap id="FFFF4000">
    <Pair>
      <key>normal</key>
      <styleUrl>#s_FFFF4000</styleUrl>
    </Pair>
    <Pair>
      <key>highlight</key>
      <styleUrl>#s_FFFF4000_hl</styleUrl>
    </Pair>
  </StyleMap>
  <Style id="s_FFFF4000">
   <IconStyle>
      <scale>1.1</scale>
      <Icon>
        <href>http://maps.google.com/mapfiles/kml/pushpin/agrocad.png</href>
      </Icon>
      <hotSpot x="20" y="2" xunits="pixels" yunits="pixels"/>
    </IconStyle>
    <LineStyle>
      <color>FFFF4000</color>
      <width>1</width>
    </LineStyle>
    <PolyStyle>
      <color>40ffffff</color>
      <fill>1</fill>
    </PolyStyle>
  </Style>
  <Style id="s_FFFF4000_hl">
    <IconStyle>
      <scale>1.3</scale>
      <Icon>
        <href>http://maps.google.com/mapfiles/kml/pushpin/agrocad.png</href>
      </Icon>
      <hotSpot x="20" y="2" xunits="pixels" yunits="pixels"/>
    </IconStyle>
    <LineStyle>
      <color>ff000000</color>
      <width>1</width>
    </LineStyle>
    <PolyStyle>
      <color>40ffffff</color>
      <fill>1</fill>
    </PolyStyle>
  </Style>
  <Placemark>
    <name>AgroCAD: 8F76</name>
    <styleUrl>FFFF4000</styleUrl>
    <Polygon>
      <outerBoundaryIs>
        <LinearRing>
          <coordinates>
           -36.27542817354778,-9.82840748097706 -36.27535928906047,-9.82866915882517 -36.27754857276613,-9.82923601508448 -36.27760143799432,-9.82900205364486 -36.27791745956524,-9.82770812952170 -36.27821161459891,-9.82659775906356 -36.27826027691018,-9.82641713073132 -36.27828001472512,-9.82633730319992 -36.27812439669853,-9.82627261206566 -36.27806803200211,-9.82625411327060 -36.27795469026398,-9.82622197835290 -36.27781754009990,-9.82618517001598 -36.27765168280765,-9.82614135681334 -36.27749046972446,-9.82610058695502 -36.27734972119841,-9.82609033744368 -36.27720412057512,-9.82608769573335 -36.27705723041947,-9.82608200290125 -36.27694226146004,-9.82607211508222 -36.27683691193478,-9.82605551815669 -36.27672872148047,-9.82601467259370 -36.27664694062135,-9.82595646982254 -36.27661034143044,-9.82592220497335 -36.27654171111386,-9.82584556074139 -36.27646111737016,-9.82573168550614 -36.27638229633249,-9.82563344475575 -36.27632464168521,-9.82556902196023 -36.27623903397334,-9.82547956655140 -36.27614742005663,-9.82540791746737 -36.27604839345530,-9.82533925638707 -36.27597977863949,-9.82529152724733 -36.27593448417124,-9.82525760675303 -36.27584635959471,-9.82518565729424 -36.27575454043621,-9.82510947967915 -36.27568703056207,-9.82507539025829 -36.27567280070354,-9.82508697016847 -36.27565780827081,-9.82512703983351 -36.27561318313958,-9.82525341777306 -36.27558236574573,-9.82534414601477 -36.27555751138048,-9.82541755497081 -36.27545999917543,-9.82570833464638 -36.27516411155734,-9.82659130836209 -36.27466817889767,-9.82808795850800 -36.27463271372176,-9.82820151445992 -36.27542817354778,-9.82840748097706
          </coordinates>
        </LinearRing>
      </outerBoundaryIs>
    </Polygon>
  </Placemark>
</Document>
</kml>
