<?xml version="1.0" encoding="UTF-8"?>
<kml xmlns="http://www.opengis.net/kml/2.2" xmlns:gx="http://www.google.com/kml/ext/2.2" xmlns:kml="http://www.opengis.net/kml/2.2" xmlns:atom="http://www.w3.org/2005/Atom">
<Document>
  <name>1040.kml</name>
  <StyleMap id="FFFF4000">
    <Pair>
      <key>normal</key>
      <styleUrl>#s_FFFF4000</styleUrl>
    </Pair>
    <Pair>
      <key>highlight</key>
      <styleUrl>#s_FFFF4000_hl</styleUrl>
    </Pair>
  </StyleMap>
  <Style id="s_FFFF4000">
   <IconStyle>
      <scale>1.1</scale>
      <Icon>
        <href>http://maps.google.com/mapfiles/kml/pushpin/agrocad.png</href>
      </Icon>
      <hotSpot x="20" y="2" xunits="pixels" yunits="pixels"/>
    </IconStyle>
    <LineStyle>
      <color>FFFF4000</color>
      <width>1</width>
    </LineStyle>
    <PolyStyle>
      <color>40ffffff</color>
      <fill>1</fill>
    </PolyStyle>
  </Style>
  <Style id="s_FFFF4000_hl">
    <IconStyle>
      <scale>1.3</scale>
      <Icon>
        <href>http://maps.google.com/mapfiles/kml/pushpin/agrocad.png</href>
      </Icon>
      <hotSpot x="20" y="2" xunits="pixels" yunits="pixels"/>
    </IconStyle>
    <LineStyle>
      <color>ff000000</color>
      <width>1</width>
    </LineStyle>
    <PolyStyle>
      <color>40ffffff</color>
      <fill>1</fill>
    </PolyStyle>
  </Style>
  <Placemark>
    <name>AgroCAD: 933D</name>
    <styleUrl>FFFF4000</styleUrl>
    <Polygon>
      <outerBoundaryIs>
        <LinearRing>
          <coordinates>
           -36.29655283329795,-9.84373235513239 -36.29650558999364,-9.84372042706666 -36.29419933007353,-9.84313292110488 -36.29356474276273,-9.84557968918510 -36.29655283329795,-9.84373235513239 -36.29655283329795,-9.84373235513239
          </coordinates>
        </LinearRing>
      </outerBoundaryIs>
    </Polygon>
  </Placemark>
  <Placemark>
    <name>AgroCAD: 9339</name>
    <styleUrl>FFFF4000</styleUrl>
    <Polygon>
      <outerBoundaryIs>
        <LinearRing>
          <coordinates>
           -36.29665065219495,-9.84375705258321 -36.29353843399414,-9.84568112623313 -36.29308053944772,-9.84744658524424 -36.29313909411992,-9.84746217380332 -36.29496972562286,-9.84792164435429 -36.29635506994019,-9.84828072784365 -36.29640323989616,-9.84829096020657 -36.29644856173381,-9.84829130151619 -36.29652545435120,-9.84825745588548 -36.29860948264829,-9.84712340225143 -36.30038115578095,-9.84616688639990 -36.30201528466344,-9.84527748260862 -36.30206193581127,-9.84524357908469 -36.30207041374462,-9.84521132723245 -36.30206572908561,-9.84516122035778 -36.30204253854738,-9.84513269266576 -36.30155652736259,-9.84500291995727 -36.29905808879057,-9.84436487605362 -36.29665065219495,-9.84375705258321 -36.29665065219495,-9.84375705258321
          </coordinates>
        </LinearRing>
      </outerBoundaryIs>
    </Polygon>
  </Placemark>
</Document>
</kml>
