<?xml version="1.0" encoding="UTF-8"?>
<kml xmlns="http://www.opengis.net/kml/2.2" xmlns:gx="http://www.google.com/kml/ext/2.2" xmlns:kml="http://www.opengis.net/kml/2.2" xmlns:atom="http://www.w3.org/2005/Atom">
<Document>
  <name>1059.kml</name>
  <StyleMap id="FFFF4000">
    <Pair>
      <key>normal</key>
      <styleUrl>#s_FFFF4000</styleUrl>
    </Pair>
    <Pair>
      <key>highlight</key>
      <styleUrl>#s_FFFF4000_hl</styleUrl>
    </Pair>
  </StyleMap>
  <Style id="s_FFFF4000">
   <IconStyle>
      <scale>1.1</scale>
      <Icon>
        <href>http://maps.google.com/mapfiles/kml/pushpin/agrocad.png</href>
      </Icon>
      <hotSpot x="20" y="2" xunits="pixels" yunits="pixels"/>
    </IconStyle>
    <LineStyle>
      <color>FFFF4000</color>
      <width>1</width>
    </LineStyle>
    <PolyStyle>
      <color>40ffffff</color>
      <fill>1</fill>
    </PolyStyle>
  </Style>
  <Style id="s_FFFF4000_hl">
    <IconStyle>
      <scale>1.3</scale>
      <Icon>
        <href>http://maps.google.com/mapfiles/kml/pushpin/agrocad.png</href>
      </Icon>
      <hotSpot x="20" y="2" xunits="pixels" yunits="pixels"/>
    </IconStyle>
    <LineStyle>
      <color>ff000000</color>
      <width>1</width>
    </LineStyle>
    <PolyStyle>
      <color>40ffffff</color>
      <fill>1</fill>
    </PolyStyle>
  </Style>
  <Placemark>
    <name>AgroCAD: 932E</name>
    <styleUrl>FFFF4000</styleUrl>
    <Polygon>
      <outerBoundaryIs>
        <LinearRing>
          <coordinates>
           -36.26560397224367,-9.85262356713402 -36.26556354425549,-9.85252542714658 -36.26552311628464,-9.85242728716026 -36.26548268833106,-9.85232914717506 -36.26544226039480,-9.85223100719095 -36.26540183247585,-9.85213286720795 -36.26536140457420,-9.85203472722606 -36.26532097668986,-9.85193658724527 -36.26528054882282,-9.85183844726559 -36.26524012097308,-9.85174030728704 -36.26519969314065,-9.85164216730958 -36.26515926532551,-9.85154402733323 -36.26511883752768,-9.85144588735799 -36.26507840974715,-9.85134774738385 -36.26503798198392,-9.85124960741083 -36.26499755423801,-9.85115146743893 -36.26495712650938,-9.85105332746813 -36.26491669879805,-9.85095518749844 -36.26487627110404,-9.85085704752984 -36.26483584342730,-9.85075890756237 -36.26479541576788,-9.85066076759601 -36.26475498812575,-9.85056262763077 -36.26471456050093,-9.85046448766662 -36.26467413289340,-9.85036634770359 -36.26463370530316,-9.85026820774166 -36.26459327773023,-9.85017006778085 -36.26455285017460,-9.85007192782115 -36.26451242263626,-9.84997378786257 -36.26447199511522,-9.84987564790509 -36.26443156761147,-9.84977750794873 -36.26453425306209,-9.84980374246785 -36.26463693853697,-9.84982997696004 -36.26473962403613,-9.84985621142527 -36.26484230955958,-9.84988244586358 -36.26494499510731,-9.84990868027495 -36.26504768067930,-9.84993491465939 -36.26515036627557,-9.84996114901688 -36.26525305189613,-9.84998738334742 -36.26535573754095,-9.85001361765104 -36.26545842321005,-9.85003985192772 -36.26556110890343,-9.85006608617746 -36.26566379462108,-9.85009232040025 -36.26576648036301,-9.85011855459611 -36.26586916612922,-9.85014478876501 -36.26597185191970,-9.85017102290699 -36.26607453773446,-9.85019725702203 -36.26617722357349,-9.85022349111012 -36.26627990943678,-9.85024972517127 -36.26638259532436,-9.85027595920546 -36.26648528123622,-9.85030219321273 -36.26658796717233,-9.85032842719306 -36.26669065313272,-9.85035466114644 -36.26679333911738,-9.85038089507288 -36.26689602512634,-9.85040712897236 -36.26699871115955,-9.85043336284492 -36.26710139721704,-9.85045959669053 -36.26709990738513,-9.85047833537105 -36.26709216075767,-9.85050142526682 -36.26705878514800,-9.85060089709565 -36.26702540951102,-9.85070036891524 -36.26699203384672,-9.85079984072562 -36.26695865815510,-9.85089931252676 -36.26692528243616,-9.85099878431866 -36.26689190668989,-9.85109825610135 -36.26685853091631,-9.85119772787480 -36.26682515511541,-9.85129719963903 -36.26679177928718,-9.85139667139403 -36.26675840343163,-9.85149614313978 -36.26672502754875,-9.85159561487633 -36.26669165163856,-9.85169508660364 -36.26665827570106,-9.85179455832171 -36.26662489973620,-9.85189403003057 -36.26659152374404,-9.85199350173017 -36.26655814772455,-9.85209297342057 -36.26652477167773,-9.85219244510174 -36.26649139560360,-9.85229191677365 -36.26645801950213,-9.85239138843636 -36.26645615131849,-9.85239443473248 -36.26644717298282,-9.85240907497786 -36.26643673361263,-9.85243042830098 -36.26642768364409,-9.85245308900792 -36.26641949355042,-9.85247569643728 -36.26640884794340,-9.85249411957662 -36.26640054160923,-9.85251253849755 -36.26638848587493,-9.85252759387486 -36.26636905739726,-9.85253300869296 -36.26634792327963,-9.85253584952891 -36.26634538485542,-9.85253685854018 -36.26631674381452,-9.85253952368141 -36.26628830963741,-9.85254209216802 -36.26625421930826,-9.85254557559798 -36.26621498398571,-9.85254860660455 -36.26617306106944,-9.85255131199213 -36.26612923467128,-9.85255463570283 -36.26608728053999,-9.85255797642209 -36.26604607730215,-9.85256183865323 -36.26600262126256,-9.85256604192731 -36.26595993231995,-9.85257010988738 -36.26591483092968,-9.85257400021916 -36.26584517292803,-9.85258179981491 -36.26579819201680,-9.85258809540945 -36.26574937118768,-9.85259401594083 -36.26567667171686,-9.85260879154615 -36.26560397224367,-9.85262356713402
          </coordinates>
        </LinearRing>
      </outerBoundaryIs>
    </Polygon>
  </Placemark>
</Document>
</kml>
