<?xml version="1.0" encoding="UTF-8"?>
<kml xmlns="http://www.opengis.net/kml/2.2" xmlns:gx="http://www.google.com/kml/ext/2.2" xmlns:kml="http://www.opengis.net/kml/2.2" xmlns:atom="http://www.w3.org/2005/Atom">
<Document>
  <name>1006.kml</name>
  <StyleMap id="FF0040FF">
    <Pair>
      <key>normal</key>
      <styleUrl>#s_FF0040FF</styleUrl>
    </Pair>
    <Pair>
      <key>highlight</key>
      <styleUrl>#s_FF0040FF_hl</styleUrl>
    </Pair>
  </StyleMap>
  <Style id="s_FF0040FF">
   <IconStyle>
      <scale>1.1</scale>
      <Icon>
        <href>http://maps.google.com/mapfiles/kml/pushpin/agrocad.png</href>
      </Icon>
      <hotSpot x="20" y="2" xunits="pixels" yunits="pixels"/>
    </IconStyle>
    <LineStyle>
      <color>FF0040FF</color>
      <width>1</width>
    </LineStyle>
    <PolyStyle>
      <color>40ffffff</color>
      <fill>1</fill>
    </PolyStyle>
  </Style>
  <Style id="s_FF0040FF_hl">
    <IconStyle>
      <scale>1.3</scale>
      <Icon>
        <href>http://maps.google.com/mapfiles/kml/pushpin/agrocad.png</href>
      </Icon>
      <hotSpot x="20" y="2" xunits="pixels" yunits="pixels"/>
    </IconStyle>
    <LineStyle>
      <color>ff000000</color>
      <width>1</width>
    </LineStyle>
    <PolyStyle>
      <color>40ffffff</color>
      <fill>1</fill>
    </PolyStyle>
  </Style>
  <Placemark>
    <name>AgroCAD: 8249</name>
    <styleUrl>FF0040FF</styleUrl>
    <Polygon>
      <outerBoundaryIs>
        <LinearRing>
          <coordinates>
           -36.28703527269601,-9.83168555736883 -36.28767660756389,-9.83184921782694 -36.29170327014689,-9.83289677225641 -36.29199456452170,-9.83179829536927 -36.29225355369755,-9.83076393338678 -36.29237466301324,-9.83034481055583 -36.29229302369612,-9.83029019971574 -36.29184981565778,-9.83006991938004 -36.29160013709296,-9.82993176882321 -36.29128193898105,-9.82980130225540 -36.29115213703184,-9.82976215291313 -36.29088757870994,-9.82969298687196 -36.29050515472105,-9.82962369875727 -36.29022037064127,-9.82958241198070 -36.28998554012848,-9.82954681713242 -36.28972092646697,-9.82951900497079 -36.28927727121662,-9.82947198606990 -36.28897701282649,-9.82943933672757 -36.28867610755456,-9.82940982186753 -36.28839066731570,-9.82939242013883 -36.28818525528983,-9.82933798001688 -36.28795641479983,-9.82924507611830 -36.28781768689193,-9.82919299582881 -36.28772592986463,-9.82916519700197 -36.28769150135195,-9.82915620410921 -36.28740181888387,-9.83018660587712 -36.28703527269602,-9.83168555736883 -36.28703527269601,-9.83168555736883
          </coordinates>
        </LinearRing>
      </outerBoundaryIs>
    </Polygon>
  </Placemark>
  <Placemark>
    <name>AgroCAD: 8248</name>
    <styleUrl>FF0040FF</styleUrl>
    <Polygon>
      <outerBoundaryIs>
        <LinearRing>
          <coordinates>
           -36.29253435793473,-9.82967483856659 -36.29250736564458,-9.82984049750490 -36.29243866813372,-9.83012330746296 -36.29238521872382,-9.83030828034559 -36.29231145099826,-9.83025893503738 -36.29186686376595,-9.83003796924577 -36.29161602905153,-9.82989917898648 -36.29129422978458,-9.82976723589703 -36.29116208582308,-9.82972738018905 -36.29089550894896,-9.82965768642636 -36.29051106616871,-9.82958803255615 -36.29022575863980,-9.82954666990092 -36.28999021534042,-9.82951096701740 -36.28972476669393,-9.82948306710296 -36.28928119284927,-9.82943605682868 -36.28898079181000,-9.82940339198374 -36.28867901959997,-9.82937379209707 -36.28839654735196,-9.82935657132054 -36.28819690844804,-9.82930366124864 -36.28796976936752,-9.82921144809008 -36.28782947228518,-9.82915877871667 -36.28773589673811,-9.82913042895194 -36.28770128899539,-9.82912138924458 -36.28772245386448,-9.82904610529707 -36.28797322631768,-9.82818505388041 -36.28801380811526,-9.82805832794191 -36.28811866982587,-9.82812497355964 -36.28826893954301,-9.82821184716388 -36.28863725750584,-9.82848079353046 -36.28881522253747,-9.82862281287652 -36.28891067377509,-9.82867434900868 -36.28904359981991,-9.82873196855936 -36.28923512934054,-9.82879005580121 -36.28945477315796,-9.82884896429165 -36.28972289148805,-9.82887123475770 -36.29005490762672,-9.82889269743709 -36.29038480320184,-9.82893760949474 -36.29073603614824,-9.82900667727330 -36.29104797803128,-9.82910515394403 -36.29136544835873,-9.82919602086036 -36.29167776491990,-9.82928253129277 -36.29200064448962,-9.82939511239484 -36.29224081553632,-9.82948089632936 -36.29242287665399,-9.82957370242448 -36.29253435793474,-9.82967483856659 -36.29253435793473,-9.82967483856659
          </coordinates>
        </LinearRing>
      </outerBoundaryIs>
    </Polygon>
  </Placemark>
</Document>
</kml>
