<?xml version="1.0" encoding="UTF-8"?>
<kml xmlns="http://www.opengis.net/kml/2.2" xmlns:gx="http://www.google.com/kml/ext/2.2" xmlns:kml="http://www.opengis.net/kml/2.2" xmlns:atom="http://www.w3.org/2005/Atom">
<Document>
  <name>1057.kml</name>
  <StyleMap id="FFFF4000">
    <Pair>
      <key>normal</key>
      <styleUrl>#s_FFFF4000</styleUrl>
    </Pair>
    <Pair>
      <key>highlight</key>
      <styleUrl>#s_FFFF4000_hl</styleUrl>
    </Pair>
  </StyleMap>
  <Style id="s_FFFF4000">
   <IconStyle>
      <scale>1.1</scale>
      <Icon>
        <href>http://maps.google.com/mapfiles/kml/pushpin/agrocad.png</href>
      </Icon>
      <hotSpot x="20" y="2" xunits="pixels" yunits="pixels"/>
    </IconStyle>
    <LineStyle>
      <color>FFFF4000</color>
      <width>1</width>
    </LineStyle>
    <PolyStyle>
      <color>40ffffff</color>
      <fill>1</fill>
    </PolyStyle>
  </Style>
  <Style id="s_FFFF4000_hl">
    <IconStyle>
      <scale>1.3</scale>
      <Icon>
        <href>http://maps.google.com/mapfiles/kml/pushpin/agrocad.png</href>
      </Icon>
      <hotSpot x="20" y="2" xunits="pixels" yunits="pixels"/>
    </IconStyle>
    <LineStyle>
      <color>ff000000</color>
      <width>1</width>
    </LineStyle>
    <PolyStyle>
      <color>40ffffff</color>
      <fill>1</fill>
    </PolyStyle>
  </Style>
  <Placemark>
    <name>AgroCAD: 9563</name>
    <styleUrl>FFFF4000</styleUrl>
    <Polygon>
      <outerBoundaryIs>
        <LinearRing>
          <coordinates>
           -36.27100502644384,-9.85425813117908 -36.27092892592268,-9.85428434949001 -36.27083249661967,-9.85430473832964 -36.27073722138899,-9.85429770038247 -36.27065184922807,-9.85429441036433 -36.27054870613863,-9.85430649166123 -36.27041058743107,-9.85435095987382 -36.27026445606501,-9.85441716551725 -36.27011242360745,-9.85450687098435 -36.26999813460348,-9.85457739998829 -36.26987591328980,-9.85465561761419 -36.26975476081803,-9.85473146963274 -36.26964863290663,-9.85479905173012 -36.26955912860446,-9.85486764454685 -36.26938974372909,-9.85498571551294 -36.26926975975758,-9.85505451839593 -36.26919815527323,-9.85508779967309 -36.26907625587646,-9.85512023280071 -36.26893601461715,-9.85512362664727 -36.26875858171513,-9.85508616233030 -36.26857398087443,-9.85502050371156 -36.26839163324783,-9.85497575753678 -36.26831828958645,-9.85496405477222 -36.26793153948419,-9.85494894423395 -36.26767743402109,-9.85492554206991 -36.26721379681070,-9.85490810265739 -36.26696124434656,-9.85491471100143 -36.26641711813888,-9.85499706840122 -36.26601252528251,-9.85510728500310 -36.26560763751940,-9.85517236695813 -36.26569618038165,-9.85478377315785 -36.26593320894262,-9.85410035975985 -36.26614042829660,-9.85348679824060 -36.26622647373017,-9.85320830769046 -36.26699019866466,-9.85330030650997 -36.26723629338490,-9.85334058061231 -36.26736098389384,-9.85336796161421 -36.26747979492470,-9.85339592328068 -36.26759731481541,-9.85341922481371 -36.26779619580960,-9.85347693031507 -36.26796157097182,-9.85353510763555 -36.26813937968562,-9.85360193440650 -36.26858434950535,-9.85372719793495 -36.26874689577380,-9.85376362110840 -36.26894649880207,-9.85379838240983 -36.26911240236985,-9.85381637124804 -36.26923881665540,-9.85382187318563 -36.26935927785664,-9.85381965625001 -36.26951744212074,-9.85380524492042 -36.26985220423512,-9.85374559214017 -36.27003964684449,-9.85369469604351 -36.27025930258586,-9.85364294601536 -36.27045911290474,-9.85361289038501 -36.27060514845025,-9.85360668411948 -36.27067360396983,-9.85359783395696 -36.27073528311583,-9.85358914754360 -36.27078774150034,-9.85359123451830 -36.27085581918296,-9.85357927340632 -36.27092195249456,-9.85356373670811 -36.27097523054786,-9.85354545019703 -36.27102858279712,-9.85352228512410 -36.27105591718243,-9.85350742691470 -36.27103814759071,-9.85357836891502 -36.27101884069608,-9.85373651389341 -36.27100683473459,-9.85392303628902 -36.27100803951935,-9.85416885715908 -36.27100502644384,-9.85425813117908
          </coordinates>
        </LinearRing>
      </outerBoundaryIs>
    </Polygon>
  </Placemark>
  <Placemark>
    <name>AgroCAD: 9562</name>
    <styleUrl>FFFF4000</styleUrl>
    <Polygon>
      <outerBoundaryIs>
        <LinearRing>
          <coordinates>
           -36.27167452295128,-9.85123889192862 -36.27162477690553,-9.85143419616809 -36.27156639670311,-9.85163060818421 -36.27151085006808,-9.85182100044386 -36.27143823854434,-9.85206555153039 -36.27128238104244,-9.85261022418534 -36.27117663787357,-9.85302213999807 -36.27114082821339,-9.85317432368347 -36.27107156927132,-9.85344493863496 -36.27106786678035,-9.85345972019843 -36.27101248555686,-9.85348982389233 -36.27096194245697,-9.85351176925874 -36.27091176722042,-9.85352899079817 -36.27084843432797,-9.85354386959568 -36.27078526459666,-9.85355496839266 -36.27073343653015,-9.85355290649514 -36.27066868655208,-9.85356202538301 -36.27060200699912,-9.85357064594462 -36.27045559012278,-9.85357686841962 -36.27025234679446,-9.85360744045218 -36.27003062103985,-9.85365967817413 -36.26984415398137,-9.85371030938658 -36.26951254356423,-9.85376940056138 -36.26935727002520,-9.85378354850359 -36.26923927791594,-9.85378572000212 -36.26911518459483,-9.85378031908368 -36.26895163611635,-9.85376258561141 -36.26875406728235,-9.85372817857520 -36.26859334760080,-9.85369216470616 -36.26826454364525,-9.85359960312045 -36.26840011319481,-9.85348677211971 -36.26938406674658,-9.85272651988835 -36.26953334912499,-9.85259310630623 -36.26969819926945,-9.85250649185305 -36.26996098098556,-9.85236385116272 -36.27026288764066,-9.85219240312116 -36.27053217236991,-9.85203290194965 -36.27077957935126,-9.85186259297208 -36.27098159829998,-9.85171387343730 -36.27111792821018,-9.85160813574107 -36.27118038562701,-9.85156394930373 -36.27167452295128,-9.85123889192862
          </coordinates>
        </LinearRing>
      </outerBoundaryIs>
    </Polygon>
  </Placemark>
  <Placemark>
    <name>AgroCAD: 9560</name>
    <styleUrl>FFFF4000</styleUrl>
    <Polygon>
      <outerBoundaryIs>
        <LinearRing>
          <coordinates>
           -36.26820660325181,-9.85358329228717 -36.26815083346381,-9.85356759249212 -36.26797412109751,-9.85350117777297 -36.26780741273661,-9.85344253145226 -36.26760602015548,-9.85338409721810 -36.26748757686421,-9.85336061259966 -36.26736913071664,-9.85333273681042 -36.26724320434758,-9.85330508442765 -36.26699536478021,-9.85326452478360 -36.26623731788185,-9.85317320997468 -36.26639585373516,-9.85266009832928 -36.26652776430260,-9.85264485685671 -36.26670161207609,-9.85263709745276 -36.26691128728036,-9.85263202270270 -36.26732027247839,-9.85261538604250 -36.26750170682392,-9.85261630102709 -36.26773206164486,-9.85263170958740 -36.26791668311855,-9.85265334923612 -36.26814342617276,-9.85267370881810 -36.26835409574122,-9.85267263563901 -36.26857858717415,-9.85266756580131 -36.26913991754684,-9.85264514017666 -36.26932300349853,-9.85263218223890 -36.26942540626423,-9.85262023823918 -36.26935099877822,-9.85268230711864 -36.26836953220852,-9.85344237220961 -36.26820660325181,-9.85358329228717
          </coordinates>
        </LinearRing>
      </outerBoundaryIs>
    </Polygon>
  </Placemark>
</Document>
</kml>
