<?xml version="1.0" encoding="UTF-8"?>
<kml xmlns="http://www.opengis.net/kml/2.2" xmlns:gx="http://www.google.com/kml/ext/2.2" xmlns:kml="http://www.opengis.net/kml/2.2" xmlns:atom="http://www.w3.org/2005/Atom">
<Document>
  <name>1053.kml</name>
  <StyleMap id="FFFF4000">
    <Pair>
      <key>normal</key>
      <styleUrl>#s_FFFF4000</styleUrl>
    </Pair>
    <Pair>
      <key>highlight</key>
      <styleUrl>#s_FFFF4000_hl</styleUrl>
    </Pair>
  </StyleMap>
  <Style id="s_FFFF4000">
   <IconStyle>
      <scale>1.1</scale>
      <Icon>
        <href>http://maps.google.com/mapfiles/kml/pushpin/agrocad.png</href>
      </Icon>
      <hotSpot x="20" y="2" xunits="pixels" yunits="pixels"/>
    </IconStyle>
    <LineStyle>
      <color>FFFF4000</color>
      <width>1</width>
    </LineStyle>
    <PolyStyle>
      <color>40ffffff</color>
      <fill>1</fill>
    </PolyStyle>
  </Style>
  <Style id="s_FFFF4000_hl">
    <IconStyle>
      <scale>1.3</scale>
      <Icon>
        <href>http://maps.google.com/mapfiles/kml/pushpin/agrocad.png</href>
      </Icon>
      <hotSpot x="20" y="2" xunits="pixels" yunits="pixels"/>
    </IconStyle>
    <LineStyle>
      <color>ff000000</color>
      <width>1</width>
    </LineStyle>
    <PolyStyle>
      <color>40ffffff</color>
      <fill>1</fill>
    </PolyStyle>
  </Style>
  <Placemark>
    <name>AgroCAD: 932B</name>
    <styleUrl>FFFF4000</styleUrl>
    <Polygon>
      <outerBoundaryIs>
        <LinearRing>
          <coordinates>
           -36.26715240696773,-9.85045488563084 -36.26715509147135,-9.85045557146774 -36.26726003454841,-9.85048238230417 -36.26736497765082,-9.85050919311245 -36.26746992077857,-9.85053600389260 -36.26757486393168,-9.85056281464460 -36.26767980711013,-9.85058962536846 -36.26778475031394,-9.85061643606418 -36.26788969354307,-9.85064324673176 -36.26799463679760,-9.85067005737117 -36.26809958007743,-9.85069686798249 -36.26820452338263,-9.85072367856562 -36.26830946671316,-9.85075048912061 -36.26841441006907,-9.85077729964745 -36.26851935345030,-9.85080411014619 -36.26862429685689,-9.85083092061676 -36.26872924028881,-9.85085773105917 -36.26883418374612,-9.85088454147342 -36.26893912722872,-9.85091135185959 -36.26904407073669,-9.85093816221756 -36.26914901426999,-9.85096497254740 -36.26925395782865,-9.85099178284909 -36.26935890141266,-9.85101859312264 -36.26946384502199,-9.85104540336803 -36.26956878865668,-9.85107221358528 -36.26967373231671,-9.85109902377438 -36.26977867600212,-9.85112583393532 -36.26988361971282,-9.85115264406815 -36.26998856344888,-9.85117945417279 -36.27009350721030,-9.85120626424928 -36.27019845099705,-9.85123307429767 -36.27030339480913,-9.85125988431788 -36.27040833864655,-9.85128669430994 -36.27051328250932,-9.85131350427383 -36.27061822639745,-9.85134031420957 -36.27072317031089,-9.85136712411721 -36.27082811424968,-9.85139393399665 -36.27085074291211,-9.85139971490446 -36.27098425261280,-9.85129268700450 -36.27106392800605,-9.85122881524838 -36.27114360337037,-9.85116494346494 -36.27122327870575,-9.85110107165419 -36.27130295401223,-9.85103719981608 -36.27138262928977,-9.85097332795067 -36.27146230453838,-9.85090945605793 -36.27154197975805,-9.85084558413785 -36.27162165494882,-9.85078171219046 -36.27170133011065,-9.85071784021575 -36.27178100524355,-9.85065396821369 -36.27186068034753,-9.85059009618433 -36.27188916521699,-9.85048564118922 -36.27191765006013,-9.85038118618631 -36.27194613487696,-9.85027673117556 -36.27197461966748,-9.85017227615701 -36.27200310443169,-9.85006782113064 -36.27203158916959,-9.84996336609647 -36.27206007388118,-9.84985891105447 -36.27208855856645,-9.84975445600466 -36.27211704322542,-9.84965000094704 -36.27214552785808,-9.84954554588161 -36.27217401246442,-9.84944109080836 -36.27220249704446,-9.84933663572729 -36.27223098159819,-9.84923218063844 -36.27225946612560,-9.84912772554175 -36.27228795062672,-9.84902327043723 -36.27231643510152,-9.84891881532492 -36.27234491955001,-9.84881436020481 -36.27237340397221,-9.84870990507686 -36.27240188836807,-9.84860544994111 -36.27243037273764,-9.84850099479754 -36.27245885708091,-9.84839653964617 -36.27248734139786,-9.84829208448697 -36.27251582568852,-9.84818762931997 -36.27254430995286,-9.84808317414517 -36.27257279419091,-9.84797871896253 -36.27260127840263,-9.84787426377209 -36.27262976258806,-9.84776980857384 -36.27265824674719,-9.84766535336778 -36.27268673088000,-9.84756089815390 -36.27271521498652,-9.84745644293221 -36.27274369906672,-9.84735198770270 -36.27277218312065,-9.84724753246540 -36.27280066714825,-9.84714307722028 -36.27281663900986,-9.84707372376377 -36.27283025783854,-9.84702195280845 -36.27272554290453,-9.84699507071194 -36.27262082799579,-9.84696818858744 -36.27251611311235,-9.84694130643497 -36.27241139825421,-9.84691442425447 -36.27230668342135,-9.84688754204599 -36.27220196861379,-9.84686065980951 -36.27209725383153,-9.84683377754503 -36.27199253907457,-9.84680689525258 -36.27188782434290,-9.84678001293212 -36.27178310963651,-9.84675313058367 -36.27167839495543,-9.84672624820722 -36.27157368029965,-9.84669936580278 -36.27146896566915,-9.84667248337036 -36.27136425106396,-9.84664560090993 -36.27125953648408,-9.84661871842152 -36.27115482192947,-9.84659183590511 -36.27105010740017,-9.84656495336071 -36.27094539289617,-9.84653807078834 -36.27084067841746,-9.84651118818796 -36.27073596396405,-9.84648430555959 -36.27063124953595,-9.84645742290323 -36.27052653513313,-9.84643054021887 -36.27042182075563,-9.84640365750655 -36.27031710640341,-9.84637677476622 -36.27021239207650,-9.84634989199790 -36.27010767777489,-9.84632300920159 -36.27000296349859,-9.84629612637729 -36.26989824924757,-9.84626924352503 -36.26979353502186,-9.84624236064475 -36.26968882082146,-9.84621547773649 -36.26958410664634,-9.84618859480025 -36.26947939249654,-9.84616171183601 -36.26937467837204,-9.84613482884380 -36.26926996427284,-9.84610794582359 -36.26916525019894,-9.84608106277540 -36.26906053615035,-9.84605417969922 -36.26895582212705,-9.84602729659505 -36.26885110812906,-9.84600041346291 -36.26874639415638,-9.84597353030278 -36.26864168020900,-9.84594664711465 -36.26863778130424,-9.84595807233385 -36.26863040769992,-9.84597694323426 -36.26862272257620,-9.84599684891030 -36.26861679987234,-9.84601651494145 -36.26861233745682,-9.84603625077124 -36.26860897015148,-9.84604912448891 -36.26857517205162,-9.84615107042992 -36.26854137392329,-9.84625301636141 -36.26850757576651,-9.84635496228335 -36.26847377758128,-9.84645690819575 -36.26843997936758,-9.84655885409861 -36.26840618112544,-9.84666079999194 -36.26837238285484,-9.84676274587572 -36.26833858455578,-9.84686469174996 -36.26830478622827,-9.84696663761466 -36.26827098787231,-9.84706858346983 -36.26823718948788,-9.84717052931546 -36.26820339107501,-9.84727247515155 -36.26816959263367,-9.84737442097810 -36.26813579416388,-9.84747636679511 -36.26810199566562,-9.84757831260257 -36.26806819713890,-9.84768025840050 -36.26803439858374,-9.84778220418890 -36.26800060000011,-9.84788414996774 -36.26796680138803,-9.84798609573705 -36.26793300274748,-9.84808804149682 -36.26789920407848,-9.84818998724703 -36.26786540538102,-9.84829193298771 -36.26783160665508,-9.84839387871886 -36.26779780790070,-9.84849582444047 -36.26776400911785,-9.84859777015252 -36.26773021030654,-9.84869971585505 -36.26769641146677,-9.84880166154803 -36.26766261259854,-9.84890360723146 -36.26762881370185,-9.84900555290536 -36.26759501477668,-9.84910749856972 -36.26756121582306,-9.84920944422453 -36.26752741684097,-9.84931138986980 -36.26749361783042,-9.84941333550554 -36.26745981879141,-9.84951528113172 -36.26742601972394,-9.84961722674836 -36.26739222062800,-9.84971917235545 -36.26735842150359,-9.84982111795302 -36.26732462235073,-9.84992306354103 -36.26729082316938,-9.85002500911951 -36.26725702395958,-9.85012695468844 -36.26722322472132,-9.85022890024783 -36.26718942545457,-9.85033084579768 -36.26718412422724,-9.85034744152494 -36.26717808324679,-9.85036634389953 -36.26715240696773,-9.85045488563084 -36.26715240696773,-9.85045488563084
          </coordinates>
        </LinearRing>
      </outerBoundaryIs>
    </Polygon>
  </Placemark>
  <Placemark>
    <name>AgroCAD: 9329</name>
    <styleUrl>FFFF4000</styleUrl>
    <Polygon>
      <outerBoundaryIs>
        <LinearRing>
          <coordinates>
           -36.27124321995015,-9.85117802418421 -36.27132679508992,-9.85111102605344 -36.27141037019784,-9.85104402789262 -36.27149394527395,-9.85097702970173 -36.27157752031823,-9.85091003148077 -36.27166109533069,-9.85084303322976 -36.27174467031130,-9.85077603494868 -36.27182824526008,-9.85070903663752 -36.27180150936827,-9.85080707786516 -36.27177477345327,-9.85090511908590 -36.27177148079201,-9.85092289512457 -36.27176773768538,-9.85094448414388 -36.27176324834189,-9.85096599632143 -36.27176039073439,-9.85098655930242 -36.27175405544813,-9.85100599989695 -36.27174819445571,-9.85101965976505 -36.27173983741292,-9.85103913515382 -36.27173373407754,-9.85106263382346 -36.27171862473673,-9.85109505644274 -36.27168904912697,-9.85111754690897 -36.27166365009928,-9.85113682744678 -36.27159266694434,-9.85118576210443 -36.27152168377056,-9.85123469674136 -36.27145070057792,-9.85128363135756 -36.27137971736644,-9.85133256595304 -36.27135067617976,-9.85134963655360 -36.27132352917988,-9.85136518389175 -36.27129685187905,-9.85138383589602 -36.27126937089869,-9.85140395489916 -36.27124012092939,-9.85142397416804 -36.27115602147083,-9.85147770376704 -36.27114294621811,-9.85147436346612 -36.27103800220330,-9.85144755367113 -36.27093865972526,-9.85142217485531 -36.27107606957514,-9.85131202035550 -36.27115964477855,-9.85124502228488 -36.27124321995015,-9.85117802418421
          </coordinates>
        </LinearRing>
      </outerBoundaryIs>
    </Polygon>
  </Placemark>
</Document>
</kml>
