<?xml version="1.0" encoding="UTF-8"?>
<kml xmlns="http://www.opengis.net/kml/2.2" xmlns:gx="http://www.google.com/kml/ext/2.2" xmlns:kml="http://www.opengis.net/kml/2.2" xmlns:atom="http://www.w3.org/2005/Atom">
<Document>
  <name>1001.kml</name>
  <StyleMap id="FFFF4000">
    <Pair>
      <key>normal</key>
      <styleUrl>#s_FFFF4000</styleUrl>
    </Pair>
    <Pair>
      <key>highlight</key>
      <styleUrl>#s_FFFF4000_hl</styleUrl>
    </Pair>
  </StyleMap>
  <Style id="s_FFFF4000">
   <IconStyle>
      <scale>1.1</scale>
      <Icon>
        <href>http://maps.google.com/mapfiles/kml/pushpin/agrocad.png</href>
      </Icon>
      <hotSpot x="20" y="2" xunits="pixels" yunits="pixels"/>
    </IconStyle>
    <LineStyle>
      <color>FFFF4000</color>
      <width>1</width>
    </LineStyle>
    <PolyStyle>
      <color>40ffffff</color>
      <fill>1</fill>
    </PolyStyle>
  </Style>
  <Style id="s_FFFF4000_hl">
    <IconStyle>
      <scale>1.3</scale>
      <Icon>
        <href>http://maps.google.com/mapfiles/kml/pushpin/agrocad.png</href>
      </Icon>
      <hotSpot x="20" y="2" xunits="pixels" yunits="pixels"/>
    </IconStyle>
    <LineStyle>
      <color>ff000000</color>
      <width>1</width>
    </LineStyle>
    <PolyStyle>
      <color>40ffffff</color>
      <fill>1</fill>
    </PolyStyle>
  </Style>
  <Placemark>
    <name>AgroCAD: 8EBD</name>
    <styleUrl>FFFF4000</styleUrl>
    <Polygon>
      <outerBoundaryIs>
        <LinearRing>
          <coordinates>
           -36.22394752583524,-9.70209748094842 -36.22399492625709,-9.70215208332760 -36.22404584207401,-9.70221330729468 -36.22411252587743,-9.70229887131300 -36.22418819669487,-9.70239962600787 -36.22427915479903,-9.70252701223467 -36.22440511458413,-9.70271458369880 -36.22456595030204,-9.70294203113048 -36.22471846439538,-9.70317086298338 -36.22485987314855,-9.70336499572381 -36.22497741188603,-9.70353134292776 -36.22509745824188,-9.70369848466077 -36.22523714948240,-9.70389062679331 -36.22537852313782,-9.70408306803797 -36.22545590467538,-9.70419759330960 -36.22550517786670,-9.70428969677607 -36.22560690772641,-9.70443695224225 -36.22567181881823,-9.70451393231747 -36.22574384149550,-9.70460464950554 -36.22579822926573,-9.70468331514278 -36.22582462592264,-9.70470586323618 -36.22584411124403,-9.70469834016745 -36.22587034670337,-9.70467760798642 -36.22595226684127,-9.70462081069927 -36.22601865945711,-9.70457438017424 -36.22608448645254,-9.70452892170037 -36.22618491792114,-9.70446420951891 -36.22626447951990,-9.70441070106896 -36.22635605769843,-9.70434611019712 -36.22644808899558,-9.70427430112116 -36.22649577095997,-9.70420531921630 -36.22650505558551,-9.70413975858097 -36.22650781565304,-9.70404131819221 -36.22651078361705,-9.70371191878120 -36.22650962650335,-9.70336515786407 -36.22650731370966,-9.70309814232698 -36.22650230411235,-9.70269039818148 -36.22649977563465,-9.70247680463723 -36.22650266650619,-9.70224645152903 -36.22651557611002,-9.70209092802983 -36.22651970290239,-9.70185315528338 -36.22652122614382,-9.70165525777463 -36.22651983505073,-9.70147524213638 -36.22652524158917,-9.70131030006620 -36.22654131790483,-9.70112939682477 -36.22655450846922,-9.70093004999645 -36.22657456516689,-9.70083005912202 -36.22658785190048,-9.70064504691006 -36.22659399620939,-9.70040817300297 -36.22659733356602,-9.70027346836412 -36.22659869705472,-9.70008947045639 -36.22660009369935,-9.69990665235502 -36.22659519161893,-9.69974356685680 -36.22659482957567,-9.69960348452623 -36.22658161648185,-9.69940496334549 -36.22658628572407,-9.69925212022137 -36.22660940268967,-9.69920167562898 -36.22661680815143,-9.69914438790715 -36.22661997230951,-9.69906377973319 -36.22662002878641,-9.69886078815050 -36.22661986748754,-9.69879062305722 -36.22657370343992,-9.69877819309964 -36.22648406844157,-9.69876622219872 -36.22639108174669,-9.69877135465692 -36.22629612843798,-9.69878179772473 -36.22622689161403,-9.69881927237871 -36.22618429129440,-9.69885604264874 -36.22616339223981,-9.69888353410605 -36.22614526069712,-9.69891100957245 -36.22613486096286,-9.69894530949153 -36.22612944974916,-9.69898064895639 -36.22612726360796,-9.69901809089656 -36.22612532714730,-9.69906049197821 -36.22612214757077,-9.69910091833736 -36.22610537882369,-9.69926141330357 -36.22610178765940,-9.69928925006118 -36.22609460601829,-9.69932504868860 -36.22608704875854,-9.69936794724035 -36.22607710948808,-9.69940964068027 -36.22607018867709,-9.69945357073530 -36.22606421245598,-9.69949678933308 -36.22605963317692,-9.69953948450338 -36.22605705042194,-9.69958221886689 -36.22605560745953,-9.69962524812604 -36.22605485326520,-9.69966810066594 -36.22605450954477,-9.69970987471589 -36.22605331018955,-9.69975169460102 -36.22605203738109,-9.69979088388326 -36.22604981822357,-9.69982985369682 -36.22604849012182,-9.69986842926307 -36.22602293545830,-9.70008209439781 -36.22600321309362,-9.70023020989936 -36.22598452902916,-9.70036555641868 -36.22596377537306,-9.70050689815543 -36.22594703920376,-9.70062857393673 -36.22593257933139,-9.70072877200090 -36.22592301826803,-9.70098542183866 -36.22592377493560,-9.70105776548064 -36.22592386918359,-9.70112903340700 -36.22592555908191,-9.70121208232478 -36.22592792147587,-9.70129737460991 -36.22593263586295,-9.70138454268373 -36.22594028892060,-9.70148189229836 -36.22594919056833,-9.70157256447405 -36.22595834908216,-9.70166033301396 -36.22596539498056,-9.70174099881744 -36.22595515483435,-9.70180222489661 -36.22592913440576,-9.70185143021504 -36.22588934483539,-9.70188245720272 -36.22583353283182,-9.70190588719803 -36.22575543662286,-9.70191869397415 -36.22566220509457,-9.70192783827685 -36.22536658877888,-9.70194760675959 -36.22526338911067,-9.70195309611984 -36.22516655850588,-9.70195746652866 -36.22506191852804,-9.70195894598552 -36.22447487853667,-9.70198461874202 -36.22433660288873,-9.70199207937661 -36.22403944993196,-9.70201241813565 -36.22399097317066,-9.70201690102194 -36.22392439615886,-9.70202424015855 -36.22388354371283,-9.70202824984678 -36.22394752583524,-9.70209748094842
          </coordinates>
        </LinearRing>
      </outerBoundaryIs>
    </Polygon>
  </Placemark>
</Document>
</kml>
