<?xml version="1.0" encoding="UTF-8"?>
<kml xmlns="http://www.opengis.net/kml/2.2" xmlns:gx="http://www.google.com/kml/ext/2.2" xmlns:kml="http://www.opengis.net/kml/2.2" xmlns:atom="http://www.w3.org/2005/Atom">
<Document>
  <name>1011.kml</name>
  <StyleMap id="FF0040FF">
    <Pair>
      <key>normal</key>
      <styleUrl>#s_FF0040FF</styleUrl>
    </Pair>
    <Pair>
      <key>highlight</key>
      <styleUrl>#s_FF0040FF_hl</styleUrl>
    </Pair>
  </StyleMap>
  <Style id="s_FF0040FF">
   <IconStyle>
      <scale>1.1</scale>
      <Icon>
        <href>http://maps.google.com/mapfiles/kml/pushpin/agrocad.png</href>
      </Icon>
      <hotSpot x="20" y="2" xunits="pixels" yunits="pixels"/>
    </IconStyle>
    <LineStyle>
      <color>FF0040FF</color>
      <width>1</width>
    </LineStyle>
    <PolyStyle>
      <color>40ffffff</color>
      <fill>1</fill>
    </PolyStyle>
  </Style>
  <Style id="s_FF0040FF_hl">
    <IconStyle>
      <scale>1.3</scale>
      <Icon>
        <href>http://maps.google.com/mapfiles/kml/pushpin/agrocad.png</href>
      </Icon>
      <hotSpot x="20" y="2" xunits="pixels" yunits="pixels"/>
    </IconStyle>
    <LineStyle>
      <color>ff000000</color>
      <width>1</width>
    </LineStyle>
    <PolyStyle>
      <color>40ffffff</color>
      <fill>1</fill>
    </PolyStyle>
  </Style>
  <Placemark>
    <name>AgroCAD: 81AA</name>
    <styleUrl>FF0040FF</styleUrl>
    <Polygon>
      <outerBoundaryIs>
        <LinearRing>
          <coordinates>
           -36.21853486345507,-9.70153366231325 -36.21851647997470,-9.70154323597767 -36.21834242265231,-9.70165945792974 -36.21815798063213,-9.70178581988139 -36.21789095441365,-9.70197207708669 -36.21773132059132,-9.70208320368810 -36.21762577407907,-9.70215625384537 -36.21735263605873,-9.70234463678135 -36.21722155488590,-9.70243502206315 -36.21702420180861,-9.70257154054150 -36.21686039216971,-9.70268276587300 -36.21685243461531,-9.70268912524530 -36.21685893463852,-9.70269643795606 -36.21690601591732,-9.70275877738547 -36.21692955661108,-9.70278854509185 -36.21697836663229,-9.70285192693605 -36.21702569605961,-9.70291459332790 -36.21707129348382,-9.70297879207073 -36.21711927822146,-9.70304022922858 -36.21716891679631,-9.70310406707197 -36.21719420171792,-9.70313426332768 -36.21724908306886,-9.70319419174049 -36.21732650479020,-9.70328213425323 -36.21740486578882,-9.70337276079116 -36.21750850585740,-9.70348816093810 -36.21755969026676,-9.70355067467291 -36.21761364999961,-9.70361143859863 -36.21767566348756,-9.70368597341183 -36.21780848475758,-9.70386399536643 -36.21783113606487,-9.70389409650436 -36.21789748888632,-9.70398265326028 -36.21797841003150,-9.70408831400093 -36.21802775752065,-9.70415053848894 -36.21811454021822,-9.70425857662728 -36.21820691940921,-9.70436741850990 -36.21824847351069,-9.70441888832657 -36.21830149320050,-9.70447600992856 -36.21835644458563,-9.70453238243529 -36.21845133509011,-9.70462720034114 -36.21853549065053,-9.70470913686131 -36.21856715093778,-9.70473695944929 -36.21863691781103,-9.70480206665082 -36.21864233367438,-9.70480614637837 -36.21874249433318,-9.70479135969366 -36.21879991957177,-9.70478287275289 -36.21885970065509,-9.70477443653196 -36.21891838509823,-9.70476953916164 -36.21907578794158,-9.70475907151727 -36.21930266350921,-9.70473759190159 -36.21955195719952,-9.70471251088777 -36.21990332493811,-9.70469287555481 -36.22003589364046,-9.70468205169390 -36.22014442653165,-9.70467623827920 -36.22026128825991,-9.70466860649100 -36.22036556377548,-9.70466128602603 -36.22045525454537,-9.70465428197609 -36.22051907199442,-9.70464822400866 -36.22042687177700,-9.70449904779684 -36.22017871707792,-9.70409414089451 -36.22002649296588,-9.70384776716494 -36.21986342820129,-9.70358629332794 -36.21969439013425,-9.70331948337242 -36.21952269215058,-9.70305320290849 -36.21934981722115,-9.70278509959054 -36.21917636252015,-9.70251433947067 -36.21900964591006,-9.70225612759732 -36.21886702519292,-9.70203216456167 -36.21875137246245,-9.70184754302735 -36.21859295853190,-9.70161457922731 -36.21853486345506,-9.70153366231325 -36.21853486345507,-9.70153366231325
          </coordinates>
        </LinearRing>
      </outerBoundaryIs>
    </Polygon>
  </Placemark>
</Document>
</kml>
