<?xml version="1.0" encoding="UTF-8"?>
<kml xmlns="http://www.opengis.net/kml/2.2" xmlns:gx="http://www.google.com/kml/ext/2.2" xmlns:kml="http://www.opengis.net/kml/2.2" xmlns:atom="http://www.w3.org/2005/Atom">
<Document>
  <name>1009.kml</name>
  <StyleMap id="FF0040FF">
    <Pair>
      <key>normal</key>
      <styleUrl>#s_FF0040FF</styleUrl>
    </Pair>
    <Pair>
      <key>highlight</key>
      <styleUrl>#s_FF0040FF_hl</styleUrl>
    </Pair>
  </StyleMap>
  <Style id="s_FF0040FF">
   <IconStyle>
      <scale>1.1</scale>
      <Icon>
        <href>http://maps.google.com/mapfiles/kml/pushpin/agrocad.png</href>
      </Icon>
      <hotSpot x="20" y="2" xunits="pixels" yunits="pixels"/>
    </IconStyle>
    <LineStyle>
      <color>FF0040FF</color>
      <width>1</width>
    </LineStyle>
    <PolyStyle>
      <color>40ffffff</color>
      <fill>1</fill>
    </PolyStyle>
  </Style>
  <Style id="s_FF0040FF_hl">
    <IconStyle>
      <scale>1.3</scale>
      <Icon>
        <href>http://maps.google.com/mapfiles/kml/pushpin/agrocad.png</href>
      </Icon>
      <hotSpot x="20" y="2" xunits="pixels" yunits="pixels"/>
    </IconStyle>
    <LineStyle>
      <color>ff000000</color>
      <width>1</width>
    </LineStyle>
    <PolyStyle>
      <color>40ffffff</color>
      <fill>1</fill>
    </PolyStyle>
  </Style>
  <Placemark>
    <name>AgroCAD: 81A8</name>
    <styleUrl>FF0040FF</styleUrl>
    <Polygon>
      <outerBoundaryIs>
        <LinearRing>
          <coordinates>
           -36.22313218250338,-9.69893203322694 -36.22313134808037,-9.69897336916856 -36.22314802726618,-9.69919700061509 -36.22315067808010,-9.69936435469287 -36.22315495920620,-9.69978639527593 -36.22315948881690,-9.70024770250592 -36.22315787464880,-9.70049227735825 -36.22315685560779,-9.70074200588543 -36.22315537058713,-9.70097085720313 -36.22314664903034,-9.70122295046882 -36.22313970406113,-9.70134655866517 -36.22313844341262,-9.70142239372367 -36.22313340091940,-9.70153203878788 -36.22313399360972,-9.70163343130849 -36.22314188683006,-9.70169703143545 -36.22314711377959,-9.70177129424559 -36.22315822976589,-9.70184394454919 -36.22317717684160,-9.70191230379674 -36.22320280660134,-9.70197744188158 -36.22322565617916,-9.70203003564937 -36.22320844386666,-9.70203586996320 -36.22312353101256,-9.70208571568054 -36.22303147998670,-9.70213352916008 -36.22290724700984,-9.70219651740876 -36.22265059078813,-9.70232939590640 -36.22242898794690,-9.70244357671931 -36.22221662898038,-9.70255275557235 -36.22196768291631,-9.70268546943046 -36.22177101194530,-9.70278607202005 -36.22145468482731,-9.70294683252777 -36.22118783426726,-9.70307968395631 -36.22095261332076,-9.70320735392243 -36.22082249422139,-9.70327464067668 -36.22068148274147,-9.70334746962938 -36.22041431555099,-9.70348708828803 -36.22021456766925,-9.70359336111373 -36.22009154524763,-9.70366038912407 -36.22000574301829,-9.70371147397030 -36.21990978700272,-9.70355760879953 -36.21974053020114,-9.70329045366495 -36.21956871499658,-9.70302399147774 -36.21939588334631,-9.70275595535025 -36.21922241981457,-9.70248518151766 -36.21905574296299,-9.70222703129085 -36.21891332126605,-9.70200338084453 -36.21879723533341,-9.70181806782044 -36.21863786088994,-9.70158369154743 -36.21858368698982,-9.70150823620883 -36.21858411919393,-9.70150801112744 -36.21865493186693,-9.70146333876486 -36.21872802050447,-9.70141036145541 -36.21881102695930,-9.70134674303032 -36.21900411857037,-9.70120570882090 -36.21933383447012,-9.70097819024496 -36.21951731051835,-9.70085117393288 -36.21969134212314,-9.70073643111458 -36.21991920872154,-9.70059451192761 -36.22006132039886,-9.70049538876178 -36.22020272807903,-9.70038715503995 -36.22035983814265,-9.70028424764806 -36.22050505321440,-9.70018855709080 -36.22059855080011,-9.70012708086831 -36.22069399697024,-9.70006033165632 -36.22078034490361,-9.69999376564333 -36.22086138899473,-9.69993796956478 -36.22094285634871,-9.69988191215248 -36.22103286110526,-9.69982114338404 -36.22111771633491,-9.69976469600704 -36.22121766342192,-9.69969589424107 -36.22134263431938,-9.69961458850223 -36.22147925589779,-9.69952426587607 -36.22161115450778,-9.69943943076726 -36.22171297740652,-9.69937488068916 -36.22179598714968,-9.69932564962198 -36.22187577488860,-9.69928525466760 -36.22196122919540,-9.69924922130174 -36.22205089592635,-9.69921402384493 -36.22214296898079,-9.69918210122937 -36.22224881162543,-9.69914930163477 -36.22239150823534,-9.69911176263469 -36.22256206918053,-9.69906921166598 -36.22273398625058,-9.69902698070808 -36.22288989203126,-9.69899292822642 -36.22302868224188,-9.69896012778880 -36.22313218250338,-9.69893203322694 -36.22313218250338,-9.69893203322694
          </coordinates>
        </LinearRing>
      </outerBoundaryIs>
    </Polygon>
  </Placemark>
</Document>
</kml>
