<?xml version="1.0" encoding="UTF-8"?>
<kml xmlns="http://www.opengis.net/kml/2.2" xmlns:gx="http://www.google.com/kml/ext/2.2" xmlns:kml="http://www.opengis.net/kml/2.2" xmlns:atom="http://www.w3.org/2005/Atom">
<Document>
  <name>1007.kml</name>
  <StyleMap id="FF0040FF">
    <Pair>
      <key>normal</key>
      <styleUrl>#s_FF0040FF</styleUrl>
    </Pair>
    <Pair>
      <key>highlight</key>
      <styleUrl>#s_FF0040FF_hl</styleUrl>
    </Pair>
  </StyleMap>
  <Style id="s_FF0040FF">
   <IconStyle>
      <scale>1.1</scale>
      <Icon>
        <href>http://maps.google.com/mapfiles/kml/pushpin/agrocad.png</href>
      </Icon>
      <hotSpot x="20" y="2" xunits="pixels" yunits="pixels"/>
    </IconStyle>
    <LineStyle>
      <color>FF0040FF</color>
      <width>1</width>
    </LineStyle>
    <PolyStyle>
      <color>40ffffff</color>
      <fill>1</fill>
    </PolyStyle>
  </Style>
  <Style id="s_FF0040FF_hl">
    <IconStyle>
      <scale>1.3</scale>
      <Icon>
        <href>http://maps.google.com/mapfiles/kml/pushpin/agrocad.png</href>
      </Icon>
      <hotSpot x="20" y="2" xunits="pixels" yunits="pixels"/>
    </IconStyle>
    <LineStyle>
      <color>ff000000</color>
      <width>1</width>
    </LineStyle>
    <PolyStyle>
      <color>40ffffff</color>
      <fill>1</fill>
    </PolyStyle>
  </Style>
  <Placemark>
    <name>AgroCAD: 81B0</name>
    <styleUrl>FF0040FF</styleUrl>
    <Polygon>
      <outerBoundaryIs>
        <LinearRing>
          <coordinates>
           -36.21833365732455,-9.69835504153563 -36.21839615043792,-9.69833817142177 -36.21848706103306,-9.69831203281246 -36.21859276391514,-9.69827647306240 -36.21887161540124,-9.69819718690918 -36.21932868022494,-9.69806342473233 -36.21952086888993,-9.69800542791408 -36.21986424333494,-9.69790303632470 -36.21987785394149,-9.69795881839572 -36.21989333879558,-9.69797662116853 -36.21996207930858,-9.69798276011759 -36.22004299327106,-9.69800127498544 -36.22008773612708,-9.69803933750568 -36.22011220750460,-9.69806006767107 -36.22012714803159,-9.69808858568036 -36.22013196838891,-9.69812579153361 -36.22011334318049,-9.69820025853440 -36.22008830797793,-9.69831410074047 -36.22005435668724,-9.69846478270924 -36.22004338626772,-9.69855710500671 -36.22004289810643,-9.69861631203210 -36.22006304041839,-9.69864146014536 -36.22010331996751,-9.69865496555818 -36.22012622994894,-9.69865310639885 -36.22014612779012,-9.69864920444048 -36.22017541806294,-9.69866208703078 -36.22022150773989,-9.69870529597655 -36.22025761344442,-9.69871526041548 -36.22036967987278,-9.69874583973348 -36.22047307379553,-9.69875770873212 -36.22056181115234,-9.69875090501375 -36.22064357729153,-9.69872579866274 -36.22072218430181,-9.69869623190991 -36.22079961045495,-9.69866176579978 -36.22085833913933,-9.69860059339370 -36.22091523823164,-9.69849241476375 -36.22096516185744,-9.69838410313389 -36.22103109802769,-9.69828947789181 -36.22105030544308,-9.69821271657376 -36.22101763650697,-9.69814767959111 -36.22099545143388,-9.69811746079051 -36.22095141911378,-9.69800958450027 -36.22091394307053,-9.69792867434556 -36.22086740370411,-9.69784710077929 -36.22082630781052,-9.69776443516415 -36.22083146569382,-9.69767391757440 -36.22087722180512,-9.69763947174296 -36.22091894152426,-9.69760599774544 -36.22097900393607,-9.69758601881174 -36.22104159207478,-9.69758044867966 -36.22111214733751,-9.69756114809618 -36.22119555738976,-9.69754360178592 -36.22131490317716,-9.69751084318024 -36.22143356578738,-9.69747633011337 -36.22155410838873,-9.69743764654167 -36.22171743055648,-9.69740200462802 -36.22186630319514,-9.69735933192924 -36.22196724477019,-9.69732305432320 -36.22207263343443,-9.69727934608122 -36.22218315335638,-9.69725504864254 -36.22226175710353,-9.69722595719832 -36.22233308351538,-9.69721218232626 -36.22245896167641,-9.69716998790659 -36.22253218631936,-9.69714510212778 -36.22256860782594,-9.69713712699474 -36.22260456372425,-9.69711559084144 -36.22264109201967,-9.69710004195895 -36.22267079918731,-9.69707614082712 -36.22266723700850,-9.69705243654425 -36.22264351328668,-9.69699214522654 -36.22262984282488,-9.69692231199952 -36.22261349828241,-9.69684769558179 -36.22257692191686,-9.69673815749327 -36.22256185123263,-9.69668298547881 -36.22254523337066,-9.69661585158426 -36.22254267204162,-9.69658214811997 -36.22253832259677,-9.69655899863561 -36.22251527703610,-9.69651148041652 -36.22247456797050,-9.69644355031461 -36.22245951234989,-9.69642360064693 -36.22244764559491,-9.69639934515770 -36.22243541983614,-9.69633944086694 -36.22242745592739,-9.69630706336326 -36.22242660384085,-9.69627510000004 -36.22243005486123,-9.69621606906009 -36.22242040766695,-9.69618048428862 -36.22239948364597,-9.69614886371886 -36.22237365664760,-9.69608553521570 -36.22235417999946,-9.69605786617206 -36.22234435624991,-9.69602783657848 -36.22235078474810,-9.69601383014780 -36.22237250880719,-9.69599842223287 -36.22239754613960,-9.69598462285538 -36.22242157001622,-9.69597951710095 -36.22248347967605,-9.69597256324133 -36.22251955066652,-9.69597542779754 -36.22257539612326,-9.69598959013453 -36.22260346281848,-9.69599797211930 -36.22263199149800,-9.69599988421176 -36.22269150238416,-9.69601676627075 -36.22274883862124,-9.69604260813814 -36.22280379646104,-9.69608228488495 -36.22283961181159,-9.69612363842593 -36.22288256483622,-9.69616194892711 -36.22288917563952,-9.69618728598408 -36.22291613761488,-9.69626985419164 -36.22294913833038,-9.69634783931298 -36.22298742782786,-9.69643093415732 -36.22302809152700,-9.69651161077560 -36.22306941474886,-9.69658104006662 -36.22310139514483,-9.69664454380914 -36.22311485756446,-9.69671896892508 -36.22312135392330,-9.69679994017746 -36.22312245992057,-9.69688108247307 -36.22312491096946,-9.69697574173560 -36.22312576159237,-9.69710214365358 -36.22312668060859,-9.69723835686826 -36.22312856378365,-9.69737548686020 -36.22312826942081,-9.69754050911069 -36.22312814840638,-9.69773101444325 -36.22312765970676,-9.69791852255368 -36.22312246466593,-9.69822070222761 -36.22312963196292,-9.69854373527017 -36.22313534100876,-9.69877556533273 -36.22313294296070,-9.69889436135233 -36.22301965404080,-9.69892511299583 -36.22288175619202,-9.69895770254467 -36.22272569269344,-9.69899178947908 -36.22255325137766,-9.69903414922176 -36.22238239943857,-9.69907677279168 -36.22223870993581,-9.69911457299480 -36.22213152859239,-9.69914778744214 -36.22203818313849,-9.69918015121341 -36.22194740393444,-9.69921578535888 -36.22186035523215,-9.69925249103278 -36.22177834586360,-9.69929401075610 -36.22169382360895,-9.69934413885873 -36.22159144232308,-9.69940904292475 -36.22145925022180,-9.69949406680413 -36.22132254917803,-9.69958444196768 -36.22119729207695,-9.69966593391113 -36.22113744887165,-9.69970712889926 -36.22111677889176,-9.69970272910423 -36.22106212995985,-9.69969167922665 -36.22094893693123,-9.69966510792479 -36.22086114895633,-9.69964422715932 -36.22078079245641,-9.69962209613285 -36.22070062832461,-9.69959955903881 -36.22061974887505,-9.69957842818186 -36.22054077138030,-9.69955526927960 -36.22040486735618,-9.69951308795812 -36.22034515246484,-9.69949596816760 -36.22027753099381,-9.69947423079216 -36.22022331380416,-9.69945970191926 -36.22017642444150,-9.69944410413169 -36.22010413211390,-9.69942256188656 -36.22003453355333,-9.69940197899341 -36.21995003165956,-9.69937800908182 -36.21985524559911,-9.69934928406728 -36.21976769195392,-9.69932387689999 -36.21968670116732,-9.69930014573785 -36.21959159702036,-9.69927325966005 -36.21950088490426,-9.69924793922121 -36.21941458647017,-9.69923047490709 -36.21933557260831,-9.69922097707673 -36.21925919001646,-9.69921873923134 -36.21918379759318,-9.69922042770171 -36.21911053988830,-9.69922453059271 -36.21900130999508,-9.69923704981825 -36.21894204523739,-9.69925413134741 -36.21890001278608,-9.69926747373568 -36.21878858419215,-9.69930019874722 -36.21865261718899,-9.69933648810160 -36.21854304980764,-9.69936210536959 -36.21844090553829,-9.69938661351713 -36.21835353425808,-9.69940798997039 -36.21828221941485,-9.69942834681081 -36.21813551145037,-9.69946604601156 -36.21810634160262,-9.69947022949128 -36.21812252259996,-9.69941318228921 -36.21814982955138,-9.69931940517156 -36.21817486592814,-9.69921798369215 -36.21819530517667,-9.69912552595183 -36.21821488616045,-9.69904174670718 -36.21824909513872,-9.69886539513793 -36.21828290878158,-9.69869862404933 -36.21830988295446,-9.69851790353122 -36.21832328772103,-9.69842558584737 -36.21833365732455,-9.69835504153563 -36.21833365732455,-9.69835504153563
          </coordinates>
        </LinearRing>
      </outerBoundaryIs>
    </Polygon>
  </Placemark>
</Document>
</kml>
