<?xml version="1.0" encoding="UTF-8"?>
<kml xmlns="http://www.opengis.net/kml/2.2" xmlns:gx="http://www.google.com/kml/ext/2.2" xmlns:kml="http://www.opengis.net/kml/2.2" xmlns:atom="http://www.w3.org/2005/Atom">
<Document>
  <name>3035.kml</name>
  <StyleMap id="FFFF4000">
    <Pair>
      <key>normal</key>
      <styleUrl>#s_FFFF4000</styleUrl>
    </Pair>
    <Pair>
      <key>highlight</key>
      <styleUrl>#s_FFFF4000_hl</styleUrl>
    </Pair>
  </StyleMap>
  <Style id="s_FFFF4000">
   <IconStyle>
      <scale>1.1</scale>
      <Icon>
        <href>http://maps.google.com/mapfiles/kml/pushpin/agrocad.png</href>
      </Icon>
      <hotSpot x="20" y="2" xunits="pixels" yunits="pixels"/>
    </IconStyle>
    <LineStyle>
      <color>FFFF4000</color>
      <width>1</width>
    </LineStyle>
    <PolyStyle>
      <color>40ffffff</color>
      <fill>1</fill>
    </PolyStyle>
  </Style>
  <Style id="s_FFFF4000_hl">
    <IconStyle>
      <scale>1.3</scale>
      <Icon>
        <href>http://maps.google.com/mapfiles/kml/pushpin/agrocad.png</href>
      </Icon>
      <hotSpot x="20" y="2" xunits="pixels" yunits="pixels"/>
    </IconStyle>
    <LineStyle>
      <color>ff000000</color>
      <width>1</width>
    </LineStyle>
    <PolyStyle>
      <color>40ffffff</color>
      <fill>1</fill>
    </PolyStyle>
  </Style>
  <Placemark>
    <name>AgroCAD: 8EE4</name>
    <styleUrl>FFFF4000</styleUrl>
    <Polygon>
      <outerBoundaryIs>
        <LinearRing>
          <coordinates>
           -36.18273669129003,-9.77348905714432 -36.18275433735718,-9.77347016829213 -36.18282932013837,-9.77338461353659 -36.18290094850637,-9.77330192561121 -36.18296893179998,-9.77321616814902 -36.18303464921496,-9.77312963602101 -36.18310648316703,-9.77303484644585 -36.18317353085112,-9.77294013670296 -36.18325121331265,-9.77284476900565 -36.18333474333436,-9.77274786952544 -36.18341468455138,-9.77265027100421 -36.18349003975309,-9.77256347841893 -36.18355976603091,-9.77248264849402 -36.18362339669654,-9.77240308565703 -36.18368505987978,-9.77232718460541 -36.18374220848070,-9.77225421361661 -36.18378847280852,-9.77218643017470 -36.18381840537130,-9.77212341009755 -36.18382741239088,-9.77206472557953 -36.18381717570573,-9.77199711764070 -36.18378692668529,-9.77192643062965 -36.18373727873844,-9.77184737328282 -36.18368794661904,-9.77177617561070 -36.18363457586839,-9.77170215746061 -36.18356910549112,-9.77160909705673 -36.18350399080678,-9.77151098057457 -36.18345357470966,-9.77143607773635 -36.18340877676873,-9.77137458845073 -36.18335910608121,-9.77130971951143 -36.18332660830095,-9.77126843960255 -36.18328410559806,-9.77120991041420 -36.18321725032993,-9.77111482672968 -36.18312982462913,-9.77099837308919 -36.18304157744346,-9.77088782976053 -36.18297280103231,-9.77080545879776 -36.18292201503944,-9.77073855326148 -36.18286912112092,-9.77067229609085 -36.18282165195939,-9.77061480329831 -36.18273866154229,-9.77051596260385 -36.18264452866991,-9.77040407293077 -36.18254619462424,-9.77029967200382 -36.18242492526679,-9.77018367832187 -36.18231537035191,-9.77006948874839 -36.18224242173275,-9.76998590138621 -36.18222065898532,-9.76995839094006 -36.18218491042912,-9.76991277110413 -36.18216434927646,-9.76989129882378 -36.18215298485428,-9.76986473718205 -36.18215536368115,-9.76983824866956 -36.18217373007098,-9.76981449707283 -36.18219653700500,-9.76979180358552 -36.18222491943202,-9.76976821754880 -36.18223766407134,-9.76975870224422 -36.18334630471149,-9.76888525813451 -36.18335965833296,-9.76887298656341 -36.18339029569366,-9.76884718061258 -36.18342190440810,-9.76882349886081 -36.18345372494543,-9.76880054093921 -36.18347554152972,-9.76879397881723 -36.18347964629557,-9.76882169998490 -36.18348340217912,-9.76886499487555 -36.18349016199792,-9.76888430490342 -36.18350782481349,-9.76892378790520 -36.18351286269630,-9.76894139443844 -36.18362548334729,-9.76904920795799 -36.18381716605591,-9.76921496996815 -36.18409058366641,-9.76944820806860 -36.18434923616309,-9.76924752559763 -36.18457266774588,-9.76904865506354 -36.18460022312602,-9.76903608062993 -36.18465116340299,-9.76902665891306 -36.18468956841652,-9.76902376246802 -36.18471788797941,-9.76903277219441 -36.18472598971626,-9.76903943421716 -36.18484583209951,-9.76913995792500 -36.18560442966083,-9.76973903714613 -36.18563332068170,-9.76976396511273 -36.18566134685148,-9.76978665734375 -36.18569033124294,-9.76981071603749 -36.18571834387008,-9.76983635839201 -36.18574722142574,-9.76986236115395 -36.18577819968756,-9.76988840085290 -36.18580906368492,-9.76991469257961 -36.18583986879146,-9.76994008759971 -36.18587159334429,-9.76996401509839 -36.18590252783199,-9.76998561280033 -36.18592163316797,-9.77001393335467 -36.18592638163031,-9.77004990583790 -36.18592541917632,-9.77008792909899 -36.18592127240403,-9.77012518811224 -36.18591397689829,-9.77016188983148 -36.18590653891793,-9.77020110036963 -36.18590107766745,-9.77024086374646 -36.18589282918537,-9.77027950512651 -36.18588492753585,-9.77031888115845 -36.18587826678175,-9.77035894108394 -36.18587236740759,-9.77039880384209 -36.18586747010815,-9.77043964682025 -36.18586194203280,-9.77048089552323 -36.18585836837748,-9.77052367498628 -36.18585180356036,-9.77056481729504 -36.18584595881935,-9.77060573625439 -36.18584257032947,-9.77064804461141 -36.18584442253790,-9.77069079971516 -36.18584272931558,-9.77073499837099 -36.18584172244876,-9.77077864956498 -36.18583981411640,-9.77082179603572 -36.18583788637884,-9.77086458249247 -36.18583050923007,-9.77090530723769 -36.18582326504100,-9.77094786642781 -36.18581101552257,-9.77098944670728 -36.18579667418944,-9.77103044035271 -36.18577726826126,-9.77106748004849 -36.18575286809813,-9.77110277090120 -36.18572759130137,-9.77113729547655 -36.18569549253555,-9.77116826547382 -36.18566258234679,-9.77119725416021 -36.18562831815273,-9.77122505171253 -36.18559270544981,-9.77125108178648 -36.18555625293236,-9.77127901854165 -36.18552330199134,-9.77130337471456 -36.18549181171906,-9.77133029730275 -36.18546378985976,-9.77135445996494 -36.18543095571554,-9.77137893033750 -36.18538576028243,-9.77141324677924 -36.18536417008848,-9.77143146200425 -36.18531875477051,-9.77146774414337 -36.18528684726426,-9.77149186695886 -36.18525134081699,-9.77151479432074 -36.18521522332813,-9.77153577175920 -36.18518028084623,-9.77155477335099 -36.18514751001537,-9.77157531754037 -36.18511230747269,-9.77159366091554 -36.18507525251142,-9.77161202026843 -36.18503100927301,-9.77163316971203 -36.18498944610082,-9.77165092666110 -36.18495125987268,-9.77167175909089 -36.18491265503369,-9.77169353628491 -36.18487197372620,-9.77171488687474 -36.18483355364872,-9.77173723561127 -36.18479748522303,-9.77175831992007 -36.18476228148028,-9.77177702876526 -36.18472882584986,-9.77180294415478 -36.18469507062012,-9.77183140972731 -36.18466436467599,-9.77185636658835 -36.18463120233656,-9.77188176205616 -36.18460034393098,-9.77190561270825 -36.18456886925070,-9.77192821352604 -36.18453798365448,-9.77194858533006 -36.18452545584052,-9.77195877402235 -36.18447939720886,-9.77197565361653 -36.18439680650544,-9.77200184708303 -36.18430594574437,-9.77203145349893 -36.18427015846130,-9.77203812329688 -36.18423460498458,-9.77204496700288 -36.18419766997127,-9.77205383261342 -36.18416063904123,-9.77206560138552 -36.18412157892819,-9.77207735967868 -36.18408636915569,-9.77209473291088 -36.18405183845064,-9.77211651019454 -36.18401606736735,-9.77213818115611 -36.18397903185480,-9.77216059534329 -36.18394546382056,-9.77218852824016 -36.18391870628511,-9.77221851718187 -36.18389244230300,-9.77225151032622 -36.18387091794492,-9.77228487974908 -36.18385231804762,-9.77232246496013 -36.18383463837656,-9.77235930504998 -36.18381713905826,-9.77239579016950 -36.18380422080414,-9.77243553448446 -36.18379024187011,-9.77247513027529 -36.18377978455632,-9.77251678757528 -36.18376612655235,-9.77257016227923 -36.18376561935262,-9.77257923177676 -36.18374015012954,-9.77275082211513 -36.18373614258820,-9.77278446495267 -36.18373001113466,-9.77282653895940 -36.18371956041831,-9.77286613621424 -36.18370898363874,-9.77290719416340 -36.18369981006333,-9.77294821282585 -36.18369004218857,-9.77297571745569 -36.18369060634849,-9.77298969154484 -36.18365775276221,-9.77306833863540 -36.18361862929670,-9.77314941760712 -36.18358358140816,-9.77320608291200 -36.18347287298522,-9.77335366970010 -36.18341171374067,-9.77343349926816 -36.18333850018736,-9.77352455254233 -36.18328252700527,-9.77359427320040 -36.18326014292482,-9.77362257328643 -36.18322589624576,-9.77366263221691 -36.18310344914727,-9.77379044532420 -36.18304115777156,-9.77384070312507 -36.18297277776929,-9.77387944551501 -36.18289719093210,-9.77388257688564 -36.18282094437669,-9.77383456228440 -36.18279458949797,-9.77380728472602 -36.18272965831134,-9.77372826159172 -36.18268838051621,-9.77367364837874 -36.18266394374972,-9.77363611102568 -36.18264326683424,-9.77361134200889 -36.18265317671944,-9.77358292817231 -36.18267460246651,-9.77355768606026 -36.18270098314610,-9.77353212369598 -36.18271552875192,-9.77351410066754 -36.18273669129003,-9.77348905714432
          </coordinates>
        </LinearRing>
      </outerBoundaryIs>
    </Polygon>
  </Placemark>
</Document>
</kml>
