<?xml version="1.0" encoding="UTF-8"?>
<kml xmlns="http://www.opengis.net/kml/2.2" xmlns:gx="http://www.google.com/kml/ext/2.2" xmlns:kml="http://www.opengis.net/kml/2.2" xmlns:atom="http://www.w3.org/2005/Atom">
<Document>
  <name>3027.kml</name>
  <StyleMap id="FFFF4000">
    <Pair>
      <key>normal</key>
      <styleUrl>#s_FFFF4000</styleUrl>
    </Pair>
    <Pair>
      <key>highlight</key>
      <styleUrl>#s_FFFF4000_hl</styleUrl>
    </Pair>
  </StyleMap>
  <Style id="s_FFFF4000">
   <IconStyle>
      <scale>1.1</scale>
      <Icon>
        <href>http://maps.google.com/mapfiles/kml/pushpin/agrocad.png</href>
      </Icon>
      <hotSpot x="20" y="2" xunits="pixels" yunits="pixels"/>
    </IconStyle>
    <LineStyle>
      <color>FFFF4000</color>
      <width>1</width>
    </LineStyle>
    <PolyStyle>
      <color>40ffffff</color>
      <fill>1</fill>
    </PolyStyle>
  </Style>
  <Style id="s_FFFF4000_hl">
    <IconStyle>
      <scale>1.3</scale>
      <Icon>
        <href>http://maps.google.com/mapfiles/kml/pushpin/agrocad.png</href>
      </Icon>
      <hotSpot x="20" y="2" xunits="pixels" yunits="pixels"/>
    </IconStyle>
    <LineStyle>
      <color>ff000000</color>
      <width>1</width>
    </LineStyle>
    <PolyStyle>
      <color>40ffffff</color>
      <fill>1</fill>
    </PolyStyle>
  </Style>
  <Placemark>
    <name>AgroCAD: 8EE6</name>
    <styleUrl>FFFF4000</styleUrl>
    <Polygon>
      <outerBoundaryIs>
        <LinearRing>
          <coordinates>
           -36.17966556754348,-9.76856074929646 -36.17951364806348,-9.76854541639939 -36.17938826906167,-9.76851540569712 -36.17923734440735,-9.76845280092596 -36.17913605561507,-9.76837838700323 -36.17904591567180,-9.76830099125777 -36.17896380726344,-9.76821872286136 -36.17889703617537,-9.76813409845918 -36.17884815266537,-9.76806200973411 -36.17879532137190,-9.76797612056749 -36.17874203772731,-9.76787979220438 -36.17868716441022,-9.76777956381920 -36.17863201070775,-9.76767329027250 -36.17858268193728,-9.76757849720044 -36.17854507729106,-9.76748998108857 -36.17850762987471,-9.76739015448594 -36.17847371255488,-9.76729304595249 -36.17845223082911,-9.76721242744486 -36.17844192265997,-9.76716882976730 -36.17841613640808,-9.76706547596558 -36.17841345934084,-9.76703628451730 -36.17840699179754,-9.76701127935631 -36.17839259322888,-9.76701164328462 -36.17836937760610,-9.76702941520410 -36.17835636292237,-9.76704105290002 -36.17814091627244,-9.76723376339912 -36.17796200848686,-9.76739208856836 -36.17761766949221,-9.76773564708618 -36.17760703947857,-9.76774728268404 -36.17758078934945,-9.76777409495068 -36.17755692933026,-9.76779717459536 -36.17753552660172,-9.76781642027270 -36.17751625354656,-9.76783245528047 -36.17748520869132,-9.76784516970857 -36.17744054858047,-9.76787063130441 -36.17741423899906,-9.76789114327327 -36.17741878069351,-9.76791987259024 -36.17743347795847,-9.76794936551232 -36.17744141513240,-9.76796591054753 -36.17748646197670,-9.76805664357760 -36.17749056934929,-9.76806624028065 -36.17752272150533,-9.76812022548187 -36.17756818935811,-9.76818982545860 -36.17761652881532,-9.76826714466006 -36.17766803270417,-9.76833796989716 -36.17772820954123,-9.76840050687139 -36.17779405185780,-9.76844832396797 -36.17785375311900,-9.76848511253373 -36.17791904182751,-9.76851972105332 -36.17799607477425,-9.76854862652942 -36.17807704455190,-9.76857339471376 -36.17816118232062,-9.76860272623066 -36.17823575614923,-9.76862849590998 -36.17829823731694,-9.76864905803821 -36.17834137048601,-9.76866325234230 -36.17837225548863,-9.76867583188071 -36.17844219472807,-9.76870443313874 -36.17855398609929,-9.76875960630615 -36.17862205213576,-9.76880174040052 -36.17868759459720,-9.76884859176280 -36.17875231124912,-9.76889669749253 -36.17881475272568,-9.76895572860289 -36.17887055302061,-9.76901830814804 -36.17891942370941,-9.76907406067024 -36.17896245068255,-9.76912109850618 -36.17901193284778,-9.76917075226570 -36.17905621546924,-9.76920534547816 -36.17910586347467,-9.76922361657284 -36.17912597944972,-9.76922497363227 -36.17915790287721,-9.76922598086581 -36.17918729453996,-9.76921580691621 -36.17920860368857,-9.76919124017882 -36.17922702479694,-9.76916590583541 -36.17925277012717,-9.76913675305974 -36.17927683293733,-9.76910574477853 -36.17971729856872,-9.76865506170333 -36.17972760974917,-9.76864581981147 -36.17975107003886,-9.76862064236095 -36.17976947845759,-9.76859258812662 -36.17976177557754,-9.76856875882536 -36.17972719353092,-9.76856251111376 -36.17968920927945,-9.76856102972547 -36.17966556754348,-9.76856074929646
          </coordinates>
        </LinearRing>
      </outerBoundaryIs>
    </Polygon>
  </Placemark>
</Document>
</kml>
