<?xml version="1.0" encoding="UTF-8"?>
<kml xmlns="http://www.opengis.net/kml/2.2" xmlns:gx="http://www.google.com/kml/ext/2.2" xmlns:kml="http://www.opengis.net/kml/2.2" xmlns:atom="http://www.w3.org/2005/Atom">
<Document>
  <name>3010.kml</name>
  <StyleMap id="FFFF4000">
    <Pair>
      <key>normal</key>
      <styleUrl>#s_FFFF4000</styleUrl>
    </Pair>
    <Pair>
      <key>highlight</key>
      <styleUrl>#s_FFFF4000_hl</styleUrl>
    </Pair>
  </StyleMap>
  <Style id="s_FFFF4000">
   <IconStyle>
      <scale>1.1</scale>
      <Icon>
        <href>http://maps.google.com/mapfiles/kml/pushpin/agrocad.png</href>
      </Icon>
      <hotSpot x="20" y="2" xunits="pixels" yunits="pixels"/>
    </IconStyle>
    <LineStyle>
      <color>FFFF4000</color>
      <width>1</width>
    </LineStyle>
    <PolyStyle>
      <color>40ffffff</color>
      <fill>1</fill>
    </PolyStyle>
  </Style>
  <Style id="s_FFFF4000_hl">
    <IconStyle>
      <scale>1.3</scale>
      <Icon>
        <href>http://maps.google.com/mapfiles/kml/pushpin/agrocad.png</href>
      </Icon>
      <hotSpot x="20" y="2" xunits="pixels" yunits="pixels"/>
    </IconStyle>
    <LineStyle>
      <color>ff000000</color>
      <width>1</width>
    </LineStyle>
    <PolyStyle>
      <color>40ffffff</color>
      <fill>1</fill>
    </PolyStyle>
  </Style>
  <Placemark>
    <name>AgroCAD: 937A</name>
    <styleUrl>FFFF4000</styleUrl>
    <Polygon>
      <outerBoundaryIs>
        <LinearRing>
          <coordinates>
           -36.18546232749510,-9.76142357009218 -36.18538442081949,-9.76135488944738 -36.18518141645014,-9.76122094624581 -36.18498939845436,-9.76110246351274 -36.18489237368966,-9.76104418472388 -36.18482817271426,-9.76101957516639 -36.18478094000517,-9.76100998445181 -36.18471225036458,-9.76101841773594 -36.18464914924692,-9.76103134971772 -36.18458197385947,-9.76104064253632 -36.18453236377316,-9.76109007034548 -36.18439833412251,-9.76122252650824 -36.18429213591800,-9.76132957054857 -36.18411804977213,-9.76148778417200 -36.18397683519434,-9.76162112569948 -36.18379347799084,-9.76180668836744 -36.18384310699569,-9.76182650390629 -36.18390954449630,-9.76186945614194 -36.18395509576986,-9.76190703578004 -36.18398236830282,-9.76192837662498 -36.18402601505997,-9.76193764298255 -36.18408177971936,-9.76194900832380 -36.18414094085711,-9.76195520290448 -36.18419790033451,-9.76195308697796 -36.18423850495704,-9.76194789097978 -36.18426317234232,-9.76195264632499 -36.18431994102787,-9.76196478745972 -36.18433331530456,-9.76195336571083 -36.18436338276668,-9.76194874792603 -36.18440773453216,-9.76195509891353 -36.18445453478444,-9.76194458005029 -36.18449999963844,-9.76192024977163 -36.18457730598329,-9.76188172412972 -36.18465763266565,-9.76184494275430 -36.18469011535107,-9.76180528660174 -36.18471409203328,-9.76177348051916 -36.18479540029663,-9.76169279753933 -36.18481017274089,-9.76165976957332 -36.18482924610917,-9.76162307566517 -36.18484746862622,-9.76159275372926 -36.18487694924578,-9.76155955972386 -36.18491594962723,-9.76151404314404 -36.18494812315502,-9.76150294154198 -36.18500297848156,-9.76147692349345 -36.18502291836830,-9.76145885442299 -36.18506778731418,-9.76143629801197 -36.18509517831102,-9.76144230330895 -36.18513146605436,-9.76144039509048 -36.18518422500396,-9.76143325869579 -36.18525674623093,-9.76147322204294 -36.18534599791871,-9.76149088993228 -36.18536319204590,-9.76147153039785 -36.18540695404216,-9.76145207345326 -36.18546232749510,-9.76142357009218
          </coordinates>
        </LinearRing>
      </outerBoundaryIs>
    </Polygon>
  </Placemark>
  <Placemark>
    <name>AgroCAD: 9379</name>
    <styleUrl>FFFF4000</styleUrl>
    <Polygon>
      <outerBoundaryIs>
        <LinearRing>
          <coordinates>
           -36.18572866837540,-9.76141372466971 -36.18578096447889,-9.76152266755671 -36.18579478519281,-9.76158116247037 -36.18582364399375,-9.76159988063331 -36.18584649040457,-9.76155235621635 -36.18585067855284,-9.76153893375552 -36.18585082436393,-9.76152011582290 -36.18584801449322,-9.76150649610559 -36.18589572352757,-9.76147631609517 -36.18592298629697,-9.76146094262777 -36.18595776500435,-9.76141508478218 -36.18596498744162,-9.76140774024223 -36.18596867294195,-9.76139722468214 -36.18596547649651,-9.76137472149886 -36.18601198484319,-9.76135850534518 -36.18604786464317,-9.76134612737430 -36.18606248336148,-9.76134049170874 -36.18612627757805,-9.76133922742723 -36.18616243530575,-9.76134134056933 -36.18619563930823,-9.76135415114327 -36.18623102011981,-9.76137563494849 -36.18623849989559,-9.76136273279648 -36.18625750965351,-9.76134414865208 -36.18627107915607,-9.76132503071275 -36.18628097172996,-9.76130399197165 -36.18629188504371,-9.76127711148514 -36.18630367988465,-9.76124287177508 -36.18631463190469,-9.76119878270836 -36.18633109730188,-9.76114730903495 -36.18634708807538,-9.76109633099826 -36.18638076193715,-9.76103349455284 -36.18637232209260,-9.76104190369455 -36.18632466465297,-9.76107410999679 -36.18622388835097,-9.76112996748424 -36.18609164252990,-9.76120118880458 -36.18596119382381,-9.76125738604194 -36.18586296619626,-9.76130176370523 -36.18581477621630,-9.76133117304403 -36.18576103855728,-9.76137596916713 -36.18572866837540,-9.76141372466971
          </coordinates>
        </LinearRing>
      </outerBoundaryIs>
    </Polygon>
  </Placemark>
  <Placemark>
    <name>AgroCAD: 9378</name>
    <styleUrl>FFFF4000</styleUrl>
    <Polygon>
      <outerBoundaryIs>
        <LinearRing>
          <coordinates>
           -36.18665659199093,-9.76077447290492 -36.18639260712402,-9.76078530961584 -36.18630769753333,-9.76078975997436 -36.18608961377822,-9.76080972641531 -36.18597346436662,-9.76080991685714 -36.18589799586302,-9.76079554300930 -36.18581721614740,-9.76076776831769 -36.18574853955454,-9.76073773210860 -36.18565050486254,-9.76069567752511 -36.18558748880341,-9.76067986474208 -36.18553015391296,-9.76067853651785 -36.18545749745317,-9.76068848876327 -36.18530182036616,-9.76071196922121 -36.18523857960276,-9.76072247528830 -36.18510445386449,-9.76075321581764 -36.18499378198689,-9.76078423862419 -36.18489889340967,-9.76081858158939 -36.18484301950988,-9.76084141202956 -36.18479902092014,-9.76086975352628 -36.18473256842813,-9.76092915408762 -36.18466484964260,-9.76098550234073 -36.18475651104621,-9.76097373558575 -36.18482074151638,-9.76097979560766 -36.18486616957012,-9.76099426450673 -36.18494464155176,-9.76103255493457 -36.18499979884022,-9.76106595452443 -36.18507766996727,-9.76111553504566 -36.18518345775511,-9.76118214120808 -36.18524863681840,-9.76122445493062 -36.18533412474019,-9.76128327602102 -36.18542047625580,-9.76134787021184 -36.18548377413482,-9.76139589254779 -36.18551362850229,-9.76141512866986 -36.18553763016637,-9.76142667194095 -36.18558310483449,-9.76143037430321 -36.18565497661546,-9.76140871306522 -36.18569313711473,-9.76139125719194 -36.18572407612486,-9.76137160488300 -36.18580223407185,-9.76130942735409 -36.18585259141085,-9.76127359430359 -36.18590436304476,-9.76124729551059 -36.18600656002499,-9.76120780063812 -36.18607802867944,-9.76117417014711 -36.18621343496935,-9.76110926709796 -36.18630742211947,-9.76105219397889 -36.18635646704435,-9.76101741951020 -36.18638961277790,-9.76098689971269 -36.18645787179960,-9.76094350982909 -36.18654103614606,-9.76089180181512 -36.18660154329378,-9.76086925176490 -36.18666460480754,-9.76083877740874 -36.18671908170369,-9.76081050012278 -36.18675820366093,-9.76078764858920 -36.18679022675044,-9.76076520861094 -36.18681786712721,-9.76073758068655 -36.18684171397181,-9.76070063376358 -36.18686908016883,-9.76065957713644 -36.18688876439648,-9.76062504211232 -36.18688885581132,-9.76060746576108 -36.18665659199093,-9.76077447290492
          </coordinates>
        </LinearRing>
      </outerBoundaryIs>
    </Polygon>
  </Placemark>
</Document>
</kml>
