<?xml version="1.0" encoding="UTF-8"?>
<kml xmlns="http://www.opengis.net/kml/2.2" xmlns:gx="http://www.google.com/kml/ext/2.2" xmlns:kml="http://www.opengis.net/kml/2.2" xmlns:atom="http://www.w3.org/2005/Atom">
<Document>
  <name>3023.kml</name>
  <StyleMap id="FFFF4000">
    <Pair>
      <key>normal</key>
      <styleUrl>#s_FFFF4000</styleUrl>
    </Pair>
    <Pair>
      <key>highlight</key>
      <styleUrl>#s_FFFF4000_hl</styleUrl>
    </Pair>
  </StyleMap>
  <Style id="s_FFFF4000">
   <IconStyle>
      <scale>1.1</scale>
      <Icon>
        <href>http://maps.google.com/mapfiles/kml/pushpin/agrocad.png</href>
      </Icon>
      <hotSpot x="20" y="2" xunits="pixels" yunits="pixels"/>
    </IconStyle>
    <LineStyle>
      <color>FFFF4000</color>
      <width>1</width>
    </LineStyle>
    <PolyStyle>
      <color>40ffffff</color>
      <fill>1</fill>
    </PolyStyle>
  </Style>
  <Style id="s_FFFF4000_hl">
    <IconStyle>
      <scale>1.3</scale>
      <Icon>
        <href>http://maps.google.com/mapfiles/kml/pushpin/agrocad.png</href>
      </Icon>
      <hotSpot x="20" y="2" xunits="pixels" yunits="pixels"/>
    </IconStyle>
    <LineStyle>
      <color>ff000000</color>
      <width>1</width>
    </LineStyle>
    <PolyStyle>
      <color>40ffffff</color>
      <fill>1</fill>
    </PolyStyle>
  </Style>
  <Placemark>
    <name>AgroCAD: 8EDB</name>
    <styleUrl>FFFF4000</styleUrl>
    <Polygon>
      <outerBoundaryIs>
        <LinearRing>
          <coordinates>
           -36.17754327541906,-9.76344911278889 -36.17740702141457,-9.76348935677609 -36.17739713627790,-9.76349205209785 -36.17734030669573,-9.76350562342363 -36.17725831143739,-9.76351753738180 -36.17716710492672,-9.76352876818864 -36.17706609195649,-9.76353899482299 -36.17697035021045,-9.76354487495413 -36.17687928011299,-9.76354638074154 -36.17677396400873,-9.76354700147871 -36.17665958387901,-9.76354820269440 -36.17655639405497,-9.76354846696738 -36.17646235388795,-9.76354886902446 -36.17638486116511,-9.76354549084982 -36.17630763946035,-9.76354185234902 -36.17621394119035,-9.76353930437375 -36.17612884399735,-9.76353667545189 -36.17604300685656,-9.76353291982461 -36.17596467576175,-9.76352695613654 -36.17591442257044,-9.76352338152459 -36.17588268391966,-9.76352102435296 -36.17571295358788,-9.76351007400053 -36.17569211034892,-9.76350881400098 -36.17565605529883,-9.76350359950578 -36.17563169984971,-9.76349680166376 -36.17564804997959,-9.76348180078695 -36.17567754876983,-9.76346376256928 -36.17570096274131,-9.76344912227440 -36.17572753002258,-9.76342780906576 -36.17575527014218,-9.76340863298590 -36.17578418555797,-9.76338691655330 -36.17583662619639,-9.76334558200599 -36.17590312889293,-9.76329472580372 -36.17595946710835,-9.76324406120921 -36.17601812382853,-9.76319305174545 -36.17607432525554,-9.76314321707723 -36.17611978758530,-9.76310146115724 -36.17613716993759,-9.76308608327299 -36.17650542979730,-9.76277438856527 -36.17653521913534,-9.76275001679225 -36.17656370088745,-9.76272476781446 -36.17659269563117,-9.76270091527813 -36.17661838148321,-9.76267624177674 -36.17664717975535,-9.76265588012753 -36.17666259909027,-9.76265735518018 -36.17668799727340,-9.76267769631441 -36.17671452974465,-9.76270152163428 -36.17674479897032,-9.76272320156490 -36.17677624646226,-9.76274581839768 -36.17680207566213,-9.76276864951455 -36.17684837741550,-9.76280977039984 -36.17757746827845,-9.76337760771998 -36.17759972592941,-9.76339420324846 -36.17761378286285,-9.76341237162179 -36.17759135309685,-9.76342536416505 -36.17756202794523,-9.76343752263461 -36.17754327541906,-9.76344911278889
          </coordinates>
        </LinearRing>
      </outerBoundaryIs>
    </Polygon>
  </Placemark>
</Document>
</kml>
