<?xml version="1.0" encoding="UTF-8"?>
<kml xmlns="http://www.opengis.net/kml/2.2" xmlns:gx="http://www.google.com/kml/ext/2.2" xmlns:kml="http://www.opengis.net/kml/2.2" xmlns:atom="http://www.w3.org/2005/Atom">
<Document>
  <name>3014.kml</name>
  <StyleMap id="FFFF4000">
    <Pair>
      <key>normal</key>
      <styleUrl>#s_FFFF4000</styleUrl>
    </Pair>
    <Pair>
      <key>highlight</key>
      <styleUrl>#s_FFFF4000_hl</styleUrl>
    </Pair>
  </StyleMap>
  <Style id="s_FFFF4000">
   <IconStyle>
      <scale>1.1</scale>
      <Icon>
        <href>http://maps.google.com/mapfiles/kml/pushpin/agrocad.png</href>
      </Icon>
      <hotSpot x="20" y="2" xunits="pixels" yunits="pixels"/>
    </IconStyle>
    <LineStyle>
      <color>FFFF4000</color>
      <width>1</width>
    </LineStyle>
    <PolyStyle>
      <color>40ffffff</color>
      <fill>1</fill>
    </PolyStyle>
  </Style>
  <Style id="s_FFFF4000_hl">
    <IconStyle>
      <scale>1.3</scale>
      <Icon>
        <href>http://maps.google.com/mapfiles/kml/pushpin/agrocad.png</href>
      </Icon>
      <hotSpot x="20" y="2" xunits="pixels" yunits="pixels"/>
    </IconStyle>
    <LineStyle>
      <color>ff000000</color>
      <width>1</width>
    </LineStyle>
    <PolyStyle>
      <color>40ffffff</color>
      <fill>1</fill>
    </PolyStyle>
  </Style>
  <Placemark>
    <name>AgroCAD: 8EEB</name>
    <styleUrl>FFFF4000</styleUrl>
    <Polygon>
      <outerBoundaryIs>
        <LinearRing>
          <coordinates>
           -36.18189371014888,-9.76122782176971 -36.18189671289488,-9.76122603289675 -36.18196776490904,-9.76118406616028 -36.18199816437800,-9.76116743250785 -36.18203362228822,-9.76114656858922 -36.18206691040067,-9.76112593960016 -36.18210074973231,-9.76110511698767 -36.18213688991615,-9.76108400361817 -36.18217435433628,-9.76106329330478 -36.18221737735149,-9.76104458827978 -36.18225884949893,-9.76103211827044 -36.18230328710132,-9.76102348689317 -36.18234801771043,-9.76102005131768 -36.18239006781813,-9.76101816475419 -36.18243021651141,-9.76101617101282 -36.18247205723728,-9.76101267903302 -36.18251351733725,-9.76101032909051 -36.18255098158711,-9.76100453806161 -36.18258952547911,-9.76099815560862 -36.18262757567842,-9.76099050489245 -36.18266571514559,-9.76098044746462 -36.18270335798702,-9.76096898007673 -36.18274072372001,-9.76095538189031 -36.18278046144964,-9.76094228470088 -36.18282036265008,-9.76092786652708 -36.18286161324395,-9.76091345715078 -36.18290462407900,-9.76089943169747 -36.18294909538420,-9.76088874259182 -36.18299033369421,-9.76087833827861 -36.18303206117946,-9.76086563963627 -36.18307382312053,-9.76085252697847 -36.18311302735108,-9.76083879644565 -36.18315277493574,-9.76082354812221 -36.18319150405882,-9.76080481719998 -36.18323007565307,-9.76078656121175 -36.18326382111408,-9.76076464680032 -36.18329891004763,-9.76074034095594 -36.18333354620153,-9.76071763429778 -36.18336527534504,-9.76069367415941 -36.18339326710996,-9.76066886767625 -36.18341774060062,-9.76064170755147 -36.18343943821880,-9.76061030222371 -36.18346189321574,-9.76057623526527 -36.18348382004658,-9.76054126957669 -36.18350815239214,-9.76050600454895 -36.18353047251079,-9.76047313584943 -36.18355372037104,-9.76043713211716 -36.18358608481603,-9.76040091658640 -36.18363447579353,-9.76036457190500 -36.18365643577265,-9.76034772628781 -36.18370211350581,-9.76031422013922 -36.18373919526694,-9.76029042268498 -36.18377912612718,-9.76026969468798 -36.18382027110459,-9.76025361435907 -36.18385912682771,-9.76024070304249 -36.18403778699963,-9.76019416194374 -36.18406703541439,-9.76018450019358 -36.18410597608407,-9.76017225946941 -36.18414282429575,-9.76016125396654 -36.18417820766172,-9.76014946623710 -36.18421357901977,-9.76013613980956 -36.18424818650161,-9.76012275415853 -36.18428362679499,-9.76010821125963 -36.18431976686199,-9.76009253066427 -36.18435360642403,-9.76007830565887 -36.18438914590502,-9.76006172195117 -36.18442716489900,-9.76004554527753 -36.18446512869012,-9.76003248017670 -36.18450254184494,-9.76001930341818 -36.18454000411428,-9.76000672084713 -36.18458049913389,-9.75999381097882 -36.18462478547048,-9.75998692382983 -36.18466901823725,-9.75998338630283 -36.18471156358612,-9.75998384493477 -36.18475417505236,-9.75998549323005 -36.18479887609902,-9.75998939865329 -36.18484330426610,-9.75999673418828 -36.18488358927581,-9.76000750025440 -36.18492261333900,-9.76001530333945 -36.18496217548079,-9.76002321709365 -36.18499894247417,-9.76003022433256 -36.18503515775220,-9.76003340397097 -36.18507468590653,-9.76003737131120 -36.18510900771846,-9.76003980672568 -36.18523578514472,-9.76004143185505 -36.18525110897168,-9.76003626789564 -36.18529894657532,-9.76004038086488 -36.18533727337741,-9.76004386622529 -36.18537693010325,-9.76004664155104 -36.18541962795533,-9.76005456936733 -36.18545684919146,-9.76006701544049 -36.18549090227072,-9.76007840707125 -36.18552488058116,-9.76008894494267 -36.18555970673281,-9.76010392303418 -36.18559027747051,-9.76011809275732 -36.18562209967932,-9.76012764507743 -36.18565548406789,-9.76012881629056 -36.18568840836451,-9.76012520110837 -36.18571966799098,-9.76011399907122 -36.18573945054841,-9.76010309497713 -36.18582649844617,-9.76004520869737 -36.18585594561196,-9.76002382402063 -36.18595462133642,-9.75994984229971 -36.18598255173948,-9.75992470956564 -36.18601181246257,-9.75989672854362 -36.18603974859286,-9.75986930246894 -36.18606595089328,-9.75984075825213 -36.18608916993029,-9.75981081412180 -36.18611218667215,-9.75977812958441 -36.18613508089508,-9.75974614629424 -36.18615686517801,-9.75971350422533 -36.18617664545201,-9.75968556155476 -36.18620438451195,-9.75964669153388 -36.18621719785726,-9.75961913945327 -36.18622915217147,-9.75958964720341 -36.18623131207141,-9.75956080690296 -36.18622686642994,-9.75953235576563 -36.18621300037084,-9.75950540555592 -36.18619026140612,-9.75948379345029 -36.18616332840359,-9.75945888971480 -36.18613767499406,-9.75943397367970 -36.18610826666551,-9.75941169429398 -36.18607727696851,-9.75938830434301 -36.18604520688908,-9.75936314650233 -36.18603815143038,-9.75935625960828 -36.18485134549703,-9.75839607250762 -36.18362732640142,-9.75738410535841 -36.18362291677535,-9.75737970950215 -36.18360389206643,-9.75736169466281 -36.18358375777055,-9.75734322286038 -36.18356315095759,-9.75732435915025 -36.18354659367660,-9.75730391487726 -36.18353322300392,-9.75728088318627 -36.18352016863558,-9.75725890408557 -36.18350877910707,-9.75723709167924 -36.18349676282169,-9.75721973672172 -36.18348307875530,-9.75721327117397 -36.18346396402884,-9.75722139924526 -36.17837777466392,-9.76128067370778 -36.17843649734134,-9.76132318985238 -36.17911336963943,-9.76185634707721 -36.17992394656042,-9.76252730852419 -36.17994740051788,-9.76254628943348 -36.17997313199941,-9.76256871118451 -36.17999804785546,-9.76258146876502 -36.18001923646038,-9.76257581105121 -36.18003272516036,-9.76256285414648 -36.18008670227262,-9.76251473136516 -36.18016233851288,-9.76242947687864 -36.18023112889910,-9.76233924673513 -36.18028007981124,-9.76225646070581 -36.18031971665537,-9.76216410344387 -36.18035413062860,-9.76206441183079 -36.18040508536401,-9.76196764870252 -36.18045561222373,-9.76190827546040 -36.18053682191219,-9.76184845753714 -36.18060547250672,-9.76180836099946 -36.18060926501377,-9.76180621011066 -36.18076683826798,-9.76174611980835 -36.18079281966052,-9.76173735592737 -36.18081832374625,-9.76173162007382 -36.18085034451859,-9.76172262714071 -36.18088680458187,-9.76171072898589 -36.18092098899837,-9.76169992585394 -36.18096444805751,-9.76168824002887 -36.18099276589870,-9.76167748862338 -36.18105529119589,-9.76165516013425 -36.18112429730504,-9.76162905991368 -36.18127078381230,-9.76156911170364 -36.18138997473866,-9.76151531436566 -36.18150627033255,-9.76145490902614 -36.18157592788306,-9.76142029044942 -36.18164382187724,-9.76137901417276 -36.18165126171334,-9.76137483230814 -36.18169593591094,-9.76134863132375 -36.18171877356870,-9.76133347849832 -36.18176129856226,-9.76130661370629 -36.18179644851393,-9.76128859488995 -36.18182964047921,-9.76126866779898 -36.18186199082231,-9.76124809742106 -36.18189371014888,-9.76122782176971
          </coordinates>
        </LinearRing>
      </outerBoundaryIs>
    </Polygon>
  </Placemark>
</Document>
</kml>
