<?xml version="1.0" encoding="UTF-8"?>
<kml xmlns="http://www.opengis.net/kml/2.2" xmlns:gx="http://www.google.com/kml/ext/2.2" xmlns:kml="http://www.opengis.net/kml/2.2" xmlns:atom="http://www.w3.org/2005/Atom">
<Document>
  <name>3015.kml</name>
  <StyleMap id="FFFF4000">
    <Pair>
      <key>normal</key>
      <styleUrl>#s_FFFF4000</styleUrl>
    </Pair>
    <Pair>
      <key>highlight</key>
      <styleUrl>#s_FFFF4000_hl</styleUrl>
    </Pair>
  </StyleMap>
  <Style id="s_FFFF4000">
   <IconStyle>
      <scale>1.1</scale>
      <Icon>
        <href>http://maps.google.com/mapfiles/kml/pushpin/agrocad.png</href>
      </Icon>
      <hotSpot x="20" y="2" xunits="pixels" yunits="pixels"/>
    </IconStyle>
    <LineStyle>
      <color>FFFF4000</color>
      <width>1</width>
    </LineStyle>
    <PolyStyle>
      <color>40ffffff</color>
      <fill>1</fill>
    </PolyStyle>
  </Style>
  <Style id="s_FFFF4000_hl">
    <IconStyle>
      <scale>1.3</scale>
      <Icon>
        <href>http://maps.google.com/mapfiles/kml/pushpin/agrocad.png</href>
      </Icon>
      <hotSpot x="20" y="2" xunits="pixels" yunits="pixels"/>
    </IconStyle>
    <LineStyle>
      <color>ff000000</color>
      <width>1</width>
    </LineStyle>
    <PolyStyle>
      <color>40ffffff</color>
      <fill>1</fill>
    </PolyStyle>
  </Style>
  <Placemark>
    <name>AgroCAD: 8ED9</name>
    <styleUrl>FFFF4000</styleUrl>
    <Polygon>
      <outerBoundaryIs>
        <LinearRing>
          <coordinates>
           -36.18553401146149,-9.76013414307987 -36.18548005297741,-9.76011740865243 -36.18544557316632,-9.76010587426739 -36.18541107658884,-9.76009433926724 -36.18537351566089,-9.76008736523528 -36.18533577499752,-9.76008472400149 -36.18529712120409,-9.76008120890406 -36.18525795797630,-9.76007784173745 -36.18524411303792,-9.76008250732705 -36.18510909410661,-9.76008077654907 -36.18507297505543,-9.76007821360468 -36.18503310297844,-9.76007421174469 -36.18499506978789,-9.76007087249548 -36.18495607333628,-9.76006344035415 -36.18491633004107,-9.76005549036191 -36.18487601488057,-9.76004742911327 -36.18483640319421,-9.76003684299006 -36.18479552098277,-9.76003009292660 -36.18475339196689,-9.76002641221425 -36.18471235695236,-9.76002482489800 -36.18467225989169,-9.76002439265714 -36.18463142725050,-9.76002765825701 -36.18459181427117,-9.76003381863205 -36.18455466065801,-9.76004566325416 -36.18451778468628,-9.76005804890259 -36.18448051565220,-9.76007117490135 -36.18444379207153,-9.76008381318739 -36.18440776521799,-9.76009914222575 -36.18437214467888,-9.76011576375655 -36.18433778865886,-9.76013020586262 -36.18430148728780,-9.76014595644435 -36.18426527934981,-9.76016081434476 -36.18423011330611,-9.76017441603821 -36.18419382662594,-9.76018808731934 -36.18415707322470,-9.76020033146580 -36.18411988890515,-9.76021143735345 -36.18408151476348,-9.76022349999250 -36.18405129257064,-9.76023348341391 -36.18387266755934,-9.76028001534904 -36.18383611495732,-9.76029216136354 -36.18379800116941,-9.76030705703849 -36.18376168477100,-9.76032590877787 -36.18372726456218,-9.76034799816379 -36.18368297158781,-9.76038048854540 -36.18366119525077,-9.76039719328985 -36.18361587368518,-9.76043123264978 -36.18358832133573,-9.76046206348964 -36.18356654136194,-9.76049579392444 -36.18354387176906,-9.76052917726510 -36.18351995981785,-9.76056383301662 -36.18349826178388,-9.76059843385810 -36.18347530957351,-9.76063325515399 -36.18345186849675,-9.76066718398294 -36.18342410225328,-9.76069799833209 -36.18339319361432,-9.76072538976874 -36.18335909672828,-9.76075113789880 -36.18332375784737,-9.76077430524842 -36.18328859592100,-9.76079866165421 -36.18325202853501,-9.76082240863236 -36.18321112293344,-9.76084176930884 -36.18317098997721,-9.76086117917882 -36.18312905812682,-9.76087726544881 -36.18308864678114,-9.76089141874958 -36.18304606951710,-9.76090478740611 -36.18300321560770,-9.76091782884421 -36.18296078662218,-9.76092853356044 -36.18291768118583,-9.76093889436528 -36.18287663448886,-9.76095227932929 -36.18283599716959,-9.76096647447963 -36.18279575327191,-9.76098101648486 -36.18275606007018,-9.76099409899732 -36.18271825508663,-9.76100785703526 -36.18267881382153,-9.76101987228779 -36.18263873373775,-9.76103044145760 -36.18259878687787,-9.76103847353232 -36.18255932523775,-9.76104500795338 -36.18251966614734,-9.76105113824802 -36.18247675925373,-9.76105357019317 -36.18243477439481,-9.76105707420083 -36.18239383281539,-9.76105910731492 -36.18235234065869,-9.76106096884497 -36.18231063974076,-9.76106417172113 -36.18227057098046,-9.76107195451126 -36.18223341171902,-9.76108312770399 -36.18219441073126,-9.76110008407969 -36.18215908074947,-9.76111961447592 -36.18212376718992,-9.76114024492479 -36.18209038336104,-9.76116078724890 -36.18205675046981,-9.76118162990059 -36.18202033494516,-9.76120305729215 -36.18198996535379,-9.76121967459607 -36.18191956073108,-9.76126125895102 -36.18191662448094,-9.76126300820932 -36.18190426137115,-9.76127037347789 -36.18187190692307,-9.76128822916267 -36.18184053564261,-9.76130588562199 -36.18181095947913,-9.76132232189153 -36.18178134497814,-9.76134150232220 -36.18178442127590,-9.76135591048489 -36.18181102769935,-9.76137556737900 -36.18184041919779,-9.76139518900708 -36.18215466052062,-9.76161979385892 -36.18251966342146,-9.76188328717781 -36.18254839883621,-9.76190355429334 -36.18257662923636,-9.76192292470900 -36.18260782074629,-9.76194360959472 -36.18262930888342,-9.76195610623814 -36.18265710350059,-9.76195241181735 -36.18269047772491,-9.76194927326939 -36.18272911598836,-9.76194054137275 -36.18276546915284,-9.76192953898589 -36.18279982335511,-9.76191707727494 -36.18282022538661,-9.76190630136607 -36.18288782455812,-9.76187631448585 -36.18291501116870,-9.76186262612512 -36.18294484042718,-9.76184693053878 -36.18296950379697,-9.76183534715236 -36.18299152112443,-9.76182450578823 -36.18301168921828,-9.76181596464511 -36.18303358783763,-9.76180674688249 -36.18305359742727,-9.76179552251733 -36.18307609374409,-9.76178418927656 -36.18310200212876,-9.76177165589944 -36.18312845736927,-9.76175605224380 -36.18315539993125,-9.76174025062450 -36.18318260808017,-9.76172560895817 -36.18321148016138,-9.76170923109495 -36.18323875402149,-9.76169313140643 -36.18326741618313,-9.76167664857434 -36.18329413292459,-9.76166001945376 -36.18332363929187,-9.76164430649556 -36.18335154044666,-9.76162645132636 -36.18336488228613,-9.76161469072285 -36.18345251374918,-9.76155190929788 -36.18356921001319,-9.76147564666479 -36.18378400798049,-9.76135245715834 -36.18381217449228,-9.76133753273898 -36.18383872184556,-9.76132067507378 -36.18386589088252,-9.76130356848787 -36.18389251944269,-9.76128627937129 -36.18391895881861,-9.76126920965579 -36.18394674351711,-9.76125237232681 -36.18397296240787,-9.76123534863875 -36.18399970671670,-9.76121819052988 -36.18402114514252,-9.76120315530721 -36.18403596825303,-9.76119283013794 -36.18405784087230,-9.76117704358852 -36.18408244980933,-9.76115935579846 -36.18410891453532,-9.76114144464451 -36.18413545508506,-9.76112181470783 -36.18416154003051,-9.76110145235369 -36.18418967041305,-9.76108008906430 -36.18421809495635,-9.76105942372604 -36.18424532359043,-9.76103884403852 -36.18427138901750,-9.76101966333916 -36.18429562887806,-9.76100197848183 -36.18431748181301,-9.76098551130148 -36.18433661648752,-9.76097127982303 -36.18435915632394,-9.76095449098259 -36.18438280284572,-9.76093648251498 -36.18440946843680,-9.76091851367234 -36.18443564859431,-9.76090221973417 -36.18446442623033,-9.76088618987341 -36.18449273705107,-9.76087007319748 -36.18452161394372,-9.76085540800381 -36.18455040706951,-9.76083916227423 -36.18456711594707,-9.76082912188791 -36.18465881810259,-9.76080039109588 -36.18468671263894,-9.76079124308089 -36.18471460227965,-9.76078255650126 -36.18477473822245,-9.76076686174406 -36.18480375304708,-9.76075927700097 -36.18483078504589,-9.76075104197917 -36.18485039072353,-9.76073768848943 -36.18487201619486,-9.76072020233253 -36.18489490294428,-9.76070310984308 -36.18491386423567,-9.76068171469551 -36.18493593067992,-9.76066134691891 -36.18495569428968,-9.76064218397317 -36.18497574912834,-9.76062482951807 -36.18499610807291,-9.76060652419402 -36.18501693909013,-9.76058779811854 -36.18503647668565,-9.76056957665769 -36.18505741170148,-9.76055096409687 -36.18508119311782,-9.76052989375551 -36.18510492440225,-9.76051097881778 -36.18511684036484,-9.76049691010844 -36.18523835495310,-9.76039076480225 -36.18526749327523,-9.76036358328381 -36.18529734661741,-9.76033789741154 -36.18533291379639,-9.76030502920626 -36.18537610304399,-9.76026181348514 -36.18541955238004,-9.76021989962440 -36.18545593777390,-9.76018652518395 -36.18548795440027,-9.76016126189752 -36.18553401146149,-9.76013414307987
          </coordinates>
        </LinearRing>
      </outerBoundaryIs>
    </Polygon>
  </Placemark>
</Document>
</kml>
