<?xml version="1.0" encoding="UTF-8"?>
<kml xmlns="http://www.opengis.net/kml/2.2" xmlns:gx="http://www.google.com/kml/ext/2.2" xmlns:kml="http://www.opengis.net/kml/2.2" xmlns:atom="http://www.w3.org/2005/Atom">
<Document>
  <name>3028.kml</name>
  <StyleMap id="FFFF4000">
    <Pair>
      <key>normal</key>
      <styleUrl>#s_FFFF4000</styleUrl>
    </Pair>
    <Pair>
      <key>highlight</key>
      <styleUrl>#s_FFFF4000_hl</styleUrl>
    </Pair>
  </StyleMap>
  <Style id="s_FFFF4000">
   <IconStyle>
      <scale>1.1</scale>
      <Icon>
        <href>http://maps.google.com/mapfiles/kml/pushpin/agrocad.png</href>
      </Icon>
      <hotSpot x="20" y="2" xunits="pixels" yunits="pixels"/>
    </IconStyle>
    <LineStyle>
      <color>FFFF4000</color>
      <width>1</width>
    </LineStyle>
    <PolyStyle>
      <color>40ffffff</color>
      <fill>1</fill>
    </PolyStyle>
  </Style>
  <Style id="s_FFFF4000_hl">
    <IconStyle>
      <scale>1.3</scale>
      <Icon>
        <href>http://maps.google.com/mapfiles/kml/pushpin/agrocad.png</href>
      </Icon>
      <hotSpot x="20" y="2" xunits="pixels" yunits="pixels"/>
    </IconStyle>
    <LineStyle>
      <color>ff000000</color>
      <width>1</width>
    </LineStyle>
    <PolyStyle>
      <color>40ffffff</color>
      <fill>1</fill>
    </PolyStyle>
  </Style>
  <Placemark>
    <name>AgroCAD: 8EE7</name>
    <styleUrl>FFFF4000</styleUrl>
    <Polygon>
      <outerBoundaryIs>
        <LinearRing>
          <coordinates>
           -36.17945041159680,-9.76604157453892 -36.17945313114252,-9.76611098039143 -36.17945883373253,-9.76618288796978 -36.17947200682439,-9.76628290878381 -36.17949277788782,-9.76638981458527 -36.17952603476656,-9.76649139077170 -36.17957578861434,-9.76658185653581 -36.17963426808052,-9.76666176891591 -36.17969320381599,-9.76674282552186 -36.17974729735740,-9.76681988555669 -36.17978832656076,-9.76690158303678 -36.17982915929450,-9.76699343867458 -36.17986954819426,-9.76708308998199 -36.17990574106474,-9.76717060036617 -36.17994444038009,-9.76726097203701 -36.17999007644657,-9.76735533208619 -36.18003618078144,-9.76744389628764 -36.18007847613394,-9.76752573997902 -36.18012146551641,-9.76760319089207 -36.18015591402591,-9.76766857061395 -36.18019481608275,-9.76773433392012 -36.18032526828841,-9.76792771621967 -36.18033837387482,-9.76794247723359 -36.18035631492368,-9.76797435826350 -36.18034964225807,-9.76800588616434 -36.18033678559888,-9.76802352282044 -36.17996863519499,-9.76841372034749 -36.17995756925040,-9.76842624737789 -36.17993158490484,-9.76845242253748 -36.17990748621015,-9.76847991103261 -36.17987878367181,-9.76850083559377 -36.17984668355195,-9.76851374314096 -36.17983079200060,-9.76851778410881 -36.17980932017839,-9.76852619290790 -36.17973379273931,-9.76852844388501 -36.17963519517201,-9.76852345947658 -36.17952010853628,-9.76850978967353 -36.17939964080435,-9.76848095453625 -36.17925547521878,-9.76842115348769 -36.17915885002587,-9.76835016578177 -36.17907081728581,-9.76827457932620 -36.17899118731911,-9.76819479421036 -36.17892653146700,-9.76811285062970 -36.17887882997221,-9.76804250503945 -36.17882685540984,-9.76795800869791 -36.17877401293540,-9.76786247791994 -36.17871936928589,-9.76776266905303 -36.17866439058936,-9.76765673274179 -36.17861570202032,-9.76756316993937 -36.17857894854657,-9.76747665739239 -36.17854191603675,-9.76737793686961 -36.17850858223339,-9.76728249903099 -36.17848758077729,-9.76720368295513 -36.17847733830443,-9.76716036315602 -36.17844728659712,-9.76703991304707 -36.17844464528982,-9.76703017803141 -36.17843581689060,-9.76700051465943 -36.17842880643983,-9.76697309867006 -36.17843979079420,-9.76695260082269 -36.17845454518974,-9.76694182687666 -36.17915364758430,-9.76628924343830 -36.17917699508641,-9.76626634095880 -36.17920348491621,-9.76624454657705 -36.17922950308475,-9.76621971310011 -36.17925878271927,-9.76619152982712 -36.17928770524950,-9.76616491148688 -36.17931674126680,-9.76614051623551 -36.17934496069859,-9.76611601775200 -36.17937299748164,-9.76608989124237 -36.17940170165867,-9.76606404374259 -36.17942807785957,-9.76603980774873 -36.17945041159680,-9.76604157453892
          </coordinates>
        </LinearRing>
      </outerBoundaryIs>
    </Polygon>
  </Placemark>
</Document>
</kml>
