<?xml version="1.0" encoding="UTF-8"?>
<kml xmlns="http://www.opengis.net/kml/2.2" xmlns:gx="http://www.google.com/kml/ext/2.2" xmlns:kml="http://www.opengis.net/kml/2.2" xmlns:atom="http://www.w3.org/2005/Atom">
<Document>
  <name>3005.kml</name>
  <StyleMap id="FF0040FF">
    <Pair>
      <key>normal</key>
      <styleUrl>#s_FF0040FF</styleUrl>
    </Pair>
    <Pair>
      <key>highlight</key>
      <styleUrl>#s_FF0040FF_hl</styleUrl>
    </Pair>
  </StyleMap>
  <Style id="s_FF0040FF">
   <IconStyle>
      <scale>1.1</scale>
      <Icon>
        <href>http://maps.google.com/mapfiles/kml/pushpin/agrocad.png</href>
      </Icon>
      <hotSpot x="20" y="2" xunits="pixels" yunits="pixels"/>
    </IconStyle>
    <LineStyle>
      <color>FF0040FF</color>
      <width>1</width>
    </LineStyle>
    <PolyStyle>
      <color>40ffffff</color>
      <fill>1</fill>
    </PolyStyle>
  </Style>
  <Style id="s_FF0040FF_hl">
    <IconStyle>
      <scale>1.3</scale>
      <Icon>
        <href>http://maps.google.com/mapfiles/kml/pushpin/agrocad.png</href>
      </Icon>
      <hotSpot x="20" y="2" xunits="pixels" yunits="pixels"/>
    </IconStyle>
    <LineStyle>
      <color>ff000000</color>
      <width>1</width>
    </LineStyle>
    <PolyStyle>
      <color>40ffffff</color>
      <fill>1</fill>
    </PolyStyle>
  </Style>
  <Placemark>
    <name>AgroCAD: 7FB3</name>
    <styleUrl>FF0040FF</styleUrl>
    <Polygon>
      <outerBoundaryIs>
        <LinearRing>
          <coordinates>
           -36.18717231252015,-9.76320356510116 -36.18734428163699,-9.76302982734808 -36.18737861263383,-9.76299371871994 -36.18743843146367,-9.76293539652822 -36.18751125941495,-9.76286457063341 -36.18759375914113,-9.76278852138089 -36.18767588278409,-9.76270836728376 -36.18775321862202,-9.76263048736598 -36.18784031792110,-9.76254156870653 -36.18791822579242,-9.76246092723290 -36.18798775631659,-9.76238849892491 -36.18812973332071,-9.76224211839651 -36.18828355556892,-9.76208689809202 -36.18839840271299,-9.76196657939354 -36.18846248963586,-9.76190031816060 -36.18846435081867,-9.76190188335912 -36.18849452810240,-9.76196123393130 -36.18851361856656,-9.76203556496687 -36.18855310067444,-9.76223700539994 -36.18859674734614,-9.76231494432684 -36.18864483208939,-9.76237128318978 -36.18871589531464,-9.76242408776319 -36.18880650136706,-9.76246530502315 -36.18890641275566,-9.76248554000140 -36.18899968494818,-9.76248477164463 -36.18909021322365,-9.76247961247010 -36.18917937894291,-9.76247237372641 -36.18922916100169,-9.76246690563194 -36.18917427959190,-9.76249044779777 -36.18907880968064,-9.76253213249598 -36.18895777234184,-9.76261062481369 -36.18880408459645,-9.76271980633259 -36.18865055736709,-9.76284005103853 -36.18852902739475,-9.76292324153110 -36.18843007549591,-9.76297734544786 -36.18833470273624,-9.76302857164355 -36.18820111946952,-9.76308902181673 -36.18812371543454,-9.76311423305246 -36.18802883684764,-9.76314346075251 -36.18781537148706,-9.76324356449926 -36.18773697567983,-9.76328886235994 -36.18768041127053,-9.76331016788500 -36.18763607276140,-9.76332426088008 -36.18756242655989,-9.76335106708380 -36.18748781298990,-9.76337676795823 -36.18741905526440,-9.76338665644155 -36.18736100422769,-9.76336958464609 -36.18730664796272,-9.76333315906944 -36.18724583053577,-9.76327613739402 -36.18717999636348,-9.76321130520120 -36.18717231252016,-9.76320356510116 -36.18717231252015,-9.76320356510116
          </coordinates>
        </LinearRing>
      </outerBoundaryIs>
    </Polygon>
  </Placemark>
  <Placemark>
    <name>AgroCAD: 7F92</name>
    <styleUrl>FF0040FF</styleUrl>
    <Polygon>
      <outerBoundaryIs>
        <LinearRing>
          <coordinates>
           -36.18848775748985,-9.76187419301847 -36.18857056927796,-9.76178857154059 -36.18870822488340,-9.76165101893484 -36.18897176116991,-9.76139312650590 -36.18920176715956,-9.76116160097986 -36.18925894877912,-9.76120388000011 -36.18933482940803,-9.76125984208382 -36.18939621998178,-9.76131200680629 -36.18945009029438,-9.76136867398269 -36.18949416016061,-9.76143839784313 -36.18952659028041,-9.76152199845656 -36.18955831169517,-9.76160597841790 -36.18959568882794,-9.76169390691602 -36.18964238258713,-9.76179183581289 -36.18968960356240,-9.76188879875935 -36.18972218304139,-9.76197213933083 -36.18973130631815,-9.76204047583384 -36.18972620287749,-9.76210218832333 -36.18970705400192,-9.76217121290685 -36.18966959359870,-9.76224308264790 -36.18960839948512,-9.76229923424247 -36.18942343767289,-9.76238887753610 -36.18933714681313,-9.76241265042222 -36.18926007243919,-9.76242715317658 -36.18917588790103,-9.76243640006944 -36.18908768243720,-9.76244356085938 -36.18899848825991,-9.76244864400692 -36.18890994381769,-9.76244937342053 -36.18881788565382,-9.76243072895289 -36.18873461939893,-9.76239285061621 -36.18866997119890,-9.76234481282623 -36.18862685783286,-9.76229429872286 -36.18858775550911,-9.76222447455532 -36.18854917797166,-9.76202764941527 -36.18852884641698,-9.76194848607797 -36.18849354713645,-9.76187906193570 -36.18848775748983,-9.76187419301847 -36.18848775748985,-9.76187419301847
          </coordinates>
        </LinearRing>
      </outerBoundaryIs>
    </Polygon>
  </Placemark>
</Document>
</kml>
