<?xml version="1.0" encoding="UTF-8"?>
<kml xmlns="http://www.opengis.net/kml/2.2" xmlns:gx="http://www.google.com/kml/ext/2.2" xmlns:kml="http://www.opengis.net/kml/2.2" xmlns:atom="http://www.w3.org/2005/Atom">
<Document>
  <name>1011.kml</name>
  <StyleMap id="FFFF4000">
    <Pair>
      <key>normal</key>
      <styleUrl>#s_FFFF4000</styleUrl>
    </Pair>
    <Pair>
      <key>highlight</key>
      <styleUrl>#s_FFFF4000_hl</styleUrl>
    </Pair>
  </StyleMap>
  <Style id="s_FFFF4000">
   <IconStyle>
      <scale>1.1</scale>
      <Icon>
        <href>http://maps.google.com/mapfiles/kml/pushpin/agrocad.png</href>
      </Icon>
      <hotSpot x="20" y="2" xunits="pixels" yunits="pixels"/>
    </IconStyle>
    <LineStyle>
      <color>FFFF4000</color>
      <width>1</width>
    </LineStyle>
    <PolyStyle>
      <color>40ffffff</color>
      <fill>1</fill>
    </PolyStyle>
  </Style>
  <Style id="s_FFFF4000_hl">
    <IconStyle>
      <scale>1.3</scale>
      <Icon>
        <href>http://maps.google.com/mapfiles/kml/pushpin/agrocad.png</href>
      </Icon>
      <hotSpot x="20" y="2" xunits="pixels" yunits="pixels"/>
    </IconStyle>
    <LineStyle>
      <color>ff000000</color>
      <width>1</width>
    </LineStyle>
    <PolyStyle>
      <color>40ffffff</color>
      <fill>1</fill>
    </PolyStyle>
  </Style>
  <Placemark>
    <name>AgroCAD: 916C</name>
    <styleUrl>FFFF4000</styleUrl>
    <Polygon>
      <outerBoundaryIs>
        <LinearRing>
          <coordinates>
           -36.17656660569136,-9.81051021491614 -36.17652707162981,-9.81056535538196 -36.17649763387866,-9.81061802247535 -36.17646082181759,-9.81068973768622 -36.17641248328265,-9.81077789146660 -36.17635857218928,-9.81086699138925 -36.17630133561757,-9.81095407445817 -36.17623925132870,-9.81104781716810 -36.17617628492395,-9.81114945521218 -36.17611148331548,-9.81126603119006 -36.17605620662683,-9.81137622048362 -36.17601398784604,-9.81147205743777 -36.17597278674319,-9.81156854554906 -36.17593110081605,-9.81166468237566 -36.17588887514637,-9.81175332371696 -36.17585960144698,-9.81181462912048 -36.17583992159990,-9.81186055495890 -36.17580240497083,-9.81194112752499 -36.17572340817666,-9.81213088162010 -36.17569731395160,-9.81227067215810 -36.17568906148748,-9.81243209024441 -36.17568987179800,-9.81259150776800 -36.17568966212824,-9.81266031722342 -36.17569574443815,-9.81277395679338 -36.17570209861610,-9.81287247805494 -36.17570593573575,-9.81294815116554 -36.17571142811029,-9.81312247204859 -36.17570874680221,-9.81328480555706 -36.17570631188644,-9.81347115752364 -36.17571810128634,-9.81366452083817 -36.17573207189331,-9.81385714233656 -36.17574723141333,-9.81403944674467 -36.17575839115847,-9.81421676970499 -36.17576749136413,-9.81442015778088 -36.17577470366879,-9.81459908959493 -36.17577614738176,-9.81468291263074 -36.17577717968494,-9.81471298440433 -36.17575926438528,-9.81471283498087 -36.17568986760913,-9.81472223387337 -36.17557479703208,-9.81473267410492 -36.17541167755234,-9.81473875058679 -36.17523230269436,-9.81475237398391 -36.17503565714009,-9.81477098957956 -36.17482889245524,-9.81478967309674 -36.17460966867081,-9.81480995434968 -36.17437107444086,-9.81483299965665 -36.17411324796215,-9.81485664542377 -36.17385101577015,-9.81487849000451 -36.17361267405104,-9.81489546154615 -36.17342333668963,-9.81490956466595 -36.17326331454706,-9.81491844453691 -36.17316153056811,-9.81492576157852 -36.17321156354157,-9.81489407548421 -36.17333632619180,-9.81482103091972 -36.17344629265659,-9.81469420229013 -36.17352266730679,-9.81452789395619 -36.17360977435447,-9.81434637685817 -36.17370463344098,-9.81415519444700 -36.17379872991150,-9.81398218916886 -36.17391935863697,-9.81383639943470 -36.17404658814649,-9.81369918823511 -36.17415451676809,-9.81355658383224 -36.17421481720522,-9.81340376636325 -36.17424374760481,-9.81323805645923 -36.17425539132267,-9.81307203480758 -36.17426899640577,-9.81293539708427 -36.17428872553499,-9.81283619657325 -36.17430381832943,-9.81279478196917 -36.17431568169967,-9.81275859066753 -36.17436107284128,-9.81264625897902 -36.17442631345280,-9.81249605375761 -36.17450538156069,-9.81235240367163 -36.17461395017521,-9.81222880792565 -36.17469484382711,-9.81209451092573 -36.17474827679860,-9.81194574089308 -36.17479057693515,-9.81180019607161 -36.17480475340813,-9.81166914988807 -36.17479048180506,-9.81152761977196 -36.17476358218849,-9.81137230426437 -36.17475256120039,-9.81123598613645 -36.17477484038995,-9.81113035644157 -36.17482288548715,-9.81104890959673 -36.17493091285584,-9.81101616722858 -36.17510920254418,-9.81103926999992 -36.17529690383580,-9.81103774640582 -36.17547947270780,-9.81096564191637 -36.17562662292989,-9.81086462288194 -36.17568706245229,-9.81082276916835 -36.17572278674931,-9.81079245843078 -36.17575663343901,-9.81076269900161 -36.17578469023174,-9.81072747459811 -36.17581019311496,-9.81068925731367 -36.17583351780755,-9.81063015219109 -36.17584450720354,-9.81060164326621 -36.17588684060373,-9.81046288879448 -36.17593653531230,-9.81029151450640 -36.17601300380092,-9.81013214327874 -36.17612208890086,-9.81001176479211 -36.17628133281405,-9.80992844388425 -36.17646422741384,-9.80985868030902 -36.17661411319645,-9.80978869343554 -36.17674023551086,-9.80970157018786 -36.17686100756130,-9.80955112002524 -36.17698068537539,-9.80934558498552 -36.17710282528852,-9.80915472912310 -36.17717368050700,-9.80903287610274 -36.17725682703065,-9.80887927209437 -36.17727939252294,-9.80883380017567 -36.17730121054022,-9.80880129974687 -36.17732656383640,-9.80876902705761 -36.17735007156209,-9.80874447908958 -36.17736201630022,-9.80874412908627 -36.17734956130938,-9.80878283227992 -36.17733735745048,-9.80881172180068 -36.17727390387845,-9.80895505770897 -36.17721406378294,-9.80909235378378 -36.17715732963052,-9.80922491426236 -36.17709934169754,-9.80936488978310 -36.17704194281598,-9.80950943505428 -36.17699283741511,-9.80963488737482 -36.17697203104444,-9.80968595639974 -36.17693809741950,-9.80976461895012 -36.17689558480315,-9.80986161283208 -36.17684568036508,-9.80998150181370 -36.17680688078880,-9.81007561700810 -36.17676053447708,-9.81017564215213 -36.17670784361879,-9.81027600172503 -36.17664773915662,-9.81038457377067 -36.17664192300068,-9.81039364883555 -36.17661585403608,-9.81043839439044 -36.17659424934333,-9.81047429864421 -36.17656660569136,-9.81051021491614
          </coordinates>
        </LinearRing>
      </outerBoundaryIs>
    </Polygon>
  </Placemark>
</Document>
</kml>
