<?xml version="1.0" encoding="UTF-8"?>
<kml xmlns="http://www.opengis.net/kml/2.2" xmlns:gx="http://www.google.com/kml/ext/2.2" xmlns:kml="http://www.opengis.net/kml/2.2" xmlns:atom="http://www.w3.org/2005/Atom">
<Document>
  <name>1013.kml</name>
  <StyleMap id="FF0040FF">
    <Pair>
      <key>normal</key>
      <styleUrl>#s_FF0040FF</styleUrl>
    </Pair>
    <Pair>
      <key>highlight</key>
      <styleUrl>#s_FF0040FF_hl</styleUrl>
    </Pair>
  </StyleMap>
  <Style id="s_FF0040FF">
   <IconStyle>
      <scale>1.1</scale>
      <Icon>
        <href>http://maps.google.com/mapfiles/kml/pushpin/agrocad.png</href>
      </Icon>
      <hotSpot x="20" y="2" xunits="pixels" yunits="pixels"/>
    </IconStyle>
    <LineStyle>
      <color>FF0040FF</color>
      <width>1</width>
    </LineStyle>
    <PolyStyle>
      <color>40ffffff</color>
      <fill>1</fill>
    </PolyStyle>
  </Style>
  <Style id="s_FF0040FF_hl">
    <IconStyle>
      <scale>1.3</scale>
      <Icon>
        <href>http://maps.google.com/mapfiles/kml/pushpin/agrocad.png</href>
      </Icon>
      <hotSpot x="20" y="2" xunits="pixels" yunits="pixels"/>
    </IconStyle>
    <LineStyle>
      <color>ff000000</color>
      <width>1</width>
    </LineStyle>
    <PolyStyle>
      <color>40ffffff</color>
      <fill>1</fill>
    </PolyStyle>
  </Style>
  <Placemark>
    <name>AgroCAD: 81DD</name>
    <styleUrl>FF0040FF</styleUrl>
    <Polygon>
      <outerBoundaryIs>
        <LinearRing>
          <coordinates>
           -36.17520867596768,-9.81067723917522 -36.17570207607688,-9.81063583145542 -36.17571517413707,-9.81059841504343 -36.17573461457393,-9.81055833294773 -36.17575324446400,-9.81051761411043 -36.17576885029650,-9.81047606966958 -36.17577348088073,-9.81046138609930 -36.17581023279483,-9.81035186171603 -36.17585412642011,-9.81021793276985 -36.17591488261926,-9.81008826609990 -36.17603180891188,-9.80994512465932 -36.17615241980321,-9.80986836115131 -36.17630054278001,-9.80982187350681 -36.17643391411295,-9.80977120523617 -36.17657024028876,-9.80970888754753 -36.17667263634066,-9.80962564795016 -36.17676209948226,-9.80948362449869 -36.17685995748264,-9.80934042235872 -36.17696678770600,-9.80918704746136 -36.17707331543527,-9.80901252384268 -36.17716234974063,-9.80884488454496 -36.17724869724773,-9.80869846091375 -36.17729084542632,-9.80863163815859 -36.17730112519977,-9.80861623533465 -36.17732313058692,-9.80858291772629 -36.17733841223841,-9.80855255326844 -36.17733923859376,-9.80852199216379 -36.17733432126211,-9.80851194252250 -36.17677069458075,-9.80855735694110 -36.17520867596768,-9.81067723917522
          </coordinates>
        </LinearRing>
      </outerBoundaryIs>
    </Polygon>
  </Placemark>
  <Placemark>
    <name>AgroCAD: 81CE</name>
    <styleUrl>FF0040FF</styleUrl>
    <Polygon>
      <outerBoundaryIs>
        <LinearRing>
          <coordinates>
           -36.17149833094657,-9.80898010604566 -36.17672862591466,-9.80857183750174 -36.17514743246250,-9.81069335444902 -36.17164526693688,-9.81097768656950 -36.17149833094657,-9.80898010604566
          </coordinates>
        </LinearRing>
      </outerBoundaryIs>
    </Polygon>
  </Placemark>
</Document>
</kml>
