<?xml version="1.0" encoding="UTF-8"?>
<kml xmlns="http://www.opengis.net/kml/2.2" xmlns:gx="http://www.google.com/kml/ext/2.2" xmlns:kml="http://www.opengis.net/kml/2.2" xmlns:atom="http://www.w3.org/2005/Atom">
<Document>
  <name>57.kml</name>
  <StyleMap id="FFFF0000">
    <Pair>
      <key>normal</key>
      <styleUrl>#s_FFFF0000</styleUrl>
    </Pair>
    <Pair>
      <key>highlight</key>
      <styleUrl>#s_FFFF0000_hl</styleUrl>
    </Pair>
  </StyleMap>
  <Style id="s_FFFF0000">
   <IconStyle>
      <scale>1.1</scale>
      <Icon>
        <href>http://maps.google.com/mapfiles/kml/pushpin/agrocad.png</href>
      </Icon>
      <hotSpot x="20" y="2" xunits="pixels" yunits="pixels"/>
    </IconStyle>
    <LineStyle>
      <color>FFFF0000</color>
      <width>1</width>
    </LineStyle>
    <PolyStyle>
      <color>40ffffff</color>
      <fill>1</fill>
    </PolyStyle>
  </Style>
  <Style id="s_FFFF0000_hl">
    <IconStyle>
      <scale>1.3</scale>
      <Icon>
        <href>http://maps.google.com/mapfiles/kml/pushpin/agrocad.png</href>
      </Icon>
      <hotSpot x="20" y="2" xunits="pixels" yunits="pixels"/>
    </IconStyle>
    <LineStyle>
      <color>ff000000</color>
      <width>1</width>
    </LineStyle>
    <PolyStyle>
      <color>40ffffff</color>
      <fill>1</fill>
    </PolyStyle>
  </Style>
  <Placemark>
    <name>AgroCAD: 141FC</name>
    <styleUrl>FFFF0000</styleUrl>
    <Polygon>
      <outerBoundaryIs>
        <LinearRing>
          <coordinates>
           -36.33571335028195,-9.72888484344376 -36.33548230455853,-9.72847211031601 -36.33546325296253,-9.72843163965749 -36.33543951238523,-9.72838996039367 -36.33539951309543,-9.72832405815253 -36.33536371766073,-9.72827337176853 -36.33534103219023,-9.72823845975977 -36.33529861722113,-9.72817724655683 -36.33526860483982,-9.72813809114851 -36.33524561879062,-9.72810578058794 -36.33522128087343,-9.72807195449452 -36.33519795225442,-9.72803611905935 -36.33517288655183,-9.72800094466356 -36.33515116053352,-9.72797156291067 -36.33513000215462,-9.72794029186160 -36.33510882853722,-9.72790670970532 -36.33508605671742,-9.72787121593593 -36.33506447444081,-9.72783643995841 -36.33504182223982,-9.72780301131488 -36.33490188220561,-9.72756572025165 -36.33479685573422,-9.72736386114857 -36.33481600362721,-9.72733574932824 -36.33482355530400,-9.72729059152543 -36.33483825981481,-9.72706749641817 -36.33484330532221,-9.72705268903164 -36.33483754219702,-9.72699943290039 -36.33480808427282,-9.72666606197845 -36.33590653869174,-9.72696372868015 -36.33679818808167,-9.72720621853046 -36.33774772061450,-9.72746319979709 -36.33843426911122,-9.72764913740281 -36.33883956605524,-9.72775869341653 -36.33878146582453,-9.72790793848018 -36.33880958271714,-9.72812337712021 -36.33892590926754,-9.72838141200568 -36.33903259584765,-9.72857896472494 -36.33915307525246,-9.72875272043257 -36.33932945819166,-9.72898318595276 -36.33935426890635,-9.72902021438357 -36.33938972508217,-9.72911740265021 -36.33939884607257,-9.72922309467388 -36.33936162892696,-9.72971364874706 -36.33935198945777,-9.73040668895363 -36.33936408685916,-9.73047293765665 -36.33945882653907,-9.73083690900712 -36.33946634191096,-9.73090984276817 -36.33946283330015,-9.73101159986645 -36.33944331055916,-9.73115255654375 -36.33941602087185,-9.73122400283035 -36.33912018908185,-9.73186402394441 -36.33794509475452,-9.73182369519956 -36.33792176786101,-9.73178561360525 -36.33792131269381,-9.73178549868165 -36.33770365887791,-9.73147715273445 -36.33769315153930,-9.73145881132421 -36.33764694051070,-9.73140503332775 -36.33760434243261,-9.73136058001956 -36.33755734079490,-9.73131797580003 -36.33747184969129,-9.73125629333893 -36.33708321313538,-9.73097281994361 -36.33685122674457,-9.73077548003738 -36.33679022257878,-9.73071411462670 -36.33672052596418,-9.73063190449300 -36.33666775774648,-9.73055340951214 -36.33663846139417,-9.73050783060354 -36.33614836896865,-9.72965633835770 -36.33571335028195,-9.72888484344376 -36.33571335028195,-9.72888484344376 -36.33571335028195,-9.72888484344376
          </coordinates>
        </LinearRing>
      </outerBoundaryIs>
    </Polygon>
  </Placemark>
</Document>
</kml>
