<?xml version="1.0" encoding="UTF-8"?>
<kml xmlns="http://www.opengis.net/kml/2.2" xmlns:gx="http://www.google.com/kml/ext/2.2" xmlns:kml="http://www.opengis.net/kml/2.2" xmlns:atom="http://www.w3.org/2005/Atom">
<Document>
  <name>61.kml</name>
  <StyleMap id="FFFF4000">
    <Pair>
      <key>normal</key>
      <styleUrl>#s_FFFF4000</styleUrl>
    </Pair>
    <Pair>
      <key>highlight</key>
      <styleUrl>#s_FFFF4000_hl</styleUrl>
    </Pair>
  </StyleMap>
  <Style id="s_FFFF4000">
   <IconStyle>
      <scale>1.1</scale>
      <Icon>
        <href>http://maps.google.com/mapfiles/kml/pushpin/agrocad.png</href>
      </Icon>
      <hotSpot x="20" y="2" xunits="pixels" yunits="pixels"/>
    </IconStyle>
    <LineStyle>
      <color>FFFF4000</color>
      <width>1</width>
    </LineStyle>
    <PolyStyle>
      <color>40ffffff</color>
      <fill>1</fill>
    </PolyStyle>
  </Style>
  <Style id="s_FFFF4000_hl">
    <IconStyle>
      <scale>1.3</scale>
      <Icon>
        <href>http://maps.google.com/mapfiles/kml/pushpin/agrocad.png</href>
      </Icon>
      <hotSpot x="20" y="2" xunits="pixels" yunits="pixels"/>
    </IconStyle>
    <LineStyle>
      <color>ff000000</color>
      <width>1</width>
    </LineStyle>
    <PolyStyle>
      <color>40ffffff</color>
      <fill>1</fill>
    </PolyStyle>
  </Style>
  <Placemark>
    <name>AgroCAD: 162A9</name>
    <styleUrl>FFFF4000</styleUrl>
    <Polygon>
      <outerBoundaryIs>
        <LinearRing>
          <coordinates>
           -36.25627033090307,-9.82709555230028 -36.25517078918043,-9.82745412719808 -36.25522726789833,-9.82765930306078 -36.25523692351042,-9.82776634459298 -36.25524553086013,-9.82779604186039 -36.25525069875023,-9.82782639439267 -36.25526829623123,-9.82785025055655 -36.25529004395583,-9.82787279555355 -36.25531859818972,-9.82788024396655 -36.25534965937574,-9.82788637070022 -36.25538254738643,-9.82788720908950 -36.25541740054134,-9.82788472139449 -36.25545411269403,-9.82788576628101 -36.25548867672214,-9.82788253353970 -36.25552353073013,-9.82788148805154 -36.25555736498175,-9.82788146982137 -36.25559212227765,-9.82788140516097 -36.25562464724364,-9.82788061253960 -36.25565779020654,-9.82788180531261 -36.25569342526545,-9.82788267595538 -36.25572846822755,-9.82788452633892 -36.25576379938925,-9.82788825905704 -36.25579745042375,-9.82789094310422 -36.25583353896136,-9.82789425379831 -36.25586936071004,-9.82789835140682 -36.25590501196746,-9.82790177338389 -36.25594102219515,-9.82790527537507 -36.25597452779265,-9.82790815809589 -36.25600719020636,-9.82791359649188 -36.25604147318596,-9.82792081194404 -36.25607879109677,-9.82792540161410 -36.25611323152847,-9.82793185994396 -36.25614871430236,-9.82794002603513 -36.25618026126546,-9.82794684745536 -36.25621557647506,-9.82795737244589 -36.25625063273277,-9.82796900599077 -36.25628406898326,-9.82798045518451 -36.25631624044287,-9.82799475058180 -36.25634755548997,-9.82800994880957 -36.25637690569547,-9.82802028336988 -36.25637906398487,-9.82802082137895 -36.25646738551068,-9.82799911056725 -36.25645690921118,-9.82793564495777 -36.25644223178928,-9.82784633568002 -36.25634658721987,-9.82744792490502 -36.25627033090307,-9.82709555230028 -36.25627033090307,-9.82709555230028 -36.25627033090307,-9.82709555230028
          </coordinates>
        </LinearRing>
      </outerBoundaryIs>
    </Polygon>
  </Placemark>
</Document>
</kml>
