<?xml version="1.0" encoding="UTF-8"?>
<kml xmlns="http://www.opengis.net/kml/2.2" xmlns:gx="http://www.google.com/kml/ext/2.2" xmlns:kml="http://www.opengis.net/kml/2.2" xmlns:atom="http://www.w3.org/2005/Atom">
<Document>
  <name>49.kml</name>
  <StyleMap id="FFFF4000">
    <Pair>
      <key>normal</key>
      <styleUrl>#s_FFFF4000</styleUrl>
    </Pair>
    <Pair>
      <key>highlight</key>
      <styleUrl>#s_FFFF4000_hl</styleUrl>
    </Pair>
  </StyleMap>
  <Style id="s_FFFF4000">
   <IconStyle>
      <scale>1.1</scale>
      <Icon>
        <href>http://maps.google.com/mapfiles/kml/pushpin/agrocad.png</href>
      </Icon>
      <hotSpot x="20" y="2" xunits="pixels" yunits="pixels"/>
    </IconStyle>
    <LineStyle>
      <color>FFFF4000</color>
      <width>1</width>
    </LineStyle>
    <PolyStyle>
      <color>40ffffff</color>
      <fill>1</fill>
    </PolyStyle>
  </Style>
  <Style id="s_FFFF4000_hl">
    <IconStyle>
      <scale>1.3</scale>
      <Icon>
        <href>http://maps.google.com/mapfiles/kml/pushpin/agrocad.png</href>
      </Icon>
      <hotSpot x="20" y="2" xunits="pixels" yunits="pixels"/>
    </IconStyle>
    <LineStyle>
      <color>ff000000</color>
      <width>1</width>
    </LineStyle>
    <PolyStyle>
      <color>40ffffff</color>
      <fill>1</fill>
    </PolyStyle>
  </Style>
  <Placemark>
    <name>AgroCAD: 162D9</name>
    <styleUrl>FFFF4000</styleUrl>
    <Polygon>
      <outerBoundaryIs>
        <LinearRing>
          <coordinates>
           -36.25867916585316,-9.82735846519788 -36.25852000095346,-9.82675339802252 -36.25846399575794,-9.82653345484513 -36.25841114757904,-9.82632930058975 -36.25862237074045,-9.82625736155113 -36.25879910516366,-9.82618590341081 -36.25903210170997,-9.82610476741020 -36.25903517444358,-9.82611755717713 -36.25904253030946,-9.82616002739692 -36.25906347574617,-9.82623535684520 -36.25912052323068,-9.82647280781186 -36.25914167245177,-9.82655327142498 -36.25916154595307,-9.82663786924223 -36.25920016602667,-9.82678639153332 -36.25921972804178,-9.82685023892686 -36.25924151374718,-9.82693312399555 -36.25972695550349,-9.82681250102487 -36.26046595879702,-9.82663331032348 -36.26055547195593,-9.82696942563788 -36.26061952563871,-9.82719813490724 -36.26074487319803,-9.82781175070226 -36.26086000546614,-9.82833028914388 -36.26094759915913,-9.82874611425689 -36.26093292639134,-9.82882714387419 -36.26090295195793,-9.82888653739485 -36.26088565114793,-9.82889931901853 -36.26086430567244,-9.82892355881869 -36.26083734968843,-9.82894999241408 -36.26081148463383,-9.82897369573202 -36.26078364375253,-9.82899812284189 -36.26075377017283,-9.82902168300286 -36.26072417879243,-9.82904266315316 -36.26069233147462,-9.82906125012598 -36.26065872667593,-9.82907837002120 -36.26062420375762,-9.82909265135961 -36.26058905252102,-9.82910897573146 -36.26055917661822,-9.82913299359210 -36.26053110662852,-9.82915894875296 -36.26050163427692,-9.82918507359615 -36.26047505029122,-9.82921070726090 -36.26044558380612,-9.82923359203333 -36.26041799338661,-9.82925768236434 -36.26039191697342,-9.82927976861220 -36.26036227039722,-9.82930018764477 -36.26032772756391,-9.82931492493516 -36.26029028664731,-9.82932677188534 -36.26025167806601,-9.82933485048497 -36.26021439409731,-9.82933847015058 -36.26017902010641,-9.82934006153998 -36.26014579953200,-9.82934165258175 -36.26011167514201,-9.82933992583846 -36.26007468367801,-9.82933471846629 -36.26003879272270,-9.82932674313679 -36.26000576635380,-9.82931636495945 -36.25997265713309,-9.82929736277291 -36.25994059192109,-9.82929225250507 -36.25990972442941,-9.82928328987634 -36.25987490550491,-9.82926918912934 -36.25983963282989,-9.82925541536457 -36.25980760043969,-9.82923781473686 -36.25977680421079,-9.82922245043393 -36.25975144347750,-9.82920502316706 -36.25972587763409,-9.82918993324255 -36.25970105988079,-9.82916982436160 -36.25968007724229,-9.82914828292619 -36.25965322494880,-9.82912928947765 -36.25960663152830,-9.82912213362237 -36.25958199773759,-9.82912032091751 -36.25953798089137,-9.82910666692802 -36.25950377340119,-9.82909391529946 -36.25946973895707,-9.82908158609243 -36.25943865144728,-9.82906747883881 -36.25940964214458,-9.82904926324689 -36.25937978517588,-9.82903152385079 -36.25934879908538,-9.82901346626404 -36.25931895230087,-9.82899575759515 -36.25928712165027,-9.82897685355291 -36.25925609781998,-9.82895599613073 -36.25922179328958,-9.82894109832164 -36.25919171706718,-9.82892287701479 -36.25916137922277,-9.82890723856000 -36.25912853582427,-9.82888712532073 -36.25910163635717,-9.82886465172254 -36.25907689189447,-9.82884243575276 -36.25905588147947,-9.82881909901288 -36.25904569026657,-9.82878830198097 -36.25904132102947,-9.82877093901042 -36.25904256270668,-9.82877023040763 -36.25903215740717,-9.82873060872378 -36.25903056012037,-9.82872305580747 -36.25902518757777,-9.82869214747642 -36.25901882072037,-9.82865926897065 -36.25901259301958,-9.82862465445059 -36.25900625761656,-9.82859118326854 -36.25899730720956,-9.82855910475554 -36.25898922279047,-9.82852452661520 -36.25898097353666,-9.82849080767764 -36.25897260863736,-9.82845659360431 -36.25896244341866,-9.82842194879543 -36.25883787271106,-9.82795196013461 -36.25867916585316,-9.82735846519788 -36.25867916585316,-9.82735846519788 -36.25867916585316,-9.82735846519788
          </coordinates>
        </LinearRing>
      </outerBoundaryIs>
    </Polygon>
  </Placemark>
</Document>
</kml>
