<?xml version="1.0" encoding="UTF-8"?>
<kml xmlns="http://www.opengis.net/kml/2.2" xmlns:gx="http://www.google.com/kml/ext/2.2" xmlns:kml="http://www.opengis.net/kml/2.2" xmlns:atom="http://www.w3.org/2005/Atom">
<Document>
  <name>3002.kml</name>
  <StyleMap id="FF0040FF">
    <Pair>
      <key>normal</key>
      <styleUrl>#s_FF0040FF</styleUrl>
    </Pair>
    <Pair>
      <key>highlight</key>
      <styleUrl>#s_FF0040FF_hl</styleUrl>
    </Pair>
  </StyleMap>
  <Style id="s_FF0040FF">
   <IconStyle>
      <scale>1.1</scale>
      <Icon>
        <href>http://maps.google.com/mapfiles/kml/pushpin/agrocad.png</href>
      </Icon>
      <hotSpot x="20" y="2" xunits="pixels" yunits="pixels"/>
    </IconStyle>
    <LineStyle>
      <color>FF0040FF</color>
      <width>1</width>
    </LineStyle>
    <PolyStyle>
      <color>40ffffff</color>
      <fill>1</fill>
    </PolyStyle>
  </Style>
  <Style id="s_FF0040FF_hl">
    <IconStyle>
      <scale>1.3</scale>
      <Icon>
        <href>http://maps.google.com/mapfiles/kml/pushpin/agrocad.png</href>
      </Icon>
      <hotSpot x="20" y="2" xunits="pixels" yunits="pixels"/>
    </IconStyle>
    <LineStyle>
      <color>ff000000</color>
      <width>1</width>
    </LineStyle>
    <PolyStyle>
      <color>40ffffff</color>
      <fill>1</fill>
    </PolyStyle>
  </Style>
  <Placemark>
    <name>AgroCAD: 822C</name>
    <styleUrl>FF0040FF</styleUrl>
    <Polygon>
      <outerBoundaryIs>
        <LinearRing>
          <coordinates>
           -36.24912726734998,-9.82161404254518 -36.24919353745057,-9.82162350966584 -36.24953780146017,-9.82168805917254 -36.24962608307787,-9.82169140226243 -36.24975831168985,-9.82218980133463 -36.24986563754916,-9.82256544214089 -36.25008052304531,-9.82332828557964 -36.25011367246165,-9.82340563426585 -36.25010099098437,-9.82347077063515 -36.25010099098058,-9.82353950325936 -36.25016600062390,-9.82375620211309 -36.25021254900818,-9.82394239568892 -36.25009701803104,-9.82411569217239 -36.24983956076676,-9.82442678636201 -36.24977521547203,-9.82450185584440 -36.24966786601529,-9.82460920530092 -36.24958203532651,-9.82475940900590 -36.24943189271734,-9.82490955161468 -36.24930300147766,-9.82505992472726 -36.24930179223921,-9.82506387275593 -36.24911895795001,-9.82508537718973 -36.24897974747628,-9.82510679415639 -36.24880710490591,-9.82512201954836 -36.24870931792054,-9.82510741048777 -36.24849977968699,-9.82498168755236 -36.24834964936628,-9.82483155723852 -36.24807035934321,-9.82465968646445 -36.24781310790791,-9.82442387265928 -36.24767918874442,-9.82433474135328 -36.24754723508165,-9.82429127942120 -36.24718012017664,-9.82429127942806 -36.24685751143410,-9.82426977218182 -36.24606520071728,-9.82433401360725 -36.24593809602298,-9.82430272545549 -36.24583690510846,-9.82425082490393 -36.24569036305854,-9.82415485703378 -36.24560645089787,-9.82406262060486 -36.24545767875150,-9.82380758266376 -36.24530788242810,-9.82347589086591 -36.24526534148059,-9.82338017372596 -36.24520153575144,-9.82318875657117 -36.24515877895393,-9.82299635103121 -36.24514851171112,-9.82295446819767 -36.24513438365565,-9.82292485748657 -36.24511715489748,-9.82291017100776 -36.24511624952436,-9.82289095042898 -36.24509502345458,-9.82278482011045 -36.24511656965264,-9.82252626555515 -36.24499730549813,-9.82215763101061 -36.24494513898614,-9.82202035072320 -36.24523945826557,-9.82172603143042 -36.24545327797005,-9.82153359369472 -36.24551605689623,-9.82148351790864 -36.24553757225458,-9.82147354689047 -36.24563414509501,-9.82147354689062 -36.24707136546081,-9.82153790006412 -36.24840154095888,-9.82160226341668 -36.24872384931793,-9.82162375064551 -36.24902574460055,-9.82162375065031 -36.24912726734997,-9.82161404254518 -36.24912726734998,-9.82161404254518
          </coordinates>
        </LinearRing>
      </outerBoundaryIs>
    </Polygon>
  </Placemark>
  <Placemark>
    <name>AgroCAD: 822A</name>
    <styleUrl>FF0040FF</styleUrl>
    <Polygon>
      <outerBoundaryIs>
        <LinearRing>
          <coordinates>
           -36.24488534994403,-9.82188122640028 -36.24472869643603,-9.82153435073930 -36.24469788353389,-9.82145537062206 -36.24484762572232,-9.82143492374521 -36.24503370313468,-9.82143492374482 -36.24528946328341,-9.82145623709170 -36.24520472045065,-9.82156216563184 -36.24514042856681,-9.82162645751554 -36.24505457638508,-9.82169084665170 -36.24488534994404,-9.82188122640028 -36.24488534994403,-9.82188122640028
          </coordinates>
        </LinearRing>
      </outerBoundaryIs>
    </Polygon>
  </Placemark>
</Document>
</kml>
