<?xml version="1.0" encoding="UTF-8"?>
<kml xmlns="http://www.opengis.net/kml/2.2" xmlns:gx="http://www.google.com/kml/ext/2.2" xmlns:kml="http://www.opengis.net/kml/2.2" xmlns:atom="http://www.w3.org/2005/Atom">
<Document>
  <name>3009.kml</name>
  <StyleMap id="FFFF4000">
    <Pair>
      <key>normal</key>
      <styleUrl>#s_FFFF4000</styleUrl>
    </Pair>
    <Pair>
      <key>highlight</key>
      <styleUrl>#s_FFFF4000_hl</styleUrl>
    </Pair>
  </StyleMap>
  <Style id="s_FFFF4000">
   <IconStyle>
      <scale>1.1</scale>
      <Icon>
        <href>http://maps.google.com/mapfiles/kml/pushpin/agrocad.png</href>
      </Icon>
      <hotSpot x="20" y="2" xunits="pixels" yunits="pixels"/>
    </IconStyle>
    <LineStyle>
      <color>FFFF4000</color>
      <width>1</width>
    </LineStyle>
    <PolyStyle>
      <color>40ffffff</color>
      <fill>1</fill>
    </PolyStyle>
  </Style>
  <Style id="s_FFFF4000_hl">
    <IconStyle>
      <scale>1.3</scale>
      <Icon>
        <href>http://maps.google.com/mapfiles/kml/pushpin/agrocad.png</href>
      </Icon>
      <hotSpot x="20" y="2" xunits="pixels" yunits="pixels"/>
    </IconStyle>
    <LineStyle>
      <color>ff000000</color>
      <width>1</width>
    </LineStyle>
    <PolyStyle>
      <color>40ffffff</color>
      <fill>1</fill>
    </PolyStyle>
  </Style>
  <Placemark>
    <name>AgroCAD: 931D</name>
    <styleUrl>FFFF4000</styleUrl>
    <Polygon>
      <outerBoundaryIs>
        <LinearRing>
          <coordinates>
           -36.23292322948784,-9.83439147926043 -36.23269051483795,-9.83370780603151 -36.23373213502001,-9.83241905270013 -36.23397793014115,-9.83211221318875 -36.23416597647253,-9.83183986269607 -36.23422699053624,-9.83172438953626 -36.23427954353076,-9.83157968510183 -36.23429744061187,-9.83147341962081 -36.23428534907435,-9.83137331870319 -36.23424629089084,-9.83124459922923 -36.23421650205851,-9.83114912199332 -36.23387988515843,-9.83010552474899 -36.23384397168106,-9.83000050530887 -36.23386898308343,-9.82996709736089 -36.23423393608739,-9.82943843462405 -36.23457801171916,-9.82898558474250 -36.23466166198266,-9.82888183288583 -36.23467601888581,-9.82892977119677 -36.23527163207643,-9.83068287572722 -36.23545694065991,-9.83124689140861 -36.23568300779153,-9.83193494736771 -36.23572821909487,-9.83206969489486 -36.23582824667212,-9.83236391082529 -36.23292322948784,-9.83439147926043
          </coordinates>
        </LinearRing>
      </outerBoundaryIs>
    </Polygon>
  </Placemark>
  <Placemark>
    <name>AgroCAD: 9319</name>
    <styleUrl>FFFF4000</styleUrl>
    <Polygon>
      <outerBoundaryIs>
        <LinearRing>
          <coordinates>
           -36.23273265904309,-9.83346508595834 -36.23364567024505,-9.83232704038204 -36.23385641996600,-9.83205030644204 -36.23406046485013,-9.83174643777585 -36.23409669549590,-9.83168275275482 -36.23413878176565,-9.83159859573647 -36.23416326884790,-9.83151250320948 -36.23416590389979,-9.83140683936797 -36.23415790020746,-9.83135940969331 -36.23412794755236,-9.83125668981374 -36.23376674204866,-9.83016604915995 -36.23370813057782,-9.82999103238834 -36.23376182317638,-9.82988302896455 -36.23413481670566,-9.82936646721280 -36.23439513242167,-9.82901137985162 -36.23439395496304,-9.82899395947320 -36.23439392476481,-9.82899350874855 -36.23172296948260,-9.83086531568602 -36.23264527617139,-9.83357490287436 -36.23273265904309,-9.83346508595834
          </coordinates>
        </LinearRing>
      </outerBoundaryIs>
    </Polygon>
  </Placemark>
</Document>
</kml>
