<?xml version="1.0" encoding="utf-8" ?>
<kml xmlns="http://www.opengis.net/kml/2.2">
<Document id="root_doc">
<Schema name="PIMENTEIRA_TALHAO_1003_ID_96" id="PIMENTEIRA_TALHAO_1003_ID_96">
	<SimpleField name="ID" type="float"></SimpleField>
	<SimpleField name="AREA_TOTAL" type="float"></SimpleField>
	<SimpleField name="FAZENDA" type="float"></SimpleField>
	<SimpleField name="FAZ_NOME" type="string"></SimpleField>
	<SimpleField name="TALHAO" type="float"></SimpleField>
	<SimpleField name="ZONA" type="float"></SimpleField>
	<SimpleField name="ACIONISTA" type="string"></SimpleField>
	<SimpleField name="CODE" type="string"></SimpleField>
</Schema>
<Folder><name>PIMENTEIRA_TALHAO_1003_ID_96</name>
  <Placemark id="PIMENTEIRA_TALHAO_1003_ID_96.1">
	<Style><LineStyle><color>ff0000ff</color></LineStyle><PolyStyle><fill>0</fill></PolyStyle></Style>
	<ExtendedData><SchemaData schemaUrl="#PIMENTEIRA_TALHAO_1003_ID_96">
		<SimpleData name="ID">96</SimpleData>
		<SimpleData name="AREA_TOTAL">11.41</SimpleData>
		<SimpleData name="FAZENDA">576</SimpleData>
		<SimpleData name="FAZ_NOME">PIMENTEIRA</SimpleData>
		<SimpleData name="TALHAO">1003</SimpleData>
		<SimpleData name="ZONA">1</SimpleData>
		<SimpleData name="ACIONISTA">KAROLINE ROSE CALHEIROS</SimpleData>
		<SimpleData name="CODE"></SimpleData>
	</SchemaData></ExtendedData>
      <MultiGeometry><Polygon><outerBoundaryIs><LinearRing><coordinates>-36.3688550306966,-9.78577171042775,0 -36.3688334851912,-9.78689266660922,0 -36.3688161259718,-9.78759710656433,0 -36.3688104723714,-9.78767923484038,0 -36.3688089515828,-9.78771220744295,0 -36.368822583568,-9.78773208283001,0 -36.3688532441462,-9.7877416125632,0 -36.3688806947279,-9.7877528155277,0 -36.3689115533408,-9.78776222826998,0 -36.3689447138207,-9.7877677407089,0 -36.3709681648392,-9.78797413540094,0 -36.3709868315435,-9.78797383132406,0 -36.3710256795386,-9.78797841157023,0 -36.3710616844647,-9.78797700641602,0 -36.3710945043665,-9.78797532961823,0 -36.3711159201451,-9.78795299583367,0 -36.3711249359747,-9.78791582562763,0 -36.3711279237716,-9.78787904376953,0 -36.3711311423951,-9.78784215069234,0 -36.3711493665442,-9.78663380928705,0 -36.3711815329277,-9.78538176484106,0 -36.3712100621325,-9.78454188640691,0 -36.371205126455,-9.78447532901414,0 -36.3711816853788,-9.78437082790606,0 -36.3711042195266,-9.78424415894391,0 -36.3710757628404,-9.78422408299086,0 -36.3710457562156,-9.7842090237079,0 -36.3710182089445,-9.78419165232907,0 -36.3709871167907,-9.78417764293051,0 -36.3708949718515,-9.78414700844572,0 -36.3708553535832,-9.78412632011817,0 -36.370820611991,-9.78411457921828,0 -36.3689566251407,-9.78339131711732,0 -36.3689282165726,-9.78337411459008,0 -36.3689107490201,-9.78336907618724,0 -36.3689035797523,-9.78338405293216,0 -36.3688983137933,-9.78341538604228,0 -36.3688979187778,-9.78346764065316,0 -36.3688752669148,-9.78465358785686,0 -36.3688550306966,-9.78577171042775,0</coordinates></LinearRing></outerBoundaryIs></Polygon></MultiGeometry>
  </Placemark>
</Folder>
</Document></kml>
