<?xml version="1.0" encoding="utf-8" ?>
<kml xmlns="http://www.opengis.net/kml/2.2">
<Document id="root_doc">
<Schema name="PIMENTEIRA_TALHAO_1019_ID_92" id="PIMENTEIRA_TALHAO_1019_ID_92">
	<SimpleField name="ID" type="float"></SimpleField>
	<SimpleField name="AREA_TOTAL" type="float"></SimpleField>
	<SimpleField name="FAZENDA" type="float"></SimpleField>
	<SimpleField name="FAZ_NOME" type="string"></SimpleField>
	<SimpleField name="TALHAO" type="float"></SimpleField>
	<SimpleField name="ZONA" type="float"></SimpleField>
	<SimpleField name="ACIONISTA" type="string"></SimpleField>
	<SimpleField name="CODE" type="string"></SimpleField>
</Schema>
<Folder><name>PIMENTEIRA_TALHAO_1019_ID_92</name>
  <Placemark id="PIMENTEIRA_TALHAO_1019_ID_92.1">
	<Style><LineStyle><color>ff0000ff</color></LineStyle><PolyStyle><fill>0</fill></PolyStyle></Style>
	<ExtendedData><SchemaData schemaUrl="#PIMENTEIRA_TALHAO_1019_ID_92">
		<SimpleData name="ID">92</SimpleData>
		<SimpleData name="AREA_TOTAL">23.00</SimpleData>
		<SimpleData name="FAZ_NOME">PIMENTEIRA</SimpleData>
		<SimpleData name="TALHAO">1019</SimpleData>
		<SimpleData name="ZONA">1</SimpleData>
		<SimpleData name="ACIONISTA">KAROLINE ROSE CALHEIROS</SimpleData>
		<SimpleData name="CODE"></SimpleData>
	</SchemaData></ExtendedData>
      <MultiGeometry><Polygon><outerBoundaryIs><LinearRing><coordinates>-36.3678777330249,-9.79269579924214,0 -36.3691155567045,-9.79764724097695,0 -36.3695977526851,-9.79888329228418,0 -36.369604156161,-9.79889264054003,0 -36.3696310999056,-9.79890798514397,0 -36.3696670936928,-9.7989081697031,0 -36.3696978612702,-9.79889926860659,0 -36.3701316859108,-9.79871249474869,0 -36.3710760192208,-9.79828670632248,0 -36.371615213041,-9.79804938341292,0 -36.3718511711347,-9.79794433691712,0 -36.372000809577,-9.79787486212887,0 -36.3721551065068,-9.7978051381312,0 -36.3722289148029,-9.79776958751914,0 -36.3723390802317,-9.79771707624377,0 -36.3724091008624,-9.7976813195393,0 -36.3724431289154,-9.79766629070338,0 -36.3724778855856,-9.79764970228595,0 -36.3725468519345,-9.79761450307661,0 -36.3725835768207,-9.79759655282413,0 -36.3726453847345,-9.79755230172918,0 -36.3726676372761,-9.79754327954597,0 -36.3726960156258,-9.79752321650344,0 -36.3727182685412,-9.79749952530088,0 -36.3727194143748,-9.79747289267747,0 -36.3727033393552,-9.79744837866728,0 -36.3726388470931,-9.79731673642804,0 -36.3722618258472,-9.7965888076275,0 -36.3718600000085,-9.79580929869948,0 -36.3715606247379,-9.79521712355247,0 -36.3714297892979,-9.79495425878307,0 -36.3711538435725,-9.79439088492967,0 -36.3708659991826,-9.79383552279364,0 -36.3703831107254,-9.7928783902892,0 -36.3697930428408,-9.79170734932927,0 -36.3697604381384,-9.79164728328589,0 -36.3697409803835,-9.79161508759742,0 -36.3697224339727,-9.79158406376034,0 -36.369703120769,-9.79155750528719,0 -36.3696842545031,-9.79152721566234,0 -36.3696660499313,-9.7914969281801,0 -36.3696502621806,-9.79147135814185,0 -36.36962312991,-9.79145285307814,0 -36.3696017959142,-9.79145579310716,0 -36.3695755607681,-9.79147032660855,0 -36.3695675460793,-9.79147888710688,0 -36.3694282183474,-9.79156067908848,0 -36.3692357334562,-9.79168322829804,0 -36.3684274731225,-9.79219210318196,0 -36.3679159280231,-9.79250457682067,0 -36.3678908553487,-9.79252293586957,0 -36.3678623383982,-9.79254282327191,0 -36.3678495986129,-9.79257156073365,0 -36.3678539923378,-9.7926052670336,0 -36.3678627381409,-9.79264201175117,0 -36.3678719915184,-9.79267806515795,0 -36.3678777330249,-9.79269579924214,0</coordinates></LinearRing></outerBoundaryIs></Polygon></MultiGeometry>
  </Placemark>
</Folder>
</Document></kml>
