<?xml version="1.0" encoding="utf-8" ?>
<kml xmlns="http://www.opengis.net/kml/2.2">
<Document id="root_doc">
<Schema name="PIMENTEIRA_TALHAO_1001_ID_97" id="PIMENTEIRA_TALHAO_1001_ID_97">
	<SimpleField name="ID" type="float"></SimpleField>
	<SimpleField name="AREA_TOTAL" type="float"></SimpleField>
	<SimpleField name="FAZENDA" type="float"></SimpleField>
	<SimpleField name="FAZ_NOME" type="string"></SimpleField>
	<SimpleField name="TALHAO" type="float"></SimpleField>
	<SimpleField name="ZONA" type="float"></SimpleField>
	<SimpleField name="ACIONISTA" type="string"></SimpleField>
	<SimpleField name="CODE" type="string"></SimpleField>
</Schema>
<Folder><name>PIMENTEIRA_TALHAO_1001_ID_97</name>
  <Placemark id="PIMENTEIRA_TALHAO_1001_ID_97.1">
	<Style><LineStyle><color>ff0000ff</color></LineStyle><PolyStyle><fill>0</fill></PolyStyle></Style>
	<ExtendedData><SchemaData schemaUrl="#PIMENTEIRA_TALHAO_1001_ID_97">
		<SimpleData name="ID">97</SimpleData>
		<SimpleData name="AREA_TOTAL">17.45</SimpleData>
		<SimpleData name="FAZENDA">576</SimpleData>
		<SimpleData name="FAZ_NOME">PIMENTEIRA</SimpleData>
		<SimpleData name="TALHAO">1001</SimpleData>
		<SimpleData name="ZONA">1</SimpleData>
		<SimpleData name="ACIONISTA">KAROLINE ROSE CALHEIROS</SimpleData>
		<SimpleData name="CODE"></SimpleData>
	</SchemaData></ExtendedData>
      <MultiGeometry><Polygon><outerBoundaryIs><LinearRing><coordinates>-36.3668697317725,-9.78772602354024,0 -36.3672025728273,-9.78942208200246,0 -36.3678016653457,-9.79235982638403,0 -36.3678163645711,-9.79239813932915,0 -36.3678226147522,-9.79242696731841,0 -36.3678398852169,-9.79245067129213,0 -36.3678688970431,-9.79244498519197,0 -36.3679150327985,-9.79242707909423,0 -36.3683924965094,-9.79213868995418,0 -36.3692038024774,-9.79161648197377,0 -36.3693831666925,-9.79150506507354,0 -36.3696908460648,-9.79132381082681,0 -36.3698451215694,-9.79123561376347,0 -36.3700034071125,-9.79116018630015,0 -36.3701078049655,-9.7911149648958,0 -36.370615518155,-9.79093324492757,0 -36.3708494928741,-9.79084748540069,0 -36.370910176615,-9.79081036420761,0 -36.3709691903002,-9.79076193222195,0 -36.3710076737381,-9.79070269592678,0 -36.3710403703307,-9.79063506201726,0 -36.3710575278717,-9.79056097291027,0 -36.3710652314167,-9.79048209537207,0 -36.3710680946313,-9.79044631420997,0 -36.3710954867312,-9.78940767030717,0 -36.3711114115466,-9.78848104456557,0 -36.3711160159199,-9.78814659857665,0 -36.3711178430711,-9.78812979023269,0 -36.371118890542,-9.7880930024376,0 -36.37111565929,-9.7880571661916,0 -36.3710964518698,-9.78803182288795,0 -36.3710620604036,-9.7880190720021,0 -36.3710251249626,-9.78801173391306,0 -36.3709867263039,-9.78800730721684,0 -36.370955150042,-9.78800549281622,0 -36.3669791690077,-9.78759304995563,0 -36.3669644214279,-9.7875918041038,0 -36.3669336684243,-9.78759770692142,0 -36.3669028458254,-9.78761611997587,0 -36.3668801860115,-9.78763968075041,0 -36.3668710822436,-9.78767717649667,0 -36.3668697317725,-9.78772602354024,0</coordinates></LinearRing></outerBoundaryIs></Polygon></MultiGeometry>
  </Placemark>
</Folder>
</Document></kml>
