<?xml version="1.0" encoding="utf-8" ?>
<kml xmlns="http://www.opengis.net/kml/2.2">
<Document id="root_doc">
<Schema name="PIMENTEIRA_TALHAO_1016_ID_85" id="PIMENTEIRA_TALHAO_1016_ID_85">
	<SimpleField name="ID" type="float"></SimpleField>
	<SimpleField name="AREA_TOTAL" type="float"></SimpleField>
	<SimpleField name="FAZENDA" type="float"></SimpleField>
	<SimpleField name="FAZ_NOME" type="string"></SimpleField>
	<SimpleField name="TALHAO" type="float"></SimpleField>
	<SimpleField name="ZONA" type="float"></SimpleField>
	<SimpleField name="ACIONISTA" type="string"></SimpleField>
	<SimpleField name="CODE" type="string"></SimpleField>
</Schema>
<Folder><name>PIMENTEIRA_TALHAO_1016_ID_85</name>
  <Placemark id="PIMENTEIRA_TALHAO_1016_ID_85.1">
	<Style><LineStyle><color>ff0000ff</color></LineStyle><PolyStyle><fill>0</fill></PolyStyle></Style>
	<ExtendedData><SchemaData schemaUrl="#PIMENTEIRA_TALHAO_1016_ID_85">
		<SimpleData name="ID">85</SimpleData>
		<SimpleData name="AREA_TOTAL">9.09</SimpleData>
		<SimpleData name="FAZENDA">2420</SimpleData>
		<SimpleData name="FAZ_NOME">PIMENTEIRA</SimpleData>
		<SimpleData name="TALHAO">1016</SimpleData>
		<SimpleData name="ZONA">1</SimpleData>
		<SimpleData name="ACIONISTA">KAROLINE ROSE CALHEIROS</SimpleData>
		<SimpleData name="CODE"></SimpleData>
	</SchemaData></ExtendedData>
      <MultiGeometry><Polygon><outerBoundaryIs><LinearRing><coordinates>-36.3734305933033,-9.80522040716465,0 -36.3733671634013,-9.80538518877041,0 -36.3733243205378,-9.80554290712311,0 -36.3733171749289,-9.80557871521203,0 -36.3733494207204,-9.80565977097307,0 -36.373392712195,-9.80578509299111,0 -36.3734960542064,-9.80595920304729,0 -36.3735879906577,-9.80598701652768,0 -36.3737704868727,-9.80603651070628,0 -36.3738022451703,-9.80604228983306,0 -36.3738410003629,-9.80604859511423,0 -36.3738768111498,-9.80605766158486,0 -36.3739145618168,-9.8060635141742,0 -36.3739536378888,-9.80606957633709,0 -36.3739928790632,-9.80607846140692,0 -36.3740307209809,-9.80608556195067,0 -36.3740786791002,-9.80609354806636,0 -36.3741136953925,-9.8060982529382,0 -36.3741494071873,-9.8061021613417,0 -36.3741869321623,-9.80610810307575,0 -36.3742230507204,-9.8061125752914,0 -36.3742572376561,-9.80611621359288,0 -36.3742931378836,-9.80611808009076,0 -36.3743323603789,-9.80611873300306,0 -36.3743706025114,-9.80612233451274,0 -36.3744085880607,-9.80612958455949,0 -36.3744442858938,-9.80613506250056,0 -36.3744818445919,-9.80614357540995,0 -36.3745171284207,-9.80614901496938,0 -36.3745556808091,-9.80615377418281,0 -36.3745953074544,-9.80616033874361,0 -36.3746312501192,-9.80616632211887,0 -36.3746681067837,-9.80617253621905,0 -36.3747028549714,-9.80617752218939,0 -36.3747729144634,-9.80618886538849,0 -36.3748750559,-9.80620695796959,0 -36.3750064526635,-9.80624305309451,0 -36.3751557891649,-9.80628201495084,0 -36.3752466638683,-9.80630870455166,0 -36.3753578168675,-9.8063394639284,0 -36.3754028578642,-9.80635396965488,0 -36.3755783223002,-9.80613342589461,0 -36.3761906557126,-9.80535854911169,0 -36.3763821613608,-9.80511798354342,0 -36.3763952786283,-9.80510124067895,0 -36.3764192388336,-9.80506954511085,0 -36.3764427577487,-9.80503745567199,0 -36.3764664391144,-9.80500700708584,0 -36.3764864807528,-9.8049766700985,0 -36.3764999219824,-9.80494460671748,0 -36.3764937392784,-9.80491246109855,0 -36.3764779031057,-9.80488480348296,0 -36.3764189422708,-9.80475950345107,0 -36.3759523290575,-9.80384311441669,0 -36.3753746807111,-9.80271577322936,0 -36.3753578667607,-9.80267816092444,0 -36.3753342892294,-9.80265153261953,0 -36.3753007528114,-9.8026548650524,0 -36.3752644926633,-9.80267080562451,0 -36.3752275629162,-9.80268393019005,0 -36.3751918416957,-9.80269953607121,0 -36.3743252264443,-9.80307356230957,0 -36.3741268878593,-9.80316018702657,0 -36.3741113758158,-9.80317314611911,0 -36.3740829779783,-9.80319738882304,0 -36.3740629337824,-9.80322779448615,0 -36.3740464210288,-9.80325961226061,0 -36.374039851898,-9.8032797964152,0 -36.3740175968853,-9.80345222032593,0 -36.3740100798014,-9.80348863756678,0 -36.3740042566177,-9.8035264147747,0 -36.3739990083421,-9.80356229896909,0 -36.3739933201317,-9.80360101551039,0 -36.3739850886046,-9.80363967973893,0 -36.3739764253251,-9.8036771502845,0 -36.37396825104,-9.80371535980022,0 -36.3739591515338,-9.8037552956665,0 -36.373950705509,-9.80379419976041,0 -36.3739423485368,-9.803833738807,0 -36.3739328444707,-9.80387144509202,0 -36.3739243678793,-9.80390804415983,0 -36.3739160682919,-9.80394594450241,0 -36.3739078420102,-9.80398472144026,0 -36.3739014183025,-9.80402050036387,0 -36.3738902834413,-9.80405859288783,0 -36.3738778774131,-9.80410639942547,0 -36.3738650863932,-9.8041440073649,0 -36.3738510023779,-9.80418042081924,0 -36.3738379189572,-9.80421772532437,0 -36.3738229052073,-9.80425154000194,0 -36.3738108632731,-9.80428722605902,0 -36.373801399845,-9.80432472333568,0 -36.3737870144606,-9.80436367393222,0 -36.3737734865764,-9.8044027137961,0 -36.3737576643033,-9.80443861412894,0 -36.3737447149597,-9.80447525239252,0 -36.3737277971651,-9.80450917288015,0 -36.3737136291903,-9.80454338074226,0 -36.373698415439,-9.80458082202313,0 -36.3736830646224,-9.80461474553994,0 -36.3736683669629,-9.80464974268819,0 -36.3736523536985,-9.80468508259052,0 -36.373599235039,-9.80482663126835,0 -36.3734305933033,-9.80522040716465,0</coordinates></LinearRing></outerBoundaryIs></Polygon></MultiGeometry>
  </Placemark>
</Folder>
</Document></kml>
