<?xml version="1.0" encoding="UTF-8"?>
<kml xmlns="http://www.opengis.net/kml/2.2" xmlns:gx="http://www.google.com/kml/ext/2.2" xmlns:kml="http://www.opengis.net/kml/2.2" xmlns:atom="http://www.w3.org/2005/Atom">
<Document>
  <name>1009.kml</name>
  <StyleMap id="FFFF4000">
    <Pair>
      <key>normal</key>
      <styleUrl>#s_FFFF4000</styleUrl>
    </Pair>
    <Pair>
      <key>highlight</key>
      <styleUrl>#s_FFFF4000_hl</styleUrl>
    </Pair>
  </StyleMap>
  <Style id="s_FFFF4000">
   <IconStyle>
      <scale>1.1</scale>
      <Icon>
        <href>http://maps.google.com/mapfiles/kml/pushpin/agrocad.png</href>
      </Icon>
      <hotSpot x="20" y="2" xunits="pixels" yunits="pixels"/>
    </IconStyle>
    <LineStyle>
      <color>FFFF4000</color>
      <width>1</width>
    </LineStyle>
    <PolyStyle>
      <color>40ffffff</color>
      <fill>1</fill>
    </PolyStyle>
  </Style>
  <Style id="s_FFFF4000_hl">
    <IconStyle>
      <scale>1.3</scale>
      <Icon>
        <href>http://maps.google.com/mapfiles/kml/pushpin/agrocad.png</href>
      </Icon>
      <hotSpot x="20" y="2" xunits="pixels" yunits="pixels"/>
    </IconStyle>
    <LineStyle>
      <color>ff000000</color>
      <width>1</width>
    </LineStyle>
    <PolyStyle>
      <color>40ffffff</color>
      <fill>1</fill>
    </PolyStyle>
  </Style>
  <Placemark>
    <name>AgroCAD: 9569</name>
    <styleUrl>FFFF4000</styleUrl>
    <Polygon>
      <outerBoundaryIs>
        <LinearRing>
          <coordinates>
           -36.22523900674162,-9.82048465959078 -36.22669314564889,-9.82068129678654 -36.22688218587972,-9.82069990224876 -36.22705947390303,-9.82068662582065 -36.22747038075514,-9.82064911356347 -36.22763370717770,-9.82062095339957 -36.22857335559540,-9.82037966439105 -36.22863622236764,-9.82035322758162 -36.22874070617374,-9.82026918594161 -36.22875406806573,-9.82025111517931 -36.22692884051384,-9.81817568362408 -36.22685526053721,-9.81822191915475 -36.22683535309650,-9.81824032226637 -36.22676683780054,-9.81829375483321 -36.22659567658455,-9.81844347589501 -36.22653388323654,-9.81850387545362 -36.22647818672138,-9.81857075481927 -36.22642446207080,-9.81863479476025 -36.22636910276459,-9.81870197612424 -36.22631837752613,-9.81875433375154 -36.22626448786817,-9.81880142449540 -36.22618682666931,-9.81884607044407 -36.22593395573808,-9.81896770713248 -36.22577899757426,-9.81901838095161 -36.22569062264116,-9.81903038007584 -36.22560611167049,-9.81903951307702 -36.22544675325755,-9.81905630733573 -36.22519908781628,-9.81906324480937 -36.22511078239330,-9.81906299713302 -36.22502340656998,-9.81906079277355 -36.22469378541916,-9.81903668458264 -36.22444753762005,-9.81901538747527 -36.22413628234848,-9.81897353443515 -36.22406433084323,-9.81895870253984 -36.22399572848359,-9.81893887476721 -36.22393192902445,-9.81891911033541 -36.22387562595549,-9.81890372877943 -36.22385590878122,-9.81890313930769 -36.22382062615454,-9.81890159719214 -36.22407670915212,-9.81914848918443 -36.22492006710413,-9.82011631781841 -36.22519336370420,-9.82042942806502 -36.22523900674162,-9.82048465959078 -36.22523900674162,-9.82048465959078
          </coordinates>
        </LinearRing>
      </outerBoundaryIs>
    </Polygon>
  </Placemark>
</Document>
</kml>
