<?xml version="1.0" encoding="UTF-8"?>
<kml xmlns="http://www.opengis.net/kml/2.2" xmlns:gx="http://www.google.com/kml/ext/2.2" xmlns:kml="http://www.opengis.net/kml/2.2" xmlns:atom="http://www.w3.org/2005/Atom">
<Document>
  <name>1005.kml</name>
  <StyleMap id="FF0040FF">
    <Pair>
      <key>normal</key>
      <styleUrl>#s_FF0040FF</styleUrl>
    </Pair>
    <Pair>
      <key>highlight</key>
      <styleUrl>#s_FF0040FF_hl</styleUrl>
    </Pair>
  </StyleMap>
  <Style id="s_FF0040FF">
   <IconStyle>
      <scale>1.1</scale>
      <Icon>
        <href>http://maps.google.com/mapfiles/kml/pushpin/agrocad.png</href>
      </Icon>
      <hotSpot x="20" y="2" xunits="pixels" yunits="pixels"/>
    </IconStyle>
    <LineStyle>
      <color>FF0040FF</color>
      <width>1</width>
    </LineStyle>
    <PolyStyle>
      <color>40ffffff</color>
      <fill>1</fill>
    </PolyStyle>
  </Style>
  <Style id="s_FF0040FF_hl">
    <IconStyle>
      <scale>1.3</scale>
      <Icon>
        <href>http://maps.google.com/mapfiles/kml/pushpin/agrocad.png</href>
      </Icon>
      <hotSpot x="20" y="2" xunits="pixels" yunits="pixels"/>
    </IconStyle>
    <LineStyle>
      <color>ff000000</color>
      <width>1</width>
    </LineStyle>
    <PolyStyle>
      <color>40ffffff</color>
      <fill>1</fill>
    </PolyStyle>
  </Style>
  <Placemark>
    <name>AgroCAD: 821E</name>
    <styleUrl>FF0040FF</styleUrl>
    <Polygon>
      <outerBoundaryIs>
        <LinearRing>
          <coordinates>
           -36.22860948433026,-9.82075907942345 -36.22860800033779,-9.82071320685803 -36.22860816448461,-9.82059291795111 -36.22860633184733,-9.82047328599425 -36.22860502079362,-9.82042641902109 -36.22865288632761,-9.82043804804312 -36.22869135873213,-9.82044713941383 -36.22873270039979,-9.82045080084457 -36.22877479217800,-9.82045037643954 -36.22881641979150,-9.82044770466237 -36.22889668946601,-9.82044185095796 -36.22893744619809,-9.82043702280639 -36.22896685116892,-9.82043032863931 -36.22896685116892,-9.82043032863931 -36.22896726430659,-9.82043022458764 -36.22947281131955,-9.82030125635431 -36.23050047729174,-9.82004678352491 -36.23203960286181,-9.81967174662808 -36.23311519316953,-9.81939843228697 -36.23341789502046,-9.81932450721260 -36.23353195061661,-9.81930309632485 -36.23359173794469,-9.81927654905925 -36.23363292094545,-9.81929324744035 -36.23375326351653,-9.81932744314659 -36.23380826627323,-9.81935640632925 -36.23386472092715,-9.81939640247429 -36.23392401317701,-9.81943408682634 -36.23397940924306,-9.81947580607890 -36.23409380947021,-9.81957221112270 -36.23415376393970,-9.81962253437846 -36.23431237791397,-9.81976770634157 -36.23436002408920,-9.81981731436335 -36.23440972600185,-9.81986666588665 -36.23446364019780,-9.81991681996148 -36.23451686818042,-9.81996483205755 -36.23456750819638,-9.82000324035099 -36.23461217116613,-9.82003936567594 -36.23464846249303,-9.82007477924218 -36.23467619320076,-9.82011908279720 -36.23468130340612,-9.82017042091345 -36.23466782207906,-9.82023152396167 -36.23461461021796,-9.82037837792108 -36.23458962921091,-9.82044756321410 -36.23457432498820,-9.82051449843204 -36.23455900748041,-9.82057170972279 -36.23453103504310,-9.82062909657766 -36.23449549091076,-9.82068509570820 -36.23441037005761,-9.82081032562609 -36.23436648954136,-9.82086624503717 -36.23428100456704,-9.82096263732373 -36.23422515321980,-9.82100122550009 -36.23415993646092,-9.82103131264136 -36.23409248961709,-9.82103710361236 -36.23402376415468,-9.82102950178231 -36.23385492418254,-9.82102812176363 -36.23373106164680,-9.82105394589125 -36.23358762613756,-9.82109169776923 -36.23351483189216,-9.82111946372096 -36.23337561748899,-9.82117763562961 -36.23316492221759,-9.82127145119804 -36.23308518191485,-9.82130924100121 -36.23306935567109,-9.82131483004009 -36.23305616574262,-9.82133733231375 -36.23305581821369,-9.82137914128681 -36.23305984407257,-9.82140800371340 -36.23306737532799,-9.82144250104671 -36.23307425237531,-9.82147536469230 -36.23307721678904,-9.82150214015036 -36.23307532027279,-9.82152041297262 -36.23306587383815,-9.82153310757033 -36.23304069482290,-9.82154323691438 -36.23297149311936,-9.82156654184656 -36.23289821464798,-9.82158973109833 -36.23278796163030,-9.82161778296438 -36.23271275699162,-9.82163384259455 -36.23263606448766,-9.82164750554665 -36.23251747385953,-9.82166299571417 -36.23243651601824,-9.82167356915728 -36.23235297695484,-9.82168647429033 -36.23231415983011,-9.82169144722715 -36.23219725580219,-9.82169646305237 -36.23211949993177,-9.82169327090709 -36.23200093272112,-9.82168951227527 -36.23176020121468,-9.82167996183112 -36.23159931067702,-9.82166824604208 -36.23140034846591,-9.82164431693341 -36.23113521873144,-9.82160579251067 -36.23095547290591,-9.82158013657875 -36.23075663654492,-9.82155901338915 -36.23055987483567,-9.82154127264036 -36.23035413924626,-9.82150911461279 -36.23021054235307,-9.82147547256893 -36.23014487407231,-9.82145867596316 -36.23008089035739,-9.82143335508331 -36.23001325564713,-9.82139875169610 -36.22994435774537,-9.82136800642534 -36.22988931990489,-9.82133103764476 -36.22985105199926,-9.82127975313950 -36.22983711106116,-9.82124955798805 -36.22982545567286,-9.82121796175066 -36.22981131831144,-9.82115071921730 -36.22981097323489,-9.82111249909927 -36.22979782746914,-9.82103064042926 -36.22977700712232,-9.82097741872827 -36.22972222321564,-9.82096026112554 -36.22967783844251,-9.82096524601190 -36.22963753496155,-9.82098071814728 -36.22961481922067,-9.82100515801036 -36.22955999047184,-9.82103328602806 -36.22950428678224,-9.82106422804764 -36.22940523938877,-9.82109375312487 -36.22933246582484,-9.82110251834613 -36.22926688272864,-9.82112057622559 -36.22911098829797,-9.82113770996774 -36.22897614142445,-9.82114676803144 -36.22890608272313,-9.82115524189628 -36.22883776861010,-9.82115604101577 -36.22880309021353,-9.82115411011846 -36.22877221421708,-9.82114671979446 -36.22874592902908,-9.82113445123461 -36.22872502055765,-9.82111804569997 -36.22871215340232,-9.82110027648844 -36.22870383574702,-9.82107552293416 -36.22868277387230,-9.82098099545174 -36.22867832879875,-9.82095295529958 -36.22860948433026,-9.82075907942345
          </coordinates>
        </LinearRing>
      </outerBoundaryIs>
    </Polygon>
  </Placemark>
</Document>
</kml>
