<?xml version="1.0" encoding="UTF-8"?>
<kml xmlns="http://www.opengis.net/kml/2.2" xmlns:gx="http://www.google.com/kml/ext/2.2" xmlns:kml="http://www.opengis.net/kml/2.2" xmlns:atom="http://www.w3.org/2005/Atom">
<Document>
  <name>1007.kml</name>
  <StyleMap id="FF0040FF">
    <Pair>
      <key>normal</key>
      <styleUrl>#s_FF0040FF</styleUrl>
    </Pair>
    <Pair>
      <key>highlight</key>
      <styleUrl>#s_FF0040FF_hl</styleUrl>
    </Pair>
  </StyleMap>
  <Style id="s_FF0040FF">
   <IconStyle>
      <scale>1.1</scale>
      <Icon>
        <href>http://maps.google.com/mapfiles/kml/pushpin/agrocad.png</href>
      </Icon>
      <hotSpot x="20" y="2" xunits="pixels" yunits="pixels"/>
    </IconStyle>
    <LineStyle>
      <color>FF0040FF</color>
      <width>1</width>
    </LineStyle>
    <PolyStyle>
      <color>40ffffff</color>
      <fill>1</fill>
    </PolyStyle>
  </Style>
  <Style id="s_FF0040FF_hl">
    <IconStyle>
      <scale>1.3</scale>
      <Icon>
        <href>http://maps.google.com/mapfiles/kml/pushpin/agrocad.png</href>
      </Icon>
      <hotSpot x="20" y="2" xunits="pixels" yunits="pixels"/>
    </IconStyle>
    <LineStyle>
      <color>ff000000</color>
      <width>1</width>
    </LineStyle>
    <PolyStyle>
      <color>40ffffff</color>
      <fill>1</fill>
    </PolyStyle>
  </Style>
  <Placemark>
    <name>AgroCAD: 821D</name>
    <styleUrl>FF0040FF</styleUrl>
    <Polygon>
      <outerBoundaryIs>
        <LinearRing>
          <coordinates>
           -36.23351519022714,-9.81913876874167 -36.23351041985694,-9.81914006217775 -36.23337883142468,-9.81916874829282 -36.23303468552887,-9.81926893789462 -36.23182894363773,-9.81956584282841 -36.23027417678517,-9.81993937157789 -36.22976980847250,-9.82005888490449 -36.22885352501683,-9.82027191936254 -36.22889823128545,-9.82014773254815 -36.22957211902891,-9.81815360834348 -36.23003715174651,-9.81667114777474 -36.23006274539040,-9.81669803411262 -36.23015797305104,-9.81680566891237 -36.23025483062205,-9.81690705976401 -36.23030706991489,-9.81695292956125 -36.23047691915987,-9.81709527445268 -36.23068290950346,-9.81729673018337 -36.23075101261607,-9.81737588504884 -36.23086462824471,-9.81748028152019 -36.23103531608471,-9.81761970861287 -36.23126012126923,-9.81782896148151 -36.23132491726071,-9.81787141493368 -36.23138685862638,-9.81790239564345 -36.23151117227741,-9.81798383544078 -36.23285549184693,-9.81875217402050 -36.23334343435229,-9.81905007982649 -36.23351519022714,-9.81913876874166 -36.23351519022714,-9.81913876874167
          </coordinates>
        </LinearRing>
      </outerBoundaryIs>
    </Polygon>
  </Placemark>
</Document>
</kml>
