<?xml version="1.0" encoding="UTF-8"?>
<kml xmlns="http://www.opengis.net/kml/2.2" xmlns:gx="http://www.google.com/kml/ext/2.2" xmlns:kml="http://www.opengis.net/kml/2.2" xmlns:atom="http://www.w3.org/2005/Atom">
<Document>
  <name>1002.kml</name>
  <StyleMap id="FFFF4000">
    <Pair>
      <key>normal</key>
      <styleUrl>#s_FFFF4000</styleUrl>
    </Pair>
    <Pair>
      <key>highlight</key>
      <styleUrl>#s_FFFF4000_hl</styleUrl>
    </Pair>
  </StyleMap>
  <Style id="s_FFFF4000">
   <IconStyle>
      <scale>1.1</scale>
      <Icon>
        <href>http://maps.google.com/mapfiles/kml/pushpin/agrocad.png</href>
      </Icon>
      <hotSpot x="20" y="2" xunits="pixels" yunits="pixels"/>
    </IconStyle>
    <LineStyle>
      <color>FFFF4000</color>
      <width>1</width>
    </LineStyle>
    <PolyStyle>
      <color>40ffffff</color>
      <fill>1</fill>
    </PolyStyle>
  </Style>
  <Style id="s_FFFF4000_hl">
    <IconStyle>
      <scale>1.3</scale>
      <Icon>
        <href>http://maps.google.com/mapfiles/kml/pushpin/agrocad.png</href>
      </Icon>
      <hotSpot x="20" y="2" xunits="pixels" yunits="pixels"/>
    </IconStyle>
    <LineStyle>
      <color>ff000000</color>
      <width>1</width>
    </LineStyle>
    <PolyStyle>
      <color>40ffffff</color>
      <fill>1</fill>
    </PolyStyle>
  </Style>
  <Placemark>
    <name>AgroCAD: 9568</name>
    <styleUrl>FFFF4000</styleUrl>
    <Polygon>
      <outerBoundaryIs>
        <LinearRing>
          <coordinates>
           -36.23685071469384,-9.82252175619937 -36.23614504019248,-9.82247853812854 -36.23615598378583,-9.82217798369044 -36.23615753416458,-9.82210446540348 -36.23616063893633,-9.82203817602054 -36.23617141455236,-9.82201507510113 -36.23617667484559,-9.82200836613229 -36.23620241383025,-9.82198976363921 -36.23625783674431,-9.82198447157009 -36.23631956740947,-9.82200575262440 -36.23639691632647,-9.82203980917963 -36.23647952631789,-9.82206959064805 -36.23654687131646,-9.82209478324765 -36.23677421048974,-9.82217053147225 -36.23686007597105,-9.82219731740194 -36.23694290865974,-9.82222408412432 -36.23702408257047,-9.82225127738914 -36.23710283466734,-9.82227708814134 -36.23725666564862,-9.82231831880949 -36.23739346749070,-9.82235184801294 -36.23755230702251,-9.82238617688289 -36.23771899061559,-9.82242451650058 -36.23787197430488,-9.82245912754055 -36.23799738808965,-9.82247813871203 -36.23829202547775,-9.82250020339405 -36.23841103209402,-9.82253562933327 -36.23869943983787,-9.82270449913681 -36.23894894346986,-9.82287257449284 -36.23898419627194,-9.82292865016188 -36.23894252928126,-9.82296865973684 -36.23893147333939,-9.82297514207307 -36.23855030724592,-9.82288464237639 -36.23841633279662,-9.82284592850146 -36.23836907560839,-9.82283041626742 -36.23801655878836,-9.82273732362558 -36.23784243543227,-9.82268775264628 -36.23770197348548,-9.82265572373123 -36.23744073696020,-9.82260069960483 -36.23713311365220,-9.82255112483178 -36.23685071469384,-9.82252175619937
          </coordinates>
        </LinearRing>
      </outerBoundaryIs>
    </Polygon>
  </Placemark>
  <Placemark>
    <name>AgroCAD: 9567</name>
    <styleUrl>FFFF4000</styleUrl>
    <Polygon>
      <outerBoundaryIs>
        <LinearRing>
          <coordinates>
           -36.23525120513618,-9.82158235724844 -36.23532076690603,-9.82157905202819 -36.23539504712830,-9.82158245323574 -36.23548166312891,-9.82158928057051 -36.23556807128828,-9.82160179967114 -36.23564990652499,-9.82161822091733 -36.23571605597963,-9.82163868386739 -36.23578491995942,-9.82166869760785 -36.23585918331019,-9.82171200823375 -36.23592916809730,-9.82176417060651 -36.23598657630713,-9.82180718109904 -36.23605417651135,-9.82185882805719 -36.23609940737366,-9.82190685797138 -36.23612518060831,-9.82198304103802 -36.23612540221843,-9.82206993447238 -36.23612744767256,-9.82216026128240 -36.23612597043077,-9.82223023316651 -36.23611359116297,-9.82247661204172 -36.23595709362233,-9.82246702735139 -36.23560458196695,-9.82245365347714 -36.23533529386166,-9.82246027993720 -36.23504268450238,-9.82248320472495 -36.23451576134171,-9.82254607432269 -36.23414056603086,-9.82260163146094 -36.23381859741839,-9.82262903584030 -36.23331585537726,-9.82263265749559 -36.23277619028340,-9.82259552440195 -36.23275399096827,-9.82257717031337 -36.23275368689180,-9.82255689612249 -36.23276234474760,-9.82254860860457 -36.23283052679968,-9.82251944387799 -36.23291596041459,-9.82248611471425 -36.23308729988487,-9.82241481293110 -36.23319300821228,-9.82236712524453 -36.23327645545449,-9.82232721828640 -36.23335490109129,-9.82229002077099 -36.23346066865081,-9.82225024971709 -36.23356279232024,-9.82221916623203 -36.23368488256277,-9.82218771845992 -36.23377569382966,-9.82216380918257 -36.23387245649816,-9.82213159204963 -36.23402366502785,-9.82207431831096 -36.23415545394312,-9.82202327912795 -36.23423735213822,-9.82199256900841 -36.23431948760191,-9.82196563345011 -36.23438630044530,-9.82194270118213 -36.23454476147137,-9.82188021871964 -36.23461916198830,-9.82184211422448 -36.23469037749206,-9.82179666241736 -36.23474980194769,-9.82175493841865 -36.23481986596689,-9.82171313799527 -36.23488687475943,-9.82168080823931 -36.23495340150400,-9.82165111313080 -36.23501704986095,-9.82162577197504 -36.23509951635708,-9.82160199262121 -36.23516865492887,-9.82159025144128 -36.23525120513618,-9.82158235724844
          </coordinates>
        </LinearRing>
      </outerBoundaryIs>
    </Polygon>
  </Placemark>
</Document>
</kml>
