<?xml version="1.0" encoding="UTF-8"?>
<kml xmlns="http://www.opengis.net/kml/2.2" xmlns:gx="http://www.google.com/kml/ext/2.2" xmlns:kml="http://www.opengis.net/kml/2.2" xmlns:atom="http://www.w3.org/2005/Atom">
<Document>
  <name>10.kml</name>
  <StyleMap id="FFFF4000">
    <Pair>
      <key>normal</key>
      <styleUrl>#s_FFFF4000</styleUrl>
    </Pair>
    <Pair>
      <key>highlight</key>
      <styleUrl>#s_FFFF4000_hl</styleUrl>
    </Pair>
  </StyleMap>
  <Style id="s_FFFF4000">
   <IconStyle>
      <scale>1.1</scale>
      <Icon>
        <href>http://maps.google.com/mapfiles/kml/pushpin/agrocad.png</href>
      </Icon>
      <hotSpot x="20" y="2" xunits="pixels" yunits="pixels"/>
    </IconStyle>
    <LineStyle>
      <color>FFFF4000</color>
      <width>1</width>
    </LineStyle>
    <PolyStyle>
      <color>40ffffff</color>
      <fill>1</fill>
    </PolyStyle>
  </Style>
  <Style id="s_FFFF4000_hl">
    <IconStyle>
      <scale>1.3</scale>
      <Icon>
        <href>http://maps.google.com/mapfiles/kml/pushpin/agrocad.png</href>
      </Icon>
      <hotSpot x="20" y="2" xunits="pixels" yunits="pixels"/>
    </IconStyle>
    <LineStyle>
      <color>ff000000</color>
      <width>1</width>
    </LineStyle>
    <PolyStyle>
      <color>40ffffff</color>
      <fill>1</fill>
    </PolyStyle>
  </Style>
  <Placemark>
    <name>AgroCAD: 1985C</name>
    <styleUrl>FFFF4000</styleUrl>
    <Polygon>
      <outerBoundaryIs>
        <LinearRing>
          <coordinates>
           -36.32017131768731,-9.68076595131602 -36.32015338876583,-9.68062104846063 -36.32011767897981,-9.68048562092577 -36.32007621950741,-9.68035150880671 -36.31999902475771,-9.68021866270027 -36.31993698731152,-9.68015234503362 -36.31991709041832,-9.68012535371916 -36.31991210088032,-9.67984590997113 -36.32020634524013,-9.67981704553768 -36.32030514879222,-9.68004678782062 -36.32042910984092,-9.68031703814030 -36.32056014648643,-9.68059167799589 -36.32060983011073,-9.68073772762411 -36.32063276832143,-9.68082080115588 -36.32065241655363,-9.68099655366868 -36.32068353518035,-9.68132589660503 -36.32060427258773,-9.68137046658114 -36.32045709141053,-9.68134165273682 -36.32029558942213,-9.68126684748135 -36.32019963136302,-9.68119266861037 -36.32014711188941,-9.68107610737857 -36.32011272783921,-9.68094638478498 -36.32013388382272,-9.68086283667316 -36.32017131768731,-9.68076595131602 -36.32017131768731,-9.68076595131602 -36.32017131768731,-9.68076595131602
          </coordinates>
        </LinearRing>
      </outerBoundaryIs>
    </Polygon>
  </Placemark>
</Document>
</kml>
