<?xml version="1.0" encoding="UTF-8"?>
<kml xmlns="http://www.opengis.net/kml/2.2" xmlns:gx="http://www.google.com/kml/ext/2.2" xmlns:kml="http://www.opengis.net/kml/2.2" xmlns:atom="http://www.w3.org/2005/Atom">
<Document>
  <name>07.kml</name>
  <StyleMap id="FFFF4000">
    <Pair>
      <key>normal</key>
      <styleUrl>#s_FFFF4000</styleUrl>
    </Pair>
    <Pair>
      <key>highlight</key>
      <styleUrl>#s_FFFF4000_hl</styleUrl>
    </Pair>
  </StyleMap>
  <Style id="s_FFFF4000">
   <IconStyle>
      <scale>1.1</scale>
      <Icon>
        <href>http://maps.google.com/mapfiles/kml/pushpin/agrocad.png</href>
      </Icon>
      <hotSpot x="20" y="2" xunits="pixels" yunits="pixels"/>
    </IconStyle>
    <LineStyle>
      <color>FFFF4000</color>
      <width>1</width>
    </LineStyle>
    <PolyStyle>
      <color>40ffffff</color>
      <fill>1</fill>
    </PolyStyle>
  </Style>
  <Style id="s_FFFF4000_hl">
    <IconStyle>
      <scale>1.3</scale>
      <Icon>
        <href>http://maps.google.com/mapfiles/kml/pushpin/agrocad.png</href>
      </Icon>
      <hotSpot x="20" y="2" xunits="pixels" yunits="pixels"/>
    </IconStyle>
    <LineStyle>
      <color>ff000000</color>
      <width>1</width>
    </LineStyle>
    <PolyStyle>
      <color>40ffffff</color>
      <fill>1</fill>
    </PolyStyle>
  </Style>
  <Placemark>
    <name>AgroCAD: 19862</name>
    <styleUrl>FFFF4000</styleUrl>
    <Polygon>
      <outerBoundaryIs>
        <LinearRing>
          <coordinates>
           -36.31488432135355,-9.67661003533624 -36.31503129694134,-9.67643390457128 -36.31516127060415,-9.67627011225120 -36.31531778362675,-9.67608616662351 -36.31546384109986,-9.67593784571586 -36.31554121958546,-9.67588240457280 -36.31565702379677,-9.67608516280952 -36.31590318487918,-9.67649467262207 -36.31613218925848,-9.67686332749153 -36.31609962727448,-9.67693696107597 -36.31595380074526,-9.67717422602770 -36.31579752577477,-9.67741050148079 -36.31565992877226,-9.67754393150913 -36.31563729098446,-9.67754178784381 -36.31538894012686,-9.67751129611479 -36.31518586490685,-9.67748509160895 -36.31489916443945,-9.67744225016517 -36.31466138487013,-9.67742060502768 -36.31457105078773,-9.67736410259267 -36.31444315827192,-9.67727788996379 -36.31441584946112,-9.67720556125875 -36.31458024656093,-9.67699446566869 -36.31488432135355,-9.67661003533624 -36.31488432135355,-9.67661003533624 -36.31488432135355,-9.67661003533624
          </coordinates>
        </LinearRing>
      </outerBoundaryIs>
    </Polygon>
  </Placemark>
</Document>
</kml>
