<?xml version="1.0" encoding="UTF-8"?>
<kml xmlns="http://www.opengis.net/kml/2.2" xmlns:gx="http://www.google.com/kml/ext/2.2" xmlns:kml="http://www.opengis.net/kml/2.2" xmlns:atom="http://www.w3.org/2005/Atom">
<Document>
  <name>06.kml</name>
  <StyleMap id="FFFF0000">
    <Pair>
      <key>normal</key>
      <styleUrl>#s_FFFF0000</styleUrl>
    </Pair>
    <Pair>
      <key>highlight</key>
      <styleUrl>#s_FFFF0000_hl</styleUrl>
    </Pair>
  </StyleMap>
  <Style id="s_FFFF0000">
   <IconStyle>
      <scale>1.1</scale>
      <Icon>
        <href>http://maps.google.com/mapfiles/kml/pushpin/agrocad.png</href>
      </Icon>
      <hotSpot x="20" y="2" xunits="pixels" yunits="pixels"/>
    </IconStyle>
    <LineStyle>
      <color>FFFF0000</color>
      <width>1</width>
    </LineStyle>
    <PolyStyle>
      <color>40ffffff</color>
      <fill>1</fill>
    </PolyStyle>
  </Style>
  <Style id="s_FFFF0000_hl">
    <IconStyle>
      <scale>1.3</scale>
      <Icon>
        <href>http://maps.google.com/mapfiles/kml/pushpin/agrocad.png</href>
      </Icon>
      <hotSpot x="20" y="2" xunits="pixels" yunits="pixels"/>
    </IconStyle>
    <LineStyle>
      <color>ff000000</color>
      <width>1</width>
    </LineStyle>
    <PolyStyle>
      <color>40ffffff</color>
      <fill>1</fill>
    </PolyStyle>
  </Style>
  <Placemark>
    <name>AgroCAD: 1BF85</name>
    <styleUrl>FFFF0000</styleUrl>
    <Polygon>
      <outerBoundaryIs>
        <LinearRing>
          <coordinates>
           -36.22958666571415,-9.82553825239810 -36.22951613906376,-9.82554445618081 -36.22946413468130,-9.82554870838787 -36.22921233798435,-9.82557814887772 -36.22881071430497,-9.82560537879316 -36.22833591118259,-9.82564309952275 -36.22789799178076,-9.82566561116462 -36.22743896701330,-9.82570414561389 -36.22722301718127,-9.82572802572368 -36.22702588408165,-9.82575233098151 -36.22706758354330,-9.82580384675943 -36.22713816333162,-9.82588603062175 -36.22722146069444,-9.82598212906251 -36.22729804273956,-9.82606399530806 -36.23134399527257,-9.83071247699962 -36.23144619723190,-9.83082688949128 -36.23152161829831,-9.83090960231134 -36.23152998134179,-9.83090332394565 -36.23170908677901,-9.83079327119878 -36.23206030871403,-9.83054751562023 -36.23252667463023,-9.83023149801831 -36.23272655294908,-9.83008731445571 -36.23299681405436,-9.82990035023643 -36.23316784999829,-9.82977345121143 -36.23322225101191,-9.82973240553905 -36.23316508342683,-9.82966109780940 -36.23309804001374,-9.82958213188651 -36.23299699294948,-9.82946802020713 -36.23291202741826,-9.82937151587361 -36.23284523556216,-9.82929681815961 -36.23277631010440,-9.82921633524798 -36.23269297255872,-9.82911884949792 -36.23261367695187,-9.82901819583613 -36.23252808617460,-9.82892077113545 -36.23243203882700,-9.82881170008963 -36.23234395973238,-9.82871171716752 -36.23224689778127,-9.82859967894374 -36.23215157956874,-9.82848828650394 -36.23206015044008,-9.82838103936753 -36.23196345733092,-9.82827286644847 -36.23186688306029,-9.82816596476397 -36.23176973157060,-9.82805749805704 -36.23169120708438,-9.82796473246445 -36.23161591587917,-9.82787817755665 -36.23153226837588,-9.82778112553003 -36.23144802602602,-9.82768539129969 -36.23136022048345,-9.82758435074733 -36.23126395047622,-9.82747486757029 -36.23117898717963,-9.82737569424095 -36.23109077143406,-9.82727262563583 -36.23101135073520,-9.82717670858390 -36.23092740937391,-9.82707735296549 -36.23084187414502,-9.82698234351012 -36.23081658133000,-9.82695663249980 -36.23074335298666,-9.82687576635954 -36.23065921293334,-9.82677862980544 -36.23057723441363,-9.82668151907282 -36.23048525506883,-9.82657559083896 -36.23039335724936,-9.82646972469828 -36.23031688086216,-9.82637602891974 -36.23022671223519,-9.82627321527387 -36.23013713727529,-9.82617098831116 -36.23007575308823,-9.82610187922090 -36.23000170049394,-9.82601797242962 -36.22992750021957,-9.82592981542720 -36.22983999373432,-9.82583180377301 -36.22974339920369,-9.82572519891240 -36.22966930482149,-9.82563856238235 -36.22961236053871,-9.82556740713405 -36.22958666571415,-9.82553825239810 -36.22958666571415,-9.82553825239810
          </coordinates>
        </LinearRing>
      </outerBoundaryIs>
    </Polygon>
  </Placemark>
</Document>
</kml>
