<?xml version="1.0" encoding="UTF-8"?>
<kml xmlns="http://www.opengis.net/kml/2.2" xmlns:gx="http://www.google.com/kml/ext/2.2" xmlns:kml="http://www.opengis.net/kml/2.2" xmlns:atom="http://www.w3.org/2005/Atom">
<Document>
  <name>14.kml</name>
  <StyleMap id="FFFF0000">
    <Pair>
      <key>normal</key>
      <styleUrl>#s_FFFF0000</styleUrl>
    </Pair>
    <Pair>
      <key>highlight</key>
      <styleUrl>#s_FFFF0000_hl</styleUrl>
    </Pair>
  </StyleMap>
  <Style id="s_FFFF0000">
   <IconStyle>
      <scale>1.1</scale>
      <Icon>
        <href>http://maps.google.com/mapfiles/kml/pushpin/agrocad.png</href>
      </Icon>
      <hotSpot x="20" y="2" xunits="pixels" yunits="pixels"/>
    </IconStyle>
    <LineStyle>
      <color>FFFF0000</color>
      <width>1</width>
    </LineStyle>
    <PolyStyle>
      <color>40ffffff</color>
      <fill>1</fill>
    </PolyStyle>
  </Style>
  <Style id="s_FFFF0000_hl">
    <IconStyle>
      <scale>1.3</scale>
      <Icon>
        <href>http://maps.google.com/mapfiles/kml/pushpin/agrocad.png</href>
      </Icon>
      <hotSpot x="20" y="2" xunits="pixels" yunits="pixels"/>
    </IconStyle>
    <LineStyle>
      <color>ff000000</color>
      <width>1</width>
    </LineStyle>
    <PolyStyle>
      <color>40ffffff</color>
      <fill>1</fill>
    </PolyStyle>
  </Style>
  <Placemark>
    <name>AgroCAD: 1BF8A</name>
    <styleUrl>FFFF0000</styleUrl>
    <Polygon>
      <outerBoundaryIs>
        <LinearRing>
          <coordinates>
           -36.22304779420813,-9.82790712425644 -36.22090321566595,-9.82945886534725 -36.22094953447348,-9.82952359386028 -36.22109149706037,-9.82968065117330 -36.22183924268746,-9.83051677628580 -36.22241529881230,-9.83116228221880 -36.22293878361857,-9.83175302695022 -36.22321287292780,-9.83205997162548 -36.22350947165954,-9.83239280934221 -36.22380834412944,-9.83273039037039 -36.22424676181701,-9.83321567927864 -36.22472849635444,-9.83375151503745 -36.22524348676261,-9.83434790817315 -36.22526017257606,-9.83436475636735 -36.22531091706637,-9.83435656949702 -36.22543207221641,-9.83430157574695 -36.22560651539767,-9.83422759539721 -36.22579235977142,-9.83414883087253 -36.22598700698878,-9.83406966846445 -36.22616510019644,-9.83399510726625 -36.22632419683987,-9.83392514498945 -36.22647412200555,-9.83385849294638 -36.22663563905894,-9.83378610260759 -36.22681255229888,-9.83370950196989 -36.22698230092570,-9.83363148335929 -36.22714531055564,-9.83355375776179 -36.22730457630417,-9.83347439520126 -36.22746045936628,-9.83339583997451 -36.22775066731313,-9.83325222626281 -36.22304779420813,-9.82790712425644 -36.22304779420813,-9.82790712425644
          </coordinates>
        </LinearRing>
      </outerBoundaryIs>
    </Polygon>
  </Placemark>
</Document>
</kml>
