<?xml version="1.0" encoding="UTF-8"?>
<kml xmlns="http://www.opengis.net/kml/2.2" xmlns:gx="http://www.google.com/kml/ext/2.2" xmlns:kml="http://www.opengis.net/kml/2.2" xmlns:atom="http://www.w3.org/2005/Atom">
<Document>
  <name>04.kml</name>
  <StyleMap id="FFFF0000">
    <Pair>
      <key>normal</key>
      <styleUrl>#s_FFFF0000</styleUrl>
    </Pair>
    <Pair>
      <key>highlight</key>
      <styleUrl>#s_FFFF0000_hl</styleUrl>
    </Pair>
  </StyleMap>
  <Style id="s_FFFF0000">
   <IconStyle>
      <scale>1.1</scale>
      <Icon>
        <href>http://maps.google.com/mapfiles/kml/pushpin/agrocad.png</href>
      </Icon>
      <hotSpot x="20" y="2" xunits="pixels" yunits="pixels"/>
    </IconStyle>
    <LineStyle>
      <color>FFFF0000</color>
      <width>1</width>
    </LineStyle>
    <PolyStyle>
      <color>40ffffff</color>
      <fill>1</fill>
    </PolyStyle>
  </Style>
  <Style id="s_FFFF0000_hl">
    <IconStyle>
      <scale>1.3</scale>
      <Icon>
        <href>http://maps.google.com/mapfiles/kml/pushpin/agrocad.png</href>
      </Icon>
      <hotSpot x="20" y="2" xunits="pixels" yunits="pixels"/>
    </IconStyle>
    <LineStyle>
      <color>ff000000</color>
      <width>1</width>
    </LineStyle>
    <PolyStyle>
      <color>40ffffff</color>
      <fill>1</fill>
    </PolyStyle>
  </Style>
  <Placemark>
    <name>AgroCAD: 1BF83</name>
    <styleUrl>FFFF0000</styleUrl>
    <Polygon>
      <outerBoundaryIs>
        <LinearRing>
          <coordinates>
           -36.22941601901616,-9.82237712133305 -36.22928405511094,-9.82235683321722 -36.22919593381092,-9.82234657563843 -36.22908758619109,-9.82233245567042 -36.22898888676353,-9.82232366835909 -36.22888991343291,-9.82231546448971 -36.22877498694900,-9.82230472329011 -36.22865107658447,-9.82229631128005 -36.22854126216534,-9.82229195587887 -36.22843802909712,-9.82229294754597 -36.22834809836254,-9.82228762627835 -36.22826989203079,-9.82228011414585 -36.22818448604944,-9.82226275731383 -36.22809133539946,-9.82223859129078 -36.22805252302848,-9.82223575698396 -36.22801181355975,-9.82223870216357 -36.22794799113877,-9.82224824890202 -36.22787718346675,-9.82226129599809 -36.22781455925379,-9.82227425128954 -36.22774875499260,-9.82228805561708 -36.22768329261513,-9.82230235392219 -36.22761464635811,-9.82232360985962 -36.22755120302243,-9.82234663796355 -36.22748747259201,-9.82237450539917 -36.22731675802600,-9.82245423291055 -36.22719603078507,-9.82251325211902 -36.22708344737153,-9.82256370602626 -36.22705872394160,-9.82257596576273 -36.22706663546553,-9.82258812691540 -36.22712353052463,-9.82265593385677 -36.22724125502643,-9.82279406563278 -36.22737061143551,-9.82293880880188 -36.22750824417557,-9.82309578799084 -36.22765790356934,-9.82326756180631 -36.22779673318926,-9.82342938939848 -36.22789419830213,-9.82354095980354 -36.22802407616028,-9.82369391417918 -36.22810956810467,-9.82378103436399 -36.22812427810658,-9.82380249239625 -36.22817334641947,-9.82386075262885 -36.22824037745413,-9.82393979230207 -36.22836367294347,-9.82408109561044 -36.22845467001349,-9.82418677586467 -36.22862736696129,-9.82438401770143 -36.22874681443442,-9.82452241782374 -36.22892032137271,-9.82472300323831 -36.22902219825643,-9.82484183999691 -36.22912033494561,-9.82495501617354 -36.22925796223781,-9.82511377280767 -36.22938434583938,-9.82525352244171 -36.22946731716499,-9.82534655551974 -36.22956212929818,-9.82545402715573 -36.22961375287370,-9.82550822952637 -36.22978387362681,-9.82549019487941 -36.23021502212450,-9.82545490102126 -36.23058975983130,-9.82542875663897 -36.23080889887809,-9.82541190703714 -36.23099743796201,-9.82539999788667 -36.23124026728017,-9.82537792314509 -36.23149657840996,-9.82535476327869 -36.23159115760345,-9.82534587497505 -36.23169154469327,-9.82533824662009 -36.23177350133264,-9.82533177942019 -36.23181728965188,-9.82532748026121 -36.23189698709309,-9.82531481389284 -36.23191783150846,-9.82530878280572 -36.23193426734982,-9.82530423916544 -36.23195225472204,-9.82529488904579 -36.23196785535493,-9.82528128556482 -36.23075366907638,-9.82391363589100 -36.23046601347656,-9.82359012372052 -36.23025080170010,-9.82332773618585 -36.22989604469551,-9.82292350396721 -36.22959198035780,-9.82257896615172 -36.22948398910156,-9.82245334916200 -36.22944724830944,-9.82241137713633 -36.22941985139230,-9.82238178933571 -36.22941601901616,-9.82237712133305 -36.22941601901616,-9.82237712133305 -36.22941601901616,-9.82237712133305
          </coordinates>
        </LinearRing>
      </outerBoundaryIs>
    </Polygon>
  </Placemark>
</Document>
</kml>
