<?xml version="1.0" encoding="UTF-8"?>
<kml xmlns="http://www.opengis.net/kml/2.2" xmlns:gx="http://www.google.com/kml/ext/2.2" xmlns:kml="http://www.opengis.net/kml/2.2" xmlns:atom="http://www.w3.org/2005/Atom">
<Document>
  <name>01.kml</name>
  <StyleMap id="FFFF0000">
    <Pair>
      <key>normal</key>
      <styleUrl>#s_FFFF0000</styleUrl>
    </Pair>
    <Pair>
      <key>highlight</key>
      <styleUrl>#s_FFFF0000_hl</styleUrl>
    </Pair>
  </StyleMap>
  <Style id="s_FFFF0000">
   <IconStyle>
      <scale>1.1</scale>
      <Icon>
        <href>http://maps.google.com/mapfiles/kml/pushpin/agrocad.png</href>
      </Icon>
      <hotSpot x="20" y="2" xunits="pixels" yunits="pixels"/>
    </IconStyle>
    <LineStyle>
      <color>FFFF0000</color>
      <width>1</width>
    </LineStyle>
    <PolyStyle>
      <color>40ffffff</color>
      <fill>1</fill>
    </PolyStyle>
  </Style>
  <Style id="s_FFFF0000_hl">
    <IconStyle>
      <scale>1.3</scale>
      <Icon>
        <href>http://maps.google.com/mapfiles/kml/pushpin/agrocad.png</href>
      </Icon>
      <hotSpot x="20" y="2" xunits="pixels" yunits="pixels"/>
    </IconStyle>
    <LineStyle>
      <color>ff000000</color>
      <width>1</width>
    </LineStyle>
    <PolyStyle>
      <color>40ffffff</color>
      <fill>1</fill>
    </PolyStyle>
  </Style>
  <Placemark>
    <name>AgroCAD: 1BF81</name>
    <styleUrl>FFFF0000</styleUrl>
    <Polygon>
      <outerBoundaryIs>
        <LinearRing>
          <coordinates>
           -36.23587498381925,-9.83238950440057 -36.23612811996823,-9.83221110142044 -36.23629627655120,-9.83209066831837 -36.23647686037879,-9.83196237401404 -36.23672583010995,-9.83178522879601 -36.23701002219934,-9.83158122193016 -36.23728696342136,-9.83138242467736 -36.23749369236190,-9.83123703110211 -36.23764219856267,-9.83112143782276 -36.23779753365449,-9.83102513076913 -36.23798259134561,-9.83090944495614 -36.23808706786698,-9.83085027373735 -36.23810755248446,-9.83083157573729 -36.23812084121518,-9.83088239026920 -36.23814925623805,-9.83098380296802 -36.23818636017470,-9.83110970640368 -36.23823859445371,-9.83130343808292 -36.23828585829245,-9.83150091494235 -36.23833317060549,-9.83168827298553 -36.23838047566739,-9.83187481395991 -36.23841559549567,-9.83202349000543 -36.23843508854106,-9.83209707448583 -36.23843236843379,-9.83210910071247 -36.23842008727497,-9.83217231570020 -36.23840939660954,-9.83225732316958 -36.23842113097266,-9.83235370961947 -36.23840883421931,-9.83248392878058 -36.23838550309931,-9.83257726072129 -36.23832089766207,-9.83265407473275 -36.23823104263133,-9.83273486074186 -36.23813220977007,-9.83282047030362 -36.23803576511932,-9.83290718377963 -36.23795277358882,-9.83299826299124 -36.23786825260834,-9.83309986299163 -36.23778284829008,-9.83320271549542 -36.23769088667614,-9.83331492577355 -36.23760005080509,-9.83343428328199 -36.23751358559139,-9.83355926445754 -36.23742912487251,-9.83368332517038 -36.23734689263205,-9.83381051384723 -36.23727398361790,-9.83394388960108 -36.23720836982974,-9.83407311287857 -36.23714509629891,-9.83419053200460 -36.23708655264668,-9.83429523036821 -36.23704572564952,-9.83437968456247 -36.23700748101962,-9.83447723139146 -36.23697428152574,-9.83458365421336 -36.23695258185897,-9.83466496226594 -36.23693510275499,-9.83474709027204 -36.23690637152793,-9.83484616554347 -36.23687225786166,-9.83492623034131 -36.23682161645631,-9.83499172983806 -36.23677782515704,-9.83502664437396 -36.23676818128998,-9.83502823540086 -36.23675821306961,-9.83500100934572 -36.23663586640745,-9.83463746105599 -36.23652003961461,-9.83429470100743 -36.23637849008107,-9.83389174290086 -36.23630024396363,-9.83369366134612 -36.23626502778413,-9.83354844529291 -36.23610576185700,-9.83307041742625 -36.23598126772556,-9.83270001923442 -36.23590279774255,-9.83247389136022 -36.23588937195138,-9.83243555671047 -36.23587774165567,-9.83239916503130 -36.23587498381925,-9.83238950440057 -36.23587498381925,-9.83238950440057 -36.23587498381925,-9.83238950440057
          </coordinates>
        </LinearRing>
      </outerBoundaryIs>
    </Polygon>
  </Placemark>
</Document>
</kml>
