<?xml version="1.0" encoding="UTF-8"?>
<kml xmlns="http://www.opengis.net/kml/2.2" xmlns:gx="http://www.google.com/kml/ext/2.2" xmlns:kml="http://www.opengis.net/kml/2.2" xmlns:atom="http://www.w3.org/2005/Atom">
<Document>
  <name>20.kml</name>
  <StyleMap id="FF0000FF">
    <Pair>
      <key>normal</key>
      <styleUrl>#s_FF0000FF</styleUrl>
    </Pair>
    <Pair>
      <key>highlight</key>
      <styleUrl>#s_FF0000FF_hl</styleUrl>
    </Pair>
  </StyleMap>
  <Style id="s_FF0000FF">
   <IconStyle>
      <scale>1.1</scale>
      <Icon>
        <href>http://maps.google.com/mapfiles/kml/pushpin/agrocad.png</href>
      </Icon>
      <hotSpot x="20" y="2" xunits="pixels" yunits="pixels"/>
    </IconStyle>
    <LineStyle>
      <color>FF0000FF</color>
      <width>1</width>
    </LineStyle>
    <PolyStyle>
      <color>40ffffff</color>
      <fill>1</fill>
    </PolyStyle>
  </Style>
  <Style id="s_FF0000FF_hl">
    <IconStyle>
      <scale>1.3</scale>
      <Icon>
        <href>http://maps.google.com/mapfiles/kml/pushpin/agrocad.png</href>
      </Icon>
      <hotSpot x="20" y="2" xunits="pixels" yunits="pixels"/>
    </IconStyle>
    <LineStyle>
      <color>ff000000</color>
      <width>1</width>
    </LineStyle>
    <PolyStyle>
      <color>40ffffff</color>
      <fill>1</fill>
    </PolyStyle>
  </Style>
  <Placemark>
    <name>AgroCAD: E703</name>
    <styleUrl>FF0000FF</styleUrl>
    <Polygon>
      <outerBoundaryIs>
        <LinearRing>
          <coordinates>
           -36.32440625274260,-9.79309975913780 -36.32440782612360,-9.79304783756323 -36.32444480057830,-9.79299670267917 -36.32448964193811,-9.79296838182027 -36.32456437753790,-9.79293455412770 -36.32466900737771,-9.79291095341200 -36.32480903829101,-9.79288420593416 -36.32486017317513,-9.79287948579105 -36.32487354691401,-9.79289364622049 -36.32487984043822,-9.79298490232127 -36.32492625517912,-9.79315168071240 -36.32501515120842,-9.79346911033896 -36.32507533303352,-9.79371455778252 -36.32514810190702,-9.79402294046804 -36.32530662004774,-9.79464088587484 -36.32538922255274,-9.79497542602030 -36.32544507758004,-9.79519648605760 -36.32556701461124,-9.79568974101636 -36.32576732568605,-9.79649423041371 -36.32628137877556,-9.79859749669843 -36.32672389219548,-9.80040649155901 -36.32740978799642,-9.80314343706107 -36.32747350992892,-9.80341337024718 -36.32747793506311,-9.80350629806538 -36.32742571847950,-9.80354169913896 -36.32722747246740,-9.80358329540037 -36.32711684411239,-9.80361604139347 -36.32705577726049,-9.80362223658136 -36.32702037618690,-9.80360984620560 -36.32575434529234,-9.79846784026643 -36.32497972555074,-9.79530099297696 -36.32440625274260,-9.79309975913780 -36.32440625274260,-9.79309975913780
          </coordinates>
        </LinearRing>
      </outerBoundaryIs>
    </Polygon>
  </Placemark>
</Document>
</kml>
