<?xml version="1.0" encoding="utf-8" ?>
<kml xmlns="http://www.opengis.net/kml/2.2">
<Document id="root_doc">
<Schema name="MANGABEIRA_TALHAO_1001_ID_479" id="MANGABEIRA_TALHAO_1001_ID_479">
	<SimpleField name="TALHAO" type="string"></SimpleField>
	<SimpleField name="FAZENDA" type="string"></SimpleField>
	<SimpleField name="ZONA" type="string"></SimpleField>
	<SimpleField name="ID" type="float"></SimpleField>
	<SimpleField name="AREA_TOTAL" type="float"></SimpleField>
	<SimpleField name="FAZ_NOME" type="string"></SimpleField>
	<SimpleField name="CODE" type="string"></SimpleField>
</Schema>
<Folder><name>MANGABEIRA_TALHAO_1001_ID_479</name>
  <Placemark id="MANGABEIRA_TALHAO_1001_ID_479.1">
	<Style><LineStyle><color>ff0000ff</color></LineStyle><PolyStyle><fill>0</fill></PolyStyle></Style>
	<ExtendedData><SchemaData schemaUrl="#MANGABEIRA_TALHAO_1001_ID_479">
		<SimpleData name="TALHAO">1001</SimpleData>
		<SimpleData name="FAZENDA">2655</SimpleData>
		<SimpleData name="ZONA">1</SimpleData>
		<SimpleData name="ID">479</SimpleData>
		<SimpleData name="AREA_TOTAL">10.37</SimpleData>
		<SimpleData name="FAZ_NOME">MANGABEIRA</SimpleData>
		<SimpleData name="CODE"></SimpleData>
	</SchemaData></ExtendedData>
      <MultiGeometry><Polygon><outerBoundaryIs><LinearRing><coordinates>-36.1211926960198,-9.95378634511145,0 -36.1229379919192,-9.95646086382474,0 -36.1247358541867,-9.95515090573566,0 -36.1247369632809,-9.95425134965773,0 -36.1247237541146,-9.954203354155,0 -36.1247139230907,-9.95417968760311,0 -36.1247040259252,-9.95415586191607,0 -36.1247000636526,-9.95414632327882,0 -36.1246777625038,-9.95411858917188,0 -36.1246391914031,-9.95408188354591,0 -36.1246194686888,-9.9540631146678,0 -36.1245997458988,-9.95404434570977,0 -36.124580023205,-9.95402557684573,0 -36.1245603004507,-9.95400680800725,0 -36.1245405776985,-9.95398803899113,0 -36.1245225402627,-9.9539708739538,0 -36.1245053181174,-9.95396132446327,0 -36.1244833969492,-9.95395596190419,0 -36.1244574756886,-9.95395632537514,0 -36.124429208541,-9.95395672182632,0 -36.1244009414291,-9.95395711827668,0 -36.124372674224,-9.95395751472388,0 -36.1243444070553,-9.95395791107988,0 -36.1243161400026,-9.95395830752218,0 -36.1242878727994,-9.95395870396214,0 -36.1242596056906,-9.95395910040039,0 -36.1242324524662,-9.95395948112573,0 -36.1242055342948,-9.95396314016246,0 -36.1241775123609,-9.95396694932345,0 -36.1241494903126,-9.95397075840722,0 -36.1241214683219,-9.95397456748061,0 -36.1240934463313,-9.95397837655148,0 -36.1240654243406,-9.9539821856198,0 -36.1240374023499,-9.95398599468558,0 -36.124009380416,-9.95398980383135,0 -36.123978100047,-9.95399405579223,0 -36.1239461774589,-9.95398695162199,0 -36.1239224538468,-9.95397212816047,0 -36.1238887309312,-9.95392765831646,0 -36.1238570220884,-9.95388584429403,0 -36.1238253132645,-9.95384403028594,0 -36.1238094588442,-9.95382312322123,0 -36.1237925188796,-9.95380078475479,0 -36.1237799573991,-9.9537748083556,0 -36.1237677792755,-9.95375059008332,0 -36.1237598568925,-9.95372255049123,0 -36.1237449457538,-9.95366977526136,0 -36.1237300346292,-9.95361700016586,0 -36.123722579029,-9.95359061264142,0 -36.1237151234178,-9.95356422498335,0 -36.1237076678156,-9.95353783744763,0 -36.1237004956208,-9.95351245266153,0 -36.1236792969248,-9.95346107181917,0 -36.1236577006245,-9.95340872695042,0 -36.123636104347,-9.95335638221767,0 -36.1236253062118,-9.9533302099018,0 -36.1236145080659,-9.95330403746472,0 -36.1236037099375,-9.95327786515935,0 -36.1235925924167,-9.95325091884537,0 -36.1235832678962,-9.95322058056332,0 -36.1235741891335,-9.95319104207934,0 -36.1235651103655,-9.95316150366794,0 -36.1235560316661,-9.95313196508862,0 -36.1235469529148,-9.95310242672582,0 -36.1235378742212,-9.95307288825226,0 -36.1235287954633,-9.95304334976915,0 -36.1235197166999,-9.95301381135858,0 -36.1235106380053,-9.95298427278009,0 -36.1235016615788,-9.95295506732377,0 -36.1234923456403,-9.95292847641021,0 -36.1234829145267,-9.95290155674455,0 -36.1234734834142,-9.95287463707903,0 -36.1234640522971,-9.95284771730512,0 -36.1234546211929,-9.95282079765805,0 -36.1234451900834,-9.95279387799293,0 -36.1234357589748,-9.95276695832793,0 -36.1234263278673,-9.95274003866305,0 -36.1234168967607,-9.95271311899831,0 -36.1234077242657,-9.95268693749856,0 -36.1233955976205,-9.95266006977721,0 -36.1233831489734,-9.9526324888283,0 -36.1233707003785,-9.95260490779062,0 -36.1233582517346,-9.95257732684189,0 -36.1233458031429,-9.95254974580441,0 -36.1233333545729,-9.95252216481177,0 -36.1233209059337,-9.9524945838633,0 -36.1233084573466,-9.95246700282603,0 -36.1232960087814,-9.95243942183368,0 -36.1232839253965,-9.95241265012562,0 -36.1232690831445,-9.95238687942078,0 -36.1232537975502,-9.95236033877666,0 -36.1232385119256,-9.95233379832552,0 -36.1232232262539,-9.95230725769727,0 -36.1232079405977,-9.95228071709226,0 -36.1231926549436,-9.95225417648726,0 -36.1231773692915,-9.95222763588224,0 -36.1231620836415,-9.95220109527712,0 -36.1231467980063,-9.95217455478568,0 -36.1231323443687,-9.95214945865529,0 -36.1231147203635,-9.95212881660899,0 -36.1230960123818,-9.95210690475915,0 -36.1230773044781,-9.95208499308878,0 -36.1230585965526,-9.95206308138977,0 -36.1230398886295,-9.9520411696903,0 -36.1230211807088,-9.95201925799053,0 -36.123002472767,-9.95199734617169,0 -36.1229837648752,-9.95197543449947,0 -36.1229661560709,-9.95195481013365,0 -36.1229476975813,-9.95193994494633,0 -36.122934276772,-9.95193204367574,0 -36.1229178884385,-9.95192792226526,0 -36.1228989436454,-9.95192315794402,0 -36.1228799989325,-9.95191839373232,0 -36.1228421093519,-9.95190886506344,0 -36.1228056365784,-9.95189969280475,0 -36.1227996826312,-9.95189916988226,0 -36.1227324677626,-9.95197450949884,0 -36.1226961491,-9.95201521825054,0 -36.1226598303989,-9.95205592711772,0 -36.1226241650918,-9.95209590349174,0 -36.1226085603285,-9.95211775646516,0 -36.122576210949,-9.95216305874143,0 -36.1225600362405,-9.95218570994311,0 -36.1225276868463,-9.95223101221076,0 -36.1225115121304,-9.95225366340812,0 -36.1224791627214,-9.95229896566716,0 -36.1224625502692,-9.95232222985879,0 -36.1224439210614,-9.95234419581725,0 -36.1224076377287,-9.95238697807589,0 -36.12237135446,-9.95242976034887,0 -36.1223532127652,-9.95245115154034,0 -36.1223167769809,-9.95249411351079,0 -36.1222602626853,-9.95255733901317,0 -36.1222401708446,-9.95257758982343,0 -36.1222006520266,-9.95261742148603,0 -36.1221808926853,-9.95263733724578,0 -36.1221216144522,-9.95269708452164,0 -36.1220820126712,-9.9527369997524,0 -36.1220619459924,-9.95275670697114,0 -36.1220019979376,-9.95281558131335,0 -36.1219620325445,-9.95285483084655,0 -36.1219420498521,-9.95287445555802,0 -36.1219019976802,-9.95291379019968,0 -36.121860220726,-9.95295373413637,0 -36.1218385132293,-9.9529739683887,0 -36.1218168899732,-9.95299412393768,0 -36.1217952667781,-9.95301427951094,0 -36.1217520203157,-9.95305459071483,0 -36.1217303970819,-9.95307474639997,0 -36.1217087738757,-9.95309490196516,0 -36.1216871506681,-9.95311505752698,0 -36.1216659647987,-9.9531348054337,0 -36.1216450088882,-9.9531570916924,0 -36.1216236435877,-9.95317981332493,0 -36.1216022783221,-9.9532025350127,0 -36.1215595476528,-9.95324797832332,0 -36.1215381823136,-9.95327069997532,0 -36.1215168169958,-9.95329342159908,0 -36.1214954516254,-9.95331614336292,0 -36.1214740862772,-9.95333886500818,0 -36.1214536549958,-9.95336059328587,0 -36.1214375623216,-9.95338389953315,0 -36.121420695759,-9.9534083265169,0 -36.1214038292293,-9.95343275335798,0 -36.1213869626611,-9.95345718033857,0 -36.1213700961259,-9.95348160717649,0 -36.1213532295696,-9.95350603412853,0 -36.121336362993,-9.95353046110433,0 -36.1213194964537,-9.95355488793129,0 -36.1212864419913,-9.9536027589859,0 -36.1212758823974,-9.95362343810474,0 -36.1212647802829,-9.95364517983022,0 -36.121253678153,-9.95366692158166,0 -36.1212314738377,-9.95371040500102,0 -36.1212092695927,-9.95375388844472,0 -36.1211926960198,-9.95378634511145,0</coordinates></LinearRing></outerBoundaryIs></Polygon></MultiGeometry>
  </Placemark>
</Folder>
</Document></kml>
