<?xml version="1.0" encoding="utf-8" ?>
<kml xmlns="http://www.opengis.net/kml/2.2">
<Document id="root_doc">
<Schema name="MANGABEIRA_TALHAO_1007_ID_477" id="MANGABEIRA_TALHAO_1007_ID_477">
	<SimpleField name="TALHAO" type="string"></SimpleField>
	<SimpleField name="FAZENDA" type="string"></SimpleField>
	<SimpleField name="ZONA" type="string"></SimpleField>
	<SimpleField name="ID" type="float"></SimpleField>
	<SimpleField name="AREA_TOTAL" type="float"></SimpleField>
	<SimpleField name="FAZ_NOME" type="string"></SimpleField>
	<SimpleField name="CODE" type="string"></SimpleField>
</Schema>
<Folder><name>MANGABEIRA_TALHAO_1007_ID_477</name>
  <Placemark id="MANGABEIRA_TALHAO_1007_ID_477.1">
	<Style><LineStyle><color>ff0000ff</color></LineStyle><PolyStyle><fill>0</fill></PolyStyle></Style>
	<ExtendedData><SchemaData schemaUrl="#MANGABEIRA_TALHAO_1007_ID_477">
		<SimpleData name="TALHAO">1007</SimpleData>
		<SimpleData name="FAZENDA">2655</SimpleData>
		<SimpleData name="ZONA">1</SimpleData>
		<SimpleData name="ID">477</SimpleData>
		<SimpleData name="AREA_TOTAL">11.84</SimpleData>
		<SimpleData name="FAZ_NOME">MANGABEIRA</SimpleData>
		<SimpleData name="CODE"></SimpleData>
	</SchemaData></ExtendedData>
      <MultiGeometry><Polygon><outerBoundaryIs><LinearRing><coordinates>-36.116063303909,-9.95062594134244,0 -36.1160437906951,-9.95063487303096,0 -36.1160218346598,-9.95065117666296,0 -36.115984946723,-9.95066753613153,0 -36.1159433411289,-9.95068165449076,0 -36.1159296291119,-9.950684593674,0 -36.1159177285508,-9.95068789774507,0 -36.1158855265981,-9.9506996223092,0 -36.1158339920811,-9.95070280296993,0 -36.1158085572327,-9.9507063817734,0 -36.1157760362611,-9.95071172794252,0 -36.1157247309731,-9.95071370189962,0 -36.1156980200021,-9.95071001070155,0 -36.1156730141193,-9.95070752014191,0 -36.11564775446,-9.9507067602717,0 -36.1156214017101,-9.95070705567148,0 -36.115587081846,-9.95070653449573,0 -36.1155429926056,-9.9506962399351,0 -36.1155168559366,-9.95069323446917,0 -36.1154761541205,-9.95068543860254,0 -36.1154216106567,-9.95066254302835,0 -36.1153546705175,-9.95064848007962,0 -36.1153137738817,-9.95062755406344,0 -36.1152716675707,-9.95061442336483,0 -36.1152396523486,-9.95059560069246,0 -36.1151952182805,-9.95057905634689,0 -36.1151736776296,-9.95057817385152,0 -36.1151485517464,-9.95058216595961,0 -36.1151223399506,-9.9505867043074,0 -36.1151088530756,-9.95058616152147,0 -36.1150993040022,-9.95058731047396,0 -36.115079886942,-9.95059575252951,0 -36.1150419508835,-9.95062268397168,0 -36.1150340181577,-9.95063042428148,0 -36.1150197134527,-9.95064509505282,0 -36.1149872292259,-9.95068905133182,0 -36.1149752463065,-9.95071111830707,0 -36.1149648666843,-9.95073473289695,0 -36.1149540560711,-9.95075659430992,0 -36.1149464123279,-9.95078060112055,0 -36.1149404579585,-9.95080228679641,0 -36.1149333648578,-9.95086950762155,0 -36.1149274018107,-9.95090156112908,0 -36.1149234381822,-9.95092659940878,0 -36.1149227579426,-9.95095321627265,0 -36.1149215408784,-9.95096699011848,0 -36.1149171447663,-9.95105320530626,0 -36.1149124739634,-9.95111298332668,0 -36.1149130420557,-9.95113987504965,0 -36.1149122950538,-9.95116588938749,0 -36.1149142228951,-9.95119112580379,0 -36.1149183567285,-9.9512191057511,0 -36.1150589922638,-9.95124516911716,0 -36.1151415686801,-9.95124651428047,0 -36.1151808687318,-9.95124375680896,0 -36.1154865211476,-9.95122146316051,0 -36.1160647455352,-9.95116541770398,0 -36.116235668644,-9.95114850586409,0 -36.1162870081068,-9.9511415821524,0 -36.1163463353521,-9.95113412210981,0 -36.1164741342761,-9.95112524112901,0 -36.1165383078987,-9.95112407694709,0 -36.1166052472208,-9.95112019325828,0 -36.1166747382019,-9.95111741210098,0 -36.1186697012021,-9.95096600927475,0 -36.118728923947,-9.9509584114553,0 -36.1187908668141,-9.95095082267805,0 -36.1188523721161,-9.9509420839502,0 -36.1189117183394,-9.950931663197,0 -36.1189705159165,-9.95091917322235,0 -36.1190282921429,-9.95090522270196,0 -36.1190833379226,-9.9508881368781,0 -36.1191337388353,-9.95086597009634,0 -36.1191804929332,-9.95083860952595,0 -36.1192253390775,-9.9508069645167,0 -36.119271227828,-9.95077166932617,0 -36.1193177966993,-9.95073499802065,0 -36.1193648844441,-9.9506961731958,0 -36.1194140492152,-9.95065549294117,0 -36.122353198241,-9.94842648666897,0 -36.1223986902189,-9.94839275514769,0 -36.1224447974462,-9.94836124107004,0 -36.1225306175052,-9.94829984078097,0 -36.1225802440209,-9.94826308794084,0 -36.1226620031287,-9.94821030664215,0 -36.1227470882395,-9.94817396338191,0 -36.1228011787878,-9.94815553416322,0 -36.1228735130619,-9.94813803137476,0 -36.1229653318209,-9.94813230858009,0 -36.1230177561265,-9.94812991067341,0 -36.1230706136298,-9.948129631998,0 -36.1238647648338,-9.94815858314976,0 -36.1244648786127,-9.94821759474354,0 -36.1245187503176,-9.9482284057611,0 -36.1247472958855,-9.94823586215228,0 -36.1247079523816,-9.94649698326451,0 -36.1246496366241,-9.94651690158994,0 -36.1246107362394,-9.94653222596038,0 -36.124576611787,-9.94654294890619,0 -36.1245390150661,-9.94655009343821,0 -36.1245039215722,-9.94656476584914,0 -36.12447445493,-9.94656667519959,0 -36.1244173940756,-9.94657614416549,0 -36.1243795888533,-9.94658839359591,0 -36.1243335056809,-9.94659456711904,0 -36.1243112783595,-9.94659823275851,0 -36.1242558407019,-9.94661206856177,0 -36.1241758335245,-9.94662340934343,0 -36.1241520840939,-9.9466268061196,0 -36.1241150282671,-9.94663249710568,0 -36.1240956125356,-9.94663389342565,0 -36.1240761113023,-9.94664016851564,0 -36.1240332486955,-9.94664535767266,0 -36.1239777691896,-9.94665806868688,0 -36.1239538308551,-9.94666360095695,0 -36.1239302040804,-9.94667136554368,0 -36.1238872758133,-9.94668890764046,0 -36.1238668935246,-9.94670098085597,0 -36.1238133609902,-9.94672036495287,0 -36.1237816689909,-9.94673401465623,0 -36.1237713495186,-9.94674866398787,0 -36.1237501856656,-9.94675915270911,0 -36.123724355308,-9.94677510527994,0 -36.1237030627201,-9.94680231282656,0 -36.1236896577881,-9.94682084830302,0 -36.123661549273,-9.94687675811958,0 -36.1236567725509,-9.94688732005127,0 -36.1236479994977,-9.94691048367718,0 -36.1236407500986,-9.94694996237099,0 -36.1236268067203,-9.94700348150806,0 -36.1236173027288,-9.94702972416819,0 -36.1236093999484,-9.94705554031921,0 -36.1235886657887,-9.94710925941343,0 -36.1235679769252,-9.94713827376054,0 -36.12352136035,-9.94718341838083,0 -36.1234921472171,-9.94721254051322,0 -36.1234517479478,-9.94725200180878,0 -36.1233846306802,-9.947303123849,0 -36.1233741065153,-9.9473088861248,0 -36.1233419970275,-9.94733546994486,0 -36.1233125506644,-9.94735236096739,0 -36.123290327888,-9.94736554300535,0 -36.1232687547695,-9.94738193153199,0 -36.1231941972735,-9.94741779460876,0 -36.1231492475198,-9.94743640808127,0 -36.1230599271389,-9.94745739555114,0 -36.1230181533273,-9.94746141262282,0 -36.1229564992452,-9.94745787016605,0 -36.1228891583863,-9.94744884551906,0 -36.1228302790815,-9.94744553016029,0 -36.1227866812062,-9.94743866283433,0 -36.1227613412703,-9.94743502658116,0 -36.1227244038887,-9.94743174073304,0 -36.1226895947229,-9.94743633764723,0 -36.1226471455733,-9.94743465482844,0 -36.1226228953216,-9.94743596935143,0 -36.12259353486,-9.94744504887871,0 -36.1224970240034,-9.94747722475095,0 -36.1224579106274,-9.94749301642204,0 -36.122399009529,-9.9475126587377,0 -36.122373510941,-9.94752070048966,0 -36.1223641097072,-9.94752301063351,0 -36.12226906194,-9.94755653859595,0 -36.1222579306512,-9.94756227210079,0 -36.1222194350783,-9.94757502754533,0 -36.1221987798518,-9.94758262426002,0 -36.1221467468645,-9.94760358829192,0 -36.1221121114546,-9.94762187512143,0 -36.1220727089471,-9.94763915599843,0 -36.1220249742605,-9.94765685591047,0 -36.1219903493394,-9.94766389027194,0 -36.121959506105,-9.94767998646263,0 -36.121900053231,-9.94768904261236,0 -36.1218793121959,-9.94769370086252,0 -36.1218573042656,-9.94770187642846,0 -36.1218123450634,-9.94770660273504,0 -36.1217260191353,-9.94773048884324,0 -36.1217040012987,-9.94773905751845,0 -36.1216841682329,-9.94774695534455,0 -36.1216522612858,-9.94776631314784,0 -36.1216206080688,-9.94778157464946,0 -36.1215784966651,-9.94780904315305,0 -36.1215539017024,-9.94782864556705,0 -36.121535913082,-9.94784141131472,0 -36.1214960780644,-9.94787999887025,0 -36.1214457985086,-9.94791550382486,0 -36.1214341883228,-9.94792682441479,0 -36.1214202968095,-9.94794973392504,0 -36.121413899887,-9.94798495719282,0 -36.1213945777312,-9.94805007002641,0 -36.1213833524514,-9.9480891217919,0 -36.1213733120453,-9.94811768987509,0 -36.1213598802635,-9.94814112213921,0 -36.1213349841902,-9.94820089574257,0 -36.1212888428459,-9.94825720531531,0 -36.1212603644807,-9.94828364533426,0 -36.1212371653002,-9.94830872185171,0 -36.1211820218604,-9.94836390071383,0 -36.1211224184311,-9.94841019526588,0 -36.121103330825,-9.94842733671817,0 -36.121070973956,-9.94845160958387,0 -36.121050816133,-9.948467199977,0 -36.1210296208064,-9.94848392146278,0 -36.1209993631249,-9.94850679714842,0 -36.1209775756182,-9.94852604820453,0 -36.1209561851047,-9.9485417107415,0 -36.1209369423507,-9.94855684522755,0 -36.120904656684,-9.94857887023606,0 -36.1208684976115,-9.94860564878755,0 -36.1207870808524,-9.94864851554652,0 -36.1207506201475,-9.94866324497737,0 -36.1207104203904,-9.94867193128722,0 -36.120675856294,-9.94868661602672,0 -36.1206279823981,-9.94870090267673,0 -36.1205687902011,-9.94871122723681,0 -36.1205177871715,-9.94872260007627,0 -36.1204744548581,-9.94873399399764,0 -36.1204145715353,-9.9487410921079,0 -36.1203948186249,-9.94875051808611,0 -36.1203624802301,-9.94877043445616,0 -36.1203224772479,-9.94879394892006,0 -36.1202704597922,-9.94883264420688,0 -36.1202525949663,-9.94884934758662,0 -36.1202358573923,-9.94886611998183,0 -36.1202223908486,-9.9488850636603,0 -36.1202096105468,-9.94890682048439,0 -36.1201961235041,-9.94892684130033,0 -36.1201691817841,-9.9489711745489,0 -36.1201549979406,-9.94900656817485,0 -36.1201363012915,-9.94904402887898,0 -36.1201168973716,-9.94906093069132,0 -36.1201057339785,-9.94909441185446,0 -36.1200787485733,-9.9491399792905,0 -36.1200512984509,-9.94917218840911,0 -36.1200281718216,-9.94920419236441,0 -36.120000889785,-9.94923448647435,0 -36.1199759385413,-9.94926740147449,0 -36.1199490094314,-9.94929482700256,0 -36.1199235570529,-9.94933889320997,0 -36.1199102140098,-9.94936128454807,0 -36.1198918323816,-9.94939562295816,0 -36.1198744391718,-9.94942836798669,0 -36.1198682177885,-9.94945050929336,0 -36.1198620692163,-9.9494740688109,0 -36.119858070455,-9.94951023129627,0 -36.1198446076346,-9.94955590775278,0 -36.1198391808194,-9.94958085752364,0 -36.1198352942387,-9.94960460575942,0 -36.1198333132985,-9.94963451170502,0 -36.1198195805337,-9.94967822022618,0 -36.1198179201833,-9.94970320892804,0 -36.1198065637372,-9.94972154844119,0 -36.1198039584165,-9.94974331005464,0 -36.1197942304945,-9.94977034222416,0 -36.1197857150095,-9.94979466951611,0 -36.1197687286942,-9.94983306570194,0 -36.1197273512445,-9.94988073005494,0 -36.1197017136002,-9.94991328071841,0 -36.1196788021922,-9.94993686314767,0 -36.1196415806017,-9.94997897613311,0 -36.1196234397282,-9.95000093747087,0 -36.1196033568662,-9.95002045775535,0 -36.1195860002847,-9.95003852113022,0 -36.1195686843723,-9.95005891989822,0 -36.1195492427321,-9.95007671310298,0 -36.1195352188067,-9.95009587769841,0 -36.119502200618,-9.95012569736595,0 -36.1194836221204,-9.95014459250402,0 -36.1194644722806,-9.95016023283101,0 -36.1194481498071,-9.95018162951437,0 -36.1194238428518,-9.95019550310737,0 -36.1194055189531,-9.95020979321286,0 -36.1193840274078,-9.95022447213484,0 -36.1193676342574,-9.9502365375861,0 -36.1193118985213,-9.95026758880111,0 -36.1192861455434,-9.95027605675322,0 -36.1192627451957,-9.95028869820711,0 -36.1192092934973,-9.95030376128616,0 -36.1191609484401,-9.95032095320605,0 -36.1190918448433,-9.95033230669344,0 -36.1190437002457,-9.95033835383337,0 -36.1190165999247,-9.95034064763158,0 -36.1189906601552,-9.95034461424559,0 -36.1189441262755,-9.95035560805599,0 -36.118905446356,-9.95035278290398,0 -36.1188873835431,-9.9503560666058,0 -36.1188500045634,-9.95035320642243,0 -36.1188140335111,-9.95035395888329,0 -36.11874916037,-9.95034266642219,0 -36.1186985444324,-9.95032366684882,0 -36.118672855332,-9.95031602863179,0 -36.1186471185546,-9.95030884050891,0 -36.1186061292433,-9.95030095914006,0 -36.1185517602304,-9.95027759099473,0 -36.1185288899803,-9.95026061450039,0 -36.1185082327475,-9.9502457002703,0 -36.118489032433,-9.95023222802808,0 -36.1184749633901,-9.95022741658804,0 -36.1184367834864,-9.95020231037615,0 -36.1183773113803,-9.95014766982304,0 -36.1183312833275,-9.95007982656419,0 -36.1183147993663,-9.95003865592999,0 -36.1183031986395,-9.95001588761776,0 -36.1182892739851,-9.94999248140281,0 -36.1182765286443,-9.94996736660386,0 -36.1182647087846,-9.94994469585416,0 -36.118240462666,-9.94991316156671,0 -36.1182242400685,-9.94987145640362,0 -36.1182116151777,-9.94984867875234,0 -36.1181948845177,-9.94981984523568,0 -36.1181805451378,-9.94976837205166,0 -36.1181761583606,-9.94974011625678,0 -36.1181714336086,-9.94971363005886,0 -36.1181678717851,-9.94968543122299,0 -36.1181688523221,-9.94965820221748,0 -36.118167341777,-9.94963161678276,0 -36.1181691770915,-9.94961189709279,0 -36.1181687501568,-9.94955709556052,0 -36.1181605579237,-9.94952619714782,0 -36.1181651705668,-9.94948786184791,0 -36.1181668129048,-9.94946317470449,0 -36.1181658778459,-9.9494374039706,0 -36.1181648352469,-9.94941006485194,0 -36.1181693032601,-9.94938498195331,0 -36.1181672819268,-9.94935454909517,0 -36.1181684903117,-9.94930960547381,0 -36.1181672318996,-9.94927899106289,0 -36.1181742699023,-9.94922263069986,0 -36.1181832630266,-9.94918198165166,0 -36.1181834766087,-9.94915682812715,0 -36.1181905330622,-9.94913244674836,0 -36.1181920523556,-9.94911108714161,0 -36.1181927920339,-9.94908700039059,0 -36.1181947958992,-9.94906326733163,0 -36.1181917245045,-9.94902666916264,0 -36.1181985810813,-9.94898529116207,0 -36.1182003833021,-9.94896673843748,0 -36.1181850601718,-9.94893859662994,0 -36.1181708212584,-9.94890450422102,0 -36.1181585363612,-9.94888693834416,0 -36.1181395395765,-9.94887439650901,0 -36.1181167395476,-9.94886555144924,0 -36.1180935973306,-9.94886068282569,0 -36.1180726621568,-9.94886315930084,0 -36.1180527968075,-9.94887366466795,0 -36.1180328325966,-9.94888886952734,0 -36.1180140488571,-9.94890585624867,0 -36.1180011996423,-9.94892618987043,0 -36.1179888639448,-9.94895089168297,0 -36.1179786492108,-9.94897247677154,0 -36.1179781034198,-9.94900588436351,0 -36.1179667748941,-9.94905219143186,0 -36.1179610392006,-9.94910554927145,0 -36.1179533376044,-9.94913112412177,0 -36.1179484706301,-9.94916639878937,0 -36.1179315885248,-9.94920933352261,0 -36.117920751389,-9.94923853835811,0 -36.1178998745541,-9.94928334393331,0 -36.1178893588098,-9.94930813132681,0 -36.1178768810616,-9.94933234958002,0 -36.1178640875068,-9.94935756468896,0 -36.1178487429539,-9.94938077647264,0 -36.1178339663172,-9.94940340613509,0 -36.1178185792205,-9.94942793801857,0 -36.1177995690841,-9.94944768164153,0 -36.1177816067614,-9.94946646876958,0 -36.1177632657689,-9.94948649417127,0 -36.1177365741834,-9.94950762296956,0 -36.117685418241,-9.94953694173376,0 -36.1176453917246,-9.9495540645713,0 -36.1176198461724,-9.94956093031662,0 -36.1175965336742,-9.94956882116288,0 -36.1175728427038,-9.94957748885199,0 -36.1175473291135,-9.94958829209584,0 -36.11752149419,-9.94959496341021,0 -36.1174970592892,-9.94960391830016,0 -36.117477010872,-9.94961012373407,0 -36.1174423850705,-9.94963344825554,0 -36.1173860985858,-9.9496581506739,0 -36.1173612013649,-9.94966989304492,0 -36.1173363044659,-9.94967775371277,0 -36.1173012210495,-9.94969380900743,0 -36.1172631388611,-9.94970870315362,0 -36.1172369772061,-9.94972016019614,0 -36.1171862095549,-9.94973488181975,0 -36.1171646323443,-9.94974189333036,0 -36.1171239091741,-9.94976133401388,0 -36.1170904812791,-9.94977016237239,0 -36.1170609426508,-9.94977836100254,0 -36.1170136918293,-9.94979045747563,0 -36.1169696616774,-9.94980005827623,0 -36.1169427172917,-9.94980161351326,0 -36.1169125356612,-9.94980963651813,0 -36.11686439344,-9.94981336580752,0 -36.1168369323212,-9.94981876665762,0 -36.1168084013788,-9.94981940345011,0 -36.1167813476659,-9.94982050171533,0 -36.1167545171703,-9.94982257891984,0 -36.1167277913093,-9.94982467034162,0 -36.1167025289811,-9.94982702964765,0 -36.1166837557253,-9.94983280631429,0 -36.1166329044832,-9.94985244345777,0 -36.1166141492469,-9.94986521183746,0 -36.1166007865975,-9.94988020214638,0 -36.1165917669845,-9.9499019039932,0 -36.11658399444,-9.94992535488415,0 -36.1165822193654,-9.94993590062567,0 -36.1165791780486,-9.94997218211482,0 -36.116581344822,-9.95004039235426,0 -36.1165835895514,-9.95006776757588,0 -36.1165816580551,-9.95009460626652,0 -36.1165833469476,-9.95012152601692,0 -36.1165802132408,-9.95014292479663,0 -36.1165799381548,-9.95020207650126,0 -36.1165764982171,-9.95023155682571,0 -36.1165678255595,-9.95025630438199,0 -36.1165626475708,-9.9502812976638,0 -36.1165549055521,-9.95031110233251,0 -36.1165366336821,-9.95034397386571,0 -36.1165022130401,-9.95038062663378,0 -36.1164837085904,-9.95040046490475,0 -36.1164555437084,-9.95043136296146,0 -36.1164118571212,-9.95045250545941,0 -36.1163872921721,-9.95046538305875,0 -36.1163621820019,-9.95047571515888,0 -36.1163387611853,-9.95048732952216,0 -36.1163160624846,-9.95050014592293,0 -36.1162920071635,-9.95051376755534,0 -36.116252266689,-9.95053704846491,0 -36.1162071850479,-9.95055651612666,0 -36.1161856178279,-9.95056905442139,0 -36.1161631143294,-9.95058347100501,0 -36.116129285724,-9.95060290776651,0 -36.1160880555169,-9.95062017949394,0 -36.116063303909,-9.95062594134244,0</coordinates></LinearRing></outerBoundaryIs></Polygon></MultiGeometry>
  </Placemark>
</Folder>
</Document></kml>
