<?xml version="1.0" encoding="utf-8" ?>
<kml xmlns="http://www.opengis.net/kml/2.2">
<Document id="root_doc">
<Schema name="MANGABEIRA_TALHAO_1016_ID_494" id="MANGABEIRA_TALHAO_1016_ID_494">
	<SimpleField name="TALHAO" type="string"></SimpleField>
	<SimpleField name="FAZENDA" type="string"></SimpleField>
	<SimpleField name="ZONA" type="string"></SimpleField>
	<SimpleField name="ID" type="float"></SimpleField>
	<SimpleField name="AREA_TOTAL" type="float"></SimpleField>
	<SimpleField name="FAZ_NOME" type="string"></SimpleField>
	<SimpleField name="CODE" type="string"></SimpleField>
</Schema>
<Folder><name>MANGABEIRA_TALHAO_1016_ID_494</name>
  <Placemark id="MANGABEIRA_TALHAO_1016_ID_494.1">
	<Style><LineStyle><color>ff0000ff</color></LineStyle><PolyStyle><fill>0</fill></PolyStyle></Style>
	<ExtendedData><SchemaData schemaUrl="#MANGABEIRA_TALHAO_1016_ID_494">
		<SimpleData name="TALHAO">1016</SimpleData>
		<SimpleData name="FAZENDA">2655</SimpleData>
		<SimpleData name="ZONA">1</SimpleData>
		<SimpleData name="ID">494</SimpleData>
		<SimpleData name="AREA_TOTAL">2.86</SimpleData>
		<SimpleData name="FAZ_NOME">MANGABEIRA</SimpleData>
		<SimpleData name="CODE"></SimpleData>
	</SchemaData></ExtendedData>
      <MultiGeometry><Polygon><outerBoundaryIs><LinearRing><coordinates>-36.1204560175419,-9.92163911479347,0 -36.1204533523314,-9.92170405373391,0 -36.1204654889067,-9.92178011166868,0 -36.1204738515861,-9.92180660993277,0 -36.1204762689427,-9.92189597691113,0 -36.1204759387459,-9.92192746176327,0 -36.1204778703172,-9.92195803400769,0 -36.1204806408138,-9.92198127510652,0 -36.1204816877649,-9.92205822224141,0 -36.120482324271,-9.92208554276847,0 -36.1204859020732,-9.92211397298888,0 -36.1204863378317,-9.92212368129602,0 -36.1204927471619,-9.92214383228926,0 -36.1205003825789,-9.9221638438634,0 -36.1205077378103,-9.92218294148914,0 -36.120511256973,-9.92219702443013,0 -36.120519587698,-9.92222416644173,0 -36.1205525661677,-9.92228355132497,0 -36.1206036849374,-9.92235201983381,0 -36.1206732163351,-9.92241546124033,0 -36.1207180377892,-9.92244230665946,0 -36.1207797180273,-9.92244945204899,0 -36.1208379596339,-9.92246814401547,0 -36.1208994664349,-9.92249513341058,0 -36.1209610310663,-9.92251550791368,0 -36.1210258464524,-9.92254583247353,0 -36.1210923874017,-9.92256955771679,0 -36.1211506734072,-9.92258328864072,0 -36.121244114444,-9.92258409145289,0 -36.1213209424162,-9.92257648212819,0 -36.1213946063443,-9.92254900070215,0 -36.121456734645,-9.92250488263451,0 -36.1215189640955,-9.92244918803065,0 -36.1215812224196,-9.92239018690137,0 -36.1216399341426,-9.9223289097549,0 -36.1216765794191,-9.92229253771339,0 -36.1217100437516,-9.92224209423946,0 -36.1206752643464,-9.91984614149259,0 -36.1206461628887,-9.91983763239033,0 -36.1206161684538,-9.91983456040533,0 -36.1205890297099,-9.91984120324245,0 -36.1205611086059,-9.91985440033653,0 -36.1205344195728,-9.91987153383298,0 -36.1205131448212,-9.91989276821423,0 -36.1204627620977,-9.91993496812605,0 -36.1204277013829,-9.91997765316308,0 -36.1203738350514,-9.92006177655539,0 -36.1203357174001,-9.92011844737007,0 -36.1203198322847,-9.9201405738745,0 -36.1202900154024,-9.92018617434225,0 -36.1202640227055,-9.92022554832367,0 -36.1202548540073,-9.92023450849266,0 -36.1202287206367,-9.92027542323988,0 -36.1202158784202,-9.92029825838545,0 -36.1201844954017,-9.92034423943258,0 -36.1201549150879,-9.9203919675638,0 -36.1201238687009,-9.9204389194647,0 -36.120091996932,-9.92050187866606,0 -36.1200789917904,-9.9205249735682,0 -36.12003268901,-9.92062600618349,0 -36.1200249263628,-9.92066424332819,0 -36.1200222404887,-9.92069169013488,0 -36.1200253500564,-9.92072003474794,0 -36.120040327023,-9.92077287775357,0 -36.1200653273481,-9.92081986798583,0 -36.1200802972081,-9.92085589975206,0 -36.1201082358014,-9.92089711237285,0 -36.1201437790027,-9.9209341359648,0 -36.1201872479495,-9.92098495497584,0 -36.1202211995384,-9.92100870850647,0 -36.1202525295493,-9.92103612304027,0 -36.1203030061099,-9.92107513843528,0 -36.1203470931728,-9.92112448220488,0 -36.1203677668911,-9.92117502185458,0 -36.1203773549237,-9.92119959452039,0 -36.1203876320845,-9.92122395476088,0 -36.1204057933724,-9.92127204254862,0 -36.1204127030934,-9.92130035017174,0 -36.1204161474217,-9.92133505977313,0 -36.120413925543,-9.92137310907398,0 -36.1204139115044,-9.92139864742241,0 -36.1204152113767,-9.92142565999521,0 -36.1204219513393,-9.92144604808827,0 -36.1204301296948,-9.92146556149124,0 -36.1204388757582,-9.92148792848605,0 -36.1204464778833,-9.92151214213031,0 -36.1204491373522,-9.92152057003308,0 -36.1204596733745,-9.92155256046197,0 -36.120462639159,-9.92158820750998,0 -36.1204560175419,-9.92163911479347,0</coordinates></LinearRing></outerBoundaryIs></Polygon></MultiGeometry>
  </Placemark>
</Folder>
</Document></kml>
