<?xml version="1.0" encoding="utf-8" ?>
<kml xmlns="http://www.opengis.net/kml/2.2">
<Document id="root_doc">
<Schema name="MANGABEIRA_TALHAO_1107_ID_485" id="MANGABEIRA_TALHAO_1107_ID_485">
	<SimpleField name="TALHAO" type="string"></SimpleField>
	<SimpleField name="FAZENDA" type="string"></SimpleField>
	<SimpleField name="ZONA" type="string"></SimpleField>
	<SimpleField name="ID" type="float"></SimpleField>
	<SimpleField name="AREA_TOTAL" type="float"></SimpleField>
	<SimpleField name="FAZ_NOME" type="string"></SimpleField>
	<SimpleField name="CODE" type="string"></SimpleField>
</Schema>
<Folder><name>MANGABEIRA_TALHAO_1107_ID_485</name>
  <Placemark id="MANGABEIRA_TALHAO_1107_ID_485.1">
	<Style><LineStyle><color>ff0000ff</color></LineStyle><PolyStyle><fill>0</fill></PolyStyle></Style>
	<ExtendedData><SchemaData schemaUrl="#MANGABEIRA_TALHAO_1107_ID_485">
		<SimpleData name="TALHAO">1107</SimpleData>
		<SimpleData name="FAZENDA">2655</SimpleData>
		<SimpleData name="ZONA">1</SimpleData>
		<SimpleData name="ID">485</SimpleData>
		<SimpleData name="AREA_TOTAL">4.01</SimpleData>
		<SimpleData name="FAZ_NOME">MANGABEIRA</SimpleData>
		<SimpleData name="CODE"></SimpleData>
	</SchemaData></ExtendedData>
      <MultiGeometry><Polygon><outerBoundaryIs><LinearRing><coordinates>-36.1192392581367,-9.9332090790849,0 -36.119220811858,-9.93322819763839,0 -36.1192051504934,-9.93325085401174,0 -36.1191874516676,-9.933273254515,0 -36.1191704945765,-9.93329533412639,0 -36.1191532138889,-9.93331865238329,0 -36.1191346072032,-9.93334266356105,0 -36.1191243813334,-9.93335417492361,0 -36.1191019377799,-9.93337517470971,0 -36.1190777609704,-9.93339325609234,0 -36.119051296349,-9.93340916554356,0 -36.1190248299886,-9.93342209905396,0 -36.1189980979351,-9.93343377514356,0 -36.1189695521549,-9.93344374181625,0 -36.118939086727,-9.93344927920541,0 -36.1189099298538,-9.93345428231667,0 -36.1188814633969,-9.93345855182379,0 -36.1188540045573,-9.93346196844075,0 -36.1188258708214,-9.93346663091762,0 -36.1187967530217,-9.9334709913829,0 -36.1187674358855,-9.93347179620631,0 -36.1187404614832,-9.93347524091497,0 -36.1187130378937,-9.93347978608036,0 -36.1186871633856,-9.93348552370128,0 -36.1186612098303,-9.93349313186956,0 -36.1186348398411,-9.93350317991548,0 -36.1186094016048,-9.93351214999392,0 -36.1185860651945,-9.93352565079754,0 -36.1185634367573,-9.93354157665339,0 -36.1185411516622,-9.93356056561546,0 -36.1185206587913,-9.93358055280418,0 -36.1185002804419,-9.9336012590565,0 -36.1184807509581,-9.93362368438267,0 -36.1184623729155,-9.93364716541055,0 -36.1184415326497,-9.93367014266244,0 -36.1184174799717,-9.93368771634713,0 -36.1183936713974,-9.93370612331443,0 -36.1183669029527,-9.93372086751386,0 -36.1183387897985,-9.93373289815012,0 -36.1183118327332,-9.93373951827252,0 -36.1182851309798,-9.93374811606397,0 -36.118257594172,-9.93375712192475,0 -36.1182406351842,-9.93375691009451,0 -36.1182121805007,-9.93375440623168,0 -36.118181340977,-9.93375054096672,0 -36.1181532720178,-9.93373921051011,0 -36.1181412642896,-9.93373332507551,0 -36.1181160153693,-9.93372577781913,0 -36.1180895273009,-9.93371819400721,0 -36.1180637672203,-9.93370906562445,0 -36.1180367503979,-9.93370105151036,0 -36.1180097900199,-9.93369021589685,0 -36.1179834724929,-9.93368116539484,0 -36.11795577107,-9.93367399971296,0 -36.1179288372454,-9.93366597821987,0 -36.1179034898405,-9.93366097225108,0 -36.1178776140957,-9.93366071478541,0 -36.1178486065434,-9.93366429076992,0 -36.1178196041353,-9.93366330946938,0 -36.1177918680235,-9.93366563951874,0 -36.117765485217,-9.93367049962245,0 -36.1177396247123,-9.93367931270156,0 -36.1177143970313,-9.93369247535308,0 -36.1176871123796,-9.93370445314712,0 -36.1176582602076,-9.93371574312857,0 -36.1176297232673,-9.9337230790472,0 -36.1176025270213,-9.93372913195036,0 -36.1175777754284,-9.93373984453857,0 -36.1175527943552,-9.93375258341936,0 -36.1175266433552,-9.93376626663012,0 -36.1174988603522,-9.93377868866983,0 -36.1174731183441,-9.93378894645729,0 -36.1174478377989,-9.9338011336957,0 -36.1174193254628,-9.93381319387551,0 -36.1173923697317,-9.93382415266696,0 -36.1173636062209,-9.93383527141629,0 -36.1173340605037,-9.9338434103292,0 -36.1173036101785,-9.93385090479366,0 -36.1172876046992,-9.93385331254662,0 -36.1172582087501,-9.93385512364828,0 -36.117231409131,-9.93385727515266,0 -36.1172063316024,-9.93386318844576,0 -36.1171799900312,-9.93387068037764,0 -36.1171549977176,-9.933881423414,0 -36.1171272328476,-9.93389099492102,0 -36.1171015540644,-9.93390097802689,0 -36.1170762973159,-9.93391159798639,0 -36.1170514829598,-9.93392496382603,0 -36.1170253022055,-9.93393741988597,0 -36.1170006778615,-9.93395092067526,0 -36.1169770429886,-9.93396653704754,0 -36.1169547519115,-9.9339826277377,0 -36.116934023459,-9.9340008761031,0 -36.1169139645657,-9.93402025504317,0 -36.1168965961178,-9.93404276232938,0 -36.1168751621737,-9.93406430814646,0 -36.1168546105189,-9.93408396573061,0 -36.1168368031677,-9.93410316975235,0 -36.1168225200201,-9.93412519834564,0 -36.1168077217473,-9.93414906965128,0 -36.1167941739661,-9.93417175363645,0 -36.1167826755772,-9.93419754446167,0 -36.1167696437093,-9.93422323800714,0 -36.1167562173482,-9.93424752362795,0 -36.1167486794915,-9.93427115727285,0 -36.1167431637204,-9.93429761868267,0 -36.1167390132549,-9.93432569271022,0 -36.1167366202088,-9.93435240955797,0 -36.116733996356,-9.9343812355957,0 -36.1167323887259,-9.93440849815876,0 -36.1167338034023,-9.93443763972683,0 -36.1167311413569,-9.93446644038448,0 -36.1167326737017,-9.93449420590712,0 -36.1167336988253,-9.93452346251948,0 -36.1167355075219,-9.93455251647141,0 -36.1167366021428,-9.93458170296596,0 -36.1167392662674,-9.93461081127271,0 -36.1167416346617,-9.93463699641548,0 -36.1167463733775,-9.9346663707878,0 -36.1167473487499,-9.93469809975478,0 -36.1167464986196,-9.93472706107371,0 -36.1167439972173,-9.93475638920612,0 -36.1167399190972,-9.93478470277621,0 -36.1167312271888,-9.93481441949487,0 -36.1167192369649,-9.93484028489223,0 -36.1167081677299,-9.93486450575469,0 -36.1166980428575,-9.93488968957527,0 -36.116683883343,-9.93491602203101,0 -36.1166706868521,-9.93493931486551,0 -36.1166605018628,-9.93496426843101,0 -36.1166478271273,-9.93498971136826,0 -36.1166325252407,-9.93501334206149,0 -36.1166241972063,-9.93503631551553,0 -36.116612396748,-9.93506320483152,0 -36.1166004205679,-9.93508703182025,0 -36.1165917932577,-9.93511246266584,0 -36.1165817005667,-9.93513931865674,0 -36.1165712584799,-9.93516538389086,0 -36.1165614478642,-9.93519141840168,0 -36.116552947727,-9.93521726797105,0 -36.1165457167324,-9.9352434828849,0 -36.1165380367337,-9.9352708005987,0 -36.1165325551041,-9.93529709591606,0 -36.1165276480385,-9.93532481614568,0 -36.1165184204919,-9.93535253267056,0 -36.1165114648095,-9.93537543961092,0 -36.1165087086396,-9.93540085861023,0 -36.1165041057689,-9.93542961503075,0 -36.1164943784365,-9.93545869857336,0 -36.1164869313922,-9.93548381780664,0 -36.1164806202719,-9.9355105224217,0 -36.1164700866878,-9.93553842981683,0 -36.1164538280727,-9.93556250087809,0 -36.1164409982253,-9.93558461018528,0 -36.1164272541737,-9.93560820541971,0 -36.116411599405,-9.93563086043166,0 -36.1163975267552,-9.93565503947555,0 -36.1163794914386,-9.93567720318332,0 -36.1163610221562,-9.93569520051309,0 -36.1163433011204,-9.93571440473914,0 -36.1163253652704,-9.93573202277926,0 -36.1163068908632,-9.93575143106546,0 -36.1162878517655,-9.93576864583249,0 -36.1162698342772,-9.93578833141471,0 -36.1162497916141,-9.93580649603523,0 -36.1162315005017,-9.93582469581275,0 -36.1162104335275,-9.93584276608732,0 -36.1161897970727,-9.93586015277144,0 -36.1161695334497,-9.93587766762123,0 -36.1161490415097,-9.93589514551355,0 -36.1161277211018,-9.93591095082167,0 -36.1161075110354,-9.93592832728348,0 -36.1160864580503,-9.93594694232045,0 -36.1160651049729,-9.93596400816889,0 -36.1160472303513,-9.93598232977115,0 -36.1160297216092,-9.93600276324895,0 -36.116012596454,-9.93602345203926,0 -36.1159935118087,-9.93604267085274,0 -36.1159751466079,-9.93606295865655,0 -36.1159566950761,-9.93608197467801,0 -36.1159425901874,-9.93610193172473,0 -36.1159282963196,-9.93612518715004,0 -36.1159131983991,-9.93614698438206,0 -36.1158968341327,-9.93617073551707,0 -36.1158783583571,-9.93619358315397,0 -36.1158604496068,-9.93621656148034,0 -36.1158430626166,-9.93623784003147,0 -36.1158311751301,-9.936259561116,0 -36.1158221631529,-9.93628670403316,0 -36.1158087222767,-9.93631375847639,0 -36.115794247171,-9.93634024911705,0 -36.1157784085266,-9.93636556286613,0 -36.1157633673295,-9.93638910286718,0 -36.1157522921577,-9.93641497294594,0 -36.1157383691767,-9.93644332944538,0 -36.1157234713852,-9.93646908632584,0 -36.1157108461101,-9.93649363773921,0 -36.1156985365742,-9.93652062998125,0 -36.1156834089501,-9.93654765344898,0 -36.1156672272102,-9.93657248092589,0 -36.1156551429491,-9.93659580059733,0 -36.1156459816319,-9.93662201890486,0 -36.1156342298213,-9.93664835730346,0 -36.1156231047029,-9.93667339694701,0 -36.1156138432015,-9.9366988539691,0 -36.1156049877502,-9.93672433770741,0 -36.1155981517967,-9.93675077194126,0 -36.1155895296138,-9.93677860912066,0 -36.1155801083686,-9.93680623353668,0 -36.115571725532,-9.93683054759413,0 -36.1155664236447,-9.93685841118516,0 -36.1155562314374,-9.93688534233333,0 -36.1155474283809,-9.93691233123478,0 -36.1155371784458,-9.93693769091763,0 -36.1155313941062,-9.93696323891008,0 -36.1155259315068,-9.93702682484358,0 -36.1155444592626,-9.93704212974268,0 -36.1155789513788,-9.93707525568951,0 -36.1156119638968,-9.9371107495774,0 -36.1156411096433,-9.9371477489145,0 -36.1156675856027,-9.9371823107149,0 -36.1156891068728,-9.9372138662481,0 -36.115717877026,-9.93725914629768,0 -36.1157452392554,-9.9373043799924,0 -36.1157829753882,-9.9372958980234,0 -36.1158234516265,-9.93725799033788,0 -36.1158490109141,-9.93722176581222,0 -36.1158714451856,-9.93719041541297,0 -36.1158833891128,-9.9371580394643,0 -36.1158964510498,-9.93711286047504,0 -36.115912617353,-9.93707868117779,0 -36.115923190916,-9.93703179693383,0 -36.1159454485517,-9.93699411757765,0 -36.1159563268592,-9.93696459140314,0 -36.1159622475964,-9.93692071642661,0 -36.115978434886,-9.93688260491433,0 -36.1159866421816,-9.93685195078498,0 -36.1159931001105,-9.9368024940814,0 -36.1160128125703,-9.93676004025299,0 -36.1160301391037,-9.93672601520078,0 -36.1160466669049,-9.93668051526168,0 -36.1160781482784,-9.93664385008717,0 -36.1161045191092,-9.93660744716349,0 -36.1161352120884,-9.93657678665396,0 -36.1161638203941,-9.93654233300048,0 -36.1161956865082,-9.93651113845177,0 -36.1162265094637,-9.93648115880866,0 -36.1162592615413,-9.93645230113211,0 -36.1162925335258,-9.93642461267977,0 -36.1163281698802,-9.93639273472833,0 -36.1163808734403,-9.9363661741304,0 -36.116411331634,-9.93634740277817,0 -36.1164449672841,-9.93631834839922,0 -36.1164818786018,-9.93629187189479,0 -36.1165250418147,-9.93626955673488,0 -36.1165498131395,-9.93625248084899,0 -36.1165805590507,-9.93622184920387,0 -36.116617703779,-9.93619357233466,0 -36.1166465595138,-9.93617249682656,0 -36.1166695523282,-9.93614767554,0 -36.116691032993,-9.93611563240069,0 -36.1167210271313,-9.93608127957199,0 -36.1167534229828,-9.93604695425913,0 -36.1167755840741,-9.93601739304728,0 -36.1167988453126,-9.9359868284619,0 -36.1168142103414,-9.93595161918816,0 -36.1168373139187,-9.93591214775764,0 -36.1168551571779,-9.93588389447761,0 -36.1168674393005,-9.93584538371424,0 -36.1168782271869,-9.93581527053371,0 -36.116883810656,-9.93576941579174,0 -36.1168987804941,-9.93572317558397,0 -36.1169071469902,-9.93568418052958,0 -36.1169201509266,-9.93564116634231,0 -36.1169316561821,-9.93560342431109,0 -36.1169414669757,-9.935564992497,0 -36.1169509862918,-9.93552407021551,0 -36.1169635239878,-9.93548026096781,0 -36.116978761308,-9.93543819521099,0 -36.1169910767705,-9.93539966167676,0 -36.1170027426876,-9.93536035390019,0 -36.1170164375903,-9.93532142969745,0 -36.1170274963671,-9.93528498253684,0 -36.117039723215,-9.93524167979466,0 -36.1170509539445,-9.93519731989013,0 -36.1170695953208,-9.93515746772079,0 -36.1170858351438,-9.9351283496605,0 -36.1170903999193,-9.93508639834639,0 -36.1171020734612,-9.93504638325246,0 -36.117115195816,-9.93499979501803,0 -36.1171280527343,-9.93496589408327,0 -36.1171387052903,-9.93492493739545,0 -36.1171500081233,-9.93488398746764,0 -36.1171597590229,-9.93484784733325,0 -36.1171654491673,-9.93480536897177,0 -36.1171697424979,-9.93476387506882,0 -36.1171704247798,-9.93472479726271,0 -36.1171677187172,-9.93468217143787,0 -36.1171750398761,-9.93466794605327,0 -36.1173485099825,-9.93439747892397,0 -36.1174969508304,-9.9342793554858,0 -36.1176977127474,-9.93419343619881,0 -36.1183451693602,-9.93407045563624,0 -36.1187880875593,-9.93393990842105,0 -36.1192336668326,-9.93380308353719,0 -36.119643564239,-9.93355925569256,0 -36.1200881003327,-9.93341646870854,0 -36.1205523268653,-9.93325441953482,0 -36.1207753211379,-9.93316841928006,0 -36.1209753496149,-9.93304910882736,0 -36.1211124481204,-9.93286640133673,0 -36.1212055797455,-9.93268243701188,0 -36.1212987146103,-9.93244743870556,0 -36.1212817643024,-9.93247159974336,0 -36.1212689521791,-9.93248801821261,0 -36.1212529106412,-9.93250485298876,0 -36.1212378535695,-9.93251796671623,0 -36.1212251524552,-9.93253589892706,0 -36.12121017647,-9.93255211365077,0 -36.1211980101533,-9.93257229752869,0 -36.1211823237125,-9.93259097546752,0 -36.1211697162928,-9.93260939024133,0 -36.1211561023113,-9.93262982203838,0 -36.1211397889482,-9.93264759267734,0 -36.1211245360378,-9.9326658720977,0 -36.1211089741014,-9.93268332037141,0 -36.1210927809617,-9.93270201445739,0 -36.1210747401181,-9.9327198481369,0 -36.121057645619,-9.93273755653878,0 -36.1210404401445,-9.93275536607792,0 -36.121024307206,-9.93277017200605,0 -36.1210082045655,-9.93278716525111,0 -36.1209909063145,-9.93280424419706,0 -36.1209722116993,-9.93281881569608,0 -36.1209544780919,-9.93283330414605,0 -36.1209366300324,-9.93284932806102,0 -36.1209172202217,-9.93286614007747,0 -36.1208961766093,-9.93287780060643,0 -36.1208763831832,-9.93289033741392,0 -36.1208547397215,-9.93290332538001,0 -36.1208332268672,-9.93291350802822,0 -36.1208110161747,-9.93292502239319,0 -36.1207853097806,-9.93292977510005,0 -36.1207602299341,-9.93293470820384,0 -36.1207354716985,-9.93293736457434,0 -36.12071357514,-9.93294046673481,0 -36.1206892551805,-9.93294282703991,0 -36.1206649997153,-9.93294607817004,0 -36.120642303547,-9.93294858067727,0 -36.1206205736623,-9.93295259327617,0 -36.1205967449795,-9.93295651476678,0 -36.1205762036768,-9.93296154721802,0 -36.120553130512,-9.93296842530838,0 -36.1205279904962,-9.93297286039146,0 -36.1205041729546,-9.93297664425592,0 -36.1204800295399,-9.93298221238374,0 -36.1204547500974,-9.93298471397228,0 -36.120431106616,-9.93298747670472,0 -36.120404541975,-9.93298981230234,0 -36.1203811928699,-9.93299111235735,0 -36.1203567784027,-9.9329936947511,0 -36.1203316277517,-9.93299821748786,0 -36.1203082540481,-9.93300409085222,0 -36.1202850072341,-9.93301194594567,0 -36.1202630075339,-9.93301950493406,0 -36.1202396566074,-9.93303013181031,0 -36.1202120098898,-9.93303704281966,0 -36.1201837785573,-9.93304201683944,0 -36.1201551016436,-9.93304208660055,0 -36.120132626069,-9.93304218571444,0 -36.1201088032901,-9.93305060270184,0 -36.1200769713208,-9.93305188159783,0 -36.1200512389011,-9.93305097808483,0 -36.1200257532428,-9.93305157896035,0 -36.119999428111,-9.93305400149534,0 -36.1199734364982,-9.93305631645137,0 -36.1199458817487,-9.93306076504064,0 -36.1199190079446,-9.93306338179242,0 -36.11989330378,-9.93306824256486,0 -36.1198640866798,-9.93307265470584,0 -36.1198369618551,-9.93307253543493,0 -36.1198083116584,-9.93307793743719,0 -36.119780227154,-9.93307530270435,0 -36.1197530627994,-9.93308023194685,0 -36.1197226821695,-9.9330793907011,0 -36.1196925714233,-9.93307760983139,0 -36.1196673911292,-9.93307306310339,0 -36.1196424858202,-9.93307522719045,0 -36.1196142545684,-9.93307788468204,0 -36.1195849217918,-9.93307992182399,0 -36.1195567985666,-9.93308148947018,0 -36.1195287121292,-9.93308510177158,0 -36.1195017003998,-9.93309009967045,0 -36.1194757043343,-9.93309280744482,0 -36.1194484865269,-9.93309402830736,0 -36.1194224170332,-9.93310240948556,0 -36.1193952519044,-9.93310819121512,0 -36.1193699339365,-9.93311840356644,0 -36.1193440078968,-9.93312875877743,0 -36.1193196076347,-9.93314050770957,0 -36.1192968890951,-9.93315355956571,0 -36.1192774873552,-9.93316964537501,0 -36.119257794097,-9.93318793467478,0 -36.1192392581367,-9.9332090790849,0</coordinates></LinearRing></outerBoundaryIs></Polygon></MultiGeometry>
  </Placemark>
</Folder>
</Document></kml>
