<?xml version="1.0" encoding="utf-8" ?>
<kml xmlns="http://www.opengis.net/kml/2.2">
<Document id="root_doc">
<Schema name="MANGABEIRA_TALHAO_1015_ID_491" id="MANGABEIRA_TALHAO_1015_ID_491">
	<SimpleField name="TALHAO" type="string"></SimpleField>
	<SimpleField name="FAZENDA" type="string"></SimpleField>
	<SimpleField name="ZONA" type="string"></SimpleField>
	<SimpleField name="ID" type="float"></SimpleField>
	<SimpleField name="AREA_TOTAL" type="float"></SimpleField>
	<SimpleField name="FAZ_NOME" type="string"></SimpleField>
	<SimpleField name="CODE" type="string"></SimpleField>
</Schema>
<Folder><name>MANGABEIRA_TALHAO_1015_ID_491</name>
  <Placemark id="MANGABEIRA_TALHAO_1015_ID_491.1">
	<Style><LineStyle><color>ff0000ff</color></LineStyle><PolyStyle><fill>0</fill></PolyStyle></Style>
	<ExtendedData><SchemaData schemaUrl="#MANGABEIRA_TALHAO_1015_ID_491">
		<SimpleData name="TALHAO">1015</SimpleData>
		<SimpleData name="FAZENDA">2655</SimpleData>
		<SimpleData name="ZONA">1</SimpleData>
		<SimpleData name="ID">491</SimpleData>
		<SimpleData name="AREA_TOTAL">7.86</SimpleData>
		<SimpleData name="FAZ_NOME">MANGABEIRA</SimpleData>
		<SimpleData name="CODE"></SimpleData>
	</SchemaData></ExtendedData>
      <MultiGeometry><Polygon><outerBoundaryIs><LinearRing><coordinates>-36.1155163208661,-9.92699158170928,0 -36.1154852188436,-9.92702160680332,0 -36.1154544297831,-9.92705042046784,0 -36.1154266716685,-9.92707989017689,0 -36.1154112221863,-9.92709510220416,0 -36.1153962539586,-9.92710970974887,0 -36.1153826783522,-9.9271255902313,0 -36.115369369266,-9.92714189642975,0 -36.1153334674477,-9.92718958641244,0 -36.1153242946596,-9.92720426183055,0 -36.1152964723109,-9.92725849222162,0 -36.1152741044726,-9.92730512337049,0 -36.1152594080312,-9.92733617290759,0 -36.115237947611,-9.92742260643902,0 -36.1152430950325,-9.92751752943489,0 -36.115248216138,-9.92753382977974,0 -36.115254804988,-9.92755173844804,0 -36.1152621750204,-9.92756983368785,0 -36.1152770944758,-9.92760483936833,0 -36.1152946125065,-9.92763452306334,0 -36.1153051377003,-9.92764872749048,0 -36.11532806481,-9.92767838815483,0 -36.1153516569468,-9.9277051375467,0 -36.1153755426524,-9.92772910285768,0 -36.1153892921376,-9.92774093886337,0 -36.1154734457031,-9.92781604920665,0 -36.1155272582657,-9.92786320780881,0 -36.1155411274477,-9.9278751014558,0 -36.1155552553327,-9.92788691872851,0 -36.115570585312,-9.92789839306086,0 -36.115610167448,-9.92793524418825,0 -36.1156348581249,-9.92795813607163,0 -36.1156567345233,-9.92798229488038,0 -36.1156906721544,-9.92802629994792,0 -36.1157052771792,-9.92804728798841,0 -36.1157213607355,-9.92807083762818,0 -36.1157463386696,-9.92811538285313,0 -36.1157642837765,-9.92813220935206,0 -36.1157993016277,-9.92813870251444,0 -36.1158317101656,-9.92813594505936,0 -36.1158741512767,-9.92813142366912,0 -36.1159266227832,-9.92812495913539,0 -36.1159837712073,-9.92811674543627,0 -36.1160426736879,-9.92810876669974,0 -36.1160993427081,-9.92810094174895,0 -36.1161557291696,-9.92809340080499,0 -36.1162108979354,-9.92808567746877,0 -36.1162643500679,-9.92807831757165,0 -36.1163166286625,-9.92807094834184,0 -36.1163694363995,-9.92806380714919,0 -36.1164226834932,-9.92805717418635,0 -36.1164762680984,-9.92804976683855,0 -36.1165293593827,-9.92804268078913,0 -36.116579843582,-9.92803640410071,0 -36.1166258648872,-9.92803116696279,0 -36.1166682633159,-9.92802860312365,0 -36.1167084839967,-9.92802390095965,0 -36.1167494634948,-9.92801885820756,0 -36.1167918604886,-9.92801421379027,0 -36.1168381918696,-9.92800693540362,0 -36.116884852698,-9.92799986532491,0 -36.1169314714214,-9.92799238287649,0 -36.1169817371361,-9.92798354465195,0 -36.117034132123,-9.92797456207801,0 -36.1170873155812,-9.92796642250627,0 -36.1171416355193,-9.92795910010864,0 -36.1171966619599,-9.92795204523601,0 -36.1172503481478,-9.92794494997896,0 -36.1173039998304,-9.92793770598586,0 -36.1173564808707,-9.92793075916201,0 -36.1174089755649,-9.92792370103473,0 -36.1174616865732,-9.92791641908791,0 -36.1175135924216,-9.9279093373717,0 -36.1175636687612,-9.92790228308962,0 -36.1176166837001,-9.92789503175189,0 -36.1176705225949,-9.92788712887671,0 -36.1177221724408,-9.92787926388863,0 -36.1177718489306,-9.92787133270869,0 -36.1178219717872,-9.92786357665563,0 -36.1178706414198,-9.92785671046753,0 -36.117917717121,-9.92785099930112,0 -36.1179665126205,-9.92784447436681,0 -36.1180151379971,-9.92783815342785,0 -36.1180629644931,-9.92783260985626,0 -36.1181101143869,-9.92782691397664,0 -36.1181558439195,-9.92782039354952,0 -36.1182003451368,-9.92781389334099,0 -36.1182460204514,-9.92780716291678,0 -36.1182945306902,-9.92779990173907,0 -36.1183441447344,-9.92779265671545,0 -36.1183935140465,-9.92778532174641,0 -36.1184426102075,-9.92777784164721,0 -36.1184909080281,-9.92777014804897,0 -36.1185385367408,-9.92776332109723,0 -36.1185851320069,-9.92775740560853,0 -36.1186305135086,-9.92775055013325,0 -36.1186744849354,-9.92774274220846,0 -36.1187178388188,-9.92773390773006,0 -36.1187606384651,-9.92772475194489,0 -36.1188030559042,-9.92771508518056,0 -36.1188452000673,-9.9277050509771,0 -36.1188873470446,-9.92769479914134,0 -36.1189307987643,-9.92768356999542,0 -36.1189737997801,-9.92767297757055,0 -36.1190133389657,-9.92766330506179,0 -36.1190505838726,-9.92765389850751,0 -36.1190830188678,-9.9276458353951,0 -36.1191161965696,-9.92763766815118,0 -36.1191471133226,-9.9276300460642,0 -36.1192412741043,-9.92760761953814,0 -36.1193102249399,-9.92759058994883,0 -36.1193584667999,-9.92757767614057,0 -36.119407103714,-9.92756351444646,0 -36.1194551292431,-9.92754966950113,0 -36.1195021492493,-9.92753690500215,0 -36.1195479221196,-9.92752466507641,0 -36.1195921928338,-9.92751254029756,0 -36.1196360739022,-9.92749985701061,0 -36.1196792735883,-9.92748831591918,0 -36.1197208414963,-9.9274774325138,0 -36.1197606510633,-9.92746618241119,0 -36.1197986158809,-9.9274556819409,0 -36.1198393253272,-9.92744479659103,0 -36.1198790652218,-9.92743458691058,0 -36.1199170639584,-9.92742471040344,0 -36.1199548061717,-9.92741439350727,0 -36.1199929051168,-9.92740324817832,0 -36.120032899099,-9.92739112338588,0 -36.1200755869743,-9.92737845009655,0 -36.1201197847075,-9.92736496454647,0 -36.120163807338,-9.92735145158422,0 -36.1202075336833,-9.92733813101717,0 -36.1202503949854,-9.92732521556125,0 -36.1202921637711,-9.92731303751862,0 -36.120333085661,-9.92730089220084,0 -36.1203735172245,-9.92728903011597,0 -36.1204135048597,-9.92727780995852,0 -36.120452253898,-9.92726658250023,0 -36.120489253678,-9.92725606019141,0 -36.1205236605527,-9.92724757623676,0 -36.1205547744028,-9.92724017289645,0 -36.1205850958728,-9.92723273017738,0 -36.120615257008,-9.92722549007278,0 -36.1206456299249,-9.92721787058076,0 -36.1206762510307,-9.9272102658666,0 -36.1207070842015,-9.92720189857353,0 -36.1207377772892,-9.92719362463245,0 -36.1207674378317,-9.92718571381706,0 -36.120796992712,-9.92717733401055,0 -36.1208272923354,-9.92716905574699,0 -36.1208569495614,-9.92716098158556,0 -36.1208842297032,-9.92715349531228,0 -36.1209803468342,-9.92712290620041,0 -36.1209601175679,-9.9271149691695,0 -36.1209366017762,-9.92710674005975,0 -36.1209079580849,-9.92709671146636,0 -36.1208794013462,-9.92708375287164,0 -36.1208439500161,-9.92707663378879,0 -36.1207889789444,-9.9270791349669,0 -36.1207677206169,-9.92708425251538,0 -36.1207423708646,-9.92709042472133,0 -36.1206958107807,-9.92710223138396,0 -36.1206543534686,-9.92711017643651,0 -36.1206200980888,-9.9271170009697,0 -36.1205965246764,-9.92711949972292,0 -36.1205772028248,-9.92712047299279,0 -36.120553317408,-9.92712459805252,0 -36.1204896895622,-9.92712873248902,0 -36.1204280400683,-9.92712668961559,0 -36.1203778090021,-9.92712345783729,0 -36.1203523380931,-9.9271206099362,0 -36.1202388198709,-9.92709187458884,0 -36.1201952436252,-9.92707689788106,0 -36.1201520618096,-9.92706135773421,0 -36.1201308530337,-9.92705282640384,0 -36.1200501089605,-9.92701511216202,0 -36.1200045752747,-9.92699405958736,0 -36.1199819102262,-9.92698349015175,0 -36.1198704280317,-9.92693823134925,0 -36.1198276455381,-9.92692161983842,0 -36.1197816774172,-9.92690488154668,0 -36.119711857046,-9.92687763298214,0 -36.1196662806156,-9.92685965798249,0 -36.1195966753485,-9.92683350583909,0 -36.1195493822143,-9.92681617413244,0 -36.1194558444568,-9.9267804244235,0 -36.119432196742,-9.92677142287562,0 -36.1193852497523,-9.92675405181215,0 -36.1193382561899,-9.92673993810879,0 -36.1192405855637,-9.92671851739711,0 -36.1192162359812,-9.92671398259158,0 -36.1191400067538,-9.92669941297453,0 -36.119090067241,-9.92668945200066,0 -36.1190650826899,-9.92668426064138,0 -36.119013315094,-9.92667547941913,0 -36.1189873277741,-9.92667159195273,0 -36.118857574255,-9.92665366663815,0 -36.1188062354159,-9.92664642364189,0 -36.1187437806583,-9.9266399041283,0 -36.1186418060892,-9.92662774399881,0 -36.1185399699282,-9.92661601943878,0 -36.1185157571689,-9.92661219674444,0 -36.1184233320657,-9.92660213760577,0 -36.1183727850418,-9.92659404845014,0 -36.1182748721622,-9.92657730707011,0 -36.1182507202421,-9.92657217505527,0 -36.1181610873642,-9.92655467909432,0 -36.1180955010459,-9.9265397532225,0 -36.1180026448541,-9.92651400929249,0 -36.117915061652,-9.926485822874,0 -36.1178927749184,-9.92647693400406,0 -36.1178518627235,-9.92646009767932,0 -36.1177735412582,-9.926427269699,0 -36.1177536556732,-9.92641848959291,0 -36.117714540045,-9.92640102052026,0 -36.1176969135018,-9.92639210494793,0 -36.1176756286809,-9.92638469705677,0 -36.1175978622327,-9.92633506963845,0 -36.1175781629406,-9.92632182316044,0 -36.1175400997808,-9.92629378308982,0 -36.11752257641,-9.92627889086601,0 -36.117503809983,-9.92626557197885,0 -36.1174063057682,-9.92619352641964,0 -36.1173867735059,-9.92618057772706,0 -36.1173448421315,-9.92615232906734,0 -36.1173030296111,-9.92612545203495,0 -36.1172827305475,-9.9261125215482,0 -36.1172404553209,-9.9260866123739,0 -36.1172194189161,-9.92607390821639,0 -36.1171142820362,-9.92601668429343,0 -36.1170932672339,-9.92600599572639,0 -36.1170721902023,-9.92599648224675,0 -36.1169809879969,-9.92596728510669,0 -36.1169590759268,-9.9259623150639,0 -36.116852242394,-9.92595019777193,0 -36.1168337796372,-9.9259502554761,0 -36.1167535203265,-9.92595727312703,0 -36.1167339553908,-9.9259600973742,0 -36.1165970240027,-9.92598234073629,0 -36.1165746797503,-9.92598630975146,0 -36.1164810664159,-9.92600126661698,0 -36.11641426657,-9.9260196168292,0 -36.1163252679983,-9.92605626416316,0 -36.1163050192924,-9.92606712416422,0 -36.1162857353938,-9.92607976612287,0 -36.1162681229368,-9.92609418814735,0 -36.1162516965003,-9.92610996779456,0 -36.1162366787001,-9.92612591281548,0 -36.1162228029516,-9.92614278435248,0 -36.1162091468985,-9.92616001058792,0 -36.1161956846436,-9.92617695073894,0 -36.1161835009765,-9.9261939777236,0 -36.1161719094785,-9.92621237030437,0 -36.1161600760609,-9.92623082391271,0 -36.1161485838745,-9.92625000472741,0 -36.1161365988032,-9.92626861635832,0 -36.1161249559622,-9.92628720203614,0 -36.116113869798,-9.92630616998145,0 -36.1161021975992,-9.92632479308126,0 -36.1160905688168,-9.92634277746734,0 -36.1160792877056,-9.92636076145876,0 -36.1160685178459,-9.92637846769608,0 -36.1160575527862,-9.92639728057758,0 -36.1160457304906,-9.92641535903453,0 -36.1160349936783,-9.92643168248558,0 -36.1160246329294,-9.92644938496441,0 -36.116013622704,-9.92646803355111,0 -36.1159904583064,-9.92650483545808,0 -36.1159593790556,-9.92655194143219,0 -36.1159398876301,-9.92658087588068,0 -36.1159268942934,-9.92659845447539,0 -36.115902451703,-9.92662948088804,0 -36.115843204922,-9.92669283037542,0 -36.115802339096,-9.92673406776826,0 -36.1157883044909,-9.92674820582114,0 -36.1157739305841,-9.92676219725143,0 -36.1156824253204,-9.92684639924236,0 -36.1156658277338,-9.92686171715182,0 -36.115648275476,-9.92687642410376,0 -36.1156138583451,-9.9269060314854,0 -36.1155968453813,-9.92692037136741,0 -36.1155811073842,-9.92693393744998,0 -36.1155651173396,-9.92694775620051,0 -36.115532476019,-9.92697632370122,0 -36.1155163208661,-9.92699158170928,0</coordinates></LinearRing></outerBoundaryIs></Polygon></MultiGeometry>
  </Placemark>
</Folder>
</Document></kml>
