<?xml version="1.0" encoding="utf-8" ?>
<kml xmlns="http://www.opengis.net/kml/2.2">
<Document id="root_doc">
<Schema name="MANGABEIRA_TALHAO_1008_ID_472" id="MANGABEIRA_TALHAO_1008_ID_472">
	<SimpleField name="TALHAO" type="string"></SimpleField>
	<SimpleField name="FAZENDA" type="string"></SimpleField>
	<SimpleField name="ZONA" type="string"></SimpleField>
	<SimpleField name="ID" type="float"></SimpleField>
	<SimpleField name="AREA_TOTAL" type="float"></SimpleField>
	<SimpleField name="FAZ_NOME" type="string"></SimpleField>
	<SimpleField name="CODE" type="string"></SimpleField>
</Schema>
<Folder><name>MANGABEIRA_TALHAO_1008_ID_472</name>
  <Placemark id="MANGABEIRA_TALHAO_1008_ID_472.1">
	<Style><LineStyle><color>ff0000ff</color></LineStyle><PolyStyle><fill>0</fill></PolyStyle></Style>
	<ExtendedData><SchemaData schemaUrl="#MANGABEIRA_TALHAO_1008_ID_472">
		<SimpleData name="TALHAO">1008</SimpleData>
		<SimpleData name="FAZENDA">2655</SimpleData>
		<SimpleData name="ZONA">1</SimpleData>
		<SimpleData name="ID">472</SimpleData>
		<SimpleData name="AREA_TOTAL">4.69</SimpleData>
		<SimpleData name="FAZ_NOME">MANGABEIRA</SimpleData>
		<SimpleData name="CODE"></SimpleData>
	</SchemaData></ExtendedData>
      <MultiGeometry><Polygon><outerBoundaryIs><LinearRing><coordinates>-36.117892095167,-9.94232867200576,0 -36.1178684816044,-9.94235459099162,0 -36.1178477717146,-9.94237968205587,0 -36.1178290473339,-9.94240641612526,0 -36.1178117655004,-9.94243474348217,0 -36.1177933343432,-9.94246173309536,0 -36.1177761269338,-9.94249108503403,0 -36.1177548224675,-9.94251910751139,0 -36.1177318740716,-9.94254564363914,0 -36.1177081420845,-9.94256922060461,0 -36.1176853801909,-9.9425913632078,0 -36.1176608338681,-9.94261122009688,0 -36.1176351743507,-9.94262909839083,0 -36.1176084672519,-9.94264620667844,0 -36.1175822906299,-9.94266445053212,0 -36.1175568511149,-9.94268145187607,0 -36.1175322429935,-9.94269880692076,0 -36.1175069654895,-9.94271523274843,0 -36.1174822886638,-9.94273148492044,0 -36.1174581990913,-9.94274697176519,0 -36.1174354121382,-9.94276198855239,0 -36.1173887494851,-9.94279135421586,0 -36.117362770142,-9.94280522185401,0 -36.1173366094157,-9.94281933028978,0 -36.1172949155491,-9.94283897799071,0 -36.1172636828491,-9.94286062662373,0 -36.1172247213072,-9.94289106170428,0 -36.1172032356395,-9.94290939779598,0 -36.1171846763552,-9.94292960826966,0 -36.1171694649011,-9.94295145650637,0 -36.1171581949712,-9.9429761925044,0 -36.1171489780658,-9.94300235929602,0 -36.1171411049666,-9.94302990226393,0 -36.1171329921266,-9.9430584674194,0 -36.1171256434722,-9.9430869926071,0 -36.1171204858711,-9.94311413417594,0 -36.1171164751718,-9.94314240609298,0 -36.1171120521435,-9.94317160575338,0 -36.1171053568609,-9.94319994853622,0 -36.1170971457147,-9.94322750684608,0 -36.1170875914144,-9.94325606011916,0 -36.1170762305601,-9.94328449337385,0 -36.1170645844715,-9.94330971501029,0 -36.1170402041527,-9.94335822472913,0 -36.1170229176635,-9.94338751108681,0 -36.1170045480228,-9.94341274026096,0 -36.1169853803009,-9.94343520515885,0 -36.1169540597529,-9.943477696772,0 -36.1169374207749,-9.94349784970366,0 -36.1169226703947,-9.94351969212905,0 -36.116894250886,-9.94356185654392,0 -36.1168669891511,-9.94359909597364,0 -36.116849780174,-9.94361819013763,0 -36.1168326783549,-9.94363873373473,0 -36.1167973510892,-9.94367544310196,0 -36.1167545222017,-9.9437062277316,0 -36.1167079045816,-9.94373215986987,0 -36.1166566464879,-9.94375539874506,0 -36.116607166486,-9.94377302501592,0 -36.1165803675707,-9.94378257195397,0 -36.1165557635479,-9.94379306027784,0 -36.116509426893,-9.94381191211115,0 -36.1164644651005,-9.94382698048954,0 -36.1164364713993,-9.94383692267505,0 -36.116379883788,-9.94385884760077,0 -36.1163526688274,-9.94386853310814,0 -36.116302332976,-9.94388971085834,0 -36.11627528891,-9.94390061677797,0 -36.1162468939293,-9.94391185768215,0 -36.116217769979,-9.94392189887956,0 -36.1161911989172,-9.9439339454415,0 -36.1161657292398,-9.94394863452487,0 -36.1161369556457,-9.94396703647796,0 -36.1161062104728,-9.94398770059835,0 -36.1160779306085,-9.94401060569589,0 -36.1160538178959,-9.94403697312558,0 -36.1160334701855,-9.94406580602046,0 -36.1160170047457,-9.94409667704921,0 -36.1160045889251,-9.94412843897772,0 -36.115995809933,-9.94416021698803,0 -36.1159906953119,-9.94419240954008,0 -36.1159886690432,-9.94422577554138,0 -36.115989616617,-9.94426052114323,0 -36.1159933555848,-9.9442960401692,0 -36.1160001816671,-9.94433149687288,0 -36.1160092543075,-9.94436610809458,0 -36.1160203657504,-9.94439903367165,0 -36.1160332931583,-9.94443048359647,0 -36.1160481617,-9.94445919497799,0 -36.116065959475,-9.94448463321094,0 -36.1160849796468,-9.94450809251462,0 -36.1161049386397,-9.94453083375882,0 -36.1161269397819,-9.94455490616644,0 -36.1161501664888,-9.94458078919738,0 -36.1161721781469,-9.94460808593105,0 -36.1161918362731,-9.94463490530874,0 -36.116210623675,-9.9446643520154,0 -36.1162270616606,-9.94469420929855,0 -36.1162414463091,-9.9447240469296,0 -36.1162548519519,-9.94475725901727,0 -36.1162661927853,-9.94479317415023,0 -36.1162740105392,-9.94483115700108,0 -36.1162783376487,-9.94486899668085,0 -36.1162787796721,-9.94492918714767,0 -36.1162764887942,-9.94496047380603,0 -36.1162725600191,-9.94499239782555,0 -36.1162665326174,-9.94502465977793,0 -36.1162585256457,-9.94505593267412,0 -36.1162497080881,-9.94508510731952,0 -36.1162339801425,-9.94513854950946,0 -36.1162209533279,-9.94518818387365,0 -36.1162077363201,-9.94522838225789,0 -36.1161915191971,-9.94526306112797,0 -36.1161764011405,-9.94529557115527,0 -36.1161614692182,-9.94532364591735,0 -36.1161821187025,-9.94529963872005,0 -36.1162151883136,-9.94525727446688,0 -36.1162496072005,-9.94521018038519,0 -36.1162823822699,-9.94516114362221,0 -36.1163129795042,-9.94510981434623,0 -36.1163412338334,-9.94505579705008,0 -36.1163693473925,-9.94500214833623,0 -36.1163981037251,-9.94494831216232,0 -36.1164266551561,-9.94489152673124,0 -36.1164541602758,-9.94483098178226,0 -36.116481185486,-9.94476721047119,0 -36.1165083525264,-9.94470356694874,0 -36.1165360713928,-9.94464043906959,0 -36.1165644292866,-9.94457853443316,0 -36.1165929640546,-9.94451789039218,0 -36.1166222554783,-9.94445753993386,0 -36.1166563982635,-9.94439874514785,0 -36.1166961545822,-9.94434189708617,0 -36.1167421232233,-9.9442895128736,0 -36.1167915691702,-9.94424336371418,0 -36.1168396303623,-9.94420441033303,0 -36.1168883786125,-9.94417024919315,0 -36.1169357287123,-9.94414099111636,0 -36.1169818481376,-9.9441123431738,0 -36.1170283719245,-9.94408244119783,0 -36.1170752980711,-9.94405019321965,0 -36.1171235527449,-9.94401795506187,0 -36.1171705755084,-9.9439865491065,0 -36.1172125449149,-9.94395853437051,0 -36.117249035137,-9.94393423589193,0 -36.1172825191944,-9.94391087516705,0 -36.1173181885678,-9.94388769128269,0 -36.117353175519,-9.94386597109572,0 -36.1173855598874,-9.94384644196114,0 -36.1174155484028,-9.94383266111994,0 -36.117440032856,-9.94382213768804,0 -36.1176479276016,-9.94369933729699,0 -36.1176781360963,-9.94367979733786,0 -36.117716915521,-9.94365514138233,0 -36.1177616339286,-9.94362463544354,0 -36.1177909829786,-9.94360547386121,0 -36.1178218423001,-9.94358678477533,0 -36.1178520188203,-9.94356761832331,0 -36.1178812930979,-9.94354953412456,0 -36.1179082411725,-9.9435333686216,0 -36.1179323137226,-9.94351859303055,0 -36.1179670752003,-9.94349759386096,0 -36.1182882775557,-9.94330779579322,0 -36.1183238095032,-9.94328658137328,0 -36.1183628187875,-9.94326421440294,0 -36.1184075943453,-9.94323871433989,0 -36.1184336846816,-9.94322414456726,0 -36.1184609817875,-9.94320764508358,0 -36.1184887223971,-9.94319304520911,0 -36.1185163114907,-9.9431770742481,0 -36.1185447607891,-9.94315967806762,0 -36.1185743982286,-9.94313963479519,0 -36.1186065437801,-9.94311890745725,0 -36.1186407742878,-9.94309840070811,0 -36.1186757668715,-9.94307762069349,0 -36.1187111990943,-9.94305657145232,0 -36.1187461663053,-9.94303566912158,0 -36.1187810591029,-9.9430147366379,0 -36.1188162754104,-9.94299273038101,0 -36.1188519666555,-9.94297067274308,0 -36.118887769803,-9.94294846797929,0 -36.1189234202184,-9.94292588268162,0 -36.1189584719936,-9.94290301862248,0 -36.1189932773777,-9.94288058615174,0 -36.1190279990064,-9.94285908942451,0 -36.1190619292974,-9.94283848461435,0 -36.1190920195305,-9.94282020625689,0 -36.1191196651928,-9.94280359304595,0 -36.1191461110031,-9.94278717188613,0 -36.119171884177,-9.94277090123274,0 -36.1192007606492,-9.94275192248855,0 -36.1192333644448,-9.94273143276506,0 -36.1192700143115,-9.9427096319248,0 -36.1193077713803,-9.94268687975552,0 -36.1193459688086,-9.94266371386753,0 -36.1193846409837,-9.94264075739193,0 -36.1194236177302,-9.94261768115207,0 -36.1194629542872,-9.94259428352554,0 -36.1195023218439,-9.94257073476468,0 -36.1195419644837,-9.9425461344958,0 -36.1195824190102,-9.94252154917279,0 -36.1196232027696,-9.94249653563983,0 -36.1196645556362,-9.94247135890852,0 -36.1197054981129,-9.94244655553467,0 -36.1197457162609,-9.94242186737311,0 -36.1197857919153,-9.94239660320322,0 -36.119826226703,-9.94237131225989,0 -36.119867074313,-9.94234671073991,0 -36.1199086677336,-9.94232361906748,0 -36.1199507644355,-9.94230249281418,0 -36.1199909209812,-9.94227841911106,0 -36.1200313158778,-9.94225281664878,0 -36.1200721429898,-9.94222774210971,0 -36.1201129423774,-9.94220306343639,0 -36.1201537880426,-9.94217899698504,0 -36.1201909935382,-9.94215683468514,0 -36.1202166165484,-9.9421408019311,0 -36.1199732389318,-9.94151567025824,0 -36.1199409659432,-9.94152526804761,0 -36.1199088267466,-9.94153988709531,0 -36.1198779097131,-9.94155326969481,0 -36.1198454144523,-9.94156691655447,0 -36.1198119464637,-9.94157947737955,0 -36.1197797013662,-9.94159272655983,0 -36.1197474374188,-9.94160665727784,0 -36.1197139690036,-9.94162104114837,0 -36.1196794232282,-9.9416338021277,0 -36.1196461481314,-9.94164689130656,0 -36.1196138376898,-9.9416598563191,0 -36.1195818323094,-9.94167196726884,0 -36.1195507780601,-9.94168458566279,0 -36.1195187596584,-9.94169705729847,0 -36.1194868503359,-9.94171017367648,0 -36.1194537443616,-9.94172208432564,0 -36.1194207282882,-9.94173604375779,0 -36.1193870933723,-9.94175037274203,0 -36.1193539155851,-9.94176614425402,0 -36.1193181706034,-9.9417833129528,0 -36.1192787166077,-9.94180157396246,0 -36.1192389569753,-9.94182006905719,0 -36.1191979236621,-9.94183882396436,0 -36.1191565611954,-9.94185679867056,0 -36.1191157646843,-9.94187458267881,0 -36.1190757920309,-9.94189129429959,0 -36.1190378355833,-9.94190735363137,0 -36.1189998769031,-9.94192345554978,0 -36.1189613653933,-9.94193864323337,0 -36.1189217420967,-9.94195336870585,0 -36.1188813228581,-9.94196638936578,0 -36.1188404617913,-9.94197891013511,0 -36.118799158879,-9.94199131159819,0 -36.1187577953974,-9.9420033867692,0 -36.1187156971017,-9.94201471194629,0 -36.1186728229794,-9.94202471726615,0 -36.1186292259225,-9.94203337910229,0 -36.1185849783814,-9.94204082498476,0 -36.1185403943311,-9.94204698178509,0 -36.1184967086488,-9.94205296521135,0 -36.1184530309705,-9.9420593907248,0 -36.1184097591594,-9.94206648019437,0 -36.1183673379941,-9.94207543560721,0 -36.1183252058332,-9.94208675035494,0 -36.1182831347712,-9.94209957118515,0 -36.1182414513615,-9.94211468048194,0 -36.1182001471871,-9.94213077923864,0 -36.118160042264,-9.94214810532627,0 -36.1181224536023,-9.94216553052171,0 -36.1180869568803,-9.9421833702918,0 -36.118059514674,-9.94220250351389,0 -36.118032259808,-9.94222347562253,0 -36.1179416343209,-9.94227924869894,0 -36.117892095167,-9.94232867200576,0</coordinates></LinearRing></outerBoundaryIs></Polygon></MultiGeometry>
  </Placemark>
</Folder>
</Document></kml>
