<?xml version="1.0" encoding="utf-8" ?>
<kml xmlns="http://www.opengis.net/kml/2.2">
<Document id="root_doc">
<Schema name="MANGABEIRA_TALHAO_1012_ID_483" id="MANGABEIRA_TALHAO_1012_ID_483">
	<SimpleField name="TALHAO" type="string"></SimpleField>
	<SimpleField name="FAZENDA" type="string"></SimpleField>
	<SimpleField name="ZONA" type="string"></SimpleField>
	<SimpleField name="ID" type="float"></SimpleField>
	<SimpleField name="AREA_TOTAL" type="float"></SimpleField>
	<SimpleField name="FAZ_NOME" type="string"></SimpleField>
	<SimpleField name="CODE" type="string"></SimpleField>
</Schema>
<Folder><name>MANGABEIRA_TALHAO_1012_ID_483</name>
  <Placemark id="MANGABEIRA_TALHAO_1012_ID_483.1">
	<Style><LineStyle><color>ff0000ff</color></LineStyle><PolyStyle><fill>0</fill></PolyStyle></Style>
	<ExtendedData><SchemaData schemaUrl="#MANGABEIRA_TALHAO_1012_ID_483">
		<SimpleData name="TALHAO">1012</SimpleData>
		<SimpleData name="FAZENDA">2655</SimpleData>
		<SimpleData name="ZONA">1</SimpleData>
		<SimpleData name="ID">483</SimpleData>
		<SimpleData name="AREA_TOTAL">22.23</SimpleData>
		<SimpleData name="FAZ_NOME">MANGABEIRA</SimpleData>
		<SimpleData name="CODE"></SimpleData>
	</SchemaData></ExtendedData>
      <MultiGeometry><Polygon><outerBoundaryIs><LinearRing><coordinates>-36.1112251341286,-9.93998570890189,0 -36.1111655063243,-9.94004034661219,0 -36.1111369464041,-9.94006555576225,0 -36.1110804306308,-9.94011652888962,0 -36.1110521641583,-9.94014257159687,0 -36.1109932539612,-9.94019565564456,0 -36.1109644628918,-9.94022103437898,0 -36.1109081433401,-9.94027442040878,0 -36.1108807138178,-9.94030231296155,0 -36.1108495991412,-9.94033536017354,0 -36.1108179929967,-9.94036892917808,0 -36.110782468098,-9.94040451465111,0 -36.1107108213563,-9.94047624430727,0 -36.1106741691051,-9.94051291972341,0 -36.1105650532665,-9.94061695351145,0 -36.110530488296,-9.94064848793662,0 -36.1104462692369,-9.94073250268442,0 -36.1103989955422,-9.94078392981133,0 -36.1103290140976,-9.94085139319138,0 -36.1102688353281,-9.9408954410817,0 -36.1102364330061,-9.94091849835127,0 -36.1101735784908,-9.94096739633378,0 -36.1100814530309,-9.94104774403492,0 -36.1100540170005,-9.94106970468853,0 -36.1099859001206,-9.94113458473036,0 -36.1098895897323,-9.94124325925293,0 -36.1098573734078,-9.94127466231667,0 -36.1097638762211,-9.9413698218596,0 -36.1097337372241,-9.94140028764735,0 -36.1097036321467,-9.94143071923066,0 -36.1096761570861,-9.94145844508722,0 -36.1096484046754,-9.94148645089623,0 -36.1096018111277,-9.94153075489211,0 -36.1095690549826,-9.94156328261434,0 -36.1095291536878,-9.94160007134507,0 -36.1093567151496,-9.9417640813647,0 -36.1092725382786,-9.941848770827,0 -36.1092456676595,-9.94187698310804,0 -36.1091985744854,-9.9419254003022,0 -36.1091543946691,-9.94196788258661,0 -36.1090110036468,-9.94209078654695,0 -36.1089618804726,-9.94213914762076,0 -36.1089175977392,-9.94218367344634,0 -36.1088629660512,-9.94223626960075,0 -36.1088529958478,-9.942245401835,0 -36.1105068386171,-9.94480241260834,0 -36.114227930046,-9.94028458474115,0 -36.1142434138499,-9.94026413183522,0 -36.1142584608825,-9.94024385732941,0 -36.1142737133228,-9.94022431313145,0 -36.1142888561725,-9.94020453050463,0 -36.1143043538421,-9.94018526902025,0 -36.1143182542065,-9.94016565255783,0 -36.1143311592373,-9.94014539923362,0 -36.114342994613,-9.94012460293611,0 -36.1143519574445,-9.94010195574262,0 -36.1143593621267,-9.94007673777699,0 -36.1143646450684,-9.94005051704832,0 -36.1143684790023,-9.94002330118212,0 -36.1143717383201,-9.93999513188072,0 -36.1143745028,-9.93996693184359,0 -36.1143768228618,-9.93993834649525,0 -36.1143784398199,-9.93990911133529,0 -36.1143796858307,-9.93987913253069,0 -36.1143804835027,-9.93984895362313,0 -36.1143810245435,-9.93981923341873,0 -36.1143814498832,-9.93979053505108,0 -36.1143815313132,-9.93976207962725,0 -36.1143822928511,-9.93973377867222,0 -36.1143830918185,-9.93970585517106,0 -36.1143834527123,-9.93967821058135,0 -36.1143835943926,-9.93965072365923,0 -36.1143836815466,-9.9396232042336,0 -36.1143845230306,-9.93959569033065,0 -36.1143864636737,-9.93956923193474,0 -36.114388403825,-9.93954327421934,0 -36.114391916662,-9.9395179942412,0 -36.1143936332049,-9.9394920827261,0 -36.1143970283007,-9.9394645029817,0 -36.1144038342156,-9.93943664183891,0 -36.1144149488971,-9.93940959583166,0 -36.114431938186,-9.93938621677593,0 -36.1144529781921,-9.9393660819156,0 -36.1144785568006,-9.93935030463142,0 -36.1145080984951,-9.93933964650273,0 -36.1145384756165,-9.93933575278474,0 -36.1145671529522,-9.93933462896577,0 -36.1145943391338,-9.93933373085978,0 -36.1146207753917,-9.93933288478418,0 -36.1146462056232,-9.93933222219084,0 -36.1146701116129,-9.93933089791097,0 -36.1146933923336,-9.93932815514211,0 -36.1147162767344,-9.93932514114492,0 -36.1147387103687,-9.93932019852025,0 -36.1147613634929,-9.93931283092839,0 -36.1147835324434,-9.93930222088679,0 -36.1148048566468,-9.93928823599561,0 -36.1148238169151,-9.93927169679306,0 -36.1148404961845,-9.93925335037886,0 -36.1148551741921,-9.93923367916439,0 -36.1148691626163,-9.93921305497282,0 -36.1148831974125,-9.93919170976196,0 -36.1148972259561,-9.93916945098381,0 -36.1149114809508,-9.93914610053553,0 -36.1149256556313,-9.93912258120557,0 -36.1149394892093,-9.939098774705,0 -36.1149530441358,-9.93907375739259,0 -36.1149667731123,-9.93904834643612,0 -36.1149802405538,-9.93902357425926,0 -36.1149934072794,-9.93899985211125,0 -36.1150063400128,-9.93897717038512,0 -36.1150193277141,-9.93895507733252,0 -36.115032518289,-9.9389330268049,0 -36.1150457502355,-9.93891097771534,0 -36.1150593229596,-9.93888891618592,0 -36.115073161173,-9.93886662787124,0 -36.1150876364078,-9.93884474079202,0 -36.115101983726,-9.93882261261951,0 -36.1151174458597,-9.93880059759562,0 -36.1151333212717,-9.93877895147817,0 -36.1151492669395,-9.93875759062304,0 -36.1151653417337,-9.93873686453475,0 -36.1151806081554,-9.93871719860143,0 -36.1151959867545,-9.93869742306624,0 -36.1152113633572,-9.93867789845545,0 -36.1152264609678,-9.93865833896941,0 -36.1152411394974,-9.93863753319314,0 -36.1152566367927,-9.93861669473053,0 -36.115272372847,-9.93859595029173,0 -36.11528923466,-9.93857533679059,0 -36.1153069984087,-9.93855617893733,0 -36.1153230966097,-9.93853583264621,0 -36.1153394815357,-9.93851559521109,0 -36.1153548823237,-9.93849541836895,0 -36.1153695935366,-9.93847516553784,0 -36.1153843189064,-9.93845566130833,0 -36.1153996664834,-9.93843622425945,0 -36.115415440421,-9.9384166347683,0 -36.1154320037037,-9.93839656373765,0 -36.1154501440986,-9.93837480104396,0 -36.115468897897,-9.93835142890341,0 -36.115488193079,-9.93832766390305,0 -36.1155076197486,-9.93830388079207,0 -36.1155269399778,-9.93827948982761,0 -36.1155465746833,-9.93825533114779,0 -36.1155658663408,-9.93823153449671,0 -36.1155844306499,-9.93820748730757,0 -36.1156028207987,-9.93818369207074,0 -36.1156205129357,-9.93816017370299,0 -36.1156380984563,-9.93813650548337,0 -36.115654647885,-9.93811223102384,0 -36.115670827795,-9.93808740869472,0 -36.1156870927354,-9.93806350214734,0 -36.115701930915,-9.93804121772425,0 -36.1157151601162,-9.93802034282323,0 -36.1157272673579,-9.93800044400953,0 -36.1157397771687,-9.93798062053714,0 -36.1157514038138,-9.9379607903926,0 -36.1157625819136,-9.93794036482721,0 -36.1157736416581,-9.93792019093462,0 -36.1157830886853,-9.93790163203385,0 -36.115794873648,-9.9378715330151,0 -36.1157978919248,-9.93784360694103,0 -36.1158006477481,-9.93781176796243,0 -36.1158100323147,-9.93778239985746,0 -36.1158134394134,-9.93776634548537,0 -36.1158152929174,-9.93774706699939,0 -36.1158144385498,-9.93772525365087,0 -36.1158132097255,-9.93770210945581,0 -36.1158124967389,-9.93767909401922,0 -36.1158117572433,-9.93764304259208,0 -36.1158063269562,-9.937604425951,0 -36.1158192539707,-9.93755850033062,0 -36.1157272564342,-9.93743655002811,0 -36.1156784442734,-9.93745519589278,0 -36.1156418359741,-9.93746962072525,0 -36.1155997654647,-9.93748522603905,0 -36.1155576114313,-9.93750086220142,0 -36.1155118477672,-9.93751647563584,0 -36.1154665082794,-9.93753194425345,0 -36.1154217479637,-9.93754747304344,0 -36.1153773855811,-9.93756286371257,0 -36.1153283450448,-9.93758181354784,0 -36.1152789696627,-9.93760089267121,0 -36.1152279287467,-9.93762117640531,0 -36.1151763657468,-9.9376416675141,0 -36.1151241094286,-9.93766063740138,0 -36.1150724325465,-9.9376793968431,0 -36.1150207985106,-9.93769892610472,0 -36.114968961382,-9.93771853204425,0 -36.1149161240548,-9.93773840119549,0 -36.1148632180917,-9.93775829610979,0 -36.1148091151912,-9.93777820613371,0 -36.11475504394,-9.93779810453266,0 -36.1147009495869,-9.93781772356301,0 -36.1146467954553,-9.93783736429573,0 -36.1145928238664,-9.93785638006977,0 -36.114539143978,-9.93787529314709,0 -36.1144867487295,-9.93789449867812,0 -36.1144341326424,-9.93791378520211,0 -36.1143812649592,-9.93793292661377,0 -36.114328404433,-9.93795206551267,0 -36.114273789805,-9.93797162789986,0 -36.1142189587763,-9.93799126769665,0 -36.114163340714,-9.93800996732779,0 -36.1141081060814,-9.93802853812162,0 -36.1140526585674,-9.93804772917846,0 -36.113997557982,-9.93806680023603,0 -36.113942461662,-9.93808803817299,0 -36.1138869054806,-9.93810945330511,0 -36.1138322243049,-9.93813050408811,0 -36.1136699251253,-9.93818984275861,0 -36.1135579319319,-9.93822757639203,0 -36.1133891200656,-9.938293405547,0 -36.1132768447329,-9.93833737889495,0 -36.1132209667891,-9.93835947008035,0 -36.1131659696709,-9.93838205166556,0 -36.1130055714069,-9.93844940523234,0 -36.1129600731838,-9.93846897930273,0 -36.1129150973386,-9.93848832871713,0 -36.112828020926,-9.93853093985726,0 -36.1127864735907,-9.9385554758938,0 -36.1127041228754,-9.93860734360488,0 -36.1126649487622,-9.93863365785297,0 -36.1125904604871,-9.93869016381767,0 -36.1125538221737,-9.93872096270682,0 -36.1125168295528,-9.93875205925602,0 -36.1124795645495,-9.93878449818414,0 -36.1124423493379,-9.93881689367689,0 -36.1124065044976,-9.93884950680816,0 -36.1122365230462,-9.93901589985439,0 -36.1122088103386,-9.93904930906512,0 -36.112121082446,-9.93915072628186,0 -36.1120876298461,-9.93918166765517,0 -36.1120215633319,-9.93924129136376,0 -36.1119879358215,-9.93927091721296,0 -36.1119188261616,-9.93933339874231,0 -36.1118834506001,-9.93936541630753,0 -36.1118122359851,-9.93942946911195,0 -36.1117763027042,-9.93946158836822,0 -36.1117413136087,-9.93949223664398,0 -36.11167256904,-9.93955448796941,0 -36.1116389082742,-9.93958599588771,0 -36.1116048050429,-9.93961919543824,0 -36.1115702837794,-9.93965280193139,0 -36.1115343496356,-9.93968628491888,0 -36.1114985297077,-9.93971966146869,0 -36.1114623798733,-9.93975262511554,0 -36.1114266759516,-9.93978518231134,0 -36.1113920996907,-9.93981880519124,0 -36.1113235129343,-9.93988713178372,0 -36.1112896858033,-9.93992166382393,0 -36.1112575371326,-9.93995356024503,0 -36.1112251341286,-9.93998570890189,0</coordinates></LinearRing></outerBoundaryIs></Polygon></MultiGeometry>
  </Placemark>
</Folder>
</Document></kml>
