<?xml version="1.0" encoding="utf-8" ?>
<kml xmlns="http://www.opengis.net/kml/2.2">
<Document id="root_doc">
<Schema name="MANGABEIRA_TALHAO_1008_ID_473" id="MANGABEIRA_TALHAO_1008_ID_473">
	<SimpleField name="TALHAO" type="string"></SimpleField>
	<SimpleField name="FAZENDA" type="string"></SimpleField>
	<SimpleField name="ZONA" type="string"></SimpleField>
	<SimpleField name="ID" type="float"></SimpleField>
	<SimpleField name="AREA_TOTAL" type="float"></SimpleField>
	<SimpleField name="FAZ_NOME" type="string"></SimpleField>
	<SimpleField name="CODE" type="string"></SimpleField>
</Schema>
<Folder><name>MANGABEIRA_TALHAO_1008_ID_473</name>
  <Placemark id="MANGABEIRA_TALHAO_1008_ID_473.1">
	<Style><LineStyle><color>ff0000ff</color></LineStyle><PolyStyle><fill>0</fill></PolyStyle></Style>
	<ExtendedData><SchemaData schemaUrl="#MANGABEIRA_TALHAO_1008_ID_473">
		<SimpleData name="TALHAO">1008</SimpleData>
		<SimpleData name="FAZENDA">2655</SimpleData>
		<SimpleData name="ZONA">1</SimpleData>
		<SimpleData name="ID">473</SimpleData>
		<SimpleData name="AREA_TOTAL">3.63</SimpleData>
		<SimpleData name="FAZ_NOME">MANGABEIRA</SimpleData>
		<SimpleData name="CODE"></SimpleData>
	</SchemaData></ExtendedData>
      <MultiGeometry><Polygon><outerBoundaryIs><LinearRing><coordinates>-36.1194033456711,-9.94267176968276,0 -36.1193648401246,-9.94269462724414,0 -36.1193267458891,-9.94271773054741,0 -36.1192888551185,-9.94274056328385,0 -36.119252499383,-9.94276218916231,0 -36.119220588202,-9.94278224361445,0 -36.1191917429058,-9.9428012018682,0 -36.1191655720908,-9.94281772355288,0 -36.119138785004,-9.94283435662316,0 -36.1191109861635,-9.94285106188361,0 -36.1190809662602,-9.94286929751829,0 -36.119047170287,-9.94288982076086,0 -36.1190128638453,-9.94291106043859,0 -36.1189784207982,-9.94293325937849,0 -36.1189432497943,-9.9429562012093,0 -36.1189072471768,-9.94297900963401,0 -36.1188712712065,-9.9430013215803,0 -36.1188356325213,-9.943023346735,0 -36.1188002118067,-9.94304548072301,0 -36.1187650100135,-9.94306659857515,0 -36.1187299753633,-9.94308754121844,0 -36.1186944949641,-9.94310861907852,0 -36.1186595630207,-9.94312936308191,0 -36.1186259091939,-9.94314952435359,0 -36.1185946052433,-9.94316970902977,0 -36.1185646067048,-9.94318999650676,0 -36.1185350693599,-9.94320805800556,0 -36.1185064629974,-9.94322461784956,0 -36.1184790285026,-9.9432390566154,0 -36.11845211979,-9.94325532133777,0 -36.1184256151599,-9.94327012246633,0 -36.1183810192062,-9.9432955202425,0 -36.118342335501,-9.943317700533,0 -36.1183070087527,-9.94333879243775,0 -36.1179858877226,-9.9435285424452,0 -36.117951388747,-9.94354938303847,0 -36.1179272680444,-9.94356418818491,0 -36.1179003648703,-9.94358032675272,0 -36.1178714870169,-9.94359816605974,0 -36.1178411745285,-9.94361741887079,0 -36.1178105109548,-9.94363598940707,0 -36.1177819885967,-9.94365461125351,0 -36.1177370882631,-9.94368524129774,0 -36.1176979314687,-9.94371013718448,0 -36.117667220573,-9.94373000211451,0 -36.1174566769302,-9.943854367166,0 -36.1174304626111,-9.94386563409465,0 -36.1174027478937,-9.94387837004031,0 -36.1173723179625,-9.94389672056658,0 -36.1173378534437,-9.94391811642266,0 -36.1173030034396,-9.94394076774425,0 -36.1172696856004,-9.94396401250383,0 -36.1172328831196,-9.94398851891205,0 -36.117190938728,-9.9440165169485,0 -36.1171439200622,-9.94404792016616,0 -36.1170958640708,-9.94408002558701,0 -36.1170486713018,-9.94411245678944,0 -36.1170014378496,-9.94414281488413,0 -36.1169550431591,-9.94417163381214,0 -36.1169085529842,-9.94420036053259,0 -36.1168617099234,-9.94423318657923,0 -36.1168156237444,-9.94427053922137,0 -36.1167684280298,-9.94431458818287,0 -36.1167249654861,-9.94436411653953,0 -36.1166872211314,-9.9444180876733,0 -36.1166545134883,-9.94447441111352,0 -36.1166259010735,-9.94453336258873,0 -36.1165975371866,-9.94459364347228,0 -36.1165693744825,-9.94465512202557,0 -36.1165418444675,-9.9447178198203,0 -36.1165147685485,-9.94478124988798,0 -36.1164875821362,-9.94484540160057,0 -36.1164595929465,-9.94490701210776,0 -36.1164305225068,-9.94496482979536,0 -36.1164016235682,-9.94501893295731,0 -36.1163735888025,-9.94507243129638,0 -36.1163448698745,-9.94512733683154,0 -36.1163132820595,-9.94518032789156,0 -36.1162795679378,-9.94523076963248,0 -36.1162443639974,-9.9452789378777,0 -36.1162110366534,-9.94532163230607,0 -36.1161739255687,-9.94536309557032,0 -36.1161307494182,-9.94540423560215,0 -36.1161089413342,-9.94544130700653,0 -36.1160773613917,-9.94547803611023,0 -36.1160539119394,-9.94550236023653,0 -36.1160235205531,-9.94553134139366,0 -36.1159909117339,-9.94556039306679,0 -36.1159579148545,-9.94558756735616,0 -36.115925085865,-9.94561204820862,0 -36.1158933824507,-9.94563374849927,0 -36.1158638113458,-9.94565227070003,0 -36.1158367956117,-9.94566762893189,0 -36.1158114812881,-9.94568022171986,0 -36.1157816702797,-9.94569425174773,0 -36.1157479569846,-9.94571060745942,0 -36.1157155406874,-9.94572678536677,0 -36.1156844419874,-9.94574268946526,0 -36.1156544851526,-9.94575900864525,0 -36.1156254273634,-9.94577544261002,0 -36.1155972576834,-9.94579200133006,0 -36.1155714608028,-9.94580888923253,0 -36.115548200931,-9.9458261991193,0 -36.1155258710645,-9.94584488273042,0 -36.1155038414535,-9.94586477895888,0 -36.1154817915188,-9.94588612776341,0 -36.1154593373478,-9.94590859597764,0 -36.1154364087868,-9.94593182338494,0 -36.1154133335881,-9.94595513843298,0 -36.1153905967686,-9.94597869736867,0 -36.1153679325475,-9.94600225395447,0 -36.1153455561839,-9.94602554055009,0 -36.1153242990261,-9.94604893503252,0 -36.1153038198991,-9.94607271542524,0 -36.1152842297489,-9.94609605689286,0 -36.1152659979112,-9.94611929538598,0 -36.1152482398534,-9.94614269445536,0 -36.1152302969422,-9.94616604770089,0 -36.1152126844986,-9.94618974219195,0 -36.1151955153944,-9.94621387521972,0 -36.1151789491522,-9.94623939254949,0 -36.1151620633745,-9.94626596078412,0 -36.1151448893796,-9.94629325504251,0 -36.1151277464571,-9.9463213692332,0 -36.1150975931869,-9.94636924238664,0 -36.1150951113687,-9.94638996248358,0 -36.1150955473617,-9.9464091115146,0 -36.1150965989568,-9.94642772416599,0 -36.1157076652484,-9.94600808604961,0 -36.1157230025822,-9.94605211348973,0 -36.1157468808515,-9.94604304978117,0 -36.1157907090382,-9.94603913342126,0 -36.1158424034655,-9.94604722452265,0 -36.1158909935501,-9.94606174393251,0 -36.1159290491404,-9.94607866160603,0 -36.1159671308637,-9.94608655785491,0 -36.116048380321,-9.94611105781317,0 -36.1160789394992,-9.94610797830545,0 -36.1161099317843,-9.94610509900457,0 -36.1161391263852,-9.94609851424715,0 -36.1161662070122,-9.94608459953343,0 -36.1161883794133,-9.94607043085248,0 -36.1161981399339,-9.94605908952219,0 -36.1162484308533,-9.94600413322004,0 -36.1162652829342,-9.94597591680671,0 -36.1162763939568,-9.94594953797456,0 -36.116307797992,-9.94586518447236,0 -36.1163205410729,-9.94581063020775,0 -36.1163336556533,-9.94575871135745,0 -36.1163490945945,-9.94570966199993,0 -36.1163579654108,-9.94562021642715,0 -36.116355878989,-9.94561305467643,0 -36.1163705638254,-9.94552824014862,0 -36.116397930448,-9.94544506365199,0 -36.1164113631348,-9.94541557050082,0 -36.1164401519841,-9.94531319630121,0 -36.1164584682791,-9.94525741862889,0 -36.1164710975374,-9.94523140632694,0 -36.1164893200415,-9.94518806279858,0 -36.1165095687761,-9.94514069773248,0 -36.1165312936989,-9.94509026313989,0 -36.1165531264033,-9.94504095538032,0 -36.116576559744,-9.94498967902079,0 -36.1166030160082,-9.94493940882015,0 -36.1166328673323,-9.9448935001976,0 -36.116666174563,-9.94484981037925,0 -36.1167015282226,-9.94480629545185,0 -36.116739181408,-9.94476610192233,0 -36.1167764481055,-9.94472661608351,0 -36.1168161945274,-9.94468507846424,0 -36.1168559138189,-9.94464665402598,0 -36.1168956247374,-9.9446119713052,0 -36.1169342069077,-9.94457640466201,0 -36.1169759532189,-9.94454227126914,0 -36.1170184357079,-9.94451178996542,0 -36.1170607885366,-9.94447292862046,0 -36.1171061267615,-9.94444449436793,0 -36.1171493635403,-9.9444192832897,0 -36.1171941131778,-9.9443962502873,0 -36.1172440586824,-9.94438509074365,0 -36.1172886883618,-9.94437505986088,0 -36.1173361522029,-9.94436112731649,0 -36.117383107754,-9.94435461750386,0 -36.1174274730341,-9.94435102547985,0 -36.1174687382797,-9.94434758146694,0 -36.117509113023,-9.94434410654435,0 -36.1175473902002,-9.94434318723451,0 -36.1176436018813,-9.94433982422024,0 -36.11767997228,-9.94434317512243,0 -36.117723014548,-9.9443391641223,0 -36.1177705167008,-9.94434222115125,0 -36.1178165202284,-9.94433708015149,0 -36.1178637681661,-9.94433520587755,0 -36.1179102988546,-9.94433174212335,0 -36.1179555684737,-9.94433205683292,0 -36.117996807861,-9.94432422062906,0 -36.1180353346853,-9.9443125785227,0 -36.1180735953768,-9.94429222693817,0 -36.118110233209,-9.94427220321102,0 -36.1181437093317,-9.94424920157692,0 -36.118174483628,-9.944223589022,0 -36.1182026712272,-9.94419176473284,0 -36.1182280576782,-9.94415981289565,0 -36.1182512300043,-9.94412167611593,0 -36.1182726267754,-9.94408247369596,0 -36.118292456448,-9.94404138155402,0 -36.118311118241,-9.94399923597004,0 -36.1183296773564,-9.94395822496044,0 -36.1183484486717,-9.94391379588496,0 -36.1183662394574,-9.94387282332808,0 -36.1183846560317,-9.94383097158946,0 -36.1184026620381,-9.94378978397409,0 -36.1184224950762,-9.94374857973628,0 -36.1184426895703,-9.94370946150454,0 -36.1184628204067,-9.94367400380898,0 -36.1184835011636,-9.94363828028197,0 -36.1185048194015,-9.94360257925709,0 -36.1185288438229,-9.94356810695019,0 -36.1185576666971,-9.94353869945989,0 -36.1185893182836,-9.94351009748357,0 -36.118622508153,-9.94348430422762,0 -36.1186551314973,-9.94345594802067,0 -36.1186923205021,-9.94343418520324,0 -36.1187302039102,-9.94341601240974,0 -36.1187685500423,-9.94340137067551,0 -36.1188072084746,-9.94338455458997,0 -36.1188469208115,-9.94337298999311,0 -36.1188831212624,-9.9433578588501,0 -36.1189213423029,-9.94334559519932,0 -36.1189585304882,-9.9433334592358,0 -36.1189952127204,-9.94332104931281,0 -36.1190319836007,-9.94330951839219,0 -36.119067642676,-9.94330020948606,0 -36.1191006221159,-9.94329123533147,0 -36.1191324049018,-9.94328269483949,0 -36.1191656156319,-9.94327077951314,0 -36.1192021242867,-9.94325972896642,0 -36.1192401834287,-9.94325111492048,0 -36.1192766762746,-9.94324510365452,0 -36.1193110494736,-9.94323222807857,0 -36.1193509357989,-9.94322568753416,0 -36.119391648,-9.94322069402208,0 -36.1194334273675,-9.94322691242337,0 -36.1194678217103,-9.94322529647086,0 -36.1195027587079,-9.94322249368981,0 -36.1196955419266,-9.94323701151216,0 -36.1197710977546,-9.94325325186304,0 -36.119808711392,-9.94326277064389,0 -36.1198453760239,-9.94327760696454,0 -36.1198789119578,-9.943283677577,0 -36.1199130690235,-9.9432947934761,0 -36.1199420719558,-9.9433056078244,0 -36.1199693403831,-9.94331136483831,0 -36.1200013528629,-9.94331841891591,0 -36.1200355957496,-9.94332797500289,0 -36.1200682506085,-9.94333880853797,0 -36.1200995166986,-9.94334978692875,0 -36.1201298179163,-9.9433618907552,0 -36.1201555017287,-9.94337193812547,0 -36.1201841994269,-9.94338004120627,0 -36.1202155074307,-9.94338929846314,0 -36.1202461313832,-9.94339825986183,0 -36.1202754296345,-9.94340639391424,0 -36.1203336232845,-9.94341468272212,0 -36.1203856147708,-9.94341937734758,0 -36.1204313131782,-9.9434165057984,0 -36.1204821725785,-9.9434130178309,0 -36.120521392866,-9.94340277778927,0 -36.120542694089,-9.94338661394143,0 -36.1205743107116,-9.94336933646631,0 -36.120598852127,-9.9433521565378,0 -36.120619667429,-9.94333462844559,0 -36.1206421630182,-9.94331314176485,0 -36.1206644554391,-9.94329110193925,0 -36.1202299931198,-9.94217516050315,0 -36.1202101072138,-9.94218760345268,0 -36.1201724834448,-9.94221001490604,0 -36.1201317442237,-9.94223401863938,0 -36.1200912310606,-9.94225852418093,0 -36.1200507290666,-9.94228339904371,0 -36.1200101689111,-9.94230910624716,0 -36.1199684489879,-9.94233411718858,0 -36.1199258090358,-9.94235551607157,0 -36.1198854451091,-9.94237792515754,0 -36.1198454128702,-9.9424020355987,0 -36.1198052935657,-9.94242712921463,0 -36.1197650883225,-9.94245247507822,0 -36.1197245933178,-9.94247733318945,0 -36.1196835936892,-9.94250217118589,0 -36.1196423261934,-9.94252729594043,0 -36.1196015299507,-9.94255231712906,0 -36.1195611570996,-9.94257685281507,0 -36.1195214058319,-9.94260152049243,0 -36.1194817437475,-9.94262524543234,0 -36.1194423362181,-9.94264868527301,0 -36.1194033456711,-9.94267176968276,0</coordinates></LinearRing></outerBoundaryIs></Polygon></MultiGeometry>
  </Placemark>
</Folder>
</Document></kml>
