<?xml version="1.0" encoding="utf-8" ?>
<kml xmlns="http://www.opengis.net/kml/2.2">
<Document id="root_doc">
<Schema name="MANGABEIRA_TALHAO_1010_ID_496" id="MANGABEIRA_TALHAO_1010_ID_496">
	<SimpleField name="TALHAO" type="string"></SimpleField>
	<SimpleField name="FAZENDA" type="string"></SimpleField>
	<SimpleField name="ZONA" type="string"></SimpleField>
	<SimpleField name="ID" type="float"></SimpleField>
	<SimpleField name="AREA_TOTAL" type="float"></SimpleField>
	<SimpleField name="FAZ_NOME" type="string"></SimpleField>
	<SimpleField name="CODE" type="string"></SimpleField>
</Schema>
<Folder><name>MANGABEIRA_TALHAO_1010_ID_496</name>
  <Placemark id="MANGABEIRA_TALHAO_1010_ID_496.1">
	<Style><LineStyle><color>ff0000ff</color></LineStyle><PolyStyle><fill>0</fill></PolyStyle></Style>
	<ExtendedData><SchemaData schemaUrl="#MANGABEIRA_TALHAO_1010_ID_496">
		<SimpleData name="TALHAO">1010</SimpleData>
		<SimpleData name="FAZENDA">2655</SimpleData>
		<SimpleData name="ZONA">1</SimpleData>
		<SimpleData name="ID">496</SimpleData>
		<SimpleData name="AREA_TOTAL">2.02</SimpleData>
		<SimpleData name="FAZ_NOME">MANGABEIRA</SimpleData>
		<SimpleData name="CODE"></SimpleData>
	</SchemaData></ExtendedData>
      <MultiGeometry><Polygon><outerBoundaryIs><LinearRing><coordinates>-36.1223803714911,-9.92887418175239,0 -36.1223519323944,-9.92889340748442,0 -36.1223230306961,-9.92891283327163,0 -36.1222939478627,-9.92893220234611,0 -36.1222651812187,-9.92895089115314,0 -36.1222371803636,-9.92896986517804,0 -36.1222101509608,-9.92898845838489,0 -36.1221837285488,-9.92900815011572,0 -36.1221571203396,-9.92902913856613,0 -36.1221292105328,-9.92905081808859,0 -36.1221006116987,-9.9290719258278,0 -36.1220726989359,-9.92909256565389,0 -36.1220462703045,-9.92911348001316,0 -36.1220199784655,-9.92913432253924,0 -36.1219939630952,-9.92915570545431,0 -36.1219679480608,-9.92917754711989,0 -36.1219424778077,-9.92920044479935,0 -36.1219173666283,-9.9292231055208,0 -36.1218934575048,-9.92924577129932,0 -36.1218712569645,-9.92926886981513,0 -36.121850751063,-9.9292930097108,0 -36.1218318358141,-9.92931779633155,0 -36.1218128873277,-9.92934380513771,0 -36.1217935031198,-9.92936987143155,0 -36.1217747629698,-9.92939532852727,0 -36.1217564273508,-9.92941997198433,0 -36.1217379471477,-9.9294453367561,0 -36.1217170820632,-9.92947124242129,0 -36.1216933456858,-9.92949575198331,0 -36.1216672155723,-9.92951813638976,0 -36.1216402518066,-9.92953841493183,0 -36.1216126845633,-9.92955761108877,0 -36.1215830566919,-9.92957563535352,0 -36.1215525040382,-9.92959295923495,0 -36.1215221962147,-9.92961024371222,0 -36.1214918852209,-9.92962704025243,0 -36.1214624706437,-9.9296448177516,0 -36.1214338752721,-9.92966447538624,0 -36.121405625678,-9.92968584851251,0 -36.1213777464259,-9.92970817060276,0 -36.1213509678068,-9.92973171796743,0 -36.1213247229904,-9.92975592418425,0 -36.1212988777128,-9.92978017537764,0 -36.1212740947308,-9.92980516180246,0 -36.1212489876297,-9.92983093867172,0 -36.1212241609828,-9.92985760843603,0 -36.1211993494959,-9.92988519780101,0 -36.1211752898027,-9.9299121674101,0 -36.1211534925782,-9.92993909601683,0 -36.1211325526441,-9.9299667708064,0 -36.1211119703004,-9.92999538686716,0 -36.1210907948833,-9.93002399107941,0 -36.1210693165737,-9.93005252578276,0 -36.1210493119386,-9.93008175602672,0 -36.121030714123,-9.93011171167414,0 -36.1210127665959,-9.93014206998697,0 -36.1209944448135,-9.93017286979081,0 -36.1209756735165,-9.93020457833059,0 -36.1209573994821,-9.93023712084988,0 -36.1209402245115,-9.93026863685967,0 -36.1209236928766,-9.93029899430264,0 -36.1209078104301,-9.93032898765796,0 -36.1208916070744,-9.93035917169795,0 -36.1208755649327,-9.93039014427831,0 -36.1208600253321,-9.93042174239015,0 -36.1208453091703,-9.93045351152248,0 -36.120831101098,-9.93048476144778,0 -36.1208176110573,-9.93051520991055,0 -36.1208047822571,-9.93054496893974,0 -36.120792420565,-9.93057432775779,0 -36.1207796884541,-9.93060342052959,0 -36.1207667795837,-9.93063226971785,0 -36.120753521826,-9.93066184437627,0 -36.1207400380838,-9.93069092169552,0 -36.1207269514796,-9.93071895472192,0 -36.120714858904,-9.93074698923791,0 -36.1207025971308,-9.93077560474475,0 -36.1206900689746,-9.93080416486149,0 -36.1206772561218,-9.93083244379795,0 -36.1206638817528,-9.9308609453137,0 -36.1206506146079,-9.93088873050947,0 -36.1206378758506,-9.93091615406417,0 -36.1206247924029,-9.93094383593174,0 -36.1206111017841,-9.93097190986182,0 -36.1205973918631,-9.93100044928977,0 -36.1205827304413,-9.93102942107566,0 -36.1205670502604,-9.93105915893573,0 -36.1205509758478,-9.9310890574532,0 -36.1205344915373,-9.93111830864662,0 -36.1205178047714,-9.93114695911349,0 -36.1205012692524,-9.93117516518512,0 -36.1204850134793,-9.93120405347591,0 -36.1204684667103,-9.93123270263674,0 -36.1204524309447,-9.93126003932305,0 -36.1204364445238,-9.93128747511992,0 -36.1204207873175,-9.93131524426147,0 -36.1204056101191,-9.93134259065678,0 -36.1203914850711,-9.9313696990791,0 -36.1203781037207,-9.931396343346,0 -36.1203652212886,-9.93142317612653,0 -36.1203539388508,-9.9314509380467,0 -36.1203440470982,-9.93147918789131,0 -36.1203358712515,-9.93150799775304,0 -36.1203294900681,-9.93153738740701,0 -36.1203250825817,-9.93156716447735,0 -36.1203234173072,-9.93159693023028,0 -36.1203239780429,-9.93162639673233,0 -36.1203261301713,-9.93165524217431,0 -36.1203299244593,-9.93168252240236,0 -36.1203363316168,-9.93170696542552,0 -36.1203453766888,-9.93172881934081,0 -36.1203575588679,-9.93174943678075,0 -36.1203746771936,-9.93176955728159,0 -36.1203959330865,-9.93179033164782,0 -36.1204188191009,-9.93180994971044,0 -36.1204431982744,-9.9318271624357,0 -36.1204677609473,-9.93184352659555,0 -36.1204925332446,-9.9318593370389,0 -36.1205172122669,-9.93187470876553,0 -36.1205416174076,-9.93188971697476,0 -36.120566260401,-9.93190461194222,0 -36.1205923402319,-9.93192027777854,0 -36.1206199581514,-9.93193677843031,0 -36.1206475661416,-9.93195370251586,0 -36.120674408948,-9.93197066396467,0 -36.120700999924,-9.93198740629555,0 -36.1207279839726,-9.93200361329295,0 -36.1207553117798,-9.93202041791554,0 -36.120782787966,-9.93203763208448,0 -36.1208097745146,-9.93205498105166,0 -36.1208357740635,-9.93207171371598,0 -36.1208612788713,-9.93208774296475,0 -36.1208862791326,-9.93210352019258,0 -36.1209105631591,-9.93211982229138,0 -36.1209345155389,-9.93213573757713,0 -36.1209582076112,-9.93215112239139,0 -36.120980876944,-9.93216611369985,0 -36.1210022291587,-9.93218011575096,0 -36.121022312972,-9.93219340224533,0 -36.1210435545682,-9.93220644943542,0 -36.121062261027,-9.93221882687441,0 -36.1210804948597,-9.93223134102399,0 -36.1210993015061,-9.93224441108767,0 -36.1211183161921,-9.9322574474622,0 -36.121129041682,-9.93226492410049,0 -36.1211520217715,-9.93228078303168,0 -36.1211688093428,-9.9322924675807,0 -36.1211637500125,-9.93228286484941,0 -36.1211313994958,-9.93224928693221,0 -36.121097327379,-9.932219497013,0 -36.1210686216949,-9.93218818823494,0 -36.1210380352609,-9.9321562586197,0 -36.1210026312622,-9.93212366898452,0 -36.1209730892113,-9.93209615713668,0 -36.1209474481139,-9.93206625913117,0 -36.1209211917918,-9.93203916191084,0 -36.1208951412348,-9.93201128201618,0 -36.1208662338496,-9.93198477327459,0 -36.120838248946,-9.93195870107481,0 -36.1208087133493,-9.93193255158013,0 -36.1207853287469,-9.93190287650261,0 -36.1207539239005,-9.9318709679184,0 -36.1207316654869,-9.93183626321352,0 -36.1207154518922,-9.93178952310727,0 -36.1207049484522,-9.931751179752,0 -36.1206959212089,-9.93171326389584,0 -36.1206883685644,-9.93167223864565,0 -36.1206866103418,-9.93163085462074,0 -36.1206890706391,-9.93158982335758,0 -36.1206928759824,-9.93155078325674,0 -36.120698737382,-9.93151350203034,0 -36.120708567807,-9.93147522346401,0 -36.120718011089,-9.93143421933043,0 -36.1207333420274,-9.93139662674341,0 -36.1207445730792,-9.93136065900064,0 -36.1207560949231,-9.93132268259473,0 -36.1207753395305,-9.9312893678282,0 -36.120795126605,-9.93125844390759,0 -36.1208088031862,-9.93122411239054,0 -36.1208247719066,-9.93118901140686,0 -36.120841433694,-9.93115404437011,0 -36.1208586465963,-9.9311183709983,0 -36.1208722522245,-9.93108099129893,0 -36.1208887100107,-9.9310448621523,0 -36.1209027807007,-9.93100808460601,0 -36.1209198260577,-9.93097267722104,0 -36.120932233525,-9.93093549045482,0 -36.1209458072311,-9.93089838330567,0 -36.1209648503556,-9.93085271654562,0 -36.1209823890419,-9.93081678426407,0 -36.1210077695547,-9.93078823564371,0 -36.1210143599418,-9.93075369397459,0 -36.1210298249542,-9.93071429696938,0 -36.1210501468596,-9.93068273765256,0 -36.1210696537343,-9.93064965650201,0 -36.1210865084429,-9.93060378356927,0 -36.121108312438,-9.93057262825869,0 -36.1211249818126,-9.93053851527435,0 -36.1211451449386,-9.9305030795464,0 -36.1211653247898,-9.93047208856288,0 -36.1211884025548,-9.93042993544432,0 -36.1212081830958,-9.93039696386167,0 -36.1212263668982,-9.93036351601309,0 -36.1212479366921,-9.93033194486535,0 -36.1212687430003,-9.93029920262354,0 -36.1212908627557,-9.93026747680431,0 -36.121308428399,-9.93023091973844,0 -36.1213353648803,-9.93020022330719,0 -36.1213579669405,-9.93016865960744,0 -36.1213826575897,-9.93013955400655,0 -36.1214065874311,-9.93010993323579,0 -36.1214313328334,-9.93008038186695,0 -36.1214575390365,-9.93005280547327,0 -36.1214928302285,-9.93001963224533,0 -36.121526842004,-9.92999001608229,0 -36.121554831662,-9.929962932209,0 -36.1215824958123,-9.92993263172257,0 -36.1216123844447,-9.92990369965554,0 -36.1216429193748,-9.92987652924244,0 -36.1216749602663,-9.92984944332801,0 -36.1217070874868,-9.92982415067891,0 -36.1217378854153,-9.92979938615431,0 -36.121769969751,-9.92976214043841,0 -36.1218113472087,-9.92974045927792,0 -36.121844895354,-9.92970841413013,0 -36.1218697083779,-9.92968089570388,0 -36.1219024560261,-9.92964509846581,0 -36.1219360149731,-9.92961293009345,0 -36.1219693477024,-9.9295823420979,0 -36.1219973815931,-9.92955856649409,0 -36.1220274822987,-9.92952778059279,0 -36.1220581843203,-9.9295065915475,0 -36.1220931119341,-9.92947919056452,0 -36.1221209767816,-9.92945469461486,0 -36.1221596627984,-9.92942641795015,0 -36.1221970194031,-9.92939888988845,0 -36.1222343222742,-9.9293700676438,0 -36.1222629932987,-9.92934849194689,0 -36.1222965494123,-9.9293131603437,0 -36.1223391204797,-9.92929176942477,0 -36.1223704237867,-9.92926548782537,0 -36.1224093494832,-9.92924614167832,0 -36.1224422177359,-9.9292224948943,0 -36.1224732078463,-9.92919907718154,0 -36.1225027070602,-9.92917632485501,0 -36.1225413515727,-9.92915262377627,0 -36.122575574849,-9.9291286417886,0 -36.1226106708116,-9.92910670281206,0 -36.1226529965684,-9.92908270935963,0 -36.1226860655332,-9.92906239077951,0 -36.1227262522498,-9.92903678860675,0 -36.1227676853071,-9.9290113461834,0 -36.1227981394247,-9.92898903669234,0 -36.122839016975,-9.92896645906039,0 -36.1228695698164,-9.92894469598311,0 -36.1229058600555,-9.92892946146669,0 -36.1229411298707,-9.92890728236393,0 -36.1229734764784,-9.9288862971442,0 -36.1230107625015,-9.92886307447622,0 -36.1230417583102,-9.92884311147062,0 -36.1230721631001,-9.92882178996756,0 -36.1231030645106,-9.92880127535023,0 -36.1231431421798,-9.92877258365317,0 -36.1231755132374,-9.92874956886349,0 -36.1232069942953,-9.92872620962342,0 -36.1232368977589,-9.92870423209923,0 -36.1232724471415,-9.92867749353803,0 -36.1233066577241,-9.92864793613209,0 -36.1233422843879,-9.92861984767944,0 -36.1233707292185,-9.92859581342965,0 -36.1234070406468,-9.92856516953109,0 -36.1234352476866,-9.92854016517352,0 -36.1234740683167,-9.92851144232307,0 -36.1235086825882,-9.92848103986188,0 -36.1235479515749,-9.92845406216592,0 -36.1235853129467,-9.92842640423162,0 -36.1236125486464,-9.92840232124648,0 -36.1236505966183,-9.92837018478492,0 -36.1236836290409,-9.92835026560589,0 -36.1237194324306,-9.92832065744125,0 -36.1237575904605,-9.92828922062218,0 -36.1237890461105,-9.92826671344292,0 -36.1238208276401,-9.92824323734007,0 -36.1238532729501,-9.92821892220916,0 -36.1238897154189,-9.92818565522661,0 -36.1239299503351,-9.92816011419356,0 -36.1239608942835,-9.92813874651774,0 -36.1240000684983,-9.92811149932471,0 -36.124060847598,-9.92804203006762,0 -36.1239482080708,-9.92772836973203,0 -36.1239263041114,-9.92779850628473,0 -36.1238934801466,-9.92786021447403,0 -36.1238609866649,-9.92788180024186,0 -36.1238347295575,-9.92789881563544,0 -36.1238080900906,-9.92791544045192,0 -36.1237816812981,-9.92793313563977,0 -36.1237543828413,-9.9279516213315,0 -36.1237266505289,-9.92797096935377,0 -36.1236986220689,-9.92799136015773,0 -36.1236704756178,-9.92801204876931,0 -36.1236432454431,-9.92803332050019,0 -36.1236158583071,-9.92805452803548,0 -36.1235881392499,-9.92807645073275,0 -36.1235599352312,-9.92809916539443,0 -36.1235313805464,-9.92812222339965,0 -36.1235022347819,-9.92814471146336,0 -36.1234736481106,-9.92816795358551,0 -36.1234443970854,-9.92819087296849,0 -36.123415488244,-9.9282129503471,0 -36.1233873890254,-9.92823499398463,0 -36.1233588501896,-9.92825678295963,0 -36.123331463578,-9.92827770565965,0 -36.123306425556,-9.92829931514374,0 -36.1232824458267,-9.9283212440569,0 -36.1232600322285,-9.92834194642431,0 -36.1232404843875,-9.92836211406957,0 -36.1232220613778,-9.92838308839546,0 -36.1232028732754,-9.92840522845532,0 -36.1231826976817,-9.92842810218604,0 -36.1231622215134,-9.92845187415134,0 -36.123139582998,-9.92847575301087,0 -36.1231151380918,-9.92849789448857,0 -36.1230905161829,-9.92851682995647,0 -36.1230659784682,-9.92853357433537,0 -36.1230413041449,-9.92854895447829,0 -36.1230160956199,-9.92856319928301,0 -36.1229886259817,-9.92857642920265,0 -36.1229599785787,-9.92858918243985,0 -36.1229304549951,-9.92860182501524,0 -36.1228997885913,-9.92861325933346,0 -36.1228693132698,-9.92862334118814,0 -36.1228394082533,-9.92863304330965,0 -36.1228083435652,-9.9286432184248,0 -36.1227754770882,-9.92865437204252,0 -36.1227420040984,-9.92866761914443,0 -36.122708601011,-9.92868234981757,0 -36.122675767717,-9.92869703168447,0 -36.1226442975117,-9.92871168689226,0 -36.1226141133783,-9.92872737659353,0 -36.1225845036816,-9.9287442746926,0 -36.1225548409044,-9.92876238480541,0 -36.1225253039259,-9.92878147048112,0 -36.12249596584,-9.92880106680204,0 -36.1224661710951,-9.92881985866197,0 -36.1224368717196,-9.92883782917573,0 -36.1224086604151,-9.92885579073214,0 -36.1223803714911,-9.92887418175239,0</coordinates></LinearRing></outerBoundaryIs></Polygon></MultiGeometry>
  </Placemark>
</Folder>
</Document></kml>
