<?xml version="1.0" encoding="utf-8" ?>
<kml xmlns="http://www.opengis.net/kml/2.2">
<Document id="root_doc">
<Schema name="MANGABEIRA_TALHAO_1011_ID_487" id="MANGABEIRA_TALHAO_1011_ID_487">
	<SimpleField name="TALHAO" type="string"></SimpleField>
	<SimpleField name="FAZENDA" type="string"></SimpleField>
	<SimpleField name="ZONA" type="string"></SimpleField>
	<SimpleField name="ID" type="float"></SimpleField>
	<SimpleField name="AREA_TOTAL" type="float"></SimpleField>
	<SimpleField name="FAZ_NOME" type="string"></SimpleField>
	<SimpleField name="CODE" type="string"></SimpleField>
</Schema>
<Folder><name>MANGABEIRA_TALHAO_1011_ID_487</name>
  <Placemark id="MANGABEIRA_TALHAO_1011_ID_487.1">
	<Style><LineStyle><color>ff0000ff</color></LineStyle><PolyStyle><fill>0</fill></PolyStyle></Style>
	<ExtendedData><SchemaData schemaUrl="#MANGABEIRA_TALHAO_1011_ID_487">
		<SimpleData name="TALHAO">1011</SimpleData>
		<SimpleData name="FAZENDA">2655</SimpleData>
		<SimpleData name="ZONA">1</SimpleData>
		<SimpleData name="ID">487</SimpleData>
		<SimpleData name="AREA_TOTAL">7.35</SimpleData>
		<SimpleData name="FAZ_NOME">MANGABEIRA</SimpleData>
		<SimpleData name="CODE"></SimpleData>
	</SchemaData></ExtendedData>
      <MultiGeometry><Polygon><outerBoundaryIs><LinearRing><coordinates>-36.1124028401166,-9.93605332296284,0 -36.1123824423831,-9.93607107337888,0 -36.1123624632808,-9.93609376434214,0 -36.1123417536813,-9.93611739773775,0 -36.1123219558171,-9.93614125572666,0 -36.1123026393997,-9.93616534817217,0 -36.1122842566175,-9.9361893526357,0 -36.1122671516521,-9.93621304767229,0 -36.1122511950941,-9.93623580223002,0 -36.1122362218829,-9.93625892441549,0 -36.1122223873313,-9.93628298831801,0 -36.1122084306475,-9.93630784231116,0 -36.1121942576858,-9.9363319187279,0 -36.1121817649152,-9.93635569282855,0 -36.1121687180202,-9.93638079320633,0 -36.1121553055956,-9.93640690264163,0 -36.112141529216,-9.93643377578462,0 -36.1121281188919,-9.93646124506641,0 -36.1121139387957,-9.93648928815613,0 -36.1120995500878,-9.93651637416854,0 -36.1120877289787,-9.936543032376,0 -36.1120773614243,-9.9365691524575,0 -36.1120676367401,-9.93659457191692,0 -36.112058632823,-9.93661961857111,0 -36.1120499382322,-9.93664398008626,0 -36.1120419314854,-9.93666863706176,0 -36.1120333250862,-9.93669350495395,0 -36.1120256346076,-9.93671847326114,0 -36.1120182318871,-9.93674344312946,0 -36.1120109311481,-9.93676732531458,0 -36.1120049414649,-9.93678972113482,0 -36.112000396989,-9.936811768603,0 -36.1119960038517,-9.93683354512968,0 -36.111990932348,-9.93685660657838,0 -36.1119838093324,-9.93687983561056,0 -36.1119780715359,-9.93690564388977,0 -36.1119712493273,-9.93693392119445,0 -36.1119641813511,-9.9369629029078,0 -36.1119571271905,-9.93699191080965,0 -36.1119503036683,-9.93702057703226,0 -36.1119435428474,-9.93704925582711,0 -36.1119361821854,-9.93707791512696,0 -36.11192890166,-9.93710710632674,0 -36.1119213169537,-9.93713641838479,0 -36.1119141633999,-9.93716562659958,0 -36.1119093672859,-9.93719426573842,0 -36.1119060911269,-9.93722286362937,0 -36.1119037509244,-9.93725072239111,0 -36.1119029798888,-9.93727712722218,0 -36.1119036791726,-9.93730192479923,0 -36.111907213388,-9.93732723903872,0 -36.1119125906804,-9.93735489252122,0 -36.1119200660665,-9.93738243078708,0 -36.1119327043455,-9.93740811727712,0 -36.111948411197,-9.93743101788888,0 -36.1119668121424,-9.93745200135628,0 -36.1119845857938,-9.93747308229987,0 -36.1120021099063,-9.93749318433509,0 -36.1120202215013,-9.93751399037596,0 -36.1120387678749,-9.93753606316987,0 -36.1120576556131,-9.93755924188708,0 -36.1120777981888,-9.93758297905381,0 -36.1120974080235,-9.93760741204576,0 -36.112116985082,-9.93763261098725,0 -36.1121363261038,-9.93765812109497,0 -36.1121564346237,-9.93768270541342,0 -36.1121778304292,-9.93770638769567,0 -36.1121995234761,-9.93772900409714,0 -36.1122202605205,-9.93775001169514,0 -36.1122405361078,-9.93776844440113,0 -36.1122607727548,-9.93778549123036,0 -36.1122821192031,-9.93780390437083,0 -36.1123031696219,-9.9378259706454,0 -36.1123245714447,-9.93784692368297,0 -36.1123474557222,-9.9378673742734,0 -36.1123708719284,-9.93788785342501,0 -36.1123942203576,-9.9379075520378,0 -36.1124165463573,-9.93792828163883,0 -36.1124374350965,-9.93794984476212,0 -36.1124473479795,-9.93796125438757,0 -36.1123397607914,-9.93750803463233,0 -36.1123152974341,-9.93737017648807,0 -36.1123526290578,-9.93712723785363,0 -36.112388044488,-9.9370165645542,0 -36.1126387460925,-9.93681503672996,0 -36.1129112258598,-9.93667586235763,0 -36.1132553565676,-9.93649878526419,0 -36.1133797260764,-9.93644993647674,0 -36.1134487400065,-9.93648977956124,0 -36.1134750559962,-9.93665440048349,0 -36.1135099858838,-9.93684069301576,0 -36.1135823683884,-9.93719597473195,0 -36.1137047622834,-9.9374811936474,0 -36.113776922384,-9.93760064044747,0 -36.1138606735845,-9.93770929802675,0 -36.1139963201083,-9.93784934684458,0 -36.1141284287489,-9.93796256531626,0 -36.114145198372,-9.93795692709054,0 -36.11420028836,-9.93793840500351,0 -36.1142545948743,-9.93791895307882,0 -36.1143091177822,-9.93789942354241,0 -36.1143618867839,-9.93788031777884,0 -36.114414648619,-9.9378612146885,0 -36.114467159063,-9.93784196688581,0 -36.1145198901535,-9.93782263824919,0 -36.1145739075104,-9.93780360626897,0 -36.114627633157,-9.93778467714516,0 -36.1146815421941,-9.93776512530148,0 -36.1147355111834,-9.93774555173587,0 -36.1147894573188,-9.93772569937758,0 -36.1148433719784,-9.93770585862455,0 -36.1148960901712,-9.93768603431752,0 -36.1149488768089,-9.9376661842255,0 -36.1150006631726,-9.93764659748407,0 -36.1150526524398,-9.93762693386293,0 -36.1151046862632,-9.93760804484419,0 -36.1151561406443,-9.93758936607086,0 -36.1152069108695,-9.93756919000803,0 -36.1152582031713,-9.93754880637063,0 -36.1153078308103,-9.93752962977064,0 -36.1153577932887,-9.93751032368391,0 -36.1154030895711,-9.93749460901438,0 -36.1154479880989,-9.93747903227214,0 -36.1154934659522,-9.9374635164459,0 -36.1155385196253,-9.93744814524092,0 -36.1155799702733,-9.93743276998284,0 -36.1156215042592,-9.93741736368122,0 -36.1156578566338,-9.93740303968957,0 -36.1157069770177,-9.93738427608397,0 -36.1157050896014,-9.93736396556086,0 -36.1156933227104,-9.93732744911446,0 -36.115669749234,-9.93728847876013,0 -36.1156417971545,-9.93724448622743,0 -36.1156216589514,-9.93721495860658,0 -36.1155963532538,-9.93718192446176,0 -36.1155688662091,-9.93714703077094,0 -36.115538502216,-9.93711438447659,0 -36.1155108207179,-9.93708779938722,0 -36.1154326225953,-9.93708390235593,0 -36.1154110573025,-9.93708751269466,0 -36.1153855261617,-9.93709433868099,0 -36.1153565493826,-9.93709972221559,0 -36.1153277960254,-9.93710377470912,0 -36.1152999698076,-9.93710703197634,0 -36.1152730868773,-9.93711015190337,0 -36.1152434773584,-9.93711123125571,0 -36.1152168023614,-9.93711498967223,0 -36.1151892966354,-9.93712017457956,0 -36.1151606520635,-9.93712444071576,0 -36.1151316684138,-9.93712871311694,0 -36.1151025112818,-9.93713335048227,0 -36.1150729052959,-9.93713631956643,0 -36.1150444711754,-9.93713597817796,0 -36.1150164886149,-9.93713562741581,0 -36.1149895357517,-9.93713459592262,0 -36.1149616441367,-9.93713413807907,0 -36.1149330802822,-9.93712877834528,0 -36.1149054256271,-9.93712373838893,0 -36.1148776749119,-9.93711463658812,0 -36.1148520887883,-9.9371029115897,0 -36.1148254986158,-9.93709108345301,0 -36.1148000092607,-9.93707394843887,0 -36.1147772658459,-9.93705404309533,0 -36.1147584579976,-9.93703212267932,0 -36.1147413178373,-9.93701043763194,0 -36.1147275779209,-9.93698601195496,0 -36.1147190916491,-9.93695907461641,0 -36.1147119220936,-9.93693410932468,0 -36.1147096378059,-9.93691988945006,0 -36.114705527707,-9.93689172759391,0 -36.1147096349953,-9.93686188251948,0 -36.1146963582789,-9.93682518913982,0 -36.1146901533107,-9.93668141330949,0 -36.1146867385563,-9.93654473357658,0 -36.1146880273923,-9.93639781074772,0 -36.1146741593754,-9.93613607782697,0 -36.1146551406095,-9.93583547294295,0 -36.114662430666,-9.93556982661121,0 -36.1146617787212,-9.93540016312373,0 -36.1146530515395,-9.93517531816068,0 -36.1146413126481,-9.93505173538483,0 -36.1146370690548,-9.9349639228686,0 -36.1145974631088,-9.93483936154632,0 -36.1145436940027,-9.93478195022315,0 -36.1144945441249,-9.93474356056738,0 -36.1144000751078,-9.93470979410249,0 -36.114337434101,-9.93468568691031,0 -36.1142708994502,-9.9346648075708,0 -36.1142101864896,-9.93464734889806,0 -36.1141464872873,-9.9346522715926,0 -36.1141149592857,-9.93465145355664,0 -36.1140524426077,-9.93465049841244,0 -36.1139886870898,-9.93464736558689,0 -36.1139563138148,-9.93464623079615,0 -36.1139251551937,-9.93464475264157,0 -36.1138951738648,-9.93464344085002,0 -36.1138647295572,-9.93464219274458,0 -36.1138339886284,-9.93464027773855,0 -36.1137731234703,-9.93464026442749,0 -36.1137441377373,-9.93464195514411,0 -36.1136872225124,-9.93464756277563,0 -36.1136600346343,-9.9346513220299,0 -36.1135725142029,-9.93466911073068,0 -36.1135441695236,-9.93467703026941,0 -36.1135154825886,-9.93468596032811,0 -36.1134872143735,-9.93469651282517,0 -36.1134297202004,-9.93472294968008,0 -36.1134027581929,-9.93473658736077,0 -36.1133783434208,-9.93475251432586,0 -36.1133544838404,-9.93476967886042,0 -36.1133052975164,-9.93480474667282,0 -36.1132798842283,-9.93482391775248,0 -36.1132276162912,-9.93486470426967,0 -36.1132034821163,-9.93488543576519,0 -36.113160738404,-9.93492552828354,0 -36.1131434005051,-9.93494852171207,0 -36.1131072922242,-9.9350011169772,0 -36.1130736849401,-9.93505832104685,0 -36.1130588024177,-9.93508806144165,0 -36.113031384671,-9.93514792441342,0 -36.1130190099826,-9.93517622027075,0 -36.113005826516,-9.93520370993174,0 -36.1129929024109,-9.93523075274903,0 -36.1129528330463,-9.93530764908626,0 -36.1129384618204,-9.93533458767947,0 -36.1128916789647,-9.93541757636488,0 -36.1128597656153,-9.93547495112821,0 -36.1128263669168,-9.93553276623954,0 -36.1128108624438,-9.93556011356415,0 -36.112795824655,-9.93558676562633,0 -36.1127810168699,-9.93561303082054,0 -36.1127667554463,-9.93563940652705,0 -36.1127387314101,-9.93569102725119,0 -36.1127255145923,-9.93571679754111,0 -36.1127115231096,-9.93574356139341,0 -36.1126783131787,-9.93579293684853,0 -36.1126600435206,-9.93581402251801,0 -36.1126420953761,-9.93583359988483,0 -36.1126248966347,-9.93585245424005,0 -36.112607436545,-9.93587030318755,0 -36.1125896758055,-9.93588718724809,0 -36.1125706654457,-9.93590347821888,0 -36.1125499806886,-9.93591984211501,0 -36.1125279495495,-9.93593720963214,0 -36.1125064131045,-9.93595527880795,0 -36.112486966875,-9.93597370542454,0 -36.1124684192779,-9.93599318306636,0 -36.1124511610039,-9.93601067697953,0 -36.1124361638223,-9.93602559995221,0 -36.1124217349766,-9.93603990345444,0 -36.1124028401166,-9.93605332296284,0</coordinates></LinearRing></outerBoundaryIs></Polygon></MultiGeometry>
  </Placemark>
</Folder>
</Document></kml>
