<?xml version="1.0" encoding="utf-8" ?>
<kml xmlns="http://www.opengis.net/kml/2.2">
<Document id="root_doc">
<Schema name="MANGABEIRA_TALHAO_1009_ID_495" id="MANGABEIRA_TALHAO_1009_ID_495">
	<SimpleField name="TALHAO" type="string"></SimpleField>
	<SimpleField name="FAZENDA" type="string"></SimpleField>
	<SimpleField name="ZONA" type="string"></SimpleField>
	<SimpleField name="ID" type="float"></SimpleField>
	<SimpleField name="AREA_TOTAL" type="float"></SimpleField>
	<SimpleField name="FAZ_NOME" type="string"></SimpleField>
	<SimpleField name="CODE" type="string"></SimpleField>
</Schema>
<Folder><name>MANGABEIRA_TALHAO_1009_ID_495</name>
  <Placemark id="MANGABEIRA_TALHAO_1009_ID_495.1">
	<Style><LineStyle><color>ff0000ff</color></LineStyle><PolyStyle><fill>0</fill></PolyStyle></Style>
	<ExtendedData><SchemaData schemaUrl="#MANGABEIRA_TALHAO_1009_ID_495">
		<SimpleData name="TALHAO">1009</SimpleData>
		<SimpleData name="FAZENDA">2655</SimpleData>
		<SimpleData name="ZONA">1</SimpleData>
		<SimpleData name="ID">495</SimpleData>
		<SimpleData name="AREA_TOTAL">5.80</SimpleData>
		<SimpleData name="FAZ_NOME">MANGABEIRA</SimpleData>
		<SimpleData name="CODE"></SimpleData>
	</SchemaData></ExtendedData>
      <MultiGeometry><Polygon><outerBoundaryIs><LinearRing><coordinates>-36.1187893106681,-9.93571573486298,0 -36.1187469153755,-9.93575535158364,0 -36.1187045027415,-9.93579498458107,0 -36.1186622377787,-9.93583415137542,0 -36.1186198651094,-9.93587341787359,0 -36.118578682773,-9.93591045344955,0 -36.1185376517216,-9.93594735286836,0 -36.1184991331122,-9.93598198377727,0 -36.1184221012475,-9.93605124091147,0 -36.1183840318105,-9.93608546803032,0 -36.1183479836565,-9.9361208718543,0 -36.1183117012753,-9.93615650579474,0 -36.1182772599291,-9.93619171035792,0 -36.1182423640513,-9.9362273796061,0 -36.1182047363189,-9.93626376068289,0 -36.1181670829284,-9.93630016664265,0 -36.1181286096282,-9.93633516495099,0 -36.1180901049839,-9.9363701918428,0 -36.1180515936979,-9.93640293446665,0 -36.1180131169361,-9.93643564763452,0 -36.1179738648256,-9.93646702959589,0 -36.1179346091779,-9.93649841429852,0 -36.1178951396589,-9.93652804407876,0 -36.1178557924501,-9.93655758209877,0 -36.1178179785391,-9.93658484492501,0 -36.1177797126591,-9.93661243353085,0 -36.1177409866369,-9.93663696478684,0 -36.1177026446006,-9.93666125279525,0 -36.1176633866996,-9.93668467266299,0 -36.1176238433545,-9.93670826280743,0 -36.1175825375553,-9.93673012958326,0 -36.1175412013461,-9.93675201254016,0 -36.1174981657548,-9.93677192694887,0 -36.1174554563911,-9.93679169043266,0 -36.1174130102464,-9.93680994333964,0 -36.1173709602577,-9.93682802579159,0 -36.1173319472791,-9.93684499374344,0 -36.1172922325258,-9.93686226687058,0 -36.117253407242,-9.93687682227706,0 -36.1172146224975,-9.93689136247917,0 -36.1171748220038,-9.93690412411673,0 -36.117135700817,-9.93691666799511,0 -36.1170958894094,-9.93692958645789,0 -36.1170561182799,-9.93694249184452,0 -36.1170159144525,-9.93695583008069,0 -36.1169757805626,-9.93696914507663,0 -36.1169354444758,-9.93698306372205,0 -36.1168950966718,-9.93699698649383,0 -36.116854110773,-9.93701163737752,0 -36.1168129342588,-9.93702635642529,0 -36.1167706962675,-9.93704127871498,0 -36.116728689746,-9.93705611931096,0 -36.1166867926552,-9.93707159164277,0 -36.1166448081029,-9.9370870962662,0 -36.1166051248845,-9.93710208431687,0 -36.1165654089926,-9.93711708457638,0 -36.1165273955486,-9.93713165254514,0 -36.1164892577981,-9.93714626820038,0 -36.1164542924911,-9.93715947426351,0 -36.1163864017829,-9.9371851218964,0 -36.116319865143,-9.93721121592485,0 -36.1162861621964,-9.93722490779434,0 -36.1162526184466,-9.93723805843224,0 -36.116189119374,-9.93726347199061,0 -36.116130387279,-9.9372870657151,0 -36.1160710317542,-9.93731030483596,0 -36.1160104527143,-9.93733275046012,0 -36.1159530632952,-9.93735302684653,0 -36.1159026283525,-9.93737185103973,0 -36.1158577648655,-9.93738897316069,0 -36.1158072390105,-9.93740671172665,0 -36.1157811299881,-9.93741596102535,0 -36.1159287835129,-9.93761168781395,0 -36.1160472990171,-9.93762045569103,0 -36.1160717365753,-9.93760339686758,0 -36.1160859155177,-9.93759288232962,0 -36.1161144546954,-9.93757248049664,0 -36.1161487031175,-9.93755069660432,0 -36.1161772282933,-9.9375353956615,0 -36.1161934734893,-9.93752654780706,0 -36.1162122343435,-9.93751673669922,0 -36.1162442931075,-9.93750154259239,0 -36.1162770308121,-9.9374858293975,0 -36.1163088171203,-9.93746994244271,0 -36.1163263127438,-9.93746132487648,0 -36.116344557777,-9.93745231091279,0 -36.1163630038399,-9.93744234421422,0 -36.1163810397525,-9.93743271733752,0 -36.1163978508615,-9.93742322783707,0 -36.1164150510679,-9.93741328107628,0 -36.1164324174385,-9.93740318998938,0 -36.1164494752181,-9.9373934685575,0 -36.1164660349617,-9.93738343913187,0 -36.1164823761413,-9.93737290861734,0 -36.1164982479877,-9.93736158526796,0 -36.116513508972,-9.93734989682469,0 -36.1165279932353,-9.93733772271269,0 -36.1165453309665,-9.93732152502929,0 -36.1165751927401,-9.93729558231853,0 -36.1166029636607,-9.93727338122602,0 -36.1166185026677,-9.9372615455277,0 -36.1166341999312,-9.93724951229695,0 -36.1166512953108,-9.93723809289493,0 -36.1166681889614,-9.93722692236376,0 -36.1166855716343,-9.93721614781759,0 -36.1167028445175,-9.9372055169188,0 -36.1167196973898,-9.93719504258911,0 -36.1167362025405,-9.93718417677377,0 -36.1167527613596,-9.93717377813912,0 -36.1167845306712,-9.9371550998661,0 -36.1168168599969,-9.937137241686,0 -36.1168493187911,-9.93712059569871,0 -36.1168654092042,-9.93711300163525,0 -36.1168961395401,-9.93709751439272,0 -36.11693542983,-9.93707884874726,0 -36.1169802840086,-9.93706149549371,0 -36.1170137092339,-9.93705377531964,0 -36.1170494592452,-9.93704713312239,0 -36.1170855994181,-9.93704063763171,0 -36.1171212986913,-9.93703508344899,0 -36.1171397429157,-9.93703207031363,0 -36.117158332696,-9.93702895278177,0 -36.117177412226,-9.9370245401133,0 -36.1172167670722,-9.93701577847737,0 -36.1172359901519,-9.93701156413501,0 -36.1172551054509,-9.93700617847371,0 -36.1172738987155,-9.93700116175144,0 -36.1173081960158,-9.93699112131839,0 -36.1173418787658,-9.93698098855144,0 -36.1173763932847,-9.93697247127081,0 -36.1174077565087,-9.93696416218416,0 -36.1174387210862,-9.93695524948509,0 -36.1174687505194,-9.93694545513454,0 -36.1174859604837,-9.93693888128147,0 -36.1175048925891,-9.93693254361792,0 -36.1175237788493,-9.93692626211933,0 -36.1175424059518,-9.93691970355905,0 -36.1175604851605,-9.93691387815674,0 -36.1175775979284,-9.93690720559006,0 -36.1175955975764,-9.93690028513375,0 -36.1176131629137,-9.93689415604957,0 -36.11764576245,-9.93688063452698,0 -36.1176753956385,-9.93686485406105,0 -36.1177031466009,-9.93684643456979,0 -36.1177315298512,-9.93682703006508,0 -36.1177637622109,-9.93680936316002,0 -36.1177973471299,-9.93679527748191,0 -36.1178143431228,-9.93678813356899,0 -36.1178324343686,-9.93678089245722,0 -36.117856538141,-9.93677289967757,0 -36.1178977844613,-9.93676254381997,0 -36.1179309384902,-9.9367550621493,0 -36.1179477649133,-9.93675093959884,0 -36.117986953571,-9.93674108335871,0 -36.1179991938309,-9.93673678345163,0 -36.1180328922568,-9.93672637080562,0 -36.1180513648681,-9.93671963274171,0 -36.1180696724051,-9.93671301072803,0 -36.1180848494373,-9.93670531823112,0 -36.1181293251048,-9.9366766851036,0 -36.1181514053815,-9.93666161983638,0 -36.1181694443254,-9.93664515580055,0 -36.1181810213621,-9.93663200926301,0 -36.1182023874563,-9.93660458031923,0 -36.1182106104805,-9.93659159278084,0 -36.1182284520511,-9.93656491086228,0 -36.1182444739494,-9.93654017168845,0 -36.1182587431831,-9.93651472300742,0 -36.1182743774326,-9.93648769216755,0 -36.1182903291365,-9.93646322309287,0 -36.1183051873926,-9.93644101442536,0 -36.1183209962122,-9.93641674906748,0 -36.1183401518748,-9.93639220606754,0 -36.1183595423595,-9.93636926852773,0 -36.1183861325241,-9.93634648571806,0 -36.118412917451,-9.93633090917201,0 -36.1184348342244,-9.93632093543539,0 -36.1184630932229,-9.936309250889,0 -36.118492611005,-9.93629817880118,0 -36.1185248831615,-9.93628693677932,0 -36.1185552272289,-9.93627544168615,0 -36.1185855068236,-9.93626165716776,0 -36.1186152108478,-9.93624543151231,0 -36.1186408109625,-9.93623032790498,0 -36.1186678078584,-9.93621644920253,0 -36.1186972686171,-9.9362029538757,0 -36.1187223119375,-9.93618834847459,0 -36.1187425649735,-9.9361706827601,0 -36.1187615636834,-9.93615159575342,0 -36.1187955082724,-9.93612829658456,0 -36.1188139204337,-9.93611507652747,0 -36.118829240082,-9.93610191087653,0 -36.1188489973988,-9.93608631282246,0 -36.1188724782854,-9.93606708345851,0 -36.1188860841681,-9.93605495342036,0 -36.1189015637229,-9.93604148318138,0 -36.1189294297927,-9.93601825149581,0 -36.118943826541,-9.93600581953294,0 -36.1189722014358,-9.93598092466076,0 -36.1190000603539,-9.93595582983999,0 -36.1190143206281,-9.93594279447104,0 -36.1190291028139,-9.93593089351011,0 -36.1190549825133,-9.93590774548532,0 -36.1190807346305,-9.93588395075569,0 -36.1191069927179,-9.93585992430613,0 -36.1191338353059,-9.93583597160415,0 -36.1191595084067,-9.93581291476911,0 -36.1191861902276,-9.93578938061697,0 -36.1191998991529,-9.93577762864129,0 -36.1192134935267,-9.93576480127595,0 -36.1192283378151,-9.9357510478344,0 -36.1192435337898,-9.93573692230144,0 -36.1192583228501,-9.93572350743315,0 -36.1192729150851,-9.93570967246322,0 -36.1192875916505,-9.93569585441801,0 -36.1193022009456,-9.93568190682197,0 -36.1193171382014,-9.93566859064386,0 -36.119331498323,-9.93565571158932,0 -36.1193454508694,-9.93564341098401,0 -36.1193587488758,-9.93563068213411,0 -36.1193718477455,-9.9356185130336,0 -36.1193960166845,-9.93559356123722,0 -36.1194222962235,-9.93556945857043,0 -36.1194358164099,-9.93555795153543,0 -36.1194475634879,-9.93554543133824,0 -36.1194717601228,-9.93552003618224,0 -36.1194971666869,-9.93549650161868,0 -36.1195174301125,-9.93547388308679,0 -36.1195314449299,-9.93545455058526,0 -36.1195456882777,-9.93543388090501,0 -36.119561291216,-9.93541303553798,0 -36.1195825890192,-9.93539004698039,0 -36.1195932511159,-9.9353768728893,0 -36.1196054218964,-9.93536102537769,0 -36.1196199136467,-9.9353449523107,0 -36.1196485029826,-9.93531021301199,0 -36.1196676292883,-9.93528251612871,0 -36.1196881980893,-9.93525360324808,0 -36.1196985366334,-9.9352389749997,0 -36.119710609706,-9.93522400029807,0 -36.1197211936509,-9.93520971067802,0 -36.1197322825863,-9.93519400980698,0 -36.1197436126456,-9.93517904460203,0 -36.119754358094,-9.93516211653391,0 -36.1197713387034,-9.93514685141635,0 -36.1197908483139,-9.93511633921877,0 -36.1198058213425,-9.93509376758225,0 -36.1198244949294,-9.93506724730786,0 -36.1198493973323,-9.93503925021722,0 -36.1198620896587,-9.93502435633114,0 -36.1198751917621,-9.93500988793398,0 -36.119885866658,-9.93499809818021,0 -36.1198959204867,-9.93498240583473,0 -36.1199117691684,-9.93495683992805,0 -36.1199269689509,-9.93492669532743,0 -36.1199412226143,-9.93490882146126,0 -36.1199595305874,-9.93489377997005,0 -36.1199846262169,-9.93486908467185,0 -36.1200110677445,-9.93484528682777,0 -36.1200460606249,-9.93481285322743,0 -36.1200711095482,-9.93478961917862,0 -36.1200964228911,-9.93476716728456,0 -36.1201107707146,-9.93475619514331,0 -36.1201336879641,-9.93473796261803,0 -36.1201536791183,-9.93471976962759,0 -36.1201719588068,-9.93469951613163,0 -36.1201982498341,-9.9346738850857,0 -36.1202225403463,-9.93464991807051,0 -36.1202486979136,-9.93462922944308,0 -36.1202880767305,-9.93460277126259,0 -36.1203096340011,-9.93458426011071,0 -36.1203313135014,-9.93456442210692,0 -36.12035414565,-9.93454285049978,0 -36.1203765149801,-9.93452471838908,0 -36.1203980879215,-9.93450400760838,0 -36.1204210581993,-9.93448494662985,0 -36.1204444729601,-9.93446709479415,0 -36.1204629722286,-9.93445337511581,0 -36.120477461021,-9.93444093527645,0 -36.1204890556354,-9.93442834265105,0 -36.1205035213709,-9.93441154247078,0 -36.1205295513711,-9.93439312849804,0 -36.1205527254037,-9.93437464330834,0 -36.1205747222072,-9.93435502357208,0 -36.1205944358429,-9.93433853565769,0 -36.1206163972663,-9.93432238821182,0 -36.1206345520704,-9.93430788647063,0 -36.1206504663523,-9.93429338901398,0 -36.1206816114063,-9.93427453288809,0 -36.1207152375045,-9.93425483466095,0 -36.120742662188,-9.93424154097471,0 -36.1207693702236,-9.93423122017954,0 -36.1207947685633,-9.93421945574188,0 -36.1208224638918,-9.93420550048259,0 -36.1208439684053,-9.93419544061322,0 -36.1208565100985,-9.93418759459741,0 -36.1208733273776,-9.93417765605621,0 -36.1208898090658,-9.93416728946339,0 -36.120904307422,-9.93415691569044,0 -36.1209323155987,-9.93413577162033,0 -36.120947796256,-9.93412481568656,0 -36.1209750124872,-9.93410466758385,0 -36.1210022653871,-9.93408243334622,0 -36.1210197970041,-9.93407093225982,0 -36.1210463148926,-9.93405130032208,0 -36.1210704219243,-9.9340354895404,0 -36.1210943494559,-9.93402270392487,0 -36.1211399358529,-9.93399343078385,0 -36.1211698190931,-9.9339672410736,0 -36.121197430749,-9.93393498128883,0 -36.1212292662849,-9.93388472458983,0 -36.1212478553735,-9.93386513254092,0 -36.1212834743641,-9.93383214603498,0 -36.1213291705796,-9.9337989844588,0 -36.1213780388671,-9.93376875549517,0 -36.1214217316159,-9.93373148746803,0 -36.1214756741537,-9.93368600448208,0 -36.1215195012533,-9.93365464292429,0 -36.1215509861487,-9.93362216902868,0 -36.1215884986595,-9.93359674225336,0 -36.1216150724855,-9.93357126236421,0 -36.121641211598,-9.93354764280392,0 -36.1216637285933,-9.93352032282581,0 -36.1216887875033,-9.93349374954169,0 -36.1217143406346,-9.93346110680594,0 -36.1217384733305,-9.93343760444523,0 -36.121768072261,-9.93341195645136,0 -36.1218015658838,-9.93338813748789,0 -36.1218318365525,-9.9333675946488,0 -36.1218629787675,-9.93334763726436,0 -36.1218958245939,-9.93332863240019,0 -36.1219257075892,-9.93330890041332,0 -36.1219568256759,-9.93328523188946,0 -36.1219941206638,-9.93326594774134,0 -36.122020190133,-9.93324704034145,0 -36.1220428688018,-9.93323396522,0 -36.1220587019453,-9.93322223826361,0 -36.1220861628059,-9.93319620032576,0 -36.1221066492634,-9.9331720117188,0 -36.1221254644578,-9.93315182502532,0 -36.1221518910354,-9.93313724875343,0 -36.12218116663,-9.93312000845701,0 -36.1222291649857,-9.93309506937413,0 -36.1222500133233,-9.93307809529768,0 -36.1222707892183,-9.93306118724113,0 -36.1222900198572,-9.93304483914686,0 -36.1223117710374,-9.93302015228893,0 -36.1223236108285,-9.93300962636179,0 -36.1223590481952,-9.93298725446446,0 -36.122406016246,-9.93296182525992,0 -36.1224488291656,-9.93293356911016,0 -36.1224757905825,-9.93291635762357,0 -36.122500235954,-9.93289739179961,0 -36.1225271483538,-9.9328762262524,0 -36.1225522775417,-9.93285353136979,0 -36.1225737224188,-9.93282778510821,0 -36.1225924234742,-9.93280213240689,0 -36.1226110945704,-9.93277872434553,0 -36.1226236158238,-9.93275786487366,0 -36.122629926034,-9.93273625959606,0 -36.1226468711665,-9.93270159143014,0 -36.1226689851112,-9.93267420146732,0 -36.1226908562227,-9.93263848844387,0 -36.1227060250615,-9.93261636480629,0 -36.1227199121335,-9.93259213529504,0 -36.1227354269926,-9.93256615068926,0 -36.1227457836288,-9.93253725665646,0 -36.122756992937,-9.93251004249329,0 -36.1227668358792,-9.93248493624527,0 -36.1227780379281,-9.93246182479502,0 -36.1227906671355,-9.9324328909768,0 -36.1228045291001,-9.93240530539277,0 -36.1228190964428,-9.93237844618754,0 -36.1228380401804,-9.93234746589148,0 -36.1228547317746,-9.93231469836829,0 -36.1228630743943,-9.93228707044028,0 -36.122873568661,-9.93225807626814,0 -36.1228870059194,-9.93223287078973,0 -36.1228979226948,-9.93220693254742,0 -36.1229052978157,-9.93218283557233,0 -36.1229193774161,-9.93215645084847,0 -36.1229303784819,-9.93212565486609,0 -36.1229408725051,-9.93208298848369,0 -36.1229465176327,-9.93205777766815,0 -36.1229517008358,-9.93203215916454,0 -36.1229593043751,-9.93200690178042,0 -36.1229688648761,-9.93198130093156,0 -36.1229787847933,-9.93195871507638,0 -36.1229901106927,-9.93193588533763,0 -36.1230046026907,-9.93191315121285,0 -36.1230157082129,-9.93189151353139,0 -36.1230251653151,-9.93186681665184,0 -36.123037610819,-9.93184316396496,0 -36.1230472026439,-9.93182063209384,0 -36.123053653557,-9.93179839390063,0 -36.1230575059807,-9.93177605382626,0 -36.1230642260843,-9.93175043037077,0 -36.1230832483178,-9.93172611125123,0 -36.1230998467553,-9.93170641618863,0 -36.1231110993314,-9.93168823932828,0 -36.1231241812029,-9.93166376058979,0 -36.1231433346785,-9.93162885110728,0 -36.1231657129786,-9.93159866389898,0 -36.1231873249656,-9.93156809584414,0 -36.1232131763772,-9.93153432945324,0 -36.1232326090498,-9.93151176951937,0 -36.1232568607538,-9.93148122121448,0 -36.1232772256711,-9.93144606156935,0 -36.1233023636123,-9.93141699646474,0 -36.1233251948514,-9.93139261084799,0 -36.12334664758,-9.93136615868116,0 -36.1233698106198,-9.93133236773396,0 -36.1233883999972,-9.93130180575217,0 -36.1234106852435,-9.93126125048578,0 -36.1234260853072,-9.93123630802558,0 -36.12344442234,-9.93120495277706,0 -36.123464106783,-9.93116511010666,0 -36.1234797876245,-9.93113469529058,0 -36.1235028104425,-9.9310991148883,0 -36.1235321493365,-9.93104978819937,0 -36.1235520056099,-9.93099670213619,0 -36.1235685583266,-9.93094333094258,0 -36.1235905319707,-9.93088393001197,0 -36.1236138746519,-9.9308421879442,0 -36.1236505473698,-9.93078583298218,0 -36.123678960687,-9.93074095577461,0 -36.1237147629293,-9.93069103236833,0 -36.1237511627941,-9.93064614945843,0 -36.1237928273596,-9.9306090539952,0 -36.1238346028915,-9.93056836828188,0 -36.1238796146015,-9.93052453158839,0 -36.123921820513,-9.93047566197192,0 -36.1239513930286,-9.93043361811669,0 -36.1239884566473,-9.93037090645436,0 -36.1240311128606,-9.93032461990498,0 -36.1240842865684,-9.93027430440931,0 -36.1241343863115,-9.93022264220064,0 -36.1241754559994,-9.93018407368382,0 -36.1242182192936,-9.93013812126956,0 -36.1242666274589,-9.93009316850213,0 -36.1243144288289,-9.93005373572833,0 -36.1243605847893,-9.93000698621995,0 -36.1244226721169,-9.92995202057902,0 -36.124482384237,-9.9299062272456,0 -36.1245257883576,-9.92984990279825,0 -36.1245730925408,-9.92979322054285,0 -36.1246074397674,-9.92972773281355,0 -36.12463104317,-9.92968544956824,0 -36.1246492865385,-9.92963908861945,0 -36.1246690702474,-9.92959950156611,0 -36.124688427242,-9.92958566054143,0 -36.1243105914981,-9.92868246477016,0 -36.12429132971,-9.92871703030811,0 -36.124269499988,-9.92876214790103,0 -36.1242425907946,-9.92881770374006,0 -36.1242144590227,-9.92887322119849,0 -36.1241889087522,-9.92892910050786,0 -36.1241612064568,-9.9289895313334,0 -36.1241264564015,-9.92904888070857,0 -36.1240865647081,-9.9291088088139,0 -36.1240658994899,-9.92913980385203,0 -36.1240420258589,-9.9291778944606,0 -36.1240179984989,-9.92921623038891,0 -36.1239906573536,-9.92926051839207,0 -36.1239633190738,-9.9293048018837,0 -36.1239364625424,-9.92934901140819,0 -36.1239096082345,-9.92939321716577,0 -36.1238820772703,-9.92943931173047,0 -36.1238542311714,-9.92948593374457,0 -36.1238225121668,-9.92953473764635,0 -36.1237910017726,-9.92958322060339,0 -36.1237573210063,-9.92963396583245,0 -36.1237237753228,-9.92968450751467,0 -36.123689453623,-9.92973717390403,0 -36.1236551142317,-9.92978986755559,0 -36.1236205757081,-9.92984356842784,0 -36.1235859932475,-9.92989733767617,0 -36.1235505960941,-9.92995226888069,0 -36.123515176235,-9.93000723522111,0 -36.1234788753326,-9.93006297758339,0 -36.1234427770469,-9.93011840878604,0 -36.1234076519048,-9.93017510991171,0 -36.1233723484542,-9.930232098696,0 -36.1233366793526,-9.93028937217295,0 -36.1233010164319,-9.93034663578433,0 -36.1232652207198,-9.93040391839285,0 -36.1232295558349,-9.93046099170185,0 -36.1231944996606,-9.93051923657672,0 -36.1231592405198,-9.93057781873272,0 -36.1231228300156,-9.93063665455531,0 -36.1230864604672,-9.93069542392811,0 -36.1230477823111,-9.9307570123494,0 -36.1230091043431,-9.93081860052538,0 -36.122969528081,-9.93088070970495,0 -36.1229301676202,-9.93094248018022,0 -36.1228845892089,-9.93101779436262,0 -36.1227016277523,-9.93132012110578,0 -36.1226557890765,-9.93139586517777,0 -36.12260203087,-9.93148194587354,0 -36.1225484597704,-9.93156772692658,0 -36.1224959331252,-9.93165414486737,0 -36.1224432133474,-9.93174088036118,0 -36.1223900210836,-9.93182543984565,0 -36.1223370017134,-9.93190972441603,0 -36.1222854282486,-9.93199330503944,0 -36.1222337750176,-9.93207701471984,0 -36.1221833795041,-9.93215821975863,0 -36.1221329313202,-9.93223950945953,0 -36.1220857939901,-9.93231380799104,0 -36.1220392465932,-9.93238717652299,0 -36.1220009052255,-9.93245838959408,0 -36.1219621417262,-9.93253038657276,0 -36.1219246488661,-9.93260097224672,0 -36.1218867983035,-9.93267223139075,0 -36.1218481047386,-9.93273692101677,0 -36.1218095493047,-9.93280137982509,0 -36.1217688838363,-9.93286483300016,0 -36.1217281451148,-9.93292840043992,0 -36.1216828691795,-9.93299306756242,0 -36.1216371404605,-9.933058381484,0 -36.1215812405326,-9.93312344106734,0 -36.1215260301363,-9.93318769819881,0 -36.1214647674587,-9.93325602854538,0 -36.1214032822192,-9.93332460706878,0 -36.1213360422573,-9.93339305358544,0 -36.1212693837892,-9.93346090821356,0 -36.1212065672599,-9.93352685510611,0 -36.1211424573656,-9.93359415986016,0 -36.1210735490395,-9.93365074466166,0 -36.1210055937319,-9.93370654685736,0 -36.1209363121437,-9.93375984185972,0 -36.1208674663459,-9.93381280159296,0 -36.1208111325745,-9.93385690158289,0 -36.1207552352906,-9.93390065976213,0 -36.1207165280827,-9.93393415152165,0 -36.1206775760178,-9.93396785522146,0 -36.1206497613693,-9.93399318478846,0 -36.1206228892358,-9.93401765612194,0 -36.1205852122574,-9.93406120813254,0 -36.1205470502847,-9.93409978669568,0 -36.1204954351392,-9.93413434842581,0 -36.120450986668,-9.93416439513295,0 -36.120416213509,-9.93419503658456,0 -36.1203825399366,-9.93423327026253,0 -36.1203466664794,-9.93427566791541,0 -36.1203035341116,-9.93432364930246,0 -36.1202560495423,-9.93437339180926,0 -36.1201890311932,-9.93443970827992,0 -36.120139690603,-9.93448544043304,0 -36.1201123506687,-9.93450935414102,0 -36.120081558323,-9.93453394082633,0 -36.1200507535958,-9.93455853755617,0 -36.1200191016552,-9.93458151017907,0 -36.1199877720241,-9.9346042489336,0 -36.1199318491974,-9.93464341721092,0 -36.1198560940046,-9.93470893888107,0 -36.1198132838242,-9.93475448616111,0 -36.1197839763903,-9.93478419439226,0 -36.1197546738197,-9.93481389768405,0 -36.1197233079263,-9.93484422299708,0 -36.119692339911,-9.93487416353282,0 -36.1196580988023,-9.93490841402478,0 -36.1196233313871,-9.9349431908639,0 -36.119583489723,-9.93498014798064,0 -36.119543721322,-9.93501703703715,0 -36.1195017469829,-9.93505366936087,0 -36.119460289962,-9.93508985027838,0 -36.1194192641168,-9.93512713120205,0 -36.1193781094447,-9.93516452926644,0 -36.1193366428325,-9.9352027666252,0 -36.1192953328193,-9.93524085939026,0 -36.1192126760445,-9.93532066513701,0 -36.1191708546426,-9.9353615240043,0 -36.1191287795473,-9.93540263079754,0 -36.11908589369,-9.93544287336686,0 -36.1190431223224,-9.9354830083984,0 -36.1190007917356,-9.93552205049095,0 -36.1189583690475,-9.93556117751243,0 -36.1188730498521,-9.93563710374123,0 -36.1187893106681,-9.93571573486298,0</coordinates></LinearRing></outerBoundaryIs></Polygon></MultiGeometry>
  </Placemark>
</Folder>
</Document></kml>
