<?xml version="1.0" encoding="utf-8" ?>
<kml xmlns="http://www.opengis.net/kml/2.2">
<Document id="root_doc">
<Schema name="SANTA_ROSA_TALHAO_1003_ID_69" id="SANTA_ROSA_TALHAO_1003_ID_69">
	<SimpleField name="ID" type="float"></SimpleField>
	<SimpleField name="AREA_TOTAL" type="float"></SimpleField>
	<SimpleField name="FAZENDA" type="float"></SimpleField>
	<SimpleField name="FAZ_NOME" type="string"></SimpleField>
	<SimpleField name="TALHAO" type="float"></SimpleField>
	<SimpleField name="ZONA" type="float"></SimpleField>
	<SimpleField name="ACIONISTA" type="string"></SimpleField>
	<SimpleField name="CODE" type="string"></SimpleField>
</Schema>
<Folder><name>SANTA_ROSA_TALHAO_1003_ID_69</name>
  <Placemark id="SANTA_ROSA_TALHAO_1003_ID_69.1">
	<Style><LineStyle><color>ff0000ff</color></LineStyle><PolyStyle><fill>0</fill></PolyStyle></Style>
	<ExtendedData><SchemaData schemaUrl="#SANTA_ROSA_TALHAO_1003_ID_69">
		<SimpleData name="ID">69</SimpleData>
		<SimpleData name="AREA_TOTAL">7.29</SimpleData>
		<SimpleData name="FAZENDA">2422</SimpleData>
		<SimpleData name="FAZ_NOME">SANTA ROSA</SimpleData>
		<SimpleData name="TALHAO">1003</SimpleData>
		<SimpleData name="ZONA">1</SimpleData>
		<SimpleData name="ACIONISTA">KAROLINE ROSE CALHEIROS</SimpleData>
		<SimpleData name="CODE"></SimpleData>
	</SchemaData></ExtendedData>
      <MultiGeometry><Polygon><outerBoundaryIs><LinearRing><coordinates>-36.3482160222658,-9.8081487579154,0 -36.3484060693838,-9.80883206436766,0 -36.3487593008544,-9.81012803499782,0 -36.3489703308132,-9.8109457747052,0 -36.3489760004218,-9.81096793599151,0 -36.3489859777337,-9.81098791549786,0 -36.3490035328772,-9.81098487964836,0 -36.349338440771,-9.81089813687299,0 -36.3504514745683,-9.81060753554453,0 -36.3505129916201,-9.81058551903653,0 -36.3505402924666,-9.81056717080932,0 -36.3505631520896,-9.81053995297529,0 -36.3505776467676,-9.81051594933965,0 -36.3506240232995,-9.80781178035772,0 -36.3506134581913,-9.80781155208419,0 -36.3505367997886,-9.80781728466874,0 -36.3504406839982,-9.80782282742855,0 -36.350323239975,-9.80782711311396,0 -36.3502027689514,-9.80782783586664,0 -36.3500805244063,-9.80783371935034,0 -36.349967361166,-9.80783773368913,0 -36.3498604614357,-9.80784305440055,0 -36.3497580271056,-9.80784970738768,0 -36.3494863475044,-9.80786635149344,0 -36.3494327511867,-9.80786897651814,0 -36.3493334464124,-9.80787591457862,0 -36.3492123582265,-9.80788260661306,0 -36.3490954330004,-9.80788985132686,0 -36.3489626448303,-9.80789911804545,0 -36.3488282184235,-9.80790547977633,0 -36.3485094420706,-9.80791828076141,0 -36.3484566245735,-9.80792228690124,0 -36.348250631139,-9.80791995837198,0 -36.3482356775461,-9.80792145208649,0 -36.3481738490053,-9.80792128867473,0 -36.3481643080979,-9.80792988374685,0 -36.348164204501,-9.80795276735906,0 -36.3481709814941,-9.80797849374614,0 -36.3482160222658,-9.8081487579154,0</coordinates></LinearRing></outerBoundaryIs></Polygon></MultiGeometry>
  </Placemark>
</Folder>
</Document></kml>
