<?xml version="1.0" encoding="UTF-8"?>
<kml xmlns="http://www.opengis.net/kml/2.2" xmlns:gx="http://www.google.com/kml/ext/2.2" xmlns:kml="http://www.opengis.net/kml/2.2" xmlns:atom="http://www.w3.org/2005/Atom">
<Placemark id="kml_2">
	<name>kml_2</name>
	<Style>
		<LineStyle>
			<color>ffff3f00</color>
		</LineStyle>
		<PolyStyle>
			<fill>0</fill>
		</PolyStyle>
	</Style>
	<Polygon>
		<outerBoundaryIs>
			<LinearRing>
				<coordinates>
					-36.2327296496728,-9.75776695392242,0 -36.2310465449485,-9.75495049360339,0 -36.2333781503114,-9.752580547634601,0 -36.2334235636174,-9.75264119248593,0 -36.233489548489,-9.75273464907384,0 -36.2335574371941,-9.75283325988427,0 -36.2340187549944,-9.753449889343409,0 -36.2340558963944,-9.753499827075309,0 -36.2341059879276,-9.75356746609314,0 -36.2341686570018,-9.75365577726401,0 -36.2342178129323,-9.753729959008609,0 -36.2342688211528,-9.75380523451962,0 -36.2343088190164,-9.753865995413641,0 -36.2343746924228,-9.753955354192991,0 -36.2344301610146,-9.75403112797887,0 -36.2344864832294,-9.754104391027679,0 -36.2345462352496,-9.75418351152781,0 -36.2346161996783,-9.754282630705029,0 -36.2346872087977,-9.754375819614889,0 -36.2347396437805,-9.754435511956469,0 -36.2347615093482,-9.754459476442859,0 -36.2347695823498,-9.754469151535719,0 -36.2348259192155,-9.754535869253781,0 -36.2348999246742,-9.754619112896989,0 -36.235035179683,-9.75480056322268,0 -36.2350688851458,-9.754853084994229,0 -36.2351551444485,-9.754967596069131,0 -36.235194377365,-9.7550180377609,0 -36.2352417623546,-9.75507649435839,0 -36.2352829525587,-9.755128618884401,0 -36.2353006138563,-9.755153718329449,0 -36.2327296496728,-9.75776695392242,0 
				</coordinates>
			</LinearRing>
		</outerBoundaryIs>
	</Polygon>
	<atom:link rel="app" href="https://www.google.com/earth/about/versions/#earth-pro" title="Google Earth Pro 7.3.7.1155"></atom:link>
</Placemark>
</kml>
