<?xml version="1.0" encoding="UTF-8"?>
<kml xmlns="http://www.opengis.net/kml/2.2" xmlns:gx="http://www.google.com/kml/ext/2.2" xmlns:kml="http://www.opengis.net/kml/2.2" xmlns:atom="http://www.w3.org/2005/Atom">
<Placemark id="kml_3">
	<name>kml_3</name>
	<visibility>0</visibility>
	<Style>
		<LineStyle>
			<color>ffff3f00</color>
		</LineStyle>
		<PolyStyle>
			<fill>0</fill>
		</PolyStyle>
	</Style>
	<Polygon>
		<outerBoundaryIs>
			<LinearRing>
				<coordinates>
					-36.232703303272,-9.757793733134291,0 -36.2296376777978,-9.760909668208511,0 -36.2279525243723,-9.75809530045613,0 -36.2310201987346,-9.754977272712789,0 -36.232703303272,-9.757793733134291,0 
				</coordinates>
			</LinearRing>
		</outerBoundaryIs>
	</Polygon>
	<atom:link rel="app" href="https://www.google.com/earth/about/versions/#earth-pro" title="Google Earth Pro 7.3.7.1155"></atom:link>
</Placemark>
</kml>
