<?xml version="1.0" encoding="UTF-8"?>
<kml xmlns="http://www.opengis.net/kml/2.2" xmlns:gx="http://www.google.com/kml/ext/2.2" xmlns:kml="http://www.opengis.net/kml/2.2" xmlns:atom="http://www.w3.org/2005/Atom">
<Document>
  <name>6010.kml</name>
  <StyleMap id="FFFF4000">
    <Pair>
      <key>normal</key>
      <styleUrl>#s_FFFF4000</styleUrl>
    </Pair>
    <Pair>
      <key>highlight</key>
      <styleUrl>#s_FFFF4000_hl</styleUrl>
    </Pair>
  </StyleMap>
  <Style id="s_FFFF4000">
   <IconStyle>
      <scale>1.1</scale>
      <Icon>
        <href>http://maps.google.com/mapfiles/kml/pushpin/agrocad.png</href>
      </Icon>
      <hotSpot x="20" y="2" xunits="pixels" yunits="pixels"/>
    </IconStyle>
    <LineStyle>
      <color>FFFF4000</color>
      <width>1</width>
    </LineStyle>
    <PolyStyle>
      <color>40ffffff</color>
      <fill>1</fill>
    </PolyStyle>
  </Style>
  <Style id="s_FFFF4000_hl">
    <IconStyle>
      <scale>1.3</scale>
      <Icon>
        <href>http://maps.google.com/mapfiles/kml/pushpin/agrocad.png</href>
      </Icon>
      <hotSpot x="20" y="2" xunits="pixels" yunits="pixels"/>
    </IconStyle>
    <LineStyle>
      <color>ff000000</color>
      <width>1</width>
    </LineStyle>
    <PolyStyle>
      <color>40ffffff</color>
      <fill>1</fill>
    </PolyStyle>
  </Style>
  <Placemark>
    <name>AgroCAD: 9559</name>
    <styleUrl>FFFF4000</styleUrl>
    <Polygon>
      <outerBoundaryIs>
        <LinearRing>
          <coordinates>
           -36.22348126105278,-9.76721854532703 -36.22648188169983,-9.76416888493727 -36.22886038981881,-9.76813221748743 -36.22886778335928,-9.76818121284361 -36.22882656230156,-9.76826306870858 -36.22874903675535,-9.76835615748782 -36.22866630507642,-9.76844027447980 -36.22854930743578,-9.76854216621245 -36.22845279121700,-9.76862398330899 -36.22835802408757,-9.76870815457073 -36.22826510637909,-9.76879419222714 -36.22815428472712,-9.76889823130999 -36.22805412762353,-9.76897396107363 -36.22794674063307,-9.76904063379788 -36.22781100437272,-9.76910798611771 -36.22769126491738,-9.76915746009970 -36.22754995481474,-9.76921043122822 -36.22740515729232,-9.76926366339427 -36.22728336085214,-9.76929410981334 -36.22715838426558,-9.76930008795662 -36.22701645020206,-9.76924923741857 -36.22690369850452,-9.76919229827819 -36.22676719577163,-9.76911747501676 -36.22663254849010,-9.76904569713311 -36.22649836296940,-9.76897231247919 -36.22638885027259,-9.76890941665984 -36.22627816978138,-9.76884562160867 -36.22605122830020,-9.76871944927185 -36.22593498504610,-9.76865226162902 -36.22578322541006,-9.76856596888923 -36.22566415844779,-9.76849992891287 -36.22552524162435,-9.76842141661042 -36.22539083784735,-9.76834509513700 -36.22524915372288,-9.76826100164558 -36.22465231928699,-9.76791311402151 -36.22437609418535,-9.76774843527704 -36.22405821981397,-9.76755967918759 -36.22381620840440,-9.76741594049341 -36.22360110884445,-9.76728899390142 -36.22348126105278,-9.76721854532703
          </coordinates>
        </LinearRing>
      </outerBoundaryIs>
    </Polygon>
  </Placemark>
</Document>
</kml>
