<?xml version="1.0" encoding="UTF-8"?>
<kml xmlns="http://www.opengis.net/kml/2.2" xmlns:gx="http://www.google.com/kml/ext/2.2" xmlns:kml="http://www.opengis.net/kml/2.2" xmlns:atom="http://www.w3.org/2005/Atom">
<Document>
  <name>6012.kml</name>
  <StyleMap id="FFFF4000">
    <Pair>
      <key>normal</key>
      <styleUrl>#s_FFFF4000</styleUrl>
    </Pair>
    <Pair>
      <key>highlight</key>
      <styleUrl>#s_FFFF4000_hl</styleUrl>
    </Pair>
  </StyleMap>
  <Style id="s_FFFF4000">
   <IconStyle>
      <scale>1.1</scale>
      <Icon>
        <href>http://maps.google.com/mapfiles/kml/pushpin/agrocad.png</href>
      </Icon>
      <hotSpot x="20" y="2" xunits="pixels" yunits="pixels"/>
    </IconStyle>
    <LineStyle>
      <color>FFFF4000</color>
      <width>1</width>
    </LineStyle>
    <PolyStyle>
      <color>40ffffff</color>
      <fill>1</fill>
    </PolyStyle>
  </Style>
  <Style id="s_FFFF4000_hl">
    <IconStyle>
      <scale>1.3</scale>
      <Icon>
        <href>http://maps.google.com/mapfiles/kml/pushpin/agrocad.png</href>
      </Icon>
      <hotSpot x="20" y="2" xunits="pixels" yunits="pixels"/>
    </IconStyle>
    <LineStyle>
      <color>ff000000</color>
      <width>1</width>
    </LineStyle>
    <PolyStyle>
      <color>40ffffff</color>
      <fill>1</fill>
    </PolyStyle>
  </Style>
  <Placemark>
    <name>AgroCAD: 9557</name>
    <styleUrl>FFFF4000</styleUrl>
    <Polygon>
      <outerBoundaryIs>
        <LinearRing>
          <coordinates>
           -36.23132617193543,-9.76372957403581 -36.22965693683315,-9.76094183240602 -36.23272276605944,-9.75782569034807 -36.23272741148787,-9.75783331797768 -36.23274961968355,-9.75786336079069 -36.23279251689934,-9.75791741634776 -36.23283063844191,-9.75798963759894 -36.23283673705481,-9.75805534335695 -36.23281775031304,-9.75813733857116 -36.23277574569396,-9.75824098813823 -36.23270729108021,-9.75836542504566 -36.23263262239157,-9.75846623959949 -36.23254731732385,-9.75859076291067 -36.23246235013225,-9.75871606528337 -36.23239533662383,-9.75882333998834 -36.23233573405138,-9.75893855810525 -36.23229663230316,-9.75905002632935 -36.23229306143962,-9.75914129699441 -36.23232634638716,-9.75920886458284 -36.23238781826242,-9.75932082723630 -36.23239661753158,-9.75941331329912 -36.23238417039590,-9.75948766372996 -36.23236201687362,-9.75959200117136 -36.23234799682374,-9.75965832102172 -36.23233310780144,-9.75974084148096 -36.23232096128797,-9.75980871765973 -36.23230686670993,-9.75988982156375 -36.23228588340564,-9.75998839050653 -36.23225675323403,-9.76011393997760 -36.23222516751006,-9.76026387538260 -36.23219705035026,-9.76043379863030 -36.23218473302439,-9.76057748470672 -36.23218565289635,-9.76072298747536 -36.23218479412929,-9.76086171563702 -36.23221005434959,-9.76100693178039 -36.23225042436494,-9.76114939505976 -36.23227379278630,-9.76125871386223 -36.23226367372425,-9.76135256843854 -36.23222486820891,-9.76149476641326 -36.23217919015514,-9.76165201464370 -36.23214361265448,-9.76177746710412 -36.23210600698457,-9.76190642829653 -36.23207639734808,-9.76198815200797 -36.23201723439898,-9.76215002626429 -36.23197027963329,-9.76227241070160 -36.23191149443957,-9.76242747268541 -36.23185552834454,-9.76257863070980 -36.23176508748094,-9.76282587362962 -36.23166197084916,-9.76308738785152 -36.23158296013923,-9.76329525565551 -36.23151379918136,-9.76348299331072 -36.23144788945285,-9.76364480038991 -36.23139624211674,-9.76370971701746 -36.23132617193543,-9.76372957403581
          </coordinates>
        </LinearRing>
      </outerBoundaryIs>
    </Polygon>
  </Placemark>
</Document>
</kml>
