<?xml version="1.0" encoding="UTF-8"?>
<kml xmlns="http://www.opengis.net/kml/2.2" xmlns:gx="http://www.google.com/kml/ext/2.2" xmlns:kml="http://www.opengis.net/kml/2.2" xmlns:atom="http://www.w3.org/2005/Atom">
<Document>
  <name>6011.kml</name>
  <StyleMap id="FFFF4000">
    <Pair>
      <key>normal</key>
      <styleUrl>#s_FFFF4000</styleUrl>
    </Pair>
    <Pair>
      <key>highlight</key>
      <styleUrl>#s_FFFF4000_hl</styleUrl>
    </Pair>
  </StyleMap>
  <Style id="s_FFFF4000">
   <IconStyle>
      <scale>1.1</scale>
      <Icon>
        <href>http://maps.google.com/mapfiles/kml/pushpin/agrocad.png</href>
      </Icon>
      <hotSpot x="20" y="2" xunits="pixels" yunits="pixels"/>
    </IconStyle>
    <LineStyle>
      <color>FFFF4000</color>
      <width>1</width>
    </LineStyle>
    <PolyStyle>
      <color>40ffffff</color>
      <fill>1</fill>
    </PolyStyle>
  </Style>
  <Style id="s_FFFF4000_hl">
    <IconStyle>
      <scale>1.3</scale>
      <Icon>
        <href>http://maps.google.com/mapfiles/kml/pushpin/agrocad.png</href>
      </Icon>
      <hotSpot x="20" y="2" xunits="pixels" yunits="pixels"/>
    </IconStyle>
    <LineStyle>
      <color>ff000000</color>
      <width>1</width>
    </LineStyle>
    <PolyStyle>
      <color>40ffffff</color>
      <fill>1</fill>
    </PolyStyle>
  </Style>
  <Placemark>
    <name>AgroCAD: 9558</name>
    <styleUrl>FFFF4000</styleUrl>
    <Polygon>
      <outerBoundaryIs>
        <LinearRing>
          <coordinates>
           -36.22889169344338,-9.76811373223002 -36.22650821596382,-9.76414211985276 -36.22963059606173,-9.76096860500808 -36.23133551105034,-9.76381593457061 -36.23133658465718,-9.76388241615878 -36.23130162040341,-9.76397820180799 -36.23124066265364,-9.76414130144893 -36.23119856889163,-9.76425976512667 -36.23116367542263,-9.76438194504184 -36.23114375927521,-9.76451040777612 -36.23114551978363,-9.76466340340712 -36.23113063982047,-9.76481099586683 -36.23107415688473,-9.76494754180477 -36.23099271930165,-9.76507444210588 -36.23092040165327,-9.76517942033377 -36.23083072661376,-9.76530137085470 -36.23073972853367,-9.76542235376406 -36.23065463239324,-9.76551362404245 -36.23055775721459,-9.76559456008608 -36.23045860073297,-9.76567395970671 -36.23033833088707,-9.76576623224376 -36.23021984256963,-9.76586433835153 -36.23010724855875,-9.76596809662314 -36.23002910767395,-9.76606783700834 -36.22996460461104,-9.76617991320671 -36.22989588620227,-9.76631550389763 -36.22984423462607,-9.76643165552838 -36.22979747074611,-9.76654891513213 -36.22974862816118,-9.76666608718355 -36.22968358662700,-9.76680214902371 -36.22962391759039,-9.76691206352482 -36.22956676040708,-9.76702561799737 -36.22950874886570,-9.76714033305441 -36.22944274766913,-9.76727741425931 -36.22938218218044,-9.76738673064928 -36.22932184614052,-9.76750001539719 -36.22925926035857,-9.76761011837535 -36.22918332256205,-9.76774335455125 -36.22912223424418,-9.76785103965964 -36.22905868134969,-9.76796169066360 -36.22898295282580,-9.76805897296371 -36.22892025613032,-9.76811824960024 -36.22889107263900,-9.76811270412908 -36.22889169344338,-9.76811373223002
          </coordinates>
        </LinearRing>
      </outerBoundaryIs>
    </Polygon>
  </Placemark>
</Document>
</kml>
