<?xml version="1.0" encoding="UTF-8"?>
<kml xmlns="http://www.opengis.net/kml/2.2" xmlns:gx="http://www.google.com/kml/ext/2.2" xmlns:kml="http://www.opengis.net/kml/2.2" xmlns:atom="http://www.w3.org/2005/Atom">
<Document>
  <name>46.kml</name>
  <StyleMap id="FFFF0000">
    <Pair>
      <key>normal</key>
      <styleUrl>#s_FFFF0000</styleUrl>
    </Pair>
    <Pair>
      <key>highlight</key>
      <styleUrl>#s_FFFF0000_hl</styleUrl>
    </Pair>
  </StyleMap>
  <Style id="s_FFFF0000">
   <IconStyle>
      <scale>1.1</scale>
      <Icon>
        <href>http://maps.google.com/mapfiles/kml/pushpin/agrocad.png</href>
      </Icon>
      <hotSpot x="20" y="2" xunits="pixels" yunits="pixels"/>
    </IconStyle>
    <LineStyle>
      <color>FFFF0000</color>
      <width>1</width>
    </LineStyle>
    <PolyStyle>
      <color>40ffffff</color>
      <fill>1</fill>
    </PolyStyle>
  </Style>
  <Style id="s_FFFF0000_hl">
    <IconStyle>
      <scale>1.3</scale>
      <Icon>
        <href>http://maps.google.com/mapfiles/kml/pushpin/agrocad.png</href>
      </Icon>
      <hotSpot x="20" y="2" xunits="pixels" yunits="pixels"/>
    </IconStyle>
    <LineStyle>
      <color>ff000000</color>
      <width>1</width>
    </LineStyle>
    <PolyStyle>
      <color>40ffffff</color>
      <fill>1</fill>
    </PolyStyle>
  </Style>
  <Placemark>
    <name>AgroCAD: 141EB</name>
    <styleUrl>FFFF0000</styleUrl>
    <Polygon>
      <outerBoundaryIs>
        <LinearRing>
          <coordinates>
           -36.36040741557721,-9.72508468921877 -36.36087927377034,-9.72496398130897 -36.36112696013094,-9.72483857049354 -36.36141540500635,-9.72459715467384 -36.36171639096354,-9.72442785007303 -36.36201737692057,-9.72428049236488 -36.36196721259446,-9.72383841924052 -36.36138091703214,-9.72091321197056 -36.36114263648283,-9.71932362988496 -36.36099214350423,-9.71877809283781 -36.36087300322963,-9.71852727120693 -36.36045914753861,-9.71815103876062 -36.36010172671460,-9.71791902875205 -36.35970981791629,-9.71765566603967 -36.35944018466317,-9.71742992657186 -36.35921444519537,-9.71714775223713 -36.35886329491206,-9.71654891559344 -36.35858112057736,-9.71598143165361 -36.35806693623396,-9.71508160905282 -36.35727528046142,-9.71392782955080 -36.35720316924251,-9.71386512414313 -36.35714986964601,-9.71383377143927 -36.35706678498071,-9.71385101542639 -36.35698370031550,-9.71389804448218 -36.35690061565031,-9.71395918225466 -36.35674228449580,-9.71408459307010 -36.35653692428550,-9.71426016821171 -36.35635664623829,-9.71441066119023 -36.35619047690788,-9.71451569274811 -36.35604625447007,-9.71459407450779 -36.35640994583488,-9.71565066062780 -36.35676736665890,-9.71647523673930 -36.35708402896791,-9.71739073569193 -36.35849490064175,-9.72065768743400 -36.36040741557721,-9.72508468921877 -36.36040741557721,-9.72508468921877 -36.36040741557721,-9.72508468921877
          </coordinates>
        </LinearRing>
      </outerBoundaryIs>
    </Polygon>
  </Placemark>
</Document>
</kml>
