<?xml version="1.0" encoding="UTF-8"?>
<kml xmlns="http://www.opengis.net/kml/2.2" xmlns:gx="http://www.google.com/kml/ext/2.2" xmlns:kml="http://www.opengis.net/kml/2.2" xmlns:atom="http://www.w3.org/2005/Atom">
<Document>
  <name>3010.kml</name>
  <StyleMap id="FFFF4000">
    <Pair>
      <key>normal</key>
      <styleUrl>#s_FFFF4000</styleUrl>
    </Pair>
    <Pair>
      <key>highlight</key>
      <styleUrl>#s_FFFF4000_hl</styleUrl>
    </Pair>
  </StyleMap>
  <Style id="s_FFFF4000">
   <IconStyle>
      <scale>1.1</scale>
      <Icon>
        <href>http://maps.google.com/mapfiles/kml/pushpin/agrocad.png</href>
      </Icon>
      <hotSpot x="20" y="2" xunits="pixels" yunits="pixels"/>
    </IconStyle>
    <LineStyle>
      <color>FFFF4000</color>
      <width>1</width>
    </LineStyle>
    <PolyStyle>
      <color>40ffffff</color>
      <fill>1</fill>
    </PolyStyle>
  </Style>
  <Style id="s_FFFF4000_hl">
    <IconStyle>
      <scale>1.3</scale>
      <Icon>
        <href>http://maps.google.com/mapfiles/kml/pushpin/agrocad.png</href>
      </Icon>
      <hotSpot x="20" y="2" xunits="pixels" yunits="pixels"/>
    </IconStyle>
    <LineStyle>
      <color>ff000000</color>
      <width>1</width>
    </LineStyle>
    <PolyStyle>
      <color>40ffffff</color>
      <fill>1</fill>
    </PolyStyle>
  </Style>
  <Placemark>
    <name>AgroCAD: 9544</name>
    <styleUrl>FFFF4000</styleUrl>
    <Polygon>
      <outerBoundaryIs>
        <LinearRing>
          <coordinates>
           -36.21965858371645,-9.71794126156263 -36.21961201428042,-9.71788908422155 -36.21956544485836,-9.71783690687802 -36.21947798119790,-9.71773442239106 -36.21939051758829,-9.71763193789603 -36.21930305402955,-9.71752945339289 -36.21921559052166,-9.71742696888168 -36.21912812706462,-9.71732448436236 -36.21904066365843,-9.71722199983497 -36.21895320030309,-9.71711951529947 -36.21886573699860,-9.71701703075589 -36.21877827374496,-9.71691454620424 -36.21869081054217,-9.71681206164448 -36.21860334739024,-9.71670957707667 -36.21851588428915,-9.71660709250074 -36.21842842123890,-9.71650460791673 -36.21834095823951,-9.71640212332466 -36.21825349529095,-9.71629963872448 -36.21816603239326,-9.71619715411625 -36.21807856954639,-9.71609466949991 -36.21799110675037,-9.71599218487552 -36.21790364400521,-9.71588970024302 -36.21781618131088,-9.71578721560245 -36.21772871866740,-9.71568473095382 -36.21764125607473,-9.71558224629709 -36.21755379353294,-9.71547976163231 -36.21746633104198,-9.71537727695942 -36.21737886860185,-9.71527479227849 -36.21729140621256,-9.71517230758946 -36.21721692120726,-9.71508657723603 -36.21714243623838,-9.71500084687658 -36.21706795130589,-9.71491511651110 -36.21699346640983,-9.71482938613958 -36.21691898155016,-9.71474365576202 -36.21700105752329,-9.71468973077245 -36.21708313347322,-9.71463580575564 -36.21719506163341,-9.71456663488181 -36.21730698975387,-9.71449746395820 -36.21741840606063,-9.71443965856672 -36.21752456854971,-9.71439897617034 -36.21763073102105,-9.71435829373370 -36.21773339201516,-9.71432884672122 -36.21783593158721,-9.71429626168146 -36.21791626710642,-9.71428079754081 -36.21799660262341,-9.71426533337919 -36.21806951409101,-9.71426119681372 -36.21814242556120,-9.71425706023219 -36.21825108828006,-9.71425543030736 -36.21835975100765,-9.71425380034766 -36.21844067828026,-9.71424026556952 -36.21854733645089,-9.71421244520707 -36.21861870694810,-9.71417575263952 -36.21869007743280,-9.71413906005266 -36.21875437510450,-9.71410212550002 -36.21881867276435,-9.71406519093127 -36.21891835694984,-9.71401815687398 -36.21901804111379,-9.71397112277970 -36.21911772525623,-9.71392408864843 -36.21919916754345,-9.71388411339047 -36.21928060981545,-9.71384413810758 -36.21928040460627,-9.71384465903460 -36.21940621934334,-9.71379342438567 -36.21953203405295,-9.71374218967956 -36.21965784873513,-9.71369095491628 -36.21976494732116,-9.71364387181265 -36.21987204588482,-9.71359678866694 -36.21997914442613,-9.71354970547919 -36.22006657433922,-9.71350217151827 -36.22015400423201,-9.71345463752795 -36.22022123767910,-9.71340572606896 -36.22028847110835,-9.71335681459118 -36.22038519979885,-9.71328437898132 -36.22048192845099,-9.71321194333218 -36.22057865706476,-9.71313950764375 -36.22064655476786,-9.71322349010912 -36.22072947664824,-9.71332693685852 -36.22081239857634,-9.71343038360144 -36.22089532055218,-9.71353383033790 -36.22097824257573,-9.71363727706787 -36.22106116464703,-9.71374072379138 -36.22114408676605,-9.71384417050841 -36.22122700893282,-9.71394761721898 -36.22130993114731,-9.71405106392306 -36.22139285340954,-9.71415451062067 -36.22147577571949,-9.71425795731179 -36.22155869807718,-9.71436140399646 -36.22164162048262,-9.71446485067463 -36.22172454293578,-9.71456829734634 -36.22161121812327,-9.71463187330640 -36.22157678332700,-9.71466553720662 -36.22150827694503,-9.71478252773654 -36.22143977050772,-9.71489951823872 -36.22137126401510,-9.71501650871318 -36.22130275746715,-9.71513349915993 -36.22123425086388,-9.71525048957894 -36.22116574420527,-9.71536747997022 -36.22109723749133,-9.71548447033379 -36.22102873072208,-9.71560146066962 -36.22096022389748,-9.71571845097771 -36.22089171701755,-9.71583544125808 -36.22082321008230,-9.71595243151074 -36.22075470309172,-9.71606942173566 -36.22068619604579,-9.71618641193283 -36.22061768894454,-9.71630340210229 -36.22054918178796,-9.71642039224402 -36.22048067457603,-9.71653738235800 -36.22041216730876,-9.71665437244426 -36.22034365998616,-9.71677136250279 -36.22027515260823,-9.71688835253359 -36.22020664517495,-9.71700534253663 -36.22013813768634,-9.71712233251197 -36.22006963014238,-9.71723932245956 -36.22000112254308,-9.71735631237940 -36.21993261488845,-9.71747330227153 -36.21986410717846,-9.71759029213591 -36.21979559941313,-9.71770728197256 -36.21972709159246,-9.71782427178146 -36.21965858371645,-9.71794126156263
          </coordinates>
        </LinearRing>
      </outerBoundaryIs>
    </Polygon>
  </Placemark>
</Document>
</kml>
