<?xml version="1.0" encoding="UTF-8"?>
<kml xmlns="http://www.opengis.net/kml/2.2" xmlns:gx="http://www.google.com/kml/ext/2.2" xmlns:kml="http://www.opengis.net/kml/2.2" xmlns:atom="http://www.w3.org/2005/Atom">
<Document>
  <name>3012.kml</name>
  <StyleMap id="FFFF4000">
    <Pair>
      <key>normal</key>
      <styleUrl>#s_FFFF4000</styleUrl>
    </Pair>
    <Pair>
      <key>highlight</key>
      <styleUrl>#s_FFFF4000_hl</styleUrl>
    </Pair>
  </StyleMap>
  <Style id="s_FFFF4000">
   <IconStyle>
      <scale>1.1</scale>
      <Icon>
        <href>http://maps.google.com/mapfiles/kml/pushpin/agrocad.png</href>
      </Icon>
      <hotSpot x="20" y="2" xunits="pixels" yunits="pixels"/>
    </IconStyle>
    <LineStyle>
      <color>FFFF4000</color>
      <width>1</width>
    </LineStyle>
    <PolyStyle>
      <color>40ffffff</color>
      <fill>1</fill>
    </PolyStyle>
  </Style>
  <Style id="s_FFFF4000_hl">
    <IconStyle>
      <scale>1.3</scale>
      <Icon>
        <href>http://maps.google.com/mapfiles/kml/pushpin/agrocad.png</href>
      </Icon>
      <hotSpot x="20" y="2" xunits="pixels" yunits="pixels"/>
    </IconStyle>
    <LineStyle>
      <color>ff000000</color>
      <width>1</width>
    </LineStyle>
    <PolyStyle>
      <color>40ffffff</color>
      <fill>1</fill>
    </PolyStyle>
  </Style>
  <Placemark>
    <name>AgroCAD: 9547</name>
    <styleUrl>FFFF4000</styleUrl>
    <Polygon>
      <outerBoundaryIs>
        <LinearRing>
          <coordinates>
           -36.21828402657904,-9.72023875453519 -36.21825456733536,-9.72025658851752 -36.21817010664094,-9.72030977432039 -36.21809201695011,-9.72033990227180 -36.21801392724956,-9.72037003020140 -36.21794286554520,-9.72040339670714 -36.21787180383000,-9.72043676319409 -36.21777035660383,-9.72049478275930 -36.21766890934832,-9.72055280228442 -36.21756746206346,-9.72061082176945 -36.21746601474925,-9.72066884121437 -36.21736456740568,-9.72072686061920 -36.21726312003278,-9.72078487998393 -36.21717129455103,-9.72083796666227 -36.21710631117966,-9.72088414035548 -36.21706864875561,-9.72092175573656 -36.21701986441599,-9.72099404861638 -36.21697722201540,-9.72108606671444 -36.21694940443149,-9.72117260501468 -36.21692158682757,-9.72125914330828 -36.21690251780814,-9.72135692460819 -36.21688344876986,-9.72145470590345 -36.21685450527082,-9.72157385051882 -36.21682556173996,-9.72169299512526 -36.21678321307647,-9.72177937997159 -36.21674086438638,-9.72186576480622 -36.21669851566973,-9.72195214962913 -36.21665265263398,-9.72207959085987 -36.21662016639962,-9.72221091548933 -36.21658768012618,-9.72234224010772 -36.21655519381367,-9.72247356471505 -36.21653660008137,-9.72257794808122 -36.21651800632862,-9.72268233144260 -36.21650881975365,-9.72281424776793 -36.21649963315686,-9.72294616409013 -36.21649044653826,-9.72307808040916 -36.21650964072222,-9.72320127371654 -36.21652883490778,-9.72332446702597 -36.21654802909493,-9.72344766033748 -36.21657821269027,-9.72355136152890 -36.21661152144542,-9.72362519823404 -36.21664828077512,-9.72367687570170 -36.21676478079123,-9.72360814980215 -36.21688128076694,-9.72353942384927 -36.21699778070225,-9.72347069784310 -36.21711428059714,-9.72340197178359 -36.21723078045160,-9.72333324567080 -36.21734728026567,-9.72326451950469 -36.21746378003931,-9.72319579328527 -36.21758027977256,-9.72312706701255 -36.21769677946537,-9.72305834068650 -36.21781327911778,-9.72298961430717 -36.21792977872979,-9.72292088787454 -36.21804627830137,-9.72285216138858 -36.21816277783255,-9.72278343484933 -36.21827927732331,-9.72271470825677 -36.21839577677367,-9.72264598161093 -36.21851227618360,-9.72257725491178 -36.21862877555312,-9.72250852815932 -36.21874527488225,-9.72243980135358 -36.21886177417094,-9.72237107449451 -36.21897827341923,-9.72230234758217 -36.21909477262710,-9.72223362061654 -36.21921127179457,-9.72216489359760 -36.21932777092163,-9.72209616652537 -36.21944427000826,-9.72202743939983 -36.21956076905449,-9.72195871222102 -36.21967726806031,-9.72188998498891 -36.21979376702571,-9.72182125770350 -36.21991026595071,-9.72175253036482 -36.22002676483529,-9.72168380297282 -36.22014326367946,-9.72161507552756 -36.22025976248321,-9.72154634802901 -36.22037626124657,-9.72147762047716 -36.22049275996950,-9.72140889287204 -36.22060925865202,-9.72134016521361 -36.22072575729413,-9.72127143750192 -36.22084225589583,-9.72120270973694 -36.22095875445712,-9.72113398191867 -36.22107525297799,-9.72106525404713 -36.22119175145845,-9.72099652612229 -36.22130824989850,-9.72092779814419 -36.22142474829814,-9.72085907011280 -36.22154124665737,-9.72079034202813 -36.22165774497619,-9.72072161389019 -36.22177424325459,-9.72065288569896 -36.22189074149258,-9.72058415745448 -36.22181405755169,-9.72049717776239 -36.22173737364902,-9.72041019806375 -36.22165172262810,-9.72031073333506 -36.22156607165566,-9.72021126859849 -36.22148042073169,-9.72011180385399 -36.22139476985622,-9.72001233910163 -36.22130911902921,-9.71991287434137 -36.22122346825069,-9.71981340957322 -36.22113781752063,-9.71971394479718 -36.22105216683904,-9.71961448001325 -36.22096651620593,-9.71951501522141 -36.22088086562130,-9.71941555042170 -36.22079521508513,-9.71931608561410 -36.22070956459745,-9.71921662079861 -36.22062391415822,-9.71911715597524 -36.22053826376748,-9.71901769114397 -36.22045261342520,-9.71891822630481 -36.22036696313139,-9.71881876145778 -36.22028131288605,-9.71871929660286 -36.22019566268918,-9.71861983174007 -36.22011001254078,-9.71852036686938 -36.22002436244083,-9.71842090199082 -36.21993871238936,-9.71832143710435 -36.21985306238637,-9.71822197221003 -36.21976741243182,-9.71812250730782 -36.21971678455367,-9.71806495728600 -36.21966615669221,-9.71800740726135 -36.21959554326144,-9.71811945295948 -36.21953060284616,-9.71823057212536 -36.21946566238101,-9.71834169126628 -36.21940072186600,-9.71845281038226 -36.21933578130112,-9.71856392947330 -36.21927084068639,-9.71867504853936 -36.21920590002177,-9.71878616758048 -36.21914095930731,-9.71889728659663 -36.21907601854298,-9.71900840558784 -36.21901107772878,-9.71911952455410 -36.21894613686472,-9.71923064349540 -36.21888119595079,-9.71934176241174 -36.21881625498701,-9.71945288130311 -36.21875131397334,-9.71956400016954 -36.21868637290980,-9.71967511901103 -36.21862143179640,-9.71978623782753 -36.21855649063313,-9.71989735661908 -36.21851107051154,-9.71997104520710 -36.21846565036716,-9.72004473378323 -36.21842321421368,-9.72009945918785 -36.21838077804532,-9.72015418458318 -36.21828426897908,-9.72023837215603 -36.21828402657904,-9.72023875453519
          </coordinates>
        </LinearRing>
      </outerBoundaryIs>
    </Polygon>
  </Placemark>
</Document>
</kml>
