<?xml version="1.0" encoding="utf-8" ?>
<kml xmlns="http://www.opengis.net/kml/2.2">
<Document id="root_doc">
<Schema name="PATURAIS_TALHAO_1004_ID_820" id="PATURAIS_TALHAO_1004_ID_820">
	<SimpleField name="TALHAO" type="string"></SimpleField>
	<SimpleField name="FAZENDA" type="string"></SimpleField>
	<SimpleField name="ZONA" type="string"></SimpleField>
	<SimpleField name="ID" type="float"></SimpleField>
	<SimpleField name="AREA_TOTAL" type="float"></SimpleField>
	<SimpleField name="FAZ_NOME" type="string"></SimpleField>
	<SimpleField name="CODE" type="string"></SimpleField>
</Schema>
<Folder><name>PATURAIS_TALHAO_1004_ID_820</name>
  <Placemark id="PATURAIS_TALHAO_1004_ID_820.1">
	<Style><LineStyle><color>ff0000ff</color></LineStyle><PolyStyle><fill>0</fill></PolyStyle></Style>
	<ExtendedData><SchemaData schemaUrl="#PATURAIS_TALHAO_1004_ID_820">
		<SimpleData name="TALHAO">1004</SimpleData>
		<SimpleData name="FAZENDA">1974</SimpleData>
		<SimpleData name="ZONA">1</SimpleData>
		<SimpleData name="ID">820</SimpleData>
		<SimpleData name="AREA_TOTAL">10.32</SimpleData>
		<SimpleData name="FAZ_NOME">PATURAIS</SimpleData>
		<SimpleData name="CODE"></SimpleData>
	</SchemaData></ExtendedData>
      <MultiGeometry><Polygon><outerBoundaryIs><LinearRing><coordinates>-36.1129811308846,-9.96013649512169,0 -36.1139760181941,-9.96168839354144,0 -36.1139923445716,-9.96170500076063,0 -36.1140032564108,-9.96171605772328,0 -36.1140350283392,-9.96172780155699,0 -36.1140668002705,-9.96173954538835,0 -36.1140863401781,-9.96174483870942,0 -36.1141193886298,-9.96173960960173,0 -36.1141735476115,-9.96172116374816,0 -36.1141905505591,-9.96171480003141,0 -36.1142256027665,-9.96170298248314,0 -36.1142783225933,-9.96168583017181,0 -36.1143046362344,-9.96167726915674,0 -36.1143309497675,-9.96166870808399,0 -36.1143835769391,-9.96165158589595,0 -36.1144098905768,-9.961643024871,0 -36.1144362041065,-9.96163446378837,0 -36.1144624631252,-9.96162592043813,0 -36.1145161417881,-9.96160808384673,0 -36.1145430083433,-9.96159915650069,0 -36.1145698748976,-9.96159022915208,0 -36.1145967414509,-9.96158130180089,0 -36.1146236078941,-9.96157237445234,0 -36.1146504744638,-9.96156344708996,0 -36.1146773410144,-9.96155451973102,0 -36.114704207564,-9.96154559236949,0 -36.1147309706775,-9.96153669937546,0 -36.1147579542515,-9.96152737543448,0 -36.1147850408881,-9.96151801596818,0 -36.1148121274722,-9.96150865651703,0 -36.1148392140554,-9.96149929706325,0 -36.1148663006375,-9.96148993760684,0 -36.1148933872187,-9.96148057814776,0 -36.1149204736893,-9.96147121869163,0 -36.1149475602868,-9.96146185922091,0 -36.1150019395622,-9.96144306897136,0 -36.1150308813548,-9.96143383303711,0 -36.1150596152905,-9.961424663341,0 -36.1150883493239,-9.96141549370056,0 -36.1151170832577,-9.96140632399857,0 -36.1151458172402,-9.96139715427783,0 -36.1151745512707,-9.96138798462859,0 -36.1152032852015,-9.9613788149178,0 -36.1152320192301,-9.9613696452627,0 -36.115260753159,-9.96136047554606,0 -36.115289242944,-9.96135138382795,0 -36.1153168632703,-9.96134171068642,0 -36.1153447254665,-9.9613319528918,0 -36.1153725876902,-9.96132219502704,0 -36.1154004499935,-9.96131243722128,0 -36.1154283122459,-9.96130267943017,0 -36.115456174339,-9.96129292156888,0 -36.1154840366572,-9.96128316374839,0 -36.1155118989064,-9.96127340594885,0 -36.1155397611055,-9.96126364807363,0 -36.1155676232931,-9.96125389025658,0 -36.1155965012307,-9.96124377807615,0 -36.1156253782787,-9.96123366608108,0 -36.1156542555468,-9.96122355412827,0 -36.1156831326397,-9.96121344220069,0 -36.1157120097488,-9.96120333026399,0 -36.1157408869182,-9.96119321824548,0 -36.1157697640556,-9.96118310629204,0 -36.1157986411613,-9.96117299434631,0 -36.1158275183744,-9.96116288239227,0 -36.1158563954604,-9.96115277044665,0 -36.1158845461898,-9.96114294274509,0 -36.1159126805381,-9.9611331207678,0 -36.1159408148853,-9.96112329878767,0 -36.1159689493404,-9.96111347679926,0 -36.1159970836676,-9.96110365481965,0 -36.1160252180115,-9.96109383283096,0 -36.1160533523544,-9.9610840108394,0 -36.1160814866961,-9.961074188845,0 -36.1161096210368,-9.96106436684775,0 -36.1161378772774,-9.96105450229066,0 -36.1161671530748,-9.9610447422024,0 -36.1161963064211,-9.96103502302411,0 -36.1162254596703,-9.96102530378469,0 -36.1162546129668,-9.9610155845261,0 -36.1162837663098,-9.96100586533868,0 -36.1163129195557,-9.96099614609011,0 -36.1163420728966,-9.96098642689662,0 -36.1163712260325,-9.96097670764678,0 -36.1164003793879,-9.96096698844161,0 -36.1164295326295,-9.96095726918089,0 -36.1164578971002,-9.96094781269073,0 -36.1164862616262,-9.96093835608885,0 -36.1165146262498,-9.96092889954124,0 -36.1165429906654,-9.96091944293852,0 -36.1165713553042,-9.96090998637945,0 -36.116599719875,-9.96090052983981,0 -36.1166280843958,-9.9608910732235,0 -36.1166564490143,-9.96088161666151,0 -36.1166848134248,-9.96087216004442,0 -36.1167129211295,-9.96086278912927,0 -36.1167396427714,-9.96085299406911,0 -36.1167666186577,-9.96084310581026,0 -36.1167935943827,-9.96083321748331,0 -36.1168205703367,-9.96082332919357,0 -36.1168475462198,-9.9608134409268,0 -36.1168745221018,-9.96080355265738,0 -36.1169014978224,-9.96079366431984,0 -36.1169284737721,-9.96078377601952,0 -36.1169554496508,-9.96077388774219,0 -36.1169819628093,-9.96076416907657,0 -36.1169990162945,-9.96075685544058,0 -36.1170165227602,-9.96074934766587,0 -36.117034028924,-9.96074183988929,0 -36.1170690416038,-9.9607268243108,0 -36.1171550710503,-9.9606895048949,0 -36.1176492108755,-9.96033038008833,0 -36.1163609506177,-9.95828573148293,0 -36.116330704796,-9.9582927232595,0 -36.1163084800208,-9.95830767988567,0 -36.1162698534883,-9.95833857762915,0 -36.1162306411627,-9.9583699438682,0 -36.1162110350673,-9.95838562696603,0 -36.1161718228386,-9.95841699318268,0 -36.1161334789474,-9.95844766472426,0 -36.1161148636062,-9.95846671311056,0 -36.1160760800814,-9.95850639893047,0 -36.1160566882752,-9.95852624192145,0 -36.1160372964252,-9.95854608486343,0 -36.1160179046015,-9.95856592777435,0 -36.1159985128032,-9.95858577074454,0 -36.1159791209461,-9.95860561368109,0 -36.1159605790984,-9.958624586832,0 -36.1159454299338,-9.95864493977379,0 -36.1159319405995,-9.95866623694019,0 -36.1159210519885,-9.95869005988752,0 -36.1159096539562,-9.95871499746955,0 -36.1158982559024,-9.95873993500431,0 -36.1158868577426,-9.95876487256499,0 -36.1158754597172,-9.95878981002628,0 -36.1158640616762,-9.95881474760467,0 -36.1158526636137,-9.95883968513575,0 -36.1158412655683,-9.9588646227123,0 -36.1158299955071,-9.95888927998374,0 -36.1158101345476,-9.95893699198716,0 -36.1157901550665,-9.95898498856314,0 -36.1157701755808,-9.95903298504053,0 -36.1157501961982,-9.95908098155745,0 -36.1157387016422,-9.95910859464249,0 -36.1157200882082,-9.95912589202803,0 -36.1156983343514,-9.95914769154956,0 -36.1156695143512,-9.9591593630123,0 -36.1156441403196,-9.95916963887861,0 -36.1156187662042,-9.95917991473834,0 -36.1155933921093,-9.95919019058691,0 -36.115568018177,-9.95920046649451,0 -36.1155426440064,-9.95921074236803,0 -36.1155172700209,-9.9592210182015,0 -36.1154918958998,-9.95923129404929,0 -36.1154641455863,-9.95924253228739,0 -36.1154338335136,-9.95924578897425,0 -36.1154060733272,-9.95924877139721,0 -36.1153783132575,-9.95925175389542,0 -36.1153505530313,-9.95925473639742,0 -36.1153227929101,-9.95925771889631,0 -36.1152950327822,-9.95926070139346,0 -36.1152672725565,-9.95926368388812,0 -36.1152395123778,-9.95926666629561,0 -36.1152117523091,-9.95926964877911,0 -36.1151822007599,-9.95927282372156,0 -36.1151522611007,-9.95927017066359,0 -36.1151241159271,-9.95926767663339,0 -36.1150959708317,-9.95926518260051,0 -36.1150678257421,-9.95926268856578,0 -36.115039680596,-9.95926019443329,0 -36.1150115355669,-9.9592577003992,0 -36.1149833904806,-9.9592552063577,0 -36.1149552453953,-9.95925271231392,0 -36.1149271003112,-9.9592502182679,0 -36.1148990906703,-9.9592477362217,0 -36.1148711142119,-9.95924567378744,0 -36.1148430020892,-9.95924360125919,0 -36.1148148900839,-9.95924152882765,0 -36.1147867781083,-9.95923945639,0 -36.1147586659925,-9.95923738385524,0 -36.1147305539902,-9.95923531141686,0 -36.1147024419305,-9.9592332389719,0 -36.114674329959,-9.9592311665252,0 -36.1146462178473,-9.95922909398132,0 -36.1146177582497,-9.95922699590847,0 -36.1145894935373,-9.95922383093233,0 -36.1145615751555,-9.95922070483452,0 -36.1145336567378,-9.9592175786305,0 -36.1145057383858,-9.95921445243157,0 -36.1144778200927,-9.95921132632727,0 -36.1144499015996,-9.9592082001173,0 -36.1144219832451,-9.95920507391106,0 -36.1143940649555,-9.95920194780022,0 -36.1143661465511,-9.95919882158376,0 -36.1143379553201,-9.9591956648242,0 -36.1143101548219,-9.9591917077858,0 -36.1142826260743,-9.95918778942531,0 -36.1142550974111,-9.95918387106234,0 -36.1142000399586,-9.95917603442645,0 -36.1141725111869,-9.9591721160534,0 -36.1141449824457,-9.95916819768243,0 -36.1141174537058,-9.95916427930939,0 -36.1140899249672,-9.95916036093421,0 -36.1140633611706,-9.95915657990446,0 -36.1140409627237,-9.95915578638422,0 -36.1140258177481,-9.95916386840432,0 -36.1140100267249,-9.95917549263631,0 -36.1139948581405,-9.95919650247512,0 -36.1139815683555,-9.95921767650667,0 -36.1139607823898,-9.9592434637923,0 -36.1139472711397,-9.95926502701176,0 -36.1139215374738,-9.95931809286118,0 -36.113895666464,-9.95936257198667,0 -36.1138875103412,-9.95938729605279,0 -36.113878765873,-9.95941380359346,0 -36.1138700214029,-9.95944031113346,0 -36.1138612769308,-9.95946681867276,0 -36.1138525323481,-9.95949332626365,0 -36.1138437878896,-9.95951983374864,0 -36.1138350434068,-9.95954634121247,0 -36.1138262989324,-9.95957284873234,0 -36.1138165248588,-9.95960247731487,0 -36.1137969978068,-9.95962663000046,0 -36.1137795424226,-9.95964822038314,0 -36.1137620868864,-9.95966981083585,0 -36.1137446314974,-9.95969140121542,0 -36.1137271759563,-9.95971299166492,0 -36.1137097205623,-9.95973458204132,0 -36.1136922651367,-9.95975617245227,0 -36.1136748095882,-9.95977776289702,0 -36.1136573541647,-9.95979935320679,0 -36.1136361664108,-9.95982555993555,0 -36.1136033077442,-9.95983430342299,0 -36.1135762125889,-9.95984151324774,0 -36.1135491175547,-9.95984872306261,0 -36.1135220224504,-9.95985593280333,0 -36.1134949273483,-9.9598631426058,0 -36.1134678323123,-9.95987035241305,0 -36.113440737154,-9.95987756222512,0 -36.1134136420625,-9.9598847719516,0 -36.1133865469581,-9.95989198174392,0 -36.1133582423151,-9.95989951340811,0 -36.1133293582926,-9.9599031114504,0 -36.1133017170744,-9.95990655477817,0 -36.113274075633,-9.95990999802889,0 -36.1132464344149,-9.95991344135176,0 -36.1132187929736,-9.9599168845976,0 -36.1131911516979,-9.95992032783252,0 -36.1131635103732,-9.95992377114917,0 -36.1131358690389,-9.95992721438646,0 -36.1131082276565,-9.95993065761516,0 -36.1130815265588,-9.95993398379943,0 -36.1130434279708,-9.95994278361845,0 -36.1130223067396,-9.95995892969827,0 -36.1130103120252,-9.95996684196241,0 -36.113003926253,-9.95998084918718,0 -36.1129935506641,-9.96000445837862,0 -36.1129773720642,-9.96002805142343,0 -36.1129673331962,-9.96006872239742,0 -36.1129811308846,-9.96013649512169,0</coordinates></LinearRing></outerBoundaryIs></Polygon></MultiGeometry>
  </Placemark>
</Folder>
</Document></kml>
