<?xml version="1.0" encoding="utf-8" ?>
<kml xmlns="http://www.opengis.net/kml/2.2">
<Document id="root_doc">
<Schema name="PATURAIS_TALHAO_1101_ID_823" id="PATURAIS_TALHAO_1101_ID_823">
	<SimpleField name="TALHAO" type="string"></SimpleField>
	<SimpleField name="FAZENDA" type="string"></SimpleField>
	<SimpleField name="ZONA" type="string"></SimpleField>
	<SimpleField name="ID" type="float"></SimpleField>
	<SimpleField name="AREA_TOTAL" type="float"></SimpleField>
	<SimpleField name="FAZ_NOME" type="string"></SimpleField>
	<SimpleField name="CODE" type="string"></SimpleField>
</Schema>
<Folder><name>PATURAIS_TALHAO_1101_ID_823</name>
  <Placemark id="PATURAIS_TALHAO_1101_ID_823.1">
	<Style><LineStyle><color>ff0000ff</color></LineStyle><PolyStyle><fill>0</fill></PolyStyle></Style>
	<ExtendedData><SchemaData schemaUrl="#PATURAIS_TALHAO_1101_ID_823">
		<SimpleData name="TALHAO">1101</SimpleData>
		<SimpleData name="FAZENDA">1974</SimpleData>
		<SimpleData name="ZONA">1</SimpleData>
		<SimpleData name="ID">823</SimpleData>
		<SimpleData name="AREA_TOTAL">0.18</SimpleData>
		<SimpleData name="FAZ_NOME">PATURAIS</SimpleData>
		<SimpleData name="CODE"></SimpleData>
	</SchemaData></ExtendedData>
      <MultiGeometry><Polygon><outerBoundaryIs><LinearRing><coordinates>-36.1076958077487,-9.95183178523683,0 -36.1077221957434,-9.95187926866216,0 -36.1077400474901,-9.95185386121767,0 -36.1077641583546,-9.95183109891762,0 -36.1077858299502,-9.95181029444764,0 -36.1078105639976,-9.95178706286402,0 -36.1078386915865,-9.95176323792383,0 -36.1078675851858,-9.95173747551616,0 -36.1078982606134,-9.95170888484282,0 -36.1079309029197,-9.95167859117949,0 -36.1079644385648,-9.95164699455004,0 -36.107998004947,-9.95161486563559,0 -36.1080306363808,-9.95158399099088,0 -36.1080618762576,-9.9515551464107,0 -36.1080915229391,-9.95152823517668,0 -36.1081155766147,-9.95150436448571,0 -36.108135035093,-9.95148247529183,0 -36.1081546139169,-9.951459362163,0 -36.1081741701022,-9.95142809010819,0 -36.1081904457014,-9.95140441300148,0 -36.1082068617441,-9.95138215302644,0 -36.1082317789877,-9.95134707372611,0 -36.1082478042956,-9.95132349109426,0 -36.1082653306269,-9.9512998329775,0 -36.1082804409082,-9.9512755604069,0 -36.1082963387652,-9.95125194451617,0 -36.1083134416893,-9.95122811385357,0 -36.1083377756578,-9.9511958508931,0 -36.1083531826691,-9.95117256088392,0 -36.1083689336994,-9.95114895316519,0 -36.1083852259394,-9.95112552868275,0 -36.108400391157,-9.95110323492227,0 -36.1084144182857,-9.95107858557364,0 -36.1084299763627,-9.95105511573642,0 -36.1084448215441,-9.9510319115377,0 -36.1084591869131,-9.95100789134869,0 -36.1084893109448,-9.95096049837642,0 -36.1085048796468,-9.95093666745693,0 -36.1085202400064,-9.95091243639205,0 -36.1085358221063,-9.95088870487148,0 -36.108551340785,-9.95086383044942,0 -36.1085670116352,-9.9508411433367,0 -36.108580654303,-9.95081842181614,0 -36.1085964378225,-9.95079262328515,0 -36.1086126931146,-9.95076860679877,0 -36.1086284621901,-9.95074602318155,0 -36.1086423866355,-9.95072133459088,0 -36.1086576166886,-9.950695851427,0 -36.1086721536267,-9.95067107886454,0 -36.1086860062421,-9.95064665674782,0 -36.1086998893032,-9.95062096280543,0 -36.1087127765666,-9.95059637643132,0 -36.1087234958962,-9.95057020734987,0 -36.1087353935484,-9.95054343567968,0 -36.1087477624033,-9.95051716035053,0 -36.1087598143986,-9.95049013443923,0 -36.1087702777666,-9.95046319184811,0 -36.1087809466225,-9.95043648888912,0 -36.1087899244843,-9.95040868557695,0 -36.1087992067361,-9.9503809800092,0 -36.1088067541337,-9.95035305617552,0 -36.1088145145458,-9.95032468646445,0 -36.1088218457881,-9.95029707684615,0 -36.1088269144545,-9.95026858170016,0 -36.1088325847952,-9.95023863311811,0 -36.1088389140617,-9.95021011825413,0 -36.1088436485427,-9.95018191984931,0 -36.1088470196791,-9.95015215346558,0 -36.1088510330097,-9.95012260393367,0 -36.1088557603191,-9.95009365370363,0 -36.1088592484574,-9.95006577108057,0 -36.1088618766458,-9.95003682986861,0 -36.1088662627548,-9.95000773410274,0 -36.1088710718723,-9.94997984996201,0 -36.1088767647138,-9.94995154261082,0 -36.1088818332619,-9.9499227418507,0 -36.1088872750525,-9.94989380610811,0 -36.1088926139921,-9.94986520780598,0 -36.1088984295859,-9.94983707123731,0 -36.1089100906013,-9.94979854790364,0 -36.1089202791294,-9.94975894388231,0 -36.1089296381015,-9.94973241148177,0 -36.1089391251196,-9.94970608421974,0 -36.1089485732701,-9.94967873271342,0 -36.1089601666571,-9.9496524165219,0 -36.1089720648448,-9.94962626261493,0 -36.1089859245056,-9.94960153430692,0 -36.1089984036478,-9.94957671278286,0 -36.109010575991,-9.94955200695971,0 -36.1090234070134,-9.94952731257235,0 -36.1090362351335,-9.94950133035959,0 -36.1090516363393,-9.94947685071716,0 -36.1090657332797,-9.94945141418214,0 -36.1090812622579,-9.94942664484566,0 -36.1090951874434,-9.94940366765308,0 -36.1091075004178,-9.94937757961699,0 -36.10913500056,-9.94933534820765,0 -36.1091001216347,-9.9493414002694,0 -36.1090704309019,-9.94935683634163,0 -36.1090410037089,-9.9493751586103,0 -36.1090121023746,-9.94939458816879,0 -36.1089879970248,-9.94941601184699,0 -36.1089671881509,-9.94943721723831,0 -36.1089441236655,-9.94946201605483,0 -36.1089309115419,-9.94949054808995,0 -36.1089223796524,-9.94952153297224,0 -36.1089080552664,-9.94955023497326,0 -36.1088933460145,-9.94958017577785,0 -36.1088785082806,-9.9496107789951,0 -36.1088621823934,-9.94963792072018,0 -36.1088509531088,-9.94966745927302,0 -36.1088529262707,-9.94969787069218,0 -36.1088506812555,-9.94972815979893,0 -36.1088414376756,-9.94975826676562,0 -36.1088309888951,-9.94978922665605,0 -36.10882331211,-9.94982113729478,0 -36.1088172432462,-9.94985687740911,0 -36.1088142031507,-9.94989037021389,0 -36.1088116218307,-9.94992475509095,0 -36.1088095123351,-9.94995874629582,0 -36.1088079810683,-9.94999217066962,0 -36.1088035609408,-9.95002112953307,0 -36.1088006462732,-9.95005238026295,0 -36.1087976381407,-9.95008364870305,0 -36.108795196422,-9.95011419157811,0 -36.1087934664653,-9.95014565364736,0 -36.1087885209269,-9.95018039920002,0 -36.1087811149745,-9.950212025176,0 -36.1087771336098,-9.95024623957689,0 -36.108771585473,-9.95027652476323,0 -36.1087683151,-9.95031033780451,0 -36.108770140726,-9.9503448990227,0 -36.1087647960491,-9.95037407753312,0 -36.1087539055412,-9.95040687204003,0 -36.1087398274023,-9.95043886333243,0 -36.1087268200553,-9.9504702297222,0 -36.1087144359759,-9.95050144043248,0 -36.1087006458888,-9.9505332628439,0 -36.1086885369675,-9.95056298537164,0 -36.1086755983522,-9.95059418170461,0 -36.1086605683785,-9.95062116965807,0 -36.1086453032236,-9.95064843652333,0 -36.1086310282957,-9.95067902380076,0 -36.1086176485517,-9.95070666986094,0 -36.1085998579364,-9.95073314357235,0 -36.108582219082,-9.95075940485779,0 -36.1085654711591,-9.95078942852801,0 -36.1085482080471,-9.95081709093622,0 -36.1085317216893,-9.95084444840132,0 -36.1085158921343,-9.95086999396766,0 -36.1085017978294,-9.95089769860652,0 -36.1084842003454,-9.95092540653548,0 -36.1084690018702,-9.95095330324901,0 -36.1084517263297,-9.95098023272611,0 -36.1084341939088,-9.9510083428513,0 -36.1084173284804,-9.95103779952839,0 -36.1083989975148,-9.95106342045958,0 -36.108383532734,-9.95109118649193,0 -36.1083640249577,-9.95111487974263,0 -36.1083471123129,-9.95114095252233,0 -36.1083382640761,-9.95116710647178,0 -36.1083204619693,-9.95119109145173,0 -36.1083032657217,-9.95121597700309,0 -36.1082843331947,-9.95124114825867,0 -36.1082641119795,-9.95126947123839,0 -36.1082493515205,-9.9512976948581,0 -36.1082308832474,-9.95132153097041,0 -36.108212811977,-9.95134901073597,0 -36.1081926734463,-9.95137686214155,0 -36.1081733560405,-9.95139761058891,0 -36.1081505511937,-9.95141443252741,0 -36.1081275041045,-9.95143733331052,0 -36.1080999682609,-9.95145824071069,0 -36.1080759432289,-9.95147920920815,0 -36.1080528608328,-9.95149487043412,0 -36.1080213170357,-9.95151120207706,0 -36.1079977318523,-9.95153571802164,0 -36.1079742692769,-9.95156126260778,0 -36.1079480969664,-9.95158112322305,0 -36.107925861162,-9.95160697662438,0 -36.1079016701958,-9.95162694968926,0 -36.1078799011709,-9.95164918479449,0 -36.1078546850496,-9.95167026906879,0 -36.1078325727392,-9.95169116204275,0 -36.1078030085567,-9.9517073139478,0 -36.1077718603194,-9.95172624924071,0 -36.1077442333563,-9.95174712039747,0 -36.1077194560994,-9.95176845877956,0 -36.1077133302121,-9.95179885481356,0 -36.1076958077487,-9.95183178523683,0</coordinates></LinearRing></outerBoundaryIs></Polygon></MultiGeometry>
  </Placemark>
</Folder>
</Document></kml>
