<?xml version="1.0" encoding="utf-8" ?>
<kml xmlns="http://www.opengis.net/kml/2.2">
<Document id="root_doc">
<Schema name="PATURAIS_TALHAO_1010_ID_1189" id="PATURAIS_TALHAO_1010_ID_1189">
	<SimpleField name="TALHAO" type="string"></SimpleField>
	<SimpleField name="FAZENDA" type="string"></SimpleField>
	<SimpleField name="ZONA" type="string"></SimpleField>
	<SimpleField name="ID" type="float"></SimpleField>
	<SimpleField name="AREA_TOTAL" type="float"></SimpleField>
	<SimpleField name="FAZ_NOME" type="string"></SimpleField>
	<SimpleField name="CODE" type="string"></SimpleField>
</Schema>
<Folder><name>PATURAIS_TALHAO_1010_ID_1189</name>
  <Placemark id="PATURAIS_TALHAO_1010_ID_1189.1">
	<Style><LineStyle><color>ff0000ff</color></LineStyle><PolyStyle><fill>0</fill></PolyStyle></Style>
	<ExtendedData><SchemaData schemaUrl="#PATURAIS_TALHAO_1010_ID_1189">
		<SimpleData name="TALHAO">1010</SimpleData>
		<SimpleData name="FAZENDA">1974</SimpleData>
		<SimpleData name="ZONA">1</SimpleData>
		<SimpleData name="ID">1189</SimpleData>
		<SimpleData name="AREA_TOTAL">17.76</SimpleData>
		<SimpleData name="FAZ_NOME">PATURAIS</SimpleData>
		<SimpleData name="CODE"></SimpleData>
	</SchemaData></ExtendedData>
      <MultiGeometry><Polygon><outerBoundaryIs><LinearRing><coordinates>-36.1247571411248,-9.96836373654057,0 -36.1247515403446,-9.96694467329281,0 -36.123120567375,-9.96439862682515,0 -36.1203147922126,-9.96621111810214,0 -36.1203314021428,-9.96623583751468,0 -36.1203353162533,-9.96625730360011,0 -36.1203406213209,-9.96627800479979,0 -36.1203446773492,-9.96630247179166,0 -36.1203468504954,-9.96632414854596,0 -36.1203517493648,-9.96634410050744,0 -36.1203576449359,-9.96636854414852,0 -36.120360442643,-9.96639162610963,0 -36.1203638589947,-9.96641306636614,0 -36.120368497853,-9.96643243058275,0 -36.120375662751,-9.96647934783284,0 -36.120380340348,-9.96650206081183,0 -36.1203822716683,-9.96652472891208,0 -36.1203817595377,-9.96654658730376,0 -36.1203854731184,-9.96656668992475,0 -36.1203878360971,-9.96658362835073,0 -36.1203934732732,-9.966605234617,0 -36.1203961868104,-9.96663055860363,0 -36.1203960967013,-9.96665255870636,0 -36.1203979420884,-9.96666285969997,0 -36.1203972738913,-9.96668626702665,0 -36.1203984037642,-9.96670803426084,0 -36.1203992085841,-9.9667349499288,0 -36.1204076127451,-9.96676297451978,0 -36.120414920339,-9.96679400476921,0 -36.1204160891369,-9.96680573623317,0 -36.1204214061327,-9.96683206292247,0 -36.120423764983,-9.96685862746508,0 -36.1204273018771,-9.96689093942828,0 -36.120427101004,-9.96690991767596,0 -36.1204342109394,-9.96692599140997,0 -36.1204367197907,-9.96695317925738,0 -36.1204367705622,-9.96697523515908,0 -36.1204370578074,-9.96699672932007,0 -36.1204432077413,-9.96702489637978,0 -36.1204476279857,-9.96705939091811,0 -36.1204508568128,-9.96709111728567,0 -36.120455304644,-9.96710804513392,0 -36.1204609724045,-9.96713097950457,0 -36.12046437838,-9.96715537378491,0 -36.1204677212949,-9.96717701680624,0 -36.1204768134226,-9.96719999169227,0 -36.1204828354701,-9.96722541819601,0 -36.1204884157913,-9.9672482405521,0 -36.120496136853,-9.96727003175809,0 -36.1205013152599,-9.96729198077673,0 -36.1205119779581,-9.96731060480798,0 -36.1205228864346,-9.96733249063075,0 -36.1205343777889,-9.96735267671985,0 -36.1205481542101,-9.9673721925037,0 -36.1205647607581,-9.96739153289905,0 -36.1205791183993,-9.96741217859684,0 -36.1205951793021,-9.96742951456714,0 -36.1206096802387,-9.96744627086571,0 -36.1206269795426,-9.96746239606253,0 -36.1206453918923,-9.96747797614873,0 -36.1206662679803,-9.96749450309118,0 -36.1206844430016,-9.96751212271483,0 -36.1207078746309,-9.96753261661903,0 -36.1207184514273,-9.96755152962877,0 -36.1207344941925,-9.9675669326667,0 -36.1207562002625,-9.96758190984111,0 -36.1207747393014,-9.96759832085937,0 -36.1207945192669,-9.96761243911184,0 -36.120811585258,-9.96763118621113,0 -36.1208357618166,-9.96765280635365,0 -36.1208510091445,-9.96766949989302,0 -36.1208651490438,-9.96768620121171,0 -36.1208850881199,-9.96770435063197,0 -36.120903919453,-9.96771989680397,0 -36.12092272607,-9.96773446303698,0 -36.1209457775475,-9.96774849700432,0 -36.1209639662307,-9.96776771371472,0 -36.1209809450722,-9.96778188841462,0 -36.1210029670838,-9.96779667967775,0 -36.1210216054913,-9.96781335861359,0 -36.1210397737201,-9.96782736873457,0 -36.1210583873875,-9.96784117979291,0 -36.1210812333316,-9.96785472013385,0 -36.1210978107311,-9.96787384235471,0 -36.1211457886289,-9.9679213248589,0 -36.1211772409417,-9.96795171286333,0 -36.1211815498151,-9.96795587592914,0 -36.121199694575,-9.96797469126729,0 -36.1212082176352,-9.96798391400421,0 -36.1212269403984,-9.96800107923891,0 -36.1212432142171,-9.96801698433675,0 -36.1212652367169,-9.96803376758082,0 -36.1212851471152,-9.968054749021,0 -36.1213003493976,-9.96807492299338,0 -36.1213152964435,-9.96809150190461,0 -36.1213246709393,-9.96810466529216,0 -36.1213392795782,-9.96812756715377,0 -36.1213451027167,-9.96814123396302,0 -36.1213564628143,-9.96816109815605,0 -36.1213708643832,-9.96818451689628,0 -36.1213814316208,-9.96821175130794,0 -36.1213903347372,-9.96823431637115,0 -36.1213978378938,-9.96825740822893,0 -36.1214107899075,-9.9682801879958,0 -36.1214200051269,-9.96830391999234,0 -36.1214298494578,-9.96832686064017,0 -36.1214395399582,-9.96835319147548,0 -36.1214482422161,-9.96837788163839,0 -36.1214555770451,-9.96840460995416,0 -36.1214594915757,-9.96843087316805,0 -36.1214623740339,-9.96845969779062,0 -36.1214660452959,-9.96848502917895,0 -36.1214688500684,-9.96851164093881,0 -36.1214707583482,-9.96853941428803,0 -36.121471836198,-9.96856462945199,0 -36.1214682616794,-9.96858998590624,0 -36.121460145089,-9.9686223525794,0 -36.1214557305858,-9.96863143529507,0 -36.1214449094479,-9.96864982655638,0 -36.1214353088798,-9.96867224387343,0 -36.1214259766014,-9.96869397309923,0 -36.1214185387902,-9.96871333640191,0 -36.1214135936908,-9.96873633193156,0 -36.1214037870869,-9.96876297477964,0 -36.1214007202122,-9.96877810659106,0 -36.1213935862443,-9.96880537312918,0 -36.1213910842819,-9.96882581919906,0 -36.1213888650954,-9.96884884814794,0 -36.1213913920404,-9.96887029141184,0 -36.1213983087682,-9.96889566015847,0 -36.1214135157358,-9.96890262652562,0 -36.1214536915267,-9.96889169783626,0 -36.1214952279034,-9.96884392456191,0 -36.1215349470832,-9.96879164094761,0 -36.1215589613303,-9.96874932263891,0 -36.1215755410279,-9.96872981888743,0 -36.1215892399003,-9.96871225248301,0 -36.121600873953,-9.96869338561882,0 -36.1216116384868,-9.96867850775678,0 -36.1216193496945,-9.96866357551013,0 -36.1216241461089,-9.96865589763238,0 -36.1216632251086,-9.96859502727018,0 -36.1217013721481,-9.96852902610667,0 -36.1217208933758,-9.96848156255836,0 -36.1217355687958,-9.96845654832615,0 -36.1217641097481,-9.96839408063616,0 -36.1218342526316,-9.96833414940889,0 -36.1219722338227,-9.96824535251227,0 -36.1220137635468,-9.9682331368906,0 -36.1220370641371,-9.96822295544503,0 -36.1220890566297,-9.96821406109968,0 -36.1221167404542,-9.96821095939883,0 -36.1221420444428,-9.96821182446984,0 -36.1221679163125,-9.96820887124075,0 -36.1221916477763,-9.96821186940903,0 -36.1222177114915,-9.96821506211734,0 -36.1222465537364,-9.96821627783875,0 -36.12227305377,-9.96822450014598,0 -36.1222954233482,-9.96823163365809,0 -36.122316537594,-9.96823559276349,0 -36.1223442135396,-9.96824220160627,0 -36.1223676850568,-9.96824808319686,0 -36.1223908782882,-9.96825564972357,0 -36.1224136516198,-9.96826307681929,0 -36.1224368195735,-9.96826820440382,0 -36.1224607900296,-9.96826980318915,0 -36.1224865486567,-9.96827676077557,0 -36.122512237641,-9.96828759881382,0 -36.1225340672069,-9.96830289712525,0 -36.1225562655505,-9.96831182824991,0 -36.1225820788013,-9.96832045041753,0 -36.1226066432492,-9.96833084803295,0 -36.1226298925327,-9.96834587533484,0 -36.1226477418776,-9.96835613526883,0 -36.1226706548902,-9.96836312670241,0 -36.1226963430017,-9.96837421830564,0 -36.1227098890783,-9.96838176515743,0 -36.1227264658933,-9.96838835997283,0 -36.1227658101928,-9.96839642754746,0 -36.1228047121503,-9.96840874817173,0 -36.1228364130688,-9.9684197173716,0 -36.1228593343956,-9.96843436864135,0 -36.1228839799444,-9.96844466160446,0 -36.1229012357933,-9.96846262340762,0 -36.1229207443901,-9.96847799916376,0 -36.1229414823786,-9.9684960197303,0 -36.1229568000463,-9.96851362693671,0 -36.1229849676935,-9.96853700440574,0 -36.1230002554479,-9.96856034117688,0 -36.123007919351,-9.96857187456612,0 -36.1230129457523,-9.96858384798186,0 -36.1230229160028,-9.96860731435151,0 -36.1230319158484,-9.96863152910746,0 -36.1230373332454,-9.96865632144488,0 -36.1230421906725,-9.96868197273559,0 -36.1230428382777,-9.96870648463458,0 -36.1230403535711,-9.96873560584567,0 -36.1230392661362,-9.96875341800612,0 -36.1230416616388,-9.96877456282068,0 -36.1230462402416,-9.96879803786143,0 -36.1230517934059,-9.96882103566991,0 -36.1230537506004,-9.96885271455581,0 -36.1230560379385,-9.96887051038944,0 -36.1230600238676,-9.9688948886519,0 -36.1230570701017,-9.96892005115498,0 -36.1230635794542,-9.96900000524164,0 -36.1230655587669,-9.96901352563684,0 -36.1230656538961,-9.9690367932368,0 -36.1230682211918,-9.96906303151728,0 -36.1230647239382,-9.96908754880447,0 -36.1230667632807,-9.96910971693238,0 -36.1230693933873,-9.96913456157573,0 -36.1230690774448,-9.96915844855944,0 -36.1230687562736,-9.96916755429552,0 -36.1230664600666,-9.96917824823095,0 -36.1230649851275,-9.9691892530044,0 -36.1230629322792,-9.96920086532013,0 -36.1230606776757,-9.96921477857622,0 -36.1230570763063,-9.96923529918698,0 -36.1230544354672,-9.96925810846261,0 -36.1230539647861,-9.96926978297429,0 -36.1230509154656,-9.96928420072687,0 -36.1230457616174,-9.96931292891468,0 -36.1230431035626,-9.96933361574211,0 -36.1230460447938,-9.96935840537781,0 -36.1230436150402,-9.96938560486885,0 -36.1230352776206,-9.96940998735706,0 -36.1230296151118,-9.969431669453,0 -36.1230262067036,-9.9694537791711,0 -36.1230196379335,-9.96948191492005,0 -36.1230095244046,-9.96950430321118,0 -36.1230034679974,-9.96952636531281,0 -36.1229878331049,-9.969557879669,0 -36.1229855777568,-9.9695673704207,0 -36.1229839634895,-9.969578565067,0 -36.1229785841716,-9.9696136307023,0 -36.1229724242927,-9.96963991561689,0 -36.122964792411,-9.96965991074733,0 -36.1229569473698,-9.96968444617476,0 -36.1229461258458,-9.96970197344597,0 -36.1229410771508,-9.96972181634813,0 -36.1229338443249,-9.96974272380258,0 -36.1229299833667,-9.96976659688085,0 -36.1229203362508,-9.96979048436529,0 -36.1229157847792,-9.96981201349188,0 -36.1229043138904,-9.9698330488755,0 -36.1228938615544,-9.96985481304108,0 -36.1228864556266,-9.96987236337258,0 -36.1228808580219,-9.96988883679928,0 -36.1228718066084,-9.96990528706467,0 -36.1228644117124,-9.9699213043828,0 -36.1228405906185,-9.96998116197026,0 -36.1228333322931,-9.96999364032291,0 -36.1228242988329,-9.97001115085729,0 -36.122817022034,-9.97004668087683,0 -36.122810243725,-9.97006492314735,0 -36.1227987143636,-9.97008699933663,0 -36.1227940820392,-9.97009879393756,0 -36.1227846395316,-9.97011957990521,0 -36.122755675528,-9.97017327689482,0 -36.1227449549761,-9.97019381021539,0 -36.1227352291998,-9.97020796430853,0 -36.1227250275716,-9.97022677881825,0 -36.1227160209155,-9.97024739641276,0 -36.1227034512257,-9.9702686941885,0 -36.1226937060237,-9.97028649488385,0 -36.1226845721574,-9.97030375970152,0 -36.1226772877243,-9.97033046200478,0 -36.1226768409287,-9.97034472873347,0 -36.1226715101991,-9.97036991596498,0 -36.1226649659944,-9.97039473557209,0 -36.1226566855519,-9.97041940143956,0 -36.1226477437463,-9.97043614042846,0 -36.122640568574,-9.9704529199611,0 -36.1226324529677,-9.97047086230392,0 -36.122632740599,-9.97048429997662,0 -36.1226395608923,-9.97050072081141,0 -36.1226483881665,-9.97050521197535,0 -36.1226718909284,-9.97050231283607,0 -36.1227026145754,-9.97049184328023,0 -36.1227401076798,-9.97047188822549,0 -36.1227755020618,-9.97045452734928,0 -36.122811232059,-9.97043658985756,0 -36.122845301779,-9.97041900867588,0 -36.1228822591071,-9.970401895154,0 -36.1229203345099,-9.97038109761641,0 -36.1230184355135,-9.97034584453041,0 -36.1231123269955,-9.97031640053169,0 -36.1232064542981,-9.97028658390886,0 -36.1232843665864,-9.97026429114496,0 -36.1233278529834,-9.97026118219997,0 -36.1233962714726,-9.97025134080344,0 -36.1234717407191,-9.97022979510704,0 -36.1235973846622,-9.97018865487114,0 -36.1236174230632,-9.97018368787362,0 -36.1236695915505,-9.97016240922924,0 -36.1236845153815,-9.97015410482197,0 -36.1237451621345,-9.97011030661067,0 -36.1237785212844,-9.97007548294879,0 -36.1238841370195,-9.96999004592093,0 -36.1239506743234,-9.96990281349189,0 -36.1239662495779,-9.96987324473229,0 -36.1239873933969,-9.96983414014889,0 -36.1239983763312,-9.96981366330524,0 -36.1240076714347,-9.96979416692339,0 -36.1240202003859,-9.96977443509252,0 -36.1240312531001,-9.96975425677697,0 -36.1240575094284,-9.96969659991916,0 -36.1240744407709,-9.96965529166506,0 -36.1240815780587,-9.96963339979421,0 -36.1240918507636,-9.96961076862673,0 -36.1241006275862,-9.96958999651891,0 -36.1241117223992,-9.96957081323565,0 -36.1241210311582,-9.96955086811717,0 -36.1241322297504,-9.96953131244887,0 -36.1241447982944,-9.96951418972667,0 -36.1241568694716,-9.96949730164377,0 -36.12416606915,-9.96947806856779,0 -36.1241754485756,-9.96945500223787,0 -36.1241861475969,-9.9694375888616,0 -36.1241930491216,-9.96941761948426,0 -36.1242028043239,-9.96939966413569,0 -36.1242102257163,-9.9693783205187,0 -36.1242164180437,-9.96935631380587,0 -36.1242251936308,-9.96933334707707,0 -36.1242346150657,-9.96931203175006,0 -36.1242442757429,-9.96929292737341,0 -36.1242515299242,-9.96927489843419,0 -36.1243340942826,-9.96912772083962,0 -36.1243497646487,-9.96909547329353,0 -36.1243610722863,-9.9690660509977,0 -36.124378357974,-9.96903923303156,0 -36.1243895319412,-9.96901504883171,0 -36.1243979794205,-9.96900196711176,0 -36.1244142761017,-9.96897850988677,0 -36.1244275675554,-9.96895308250613,0 -36.1244442195457,-9.96892572562707,0 -36.124455076995,-9.9689088503851,0 -36.1244642365361,-9.96889324240578,0 -36.1244742347918,-9.96887755801029,0 -36.1244842101527,-9.96886162810563,0 -36.1244934011537,-9.96884552374815,0 -36.1245033175576,-9.96882755365852,0 -36.1245154484494,-9.96881042577467,0 -36.1245250110077,-9.96879288970887,0 -36.1245349713767,-9.96877350714432,0 -36.1245453052406,-9.96875534761375,0 -36.1245548073397,-9.96873754035353,0 -36.1245640399385,-9.96871919682322,0 -36.1245735690784,-9.96870037058462,0 -36.1245825885637,-9.96868215513441,0 -36.1246007465334,-9.96864664363323,0 -36.1246113351329,-9.96862849100878,0 -36.1246211254182,-9.96860995452393,0 -36.1246311482942,-9.96859134907199,0 -36.1246403404515,-9.96857320559049,0 -36.1246489999502,-9.96855546833507,0 -36.1246575116841,-9.96853739155236,0 -36.1246673013591,-9.96851818323807,0 -36.124676564883,-9.96849947898388,0 -36.1246871649694,-9.9684775219584,0 -36.1246955804512,-9.96846012545317,0 -36.1247037014518,-9.9684421811329,0 -36.1247242882111,-9.96840516751199,0 -36.1247571411248,-9.96836373654057,0</coordinates></LinearRing></outerBoundaryIs></Polygon></MultiGeometry>
  </Placemark>
</Folder>
</Document></kml>
