<?xml version="1.0" encoding="utf-8" ?>
<kml xmlns="http://www.opengis.net/kml/2.2">
<Document id="root_doc">
<Schema name="PATURAIS_TALHAO_1101_ID_824" id="PATURAIS_TALHAO_1101_ID_824">
	<SimpleField name="TALHAO" type="string"></SimpleField>
	<SimpleField name="FAZENDA" type="string"></SimpleField>
	<SimpleField name="ZONA" type="string"></SimpleField>
	<SimpleField name="ID" type="float"></SimpleField>
	<SimpleField name="AREA_TOTAL" type="float"></SimpleField>
	<SimpleField name="FAZ_NOME" type="string"></SimpleField>
	<SimpleField name="CODE" type="string"></SimpleField>
</Schema>
<Folder><name>PATURAIS_TALHAO_1101_ID_824</name>
  <Placemark id="PATURAIS_TALHAO_1101_ID_824.1">
	<Style><LineStyle><color>ff0000ff</color></LineStyle><PolyStyle><fill>0</fill></PolyStyle></Style>
	<ExtendedData><SchemaData schemaUrl="#PATURAIS_TALHAO_1101_ID_824">
		<SimpleData name="TALHAO">1101</SimpleData>
		<SimpleData name="FAZENDA">1974</SimpleData>
		<SimpleData name="ZONA">1</SimpleData>
		<SimpleData name="ID">824</SimpleData>
		<SimpleData name="AREA_TOTAL">1.25</SimpleData>
		<SimpleData name="FAZ_NOME">PATURAIS</SimpleData>
		<SimpleData name="CODE"></SimpleData>
	</SchemaData></ExtendedData>
      <MultiGeometry><Polygon><outerBoundaryIs><LinearRing><coordinates>-36.1088683017347,-9.95024585066418,0 -36.1088627727724,-9.95027505255545,0 -36.108857476534,-9.95030482708788,0 -36.108849726292,-9.95033401467922,0 -36.1088419448883,-9.95036246113957,0 -36.1088341339251,-9.95039136012226,0 -36.1088245757935,-9.95041988914143,0 -36.1088152841198,-9.95044866429819,0 -36.1088042278402,-9.95047633694185,0 -36.1087935082035,-9.95050393941689,0 -36.1087809467868,-9.95053210768223,0 -36.1087685877211,-9.95055836222053,0 -36.1087570640665,-9.95058429234011,0 -36.1087459037714,-9.95061153795553,0 -36.1087321249577,-9.95063782523698,0 -36.1087179577654,-9.95066404503642,0 -36.1087037913864,-9.95068902032069,0 -36.1086890470797,-9.95071414626543,0 -36.1086739755524,-9.95073936418465,0 -36.108659422492,-9.95076516733777,0 -36.1086428107828,-9.9507889577318,0 -36.1086271677817,-9.95081206958726,0 -36.1086118954139,-9.95083703263165,0 -36.1085977376666,-9.95086061200683,0 -36.1085818917306,-9.95088355259835,0 -36.1085665974901,-9.95090806727795,0 -36.1085509441935,-9.95093190723345,0 -36.1085356061593,-9.95095610308256,0 -36.1085200254262,-9.95097995242051,0 -36.1084902856846,-9.95102674080924,0 -36.1084758930568,-9.95105080658012,0 -36.1084605966494,-9.95107471608359,0 -36.1084455549839,-9.95109740690067,0 -36.1084314210057,-9.95112224401509,0 -36.1084153382054,-9.95114588667831,0 -36.1083991384996,-9.95116917812016,0 -36.1083836207443,-9.95119243620754,0 -36.1083676371724,-9.95121659777688,0 -36.1083428889434,-9.9512494099834,0 -36.1083263518488,-9.95127245223947,0 -36.1083111162762,-9.95129508432457,0 -36.1082955752596,-9.95132004881448,0 -36.1082776180818,-9.95134428851626,0 -36.1082617957581,-9.95136757244149,0 -36.1082364749639,-9.95140321987659,0 -36.1082202240371,-9.95142525595814,0 -36.1082047319014,-9.95144779331482,0 -36.1081842097986,-9.95148060995972,0 -36.1081626660785,-9.95150604268309,0 -36.1081421668609,-9.95152910262448,0 -36.1081167342882,-9.95155434172362,0 -36.1080866031317,-9.95158169273165,0 -36.108055639099,-9.95161028261856,0 -36.1080232446513,-9.95164093303666,0 -36.1079896506571,-9.9516730883814,0 -36.1079559111801,-9.95170487705808,0 -36.1079231969965,-9.95173523742781,0 -36.1078922567917,-9.95176407488432,0 -36.1078627193493,-9.9517904113625,0 -36.1078349511915,-9.95181393185381,0 -36.1078110410991,-9.95183638953386,0 -36.1077894029187,-9.95185716192613,0 -36.1077678490426,-9.95187751025559,0 -36.1077484251345,-9.9519122538703,0 -36.107772888942,-9.95195152032459,0 -36.1077937552641,-9.95197741882598,0 -36.1078159627681,-9.9520064756678,0 -36.1078378158386,-9.95203669826622,0 -36.1078584749906,-9.9520676113975,0 -36.1078780506811,-9.95209770131608,0 -36.1079160471834,-9.95215580167632,0 -36.1079343173073,-9.95218292611575,0 -36.107951952264,-9.95220886644856,0 -36.1079695143887,-9.95223361721974,0 -36.1079861510952,-9.95225592734281,0 -36.1080225535228,-9.95229395268349,0 -36.108058728113,-9.95231567612184,0 -36.1080887842526,-9.95231453078517,0 -36.1081099158163,-9.95229847510235,0 -36.1081398553502,-9.95226511290618,0 -36.1081548022638,-9.95224286012246,0 -36.1081707346129,-9.95221586906498,0 -36.1081858121417,-9.95218735529665,0 -36.1082005602372,-9.95216012911197,0 -36.1082140817925,-9.95213318638089,0 -36.1082289072411,-9.95210770547493,0 -36.1082432971839,-9.95208305700701,0 -36.1082578337377,-9.95205793595751,0 -36.1082731889302,-9.95203155966586,0 -36.1082888819478,-9.95200386273576,0 -36.1083047295835,-9.95197529399144,0 -36.1083211104482,-9.9519462011875,0 -36.1083366497375,-9.95191688415306,0 -36.1083515396053,-9.95188776504404,0 -36.1083664685068,-9.95185838077533,0 -36.1083840573426,-9.95182476598026,0 -36.1084037241753,-9.95178866557169,0 -36.1084231565217,-9.9517540970556,0 -36.108440907292,-9.95172319518683,0 -36.1084562425598,-9.95169724477395,0 -36.1084737912962,-9.95166848363053,0 -36.1084937288525,-9.9516382933176,0 -36.1085108633496,-9.95161253591827,0 -36.1085326342204,-9.95157458280819,0 -36.1085498397478,-9.95154193786674,0 -36.1085619867367,-9.95152072190549,0 -36.1085777437983,-9.9514948455065,0 -36.1085936231624,-9.95146960171279,0 -36.1086090578276,-9.95144616169955,0 -36.1086231354374,-9.95142429871068,0 -36.1086503262648,-9.95138270587479,0 -36.1086634979544,-9.95136191844529,0 -36.1086910289493,-9.95132263598809,0 -36.1087181196884,-9.95128462273904,0 -36.1087449142421,-9.95124880675585,0 -36.1087752353485,-9.95121077213725,0 -36.108802730789,-9.95116462201193,0 -36.1088215452163,-9.95114001291931,0 -36.1088398376199,-9.95111599458228,0 -36.1088583520574,-9.95109188638948,0 -36.108896948826,-9.95105568968203,0 -36.1089208470506,-9.951024712947,0 -36.1089272671816,-9.95101412202201,0 -36.1089683009173,-9.95096772938639,0 -36.1089988378521,-9.95092843405819,0 -36.1090269760983,-9.95089286033416,0 -36.1090531456744,-9.95085973700889,0 -36.109077854567,-9.95082654611957,0 -36.1090994927764,-9.95079643997093,0 -36.1091178341038,-9.95076736519985,0 -36.109131637686,-9.95073100097505,0 -36.1091448609909,-9.95067937215394,0 -36.1091499303239,-9.95063754056481,0 -36.1091523198929,-9.95062194765952,0 -36.1091505931647,-9.95057953195543,0 -36.1091466494053,-9.95053213645359,0 -36.1091411403394,-9.95049054313285,0 -36.1091363975973,-9.9504520626378,0 -36.1091313145248,-9.95041123300208,0 -36.109129300828,-9.95036801616494,0 -36.1091388077818,-9.95034120373674,0 -36.1091427087115,-9.95030342787891,0 -36.1091451557744,-9.95020403927177,0 -36.1091486736284,-9.95016887033065,0 -36.10915132453,-9.95013351730028,0 -36.1091533008977,-9.95010111113674,0 -36.109155955334,-9.95007096029391,0 -36.1091587832924,-9.95004087892655,0 -36.1091660946116,-9.94998686162603,0 -36.1091753754965,-9.94993924545125,0 -36.1091790650342,-9.94991595997626,0 -36.1091816542509,-9.949889272715,0 -36.1091810366885,-9.94983988674893,0 -36.1091811273678,-9.94967921693221,0 -36.1091792613638,-9.94957026585826,0 -36.1091749649905,-9.94954882380851,0 -36.109181096605,-9.94951492723226,0 -36.1091926777723,-9.94946791020732,0 -36.1091896698175,-9.94944367691955,0 -36.1092097493108,-9.94939043376033,0 -36.1092255212415,-9.94935687720707,0 -36.1092450168597,-9.94932098204652,0 -36.1092689903521,-9.94927337009762,0 -36.1092781752403,-9.94925447475508,0 -36.1093012873846,-9.94922005751315,0 -36.1093260934091,-9.94918204126939,0 -36.1093489816078,-9.9491468227507,0 -36.1093734606704,-9.94910794662003,0 -36.1093943610398,-9.94906878630392,0 -36.1094109049832,-9.94903309905091,0 -36.1093930020449,-9.94905175858177,0 -36.1093739977511,-9.94907159475314,0 -36.1093553691528,-9.94909233055736,0 -36.1093375171848,-9.94911288618647,0 -36.1093205441114,-9.94913361401707,0 -36.1093046242462,-9.94915623583662,0 -36.1092883455572,-9.94918004226894,0 -36.1092698087512,-9.94920295315267,0 -36.1092466705283,-9.9492359522404,0 -36.1092231297598,-9.94926793308599,0 -36.1092075807429,-9.94929094175568,0 -36.109192248644,-9.94931532447468,0 -36.1091750725574,-9.94933944328571,0 -36.109153801927,-9.94937303082971,0 -36.1091394727449,-9.94939509568841,0 -36.1091273999933,-9.94942067475794,0 -36.1091123621334,-9.94944548791733,0 -36.1090972048237,-9.94946966443061,0 -36.1090830940848,-9.94949512586716,0 -36.1090681489376,-9.94951888062433,0 -36.1090559786085,-9.94954353054402,0 -36.1090431545051,-9.9495682116189,0 -36.1090310884011,-9.94959270181581,0 -36.1090181799082,-9.94961837733995,0 -36.1090046630905,-9.94964249395318,0 -36.1089934799822,-9.94966707601865,0 -36.1089825707607,-9.9496918392065,0 -36.1089735282905,-9.94971801631353,0 -36.1089640016331,-9.94974445358471,0 -36.1089552048215,-9.94976939228401,0 -36.1089452185737,-9.94980821003254,0 -36.1089338072112,-9.94984590862518,0 -36.1089283888851,-9.94987212317541,0 -36.1089231089357,-9.94990040550987,0 -36.1089177014733,-9.94992915873347,0 -36.1089125938753,-9.94995818140194,0 -36.1089069131091,-9.94998642872403,0 -36.1089022527945,-9.95001345009507,0 -36.1088980810344,-9.95004112397209,0 -36.1088954936539,-9.95006961584537,0 -36.1088918469105,-9.95009876631207,0 -36.1088870891661,-9.95012790294623,0 -36.1088831942338,-9.95015658075265,0 -36.1088797598431,-9.95018690568585,0 -36.1088747117348,-9.95021697206269,0 -36.1088683017347,-9.95024585066418,0</coordinates></LinearRing></outerBoundaryIs></Polygon></MultiGeometry>
  </Placemark>
</Folder>
</Document></kml>
