<?xml version="1.0" encoding="utf-8" ?>
<kml xmlns="http://www.opengis.net/kml/2.2">
<Document id="root_doc">
<Schema name="PATURAIS_TALHAO_1008_ID_828" id="PATURAIS_TALHAO_1008_ID_828">
	<SimpleField name="TALHAO" type="string"></SimpleField>
	<SimpleField name="FAZENDA" type="string"></SimpleField>
	<SimpleField name="ZONA" type="string"></SimpleField>
	<SimpleField name="ID" type="float"></SimpleField>
	<SimpleField name="AREA_TOTAL" type="float"></SimpleField>
	<SimpleField name="FAZ_NOME" type="string"></SimpleField>
	<SimpleField name="CODE" type="string"></SimpleField>
</Schema>
<Folder><name>PATURAIS_TALHAO_1008_ID_828</name>
  <Placemark id="PATURAIS_TALHAO_1008_ID_828.1">
	<Style><LineStyle><color>ff0000ff</color></LineStyle><PolyStyle><fill>0</fill></PolyStyle></Style>
	<ExtendedData><SchemaData schemaUrl="#PATURAIS_TALHAO_1008_ID_828">
		<SimpleData name="TALHAO">1008</SimpleData>
		<SimpleData name="FAZENDA">1974</SimpleData>
		<SimpleData name="ZONA">1</SimpleData>
		<SimpleData name="ID">828</SimpleData>
		<SimpleData name="AREA_TOTAL">10.08</SimpleData>
		<SimpleData name="FAZ_NOME">PATURAIS</SimpleData>
		<SimpleData name="CODE"></SimpleData>
	</SchemaData></ExtendedData>
      <MultiGeometry><Polygon><outerBoundaryIs><LinearRing><coordinates>-36.1177462773115,-9.96347562799792,0 -36.1176949809133,-9.96349733681462,0 -36.1175621899244,-9.96354820532299,0 -36.1174101994654,-9.96361011557077,0 -36.1173212652381,-9.96364660514775,0 -36.1172351992036,-9.9636787994351,0 -36.1171439343907,-9.96370319683907,0 -36.1170951377295,-9.96371361530013,0 -36.1170238920827,-9.96372898091307,0 -36.1169969388499,-9.96373243434672,0 -36.116974115173,-9.96373284226403,0 -36.1169342086705,-9.96373864319737,0 -36.1169186297402,-9.96374191062421,0 -36.1169102221256,-9.96374642891729,0 -36.1169205869335,-9.96375831365586,0 -36.1169311763722,-9.9637798439998,0 -36.1169411302537,-9.96379622292602,0 -36.1169526591124,-9.96381048061084,0 -36.1169702631048,-9.96382643036044,0 -36.1169850467942,-9.96384586607636,0 -36.1169999176469,-9.96386183903571,0 -36.1170143337001,-9.96387724001436,0 -36.1170304969367,-9.96389465294228,0 -36.1170436144415,-9.96391103519929,0 -36.1170593068153,-9.96392350657775,0 -36.1170775106465,-9.96394104125674,0 -36.1170925445655,-9.96396020647142,0 -36.1171053276884,-9.96397602885161,0 -36.1171222387884,-9.96399138827952,0 -36.1171389618034,-9.9640105409697,0 -36.117155173716,-9.96402768990248,0 -36.1171733106078,-9.96404429234434,0 -36.1171981627613,-9.96407038893048,0 -36.1172120349488,-9.96408281154159,0 -36.1172264269768,-9.96409838246634,0 -36.1172534783652,-9.96411507354436,0 -36.1172691559696,-9.96413279648853,0 -36.1172851709192,-9.9641462418892,0 -36.1173018027722,-9.96416144630397,0 -36.1173184622401,-9.96417547519407,0 -36.1173342778359,-9.96419056023958,0 -36.1173713784836,-9.9642146249265,0 -36.1173898789651,-9.96422692059691,0 -36.1174080971057,-9.96423746217454,0 -36.1174296915231,-9.96424453356693,0 -36.1174560590392,-9.96425112726808,0 -36.1174778349193,-9.96426217554205,0 -36.1175001721911,-9.96427236664331,0 -36.1175205104914,-9.96428332709561,0 -36.1175438580625,-9.96428990244095,0 -36.1175677861504,-9.96429951927107,0 -36.1175933054656,-9.96431195198912,0 -36.1176140615434,-9.96432721619851,0 -36.1176361854389,-9.96434320162738,0 -36.1176466612125,-9.96436276955591,0 -36.1176604707922,-9.96437956550396,0 -36.1176767889499,-9.96439605743554,0 -36.1176922465117,-9.96441475021035,0 -36.1177078069973,-9.96443593344875,0 -36.1177147823904,-9.96445755839312,0 -36.1177244574412,-9.96447385883241,0 -36.1177346085567,-9.96449265176973,0 -36.1177418679162,-9.96451356001595,0 -36.117747184089,-9.96453612044495,0 -36.1177513164908,-9.96456075874887,0 -36.1177518004536,-9.964585520005,0 -36.1177505041132,-9.96460771685211,0 -36.1177504073755,-9.96463019294986,0 -36.1177478114439,-9.96465359226564,0 -36.1177366013935,-9.96467439070524,0 -36.1177283394279,-9.96469495185533,0 -36.117719966999,-9.96471988884685,0 -36.1177089473785,-9.96474317813966,0 -36.1176975929037,-9.96476467458256,0 -36.1176863190666,-9.96478704508937,0 -36.1176726941397,-9.96480656194123,0 -36.1176486351771,-9.96483384933368,0 -36.1176337274902,-9.96485517706904,0 -36.1176140936885,-9.96487037440279,0 -36.1175629628167,-9.96491781197271,0 -36.1175202333611,-9.96494087112942,0 -36.1174954928094,-9.96496835599835,0 -36.1174824834521,-9.96498748152585,0 -36.1174693450823,-9.96500862565885,0 -36.1174233916397,-9.96506086262707,0 -36.1174026913347,-9.96507397410036,0 -36.1173833359299,-9.96508309177883,0 -36.1173692581901,-9.96509167570259,0 -36.1173570815672,-9.96510492942083,0 -36.1173398659039,-9.9651233571359,0 -36.117329699559,-9.96512713881389,0 -36.117314004102,-9.9651386220637,0 -36.1172922628075,-9.96514884178083,0 -36.1172761615385,-9.96515683118444,0 -36.1172479028782,-9.96517176796979,0 -36.1172266378997,-9.96517837969853,0 -36.117213103404,-9.96518215537092,0 -36.1171859959362,-9.96519677205312,0 -36.1171639445071,-9.96520113007289,0 -36.1171306790982,-9.96521262184969,0 -36.1170672463134,-9.96521727172404,0 -36.1170409316308,-9.96521566048103,0 -36.1170174372764,-9.96521120212272,0 -36.117006883172,-9.9652107820655,0 -36.1169814428885,-9.96520735529485,0 -36.116956962634,-9.96520475164662,0 -36.1169438039709,-9.96520409655952,0 -36.1169158243797,-9.96519819647573,0 -36.1168911583865,-9.9651906792691,0 -36.1168680792056,-9.96518299455156,0 -36.1168427934689,-9.96517782245083,0 -36.1168157312581,-9.96516279336508,0 -36.1167982698599,-9.96514508157373,0 -36.1167905739427,-9.96513764663374,0 -36.1167727698416,-9.96512330616731,0 -36.1167565451428,-9.96511050794618,0 -36.1167345966731,-9.9650996635799,0 -36.1167146065806,-9.96508134777201,0 -36.1166975262607,-9.96506362003639,0 -36.1166809228689,-9.96504912498794,0 -36.1166721011192,-9.9650431276936,0 -36.1166520814943,-9.96503112919311,0 -36.1166331930715,-9.96502181953745,0 -36.1166120995353,-9.96501568571517,0 -36.1165893686634,-9.96501151712826,0 -36.1165667672355,-9.96500879999191,0 -36.1165406342489,-9.96500955863885,0 -36.1165133913109,-9.96501080405151,0 -36.1164886499154,-9.9650128701812,0 -36.116464189607,-9.96501646399268,0 -36.1164387076347,-9.96502040866724,0 -36.1164124001232,-9.9650237055821,0 -36.1163885396202,-9.96502351040369,0 -36.1163633309694,-9.96502729953331,0 -36.1163337996628,-9.96502490078279,0 -36.1163140921876,-9.96501794823539,0 -36.1162944021932,-9.96501710472469,0 -36.1162680461012,-9.96501797765499,0 -36.1162410526846,-9.96501498358374,0 -36.1162204920533,-9.96501285470154,0 -36.1161975417406,-9.96501604816862,0 -36.1161746304113,-9.9650207599832,0 -36.116153976021,-9.96502829219238,0 -36.1161308273791,-9.96504195502588,0 -36.1161056915768,-9.9650515382622,0 -36.1160813061835,-9.96505896214066,0 -36.1160676444121,-9.96505755129161,0 -36.1181314782875,-9.96823720000421,0 -36.1181781153769,-9.96819783564375,0 -36.1181928028547,-9.96818521889884,0 -36.1182054244175,-9.96816968648567,0 -36.118223860148,-9.96814352373146,0 -36.1182360650357,-9.96811623797616,0 -36.1182460629062,-9.96808554860116,0 -36.1182507701366,-9.96805521962243,0 -36.1182506132766,-9.96800812552961,0 -36.1182513616929,-9.96798982260719,0 -36.1182488490651,-9.96797594065179,0 -36.1182394364854,-9.96795627170286,0 -36.118226203484,-9.96793550244633,0 -36.118211482412,-9.96791428757717,0 -36.118196640753,-9.9678939781162,0 -36.1181724491833,-9.96786368595085,0 -36.1181555277085,-9.96784420740245,0 -36.1181386112029,-9.96782199488701,0 -36.118122412826,-9.96779852147128,0 -36.1180806070599,-9.96772345806465,0 -36.1180655994588,-9.9677024111136,0 -36.1180410702702,-9.96764575206938,0 -36.1180339994444,-9.96758821313104,0 -36.1180359851635,-9.96754642439193,0 -36.1180450994295,-9.96751906035254,0 -36.1180534828179,-9.96749485989,0 -36.1180626505097,-9.96746865996121,0 -36.1180810363085,-9.96743425835249,0 -36.1181055685287,-9.96738962636789,0 -36.1181191119745,-9.9673677949892,0 -36.1181387495415,-9.96733378310724,0 -36.1181615884391,-9.96730039103307,0 -36.1181913222852,-9.96726164580258,0 -36.1182089902766,-9.96723245250045,0 -36.1182194482555,-9.96721122586549,0 -36.1182319308588,-9.96718668717045,0 -36.1182601962438,-9.96713008300861,0 -36.1182732322935,-9.96711056963488,0 -36.1182815561025,-9.96709027458976,0 -36.1182867156203,-9.96706939252383,0 -36.1182919315334,-9.96704552864983,0 -36.1182981904528,-9.96701962266098,0 -36.1183040933626,-9.96698337527626,0 -36.1183059978686,-9.96696683322557,0 -36.1183071344898,-9.96694651861874,0 -36.1183078772383,-9.96692298233447,0 -36.1183061197359,-9.96689572359419,0 -36.118312449486,-9.96683503748392,0 -36.1183253409884,-9.96674651217828,0 -36.1183315606241,-9.96668561807912,0 -36.1183476636128,-9.96661602168627,0 -36.1183581862131,-9.96656894705838,0 -36.1183605995977,-9.96654360481129,0 -36.1183655750886,-9.96651915075765,0 -36.1183722673946,-9.96649326558029,0 -36.1183790860405,-9.96646116801387,0 -36.1183821293562,-9.96643745005793,0 -36.1183897057674,-9.96639885921082,0 -36.1183999386656,-9.96637124171571,0 -36.1184215491926,-9.96629690166627,0 -36.1184270371418,-9.9662714047848,0 -36.1184369206121,-9.96622219135392,0 -36.1184404013404,-9.96619630291863,0 -36.1184487404671,-9.96612122980161,0 -36.118455901586,-9.9660835244526,0 -36.118456829832,-9.96607449125285,0 -36.1184566535045,-9.96606101664789,0 -36.1184539587923,-9.96602116414591,0 -36.118455351992,-9.96599285281203,0 -36.1184584195877,-9.96596512221524,0 -36.1184610198278,-9.96593878820545,0 -36.1184607846016,-9.96591383445402,0 -36.1184665007248,-9.96585882791843,0 -36.1184714601269,-9.96583256973195,0 -36.1184859606487,-9.9657758944457,0 -36.1184930843979,-9.96575170942536,0 -36.1184966481513,-9.96572694180939,0 -36.1185034722585,-9.96570178334956,0 -36.1185104463826,-9.96567638580331,0 -36.118517951858,-9.96565114941847,0 -36.1185252363602,-9.96562653051192,0 -36.1185329482639,-9.96560106826858,0 -36.1185411739345,-9.96557437294763,0 -36.1185502512232,-9.96554854935041,0 -36.1185566828658,-9.96552284242435,0 -36.1185642743879,-9.9654958464081,0 -36.1185732698574,-9.96546815800739,0 -36.1185890771974,-9.96544316085758,0 -36.1186023224504,-9.965421875126,0 -36.118612694054,-9.96539939948455,0 -36.1186266446677,-9.96537782708267,0 -36.1186342928312,-9.96535394433646,0 -36.11864433638,-9.96533040807627,0 -36.1186526830239,-9.96530668593853,0 -36.1186609310471,-9.96528330672037,0 -36.1186712417504,-9.96525838259743,0 -36.1186855185785,-9.96523810600229,0 -36.1186939586635,-9.96521758192714,0 -36.1187043677889,-9.96519671883133,0 -36.118712283171,-9.96517368278123,0 -36.1187241060867,-9.96515009553645,0 -36.11873928579,-9.96512877295955,0 -36.1187579968625,-9.96509573996445,0 -36.1187780306749,-9.96504782681413,0 -36.1188529908369,-9.96491321631526,0 -36.1188689908174,-9.96489095282178,0 -36.1188840688757,-9.96486905777726,0 -36.1189231819898,-9.96480824427476,0 -36.1189408314506,-9.96478960737042,0 -36.1189542501479,-9.9647706618524,0 -36.1189671422685,-9.96474683314653,0 -36.1190175120032,-9.96470058624857,0 -36.1191325118993,-9.96458880179954,0 -36.1192151237227,-9.96451905026589,0 -36.1192364902584,-9.96450065100123,0 -36.1192652605998,-9.96448404458538,0 -36.1192938247429,-9.96446862090108,0 -36.1193251027696,-9.96444989981225,0 -36.1193451265207,-9.96443671819185,0 -36.1193741891593,-9.96441193917688,0 -36.1193869210129,-9.96439398476521,0 -36.1194063370399,-9.9643654407315,0 -36.1194381592205,-9.96430545739772,0 -36.119450353072,-9.96428529461496,0 -36.1194607090169,-9.96425134774871,0 -36.1194665630276,-9.96418838764564,0 -36.1194707049269,-9.96414719275207,0 -36.1194755443037,-9.96412324475524,0 -36.1194739803573,-9.96410191239026,0 -36.1194705971349,-9.96407733847625,0 -36.1194666269999,-9.96405042568677,0 -36.1194668272507,-9.96402651336597,0 -36.1194597605119,-9.96400300367221,0 -36.1194562973462,-9.96396123339274,0 -36.1194590602481,-9.96393351278074,0 -36.1194624656383,-9.96390900514257,0 -36.1194635766506,-9.9638826661546,0 -36.1194687058842,-9.96385376375625,0 -36.1194758338103,-9.96382791683709,0 -36.1194785170481,-9.9638006401948,0 -36.119489602124,-9.96376219314827,0 -36.1195012641077,-9.96372444137841,0 -36.1195161570307,-9.96368721301902,0 -36.1195310872728,-9.96364853494381,0 -36.1195513661107,-9.96361542396625,0 -36.119562237705,-9.9635785024009,0 -36.1195801732431,-9.96354115047156,0 -36.1195904140077,-9.96351989371729,0 -36.1195963206541,-9.96349856619539,0 -36.119602813789,-9.96347453771896,0 -36.1196104446189,-9.96344738599795,0 -36.1196352467714,-9.96341148473939,0 -36.119646797649,-9.96339023189508,0 -36.1196618702328,-9.96336627065971,0 -36.1196845209283,-9.96333705160004,0 -36.1196984069587,-9.96331845293514,0 -36.1197187760229,-9.96327807220309,0 -36.1197275203785,-9.96325595965427,0 -36.1197393358709,-9.96323222463113,0 -36.119752131955,-9.9632124996303,0 -36.1197639042251,-9.96318005797395,0 -36.1197720002552,-9.96315466355851,0 -36.1197843008903,-9.96313195761403,0 -36.1197938934031,-9.96311041104983,0 -36.1198028940686,-9.96308987534801,0 -36.1198079055491,-9.96307016222877,0 -36.1198087840445,-9.96304887177522,0 -36.1198157186726,-9.96302420207311,0 -36.1198188620932,-9.96300701720832,0 -36.119812241854,-9.96297781086535,0 -36.1198084396178,-9.96295408743858,0 -36.1198017714433,-9.96291898098887,0 -36.119797269494,-9.96288931572221,0 -36.1197940674297,-9.96286658590882,0 -36.1197771662436,-9.96282405855481,0 -36.1197701687805,-9.96279999178098,0 -36.1197612554009,-9.96277580771491,0 -36.1197421032552,-9.96272660305634,0 -36.1197234817806,-9.96269224009977,0 -36.1197068839373,-9.96266101005452,0 -36.1196961525704,-9.96263943090673,0 -36.119690209245,-9.96261787314571,0 -36.1196772723395,-9.96258563504617,0 -36.1196687455927,-9.96255972748322,0 -36.1196617425931,-9.96253320724231,0 -36.1196571323629,-9.96250720270438,0 -36.1196516638404,-9.96248096898415,0 -36.1196498802277,-9.96245613712316,0 -36.1196459488652,-9.96243321330051,0 -36.1196400955878,-9.96240992359913,0 -36.1196342319121,-9.96238773612098,0 -36.1196261005447,-9.9623650938993,0 -36.1196230097894,-9.96233925674963,0 -36.1196212663475,-9.96231861703005,0 -36.1196174690914,-9.96230858545278,0 -36.1196137859713,-9.96229192930747,0 -36.119610625639,-9.96227197868855,0 -36.1196107008875,-9.96224386703543,0 -36.1196107181068,-9.96222286295089,0 -36.1196058325364,-9.9622029305834,0 -36.1196002269934,-9.96219249893815,0 -36.1195941662782,-9.96217110526232,0 -36.1195847556082,-9.96215158448608,0 -36.119576957811,-9.96212545483463,0 -36.1195742765616,-9.96210192276262,0 -36.1195740087772,-9.96209782716065,0 -36.1177462773115,-9.96347562799792,0</coordinates></LinearRing></outerBoundaryIs></Polygon></MultiGeometry>
  </Placemark>
</Folder>
</Document></kml>
