<?xml version="1.0" encoding="utf-8" ?>
<kml xmlns="http://www.opengis.net/kml/2.2">
<Document id="root_doc">
<Schema name="SÃO_JOÃO_DA_NICÁCIA_TALHAO_1006_ID_275" id="SÃO_JOÃO_DA_NICÁCIA_TALHAO_1006_ID_275">
	<SimpleField name="ID" type="float"></SimpleField>
	<SimpleField name="AREA_TOTAL" type="float"></SimpleField>
	<SimpleField name="FAZENDA" type="float"></SimpleField>
	<SimpleField name="FAZ_NOME" type="string"></SimpleField>
	<SimpleField name="TALHAO" type="float"></SimpleField>
	<SimpleField name="ZONA" type="float"></SimpleField>
	<SimpleField name="ACIONISTA" type="string"></SimpleField>
	<SimpleField name="CODE" type="string"></SimpleField>
</Schema>
<Folder><name>SÃO_JOÃO_DA_NICÁCIA_TALHAO_1006_ID_275</name>
  <Placemark id="SÃO_JOÃO_DA_NICÁCIA_TALHAO_1006_ID_275.1">
	<Style><LineStyle><color>ff0000ff</color></LineStyle><PolyStyle><fill>0</fill></PolyStyle></Style>
	<ExtendedData><SchemaData schemaUrl="#SÃO_JOÃO_DA_NICÁCIA_TALHAO_1006_ID_275">
		<SimpleData name="ID">275</SimpleData>
		<SimpleData name="AREA_TOTAL">0.47</SimpleData>
		<SimpleData name="FAZ_NOME">SÃO JOÃO DA NICÁCIA</SimpleData>
		<SimpleData name="TALHAO">1006</SimpleData>
		<SimpleData name="ZONA">1</SimpleData>
		<SimpleData name="ACIONISTA">Dr. CARLOS MONTEIRO</SimpleData>
		<SimpleData name="CODE"></SimpleData>
	</SchemaData></ExtendedData>
      <MultiGeometry><Polygon><outerBoundaryIs><LinearRing><coordinates>-36.4303681831779,-9.72376303167595,0 -36.4303287540541,-9.72379076197726,0 -36.4302885637806,-9.7238156324059,0 -36.4302478378486,-9.72384364011728,0 -36.4302082996584,-9.72387207541885,0 -36.4301713235242,-9.72390220341192,0 -36.4301540066386,-9.72392106076363,0 -36.4301463822884,-9.72392498130019,0 -36.4302090141576,-9.7239951826731,0 -36.4303154592917,-9.72410739202456,0 -36.4304034757083,-9.72419674762025,0 -36.4304330439229,-9.72422885492415,0 -36.4304343835296,-9.72422788671415,0 -36.430507421405,-9.72417245784832,0 -36.4305708709493,-9.72413268981725,0 -36.4306060445931,-9.72410732234482,0 -36.4306822315381,-9.72405952599506,0 -36.4307971508073,-9.72399041909274,0 -36.4309065496778,-9.72392169089697,0 -36.4310114830598,-9.7238515410411,0 -36.4310824839031,-9.72380677308953,0 -36.4311476928312,-9.72376345883705,0 -36.431159365284,-9.72375513293433,0 -36.4311801928108,-9.72372711358518,0 -36.4312014295331,-9.72369254551148,0 -36.4312123171536,-9.72366497567693,0 -36.4311835067362,-9.72364740954138,0 -36.4311424145317,-9.72362120737487,0 -36.431108608005,-9.72360133017856,0 -36.4310719544133,-9.72357610458259,0 -36.4310354247113,-9.72355382412409,0 -36.4309981574086,-9.72353459614573,0 -36.4309594113517,-9.72351867235878,0 -36.4309172236197,-9.72350782367288,0 -36.4308733151572,-9.72350038066727,0 -36.430829235547,-9.72349325630459,0 -36.4307839884474,-9.7234862603837,0 -36.4307662043131,-9.72348269270659,0 -36.4307361365933,-9.72349197181789,0 -36.4307015868242,-9.72351865127835,0 -36.4306644436925,-9.72354717681189,0 -36.4306272483398,-9.7235755577156,0 -36.4305908790906,-9.72360423023058,0 -36.4305535085189,-9.72363211353035,0 -36.4305199326358,-9.72365923979291,0 -36.4304860903356,-9.72368527497563,0 -36.4304489850377,-9.72371161923643,0 -36.43040875197,-9.72373680769273,0 -36.4303681831779,-9.72376303167595,0</coordinates></LinearRing></outerBoundaryIs></Polygon></MultiGeometry>
  </Placemark>
</Folder>
</Document></kml>
