<?xml version="1.0" encoding="utf-8" ?>
<kml xmlns="http://www.opengis.net/kml/2.2">
<Document id="root_doc">
<Schema name="SÃO_JOÃO_DA_NICÁCIA_TALHAO_1009_ID_284" id="SÃO_JOÃO_DA_NICÁCIA_TALHAO_1009_ID_284">
	<SimpleField name="ID" type="float"></SimpleField>
	<SimpleField name="AREA_TOTAL" type="float"></SimpleField>
	<SimpleField name="FAZENDA" type="float"></SimpleField>
	<SimpleField name="FAZ_NOME" type="string"></SimpleField>
	<SimpleField name="TALHAO" type="float"></SimpleField>
	<SimpleField name="ZONA" type="float"></SimpleField>
	<SimpleField name="ACIONISTA" type="string"></SimpleField>
	<SimpleField name="CODE" type="string"></SimpleField>
</Schema>
<Folder><name>SÃO_JOÃO_DA_NICÁCIA_TALHAO_1009_ID_284</name>
  <Placemark id="SÃO_JOÃO_DA_NICÁCIA_TALHAO_1009_ID_284.1">
	<Style><LineStyle><color>ff0000ff</color></LineStyle><PolyStyle><fill>0</fill></PolyStyle></Style>
	<ExtendedData><SchemaData schemaUrl="#SÃO_JOÃO_DA_NICÁCIA_TALHAO_1009_ID_284">
		<SimpleData name="ID">284</SimpleData>
		<SimpleData name="AREA_TOTAL">7.92</SimpleData>
		<SimpleData name="FAZ_NOME">SÃO JOÃO DA NICÁCIA</SimpleData>
		<SimpleData name="TALHAO">1009</SimpleData>
		<SimpleData name="ZONA">1</SimpleData>
		<SimpleData name="ACIONISTA">Dr. CARLOS MONTEIRO</SimpleData>
		<SimpleData name="CODE"></SimpleData>
	</SchemaData></ExtendedData>
      <MultiGeometry><Polygon><outerBoundaryIs><LinearRing><coordinates>-36.4321011007252,-9.71592084444896,0 -36.4320572487924,-9.71609060257188,0 -36.4318863563142,-9.71678325379991,0 -36.4317468079882,-9.71731262410933,0 -36.4316843617178,-9.71753890340263,0 -36.4319005146999,-9.71759329241569,0 -36.4320667360795,-9.71763526896965,0 -36.4322696543227,-9.71768817530738,0 -36.4324754370176,-9.71773956324197,0 -36.4326811420004,-9.71779221645837,0 -36.4329164307584,-9.71785101084705,0 -36.43317110431,-9.71791630471668,0 -36.4334450707152,-9.71798391047974,0 -36.4336292324266,-9.71802462086364,0 -36.4337341328482,-9.71805014501623,0 -36.4338403166172,-9.71807483949072,0 -36.4340512363834,-9.71812682691431,0 -36.4341952796253,-9.71816298443512,0 -36.4343329455281,-9.71819680102675,0 -36.4344692245518,-9.71823414474073,0 -36.4347169794736,-9.71829655989076,0 -36.4348390061792,-9.71832812860323,0 -36.434960111913,-9.71835931190093,0 -36.4350750063896,-9.71838824097937,0 -36.4351745685674,-9.71841658974848,0 -36.4352012681602,-9.71842369272027,0 -36.4351659221254,-9.71834959922731,0 -36.4351368343103,-9.71830032710554,0 -36.4350576176491,-9.71814394944827,0 -36.4349663692905,-9.71798021158421,0 -36.4348776349194,-9.71781155314223,0 -36.4347925550488,-9.71765289368552,0 -36.4346905021446,-9.71746381293423,0 -36.4346538503744,-9.71740004507011,0 -36.4345824277135,-9.71726676737796,0 -36.4345105124223,-9.71713578064284,0 -36.4344436248052,-9.71701493055039,0 -36.4344079455509,-9.71695089480772,0 -36.4343313782271,-9.7168158735578,0 -36.4342530634159,-9.71667690350211,0 -36.4341404601363,-9.71647760176333,0 -36.4340383565614,-9.71629332144479,0 -36.4339688859944,-9.71617156131729,0 -36.4338460571683,-9.71595159807739,0 -36.4337389439542,-9.71575464427252,0 -36.43365791751,-9.71561286417154,0 -36.4335755199214,-9.71547238216769,0 -36.4335080041836,-9.71535350441638,0 -36.4334423345709,-9.71523542982632,0 -36.433351568184,-9.7150701487474,0 -36.4332825071323,-9.71494227230922,0 -36.4332222756532,-9.71483006576744,0 -36.4331627133361,-9.71471808690091,0 -36.4330978394605,-9.71460237879891,0 -36.4330471405459,-9.71451258825626,0 -36.4330410862484,-9.71450302590218,0 -36.4330078697847,-9.7145422460227,0 -36.4328962784202,-9.71467434352431,0 -36.4327649784438,-9.71483735392819,0 -36.4326086601506,-9.71503092621539,0 -36.4324604357609,-9.71522730941135,0 -36.432349308594,-9.71539006631037,0 -36.4322675159142,-9.71552606964735,0 -36.4322255275391,-9.71560381178498,0 -36.432187255766,-9.71568345805479,0 -36.4321552314747,-9.71575970714034,0 -36.4321011007252,-9.71592084444896,0</coordinates></LinearRing></outerBoundaryIs></Polygon></MultiGeometry>
  </Placemark>
</Folder>
</Document></kml>
