<?xml version="1.0" encoding="utf-8" ?>
<kml xmlns="http://www.opengis.net/kml/2.2">
<Document id="root_doc">
<Schema name="SÃO_JOÃO_DA_NICÁCIA_TALHAO_1004_ID_280" id="SÃO_JOÃO_DA_NICÁCIA_TALHAO_1004_ID_280">
	<SimpleField name="ID" type="float"></SimpleField>
	<SimpleField name="AREA_TOTAL" type="float"></SimpleField>
	<SimpleField name="FAZENDA" type="float"></SimpleField>
	<SimpleField name="FAZ_NOME" type="string"></SimpleField>
	<SimpleField name="TALHAO" type="float"></SimpleField>
	<SimpleField name="ZONA" type="float"></SimpleField>
	<SimpleField name="ACIONISTA" type="string"></SimpleField>
	<SimpleField name="CODE" type="string"></SimpleField>
</Schema>
<Folder><name>SÃO_JOÃO_DA_NICÁCIA_TALHAO_1004_ID_280</name>
  <Placemark id="SÃO_JOÃO_DA_NICÁCIA_TALHAO_1004_ID_280.1">
	<Style><LineStyle><color>ff0000ff</color></LineStyle><PolyStyle><fill>0</fill></PolyStyle></Style>
	<ExtendedData><SchemaData schemaUrl="#SÃO_JOÃO_DA_NICÁCIA_TALHAO_1004_ID_280">
		<SimpleData name="ID">280</SimpleData>
		<SimpleData name="AREA_TOTAL">16.77</SimpleData>
		<SimpleData name="FAZ_NOME">SÃO JOÃO DA NICÁCIA</SimpleData>
		<SimpleData name="TALHAO">1004</SimpleData>
		<SimpleData name="ZONA">1</SimpleData>
		<SimpleData name="ACIONISTA">Dr. CARLOS MONTEIRO</SimpleData>
		<SimpleData name="CODE"></SimpleData>
	</SchemaData></ExtendedData>
      <MultiGeometry><Polygon><outerBoundaryIs><LinearRing><coordinates>-36.4258436179933,-9.7215108432657,0 -36.4259045457542,-9.72215634174963,0 -36.4259655269015,-9.72276446824339,0 -36.4260244440373,-9.72332286542339,0 -36.4260847840453,-9.72381412756896,0 -36.4261227436376,-9.72410964424444,0 -36.4261615774627,-9.7243906030632,0 -36.4262377599064,-9.72483847956279,0 -36.4262952275508,-9.72514450242221,0 -36.4263928619994,-9.72567312265172,0 -36.4264122286191,-9.72566234280623,0 -36.4266613826896,-9.72553326968042,0 -36.4268301502457,-9.72544787036496,0 -36.4269678735414,-9.72538548819459,0 -36.4271146511691,-9.72532831573793,0 -36.4272516036249,-9.72529009912622,0 -36.4274043092173,-9.72526216017902,0 -36.4275689291961,-9.72524824141111,0 -36.4277297350475,-9.7252323444193,0 -36.427806069279,-9.72521879733702,0 -36.4279239100238,-9.72519534425384,0 -36.4280586502561,-9.72516568069563,0 -36.4281496215956,-9.72514740350526,0 -36.4282412178788,-9.72512707684505,0 -36.4284232383354,-9.72508198620077,0 -36.4285096441713,-9.72506153121506,0 -36.4285991626606,-9.72504291451373,0 -36.4286480711093,-9.72503463853656,0 -36.4287096708226,-9.72502436375037,0 -36.4287881470685,-9.7250118230614,0 -36.4288756376991,-9.72499080624263,0 -36.4291264581588,-9.724926268717,0 -36.4293080155575,-9.72487423648451,0 -36.429497392543,-9.72481428647183,0 -36.4296737478353,-9.72474061079346,0 -36.429843689411,-9.72465811350981,0 -36.4300040988263,-9.72455547478715,0 -36.430079222546,-9.72449892803676,0 -36.4301513373508,-9.72444076095521,0 -36.4302181474674,-9.72438759394707,0 -36.4302848529732,-9.72433634704964,0 -36.4303587419696,-9.72428255715687,0 -36.430403416555,-9.72425026830668,0 -36.4303769919518,-9.72422157455947,0 -36.4302891637578,-9.72413241003956,0 -36.4301821025523,-9.7240195512416,0 -36.4300278229159,-9.72384662573976,0 -36.4298939095907,-9.7236932013687,0 -36.4298107788341,-9.72360797553884,0 -36.4297529005132,-9.72354863852916,0 -36.4296970890673,-9.72349003991931,0 -36.4296427031581,-9.72343543086735,0 -36.4296188151956,-9.72341497747899,0 -36.4296056667163,-9.72340325146422,0 -36.4295475072718,-9.72335829690494,0 -36.4294696264727,-9.72330101921394,0 -36.4293844491204,-9.72323214801077,0 -36.4292837895549,-9.72313739745573,0 -36.4292102683012,-9.72305022364018,0 -36.4290764610643,-9.72287758579777,0 -36.4290061331479,-9.72279694020444,0 -36.4287606415797,-9.72253669850323,0 -36.4285950713949,-9.72236253333459,0 -36.4285324679348,-9.7222966799837,0 -36.4285088938115,-9.7222718820649,0 -36.4282534576635,-9.72200560655062,0 -36.4276484461024,-9.72137440426533,0 -36.4273018455234,-9.72100902592482,0 -36.4270166398058,-9.72071406938523,0 -36.4266912613415,-9.72039556584048,0 -36.426518260444,-9.72023786986422,0 -36.4262626417193,-9.71999449054533,0 -36.4260688971039,-9.71980550663123,0 -36.4258763006087,-9.71963876663328,0 -36.4258363116059,-9.72040927544914,0 -36.425818250481,-9.72103567111818,0 -36.4258436179933,-9.7215108432657,0</coordinates></LinearRing></outerBoundaryIs></Polygon></MultiGeometry>
  </Placemark>
</Folder>
</Document></kml>
