<?xml version="1.0" encoding="utf-8" ?>
<kml xmlns="http://www.opengis.net/kml/2.2">
<Document id="root_doc">
<Schema name="SÃO_JOÃO_DA_NICÁCIA_TALHAO_1001_ID_279" id="SÃO_JOÃO_DA_NICÁCIA_TALHAO_1001_ID_279">
	<SimpleField name="ID" type="float"></SimpleField>
	<SimpleField name="AREA_TOTAL" type="float"></SimpleField>
	<SimpleField name="FAZENDA" type="float"></SimpleField>
	<SimpleField name="FAZ_NOME" type="string"></SimpleField>
	<SimpleField name="TALHAO" type="float"></SimpleField>
	<SimpleField name="ZONA" type="float"></SimpleField>
	<SimpleField name="ACIONISTA" type="string"></SimpleField>
	<SimpleField name="CODE" type="string"></SimpleField>
</Schema>
<Folder><name>SÃO_JOÃO_DA_NICÁCIA_TALHAO_1001_ID_279</name>
  <Placemark id="SÃO_JOÃO_DA_NICÁCIA_TALHAO_1001_ID_279.1">
	<Style><LineStyle><color>ff0000ff</color></LineStyle><PolyStyle><fill>0</fill></PolyStyle></Style>
	<ExtendedData><SchemaData schemaUrl="#SÃO_JOÃO_DA_NICÁCIA_TALHAO_1001_ID_279">
		<SimpleData name="ID">279</SimpleData>
		<SimpleData name="AREA_TOTAL">6.31</SimpleData>
		<SimpleData name="FAZ_NOME">SÃO JOÃO DA NICÁCIA</SimpleData>
		<SimpleData name="TALHAO">1001</SimpleData>
		<SimpleData name="ZONA">1</SimpleData>
		<SimpleData name="ACIONISTA">Dr. CARLOS MONTEIRO</SimpleData>
		<SimpleData name="CODE"></SimpleData>
	</SchemaData></ExtendedData>
      <MultiGeometry><Polygon><outerBoundaryIs><LinearRing><coordinates>-36.4262085344119,-9.71714760445566,0 -36.4269986018717,-9.71798182378441,0 -36.4278873150206,-9.71895756645295,0 -36.4298113276646,-9.72102518016591,0 -36.4298323668566,-9.72100484959039,0 -36.4298940025635,-9.72094023427915,0 -36.4299262075413,-9.72090533275447,0 -36.429995638709,-9.72083949336263,0 -36.4300277681633,-9.72080386623183,0 -36.4300614343099,-9.72077032873739,0 -36.4300943419094,-9.72073568961123,0 -36.4301283405705,-9.72070161711675,0 -36.4301601888774,-9.72066723761873,0 -36.4301924301794,-9.72063333488435,0 -36.4302299031033,-9.72059490609958,0 -36.4302586957651,-9.72056772253871,0 -36.430291584032,-9.72053402314289,0 -36.4303237673059,-9.72050206943563,0 -36.4303565766418,-9.72047028658827,0 -36.430383636865,-9.72044300553365,0 -36.4304143761376,-9.72041183911159,0 -36.430416035342,-9.72041001400237,0 -36.4303666160962,-9.7203517032447,0 -36.4302256027085,-9.7202045374427,0 -36.4300658718266,-9.72003765278975,0 -36.4299248184718,-9.71988442551705,0 -36.4298623135187,-9.71981470582558,0 -36.4297963362623,-9.71974575255275,0 -36.4296523964096,-9.71959349335133,0 -36.4295154989664,-9.71944988321419,0 -36.4294515173808,-9.7193812480693,0 -36.4293104326027,-9.71922554219726,0 -36.4291845210335,-9.71908440017602,0 -36.429067878342,-9.71895425469274,0 -36.4289625913589,-9.71884251432931,0 -36.4288889551237,-9.71876533732165,0 -36.4286921540429,-9.7185537273201,0 -36.4284829609422,-9.71831915799938,0 -36.4283718490282,-9.71819572585764,0 -36.4282454281628,-9.71806767787169,0 -36.4281784339273,-9.7179980401112,0 -36.428055426564,-9.71786299664967,0 -36.427938411386,-9.71773402422184,0 -36.4277922793787,-9.71757418489634,0 -36.4276419374874,-9.71741496832756,0 -36.4275738206726,-9.71734170356844,0 -36.4274399814162,-9.71719983996907,0 -36.4273189677841,-9.71706629715518,0 -36.4271909708492,-9.71692873573627,0 -36.4270426870105,-9.71677041173586,0 -36.426935359068,-9.71665350690144,0 -36.4268379679308,-9.71654917978331,0 -36.4267345023185,-9.71643662830634,0 -36.4266279333949,-9.71630790077328,0 -36.4264078258851,-9.716247983887,0 -36.4261577586241,-9.71619964863526,0 -36.4260867889348,-9.71618895840568,0 -36.4260506159638,-9.71618929810004,0 -36.4260194023052,-9.71619293485455,0 -36.425949516247,-9.71620720125837,0 -36.4259233665379,-9.71621615408504,0 -36.4258752798059,-9.71626301930799,0 -36.4258229212289,-9.71631739822734,0 -36.4257057668967,-9.71645703462575,0 -36.4256608987175,-9.71650411505759,0 -36.4258532155685,-9.7166949970804,0 -36.4258215632828,-9.716734580722,0 -36.4262085344119,-9.71714760445566,0</coordinates></LinearRing></outerBoundaryIs></Polygon></MultiGeometry>
  </Placemark>
</Folder>
</Document></kml>
