<?xml version="1.0" encoding="utf-8" ?>
<kml xmlns="http://www.opengis.net/kml/2.2">
<Document id="root_doc">
<Schema name="SÃO_JOÃO_DA_NICÁCIA_TALHAO_1007_ID_287" id="SÃO_JOÃO_DA_NICÁCIA_TALHAO_1007_ID_287">
	<SimpleField name="ID" type="float"></SimpleField>
	<SimpleField name="AREA_TOTAL" type="float"></SimpleField>
	<SimpleField name="FAZENDA" type="float"></SimpleField>
	<SimpleField name="FAZ_NOME" type="string"></SimpleField>
	<SimpleField name="TALHAO" type="float"></SimpleField>
	<SimpleField name="ZONA" type="float"></SimpleField>
	<SimpleField name="ACIONISTA" type="string"></SimpleField>
	<SimpleField name="CODE" type="string"></SimpleField>
</Schema>
<Folder><name>SÃO_JOÃO_DA_NICÁCIA_TALHAO_1007_ID_287</name>
  <Placemark id="SÃO_JOÃO_DA_NICÁCIA_TALHAO_1007_ID_287.1">
	<Style><LineStyle><color>ff0000ff</color></LineStyle><PolyStyle><fill>0</fill></PolyStyle></Style>
	<ExtendedData><SchemaData schemaUrl="#SÃO_JOÃO_DA_NICÁCIA_TALHAO_1007_ID_287">
		<SimpleData name="ID">287</SimpleData>
		<SimpleData name="AREA_TOTAL">16.88</SimpleData>
		<SimpleData name="FAZ_NOME">SÃO JOÃO DA NICÁCIA</SimpleData>
		<SimpleData name="TALHAO">1007</SimpleData>
		<SimpleData name="ZONA">1</SimpleData>
		<SimpleData name="ACIONISTA">Dr. CARLOS MONTEIRO</SimpleData>
		<SimpleData name="CODE"></SimpleData>
	</SchemaData></ExtendedData>
      <MultiGeometry><Polygon><outerBoundaryIs><LinearRing><coordinates>-36.4310777771613,-9.72175263625281,0 -36.431112477187,-9.7221374180507,0 -36.4311482815278,-9.72253263203334,0 -36.4311686694593,-9.72272022737649,0 -36.4311929749272,-9.72291047711464,0 -36.4312145701758,-9.72308511629782,0 -36.4312356307874,-9.72323984761991,0 -36.4312511890615,-9.72334874177282,0 -36.4312666261458,-9.72344418146737,0 -36.4312786389553,-9.72350252341771,0 -36.431278205776,-9.72362776277233,0 -36.4312707640759,-9.72366559589998,0 -36.4312505729634,-9.72371672422988,0 -36.4312416880361,-9.72373118667431,0 -36.4312729583573,-9.72372076337116,0 -36.4313128141693,-9.72371445943884,0 -36.4313452795682,-9.72370613483749,0 -36.4313938569745,-9.7236901628945,0 -36.4314311694723,-9.72367373891047,0 -36.4314751504623,-9.72365129715393,0 -36.4315374263169,-9.72361161095941,0 -36.4316030068579,-9.72356463564529,0 -36.4316668502589,-9.72351993081069,0 -36.4317239653531,-9.72348069147939,0 -36.4317839741572,-9.72344459047594,0 -36.4318351018256,-9.72341347487564,0 -36.4318944766569,-9.7233720332012,0 -36.4319705971181,-9.72331796277772,0 -36.4320367841641,-9.72326992868678,0 -36.4321247633475,-9.72320850043127,0 -36.4321592844134,-9.72318724268549,0 -36.4321967919969,-9.72316159676472,0 -36.4322381641851,-9.72313402672431,0 -36.4322790161043,-9.72310911542533,0 -36.4323671524574,-9.72305969240748,0 -36.4324093100204,-9.72303326253109,0 -36.4324233342733,-9.7230250543553,0 -36.4324533839648,-9.72300746673732,0 -36.4324942571195,-9.72298031687337,0 -36.4325309057038,-9.72295137456432,0 -36.4325629340708,-9.7229228928784,0 -36.432675770882,-9.72280919169205,0 -36.4327358662854,-9.72274805986796,0 -36.4327972906192,-9.7226839353347,0 -36.4328668970359,-9.72261118788587,0 -36.4329273094991,-9.72254915237723,0 -36.4329936624215,-9.72248253037032,0 -36.4330627735808,-9.72241036779904,0 -36.4331210973339,-9.72234946888052,0 -36.4331887941075,-9.7222762879539,0 -36.4332453015941,-9.72221406924492,0 -36.4333015214983,-9.72215122345386,0 -36.433353707831,-9.72209596905801,0 -36.4333991289794,-9.72205009831111,0 -36.4334434001882,-9.72200590342853,0 -36.4334949816376,-9.72196097041018,0 -36.4335487342801,-9.72191599265747,0 -36.4335936885661,-9.72187661687913,0 -36.4336262871102,-9.72183999636758,0 -36.4336585412061,-9.72179684092611,0 -36.4336873623549,-9.72175980588706,0 -36.433721339553,-9.72172158901928,0 -36.4337567274782,-9.7216823385128,0 -36.4337969484745,-9.72164071529832,0 -36.4338326100748,-9.7216042761681,0 -36.4338682413089,-9.72156833437412,0 -36.4339088878569,-9.7215277369459,0 -36.4339458108564,-9.72149002752066,0 -36.4339896240992,-9.72144791536212,0 -36.4340389931903,-9.72139958296964,0 -36.4341287871416,-9.72130821010551,0 -36.434177734411,-9.72126167451821,0 -36.4342847180741,-9.72115757864814,0 -36.4343755287573,-9.72106770962842,0 -36.4344125642327,-9.72103100413557,0 -36.4344741495889,-9.72097102295125,0 -36.4345180450648,-9.72092624104743,0 -36.4345615215197,-9.72087936789316,0 -36.4346006514303,-9.72083492946912,0 -36.4346299850039,-9.72079691331709,0 -36.4346526977696,-9.72076360087831,0 -36.4346706133824,-9.72073061569806,0 -36.4346816670511,-9.72069683227329,0 -36.4346860628084,-9.72066211123731,0 -36.4346833690224,-9.72062936473245,0 -36.4346758324946,-9.72059424196495,0 -36.4346630977575,-9.72055970501848,0 -36.4346380338419,-9.72051093317558,0 -36.4346105315217,-9.72046473754125,0 -36.4345785964153,-9.72041531452502,0 -36.4345468439309,-9.72036761585744,0 -36.4344775259915,-9.72026521253802,0 -36.4344453175609,-9.72021998050802,0 -36.4344133035411,-9.72017231438022,0 -36.4343789500401,-9.72012223453714,0 -36.4343517206635,-9.72008204785515,0 -36.4343121975231,-9.72002371731203,0 -36.4342696922668,-9.719961362554,0 -36.4342274992429,-9.71989891952168,0 -36.4341940604496,-9.71984013353094,0 -36.4341733746661,-9.71980153495014,0 -36.4341551948821,-9.71976682303628,0 -36.4341369066629,-9.71972967354654,0 -36.4340995981319,-9.71965843156257,0 -36.4340589815781,-9.71958496317037,0 -36.4340139865611,-9.71951332868717,0 -36.4339383614036,-9.71939690534587,0 -36.4338991928237,-9.71933875099167,0 -36.4338575594154,-9.71927512566443,0 -36.4338049981262,-9.71919382921704,0 -36.4337433922829,-9.71909324262673,0 -36.4337073783058,-9.71903941563229,0 -36.4336206462808,-9.7189048678258,0 -36.4335844219663,-9.71884706327037,0 -36.4335488022388,-9.71878707290522,0 -36.433512682678,-9.71873185249549,0 -36.4334772263606,-9.71867660735451,0 -36.4333994277018,-9.71855566978758,0 -36.433329360441,-9.71845036912738,0 -36.4332287412502,-9.71829266049711,0 -36.4331478671596,-9.71816641899768,0 -36.4330691624895,-9.71804448172758,0 -36.4330072923647,-9.71795303670507,0 -36.4329899362124,-9.71791786889621,0 -36.4329856039703,-9.71790607644669,0 -36.4329074240832,-9.71788603245943,0 -36.4326721423051,-9.71782723980786,0 -36.4324664400427,-9.71777458728172,0 -36.4322605779362,-9.71772317951027,0 -36.432057612724,-9.71767026092045,0 -36.431891558467,-9.71762832655175,0 -36.431674739582,-9.71757376997567,0 -36.4316286452198,-9.71774079640135,0 -36.4315273834241,-9.71810709300279,0 -36.4313965836379,-9.71861117371922,0 -36.4313042661442,-9.71895436987483,0 -36.4312593184869,-9.71912157772703,0 -36.4311780486346,-9.71941511313674,0 -36.43110709645,-9.71965910977237,0 -36.4310369914042,-9.71992643550069,0 -36.4310083529548,-9.72005471070093,0 -36.4309929462724,-9.72014941839057,0 -36.4309826631458,-9.72022116186603,0 -36.4309741225525,-9.72030208579116,0 -36.430967063636,-9.72039155026449,0 -36.4309661047171,-9.72048772126201,0 -36.430968569926,-9.72060235646006,0 -36.4309762481451,-9.72072013620236,0 -36.4310028299189,-9.72098965999395,0 -36.4310356986031,-9.72136293768652,0 -36.4310777771613,-9.72175263625281,0</coordinates></LinearRing></outerBoundaryIs></Polygon></MultiGeometry>
  </Placemark>
</Folder>
</Document></kml>
