<?xml version="1.0" encoding="utf-8" ?>
<kml xmlns="http://www.opengis.net/kml/2.2">
<Document id="root_doc">
<Schema name="SÃO_JOÃO_DA_NICÁCIA_TALHAO_1003_ID_281" id="SÃO_JOÃO_DA_NICÁCIA_TALHAO_1003_ID_281">
	<SimpleField name="ID" type="float"></SimpleField>
	<SimpleField name="AREA_TOTAL" type="float"></SimpleField>
	<SimpleField name="FAZENDA" type="float"></SimpleField>
	<SimpleField name="FAZ_NOME" type="string"></SimpleField>
	<SimpleField name="TALHAO" type="float"></SimpleField>
	<SimpleField name="ZONA" type="float"></SimpleField>
	<SimpleField name="ACIONISTA" type="string"></SimpleField>
	<SimpleField name="CODE" type="string"></SimpleField>
</Schema>
<Folder><name>SÃO_JOÃO_DA_NICÁCIA_TALHAO_1003_ID_281</name>
  <Placemark id="SÃO_JOÃO_DA_NICÁCIA_TALHAO_1003_ID_281.1">
	<Style><LineStyle><color>ff0000ff</color></LineStyle><PolyStyle><fill>0</fill></PolyStyle></Style>
	<ExtendedData><SchemaData schemaUrl="#SÃO_JOÃO_DA_NICÁCIA_TALHAO_1003_ID_281">
		<SimpleData name="ID">281</SimpleData>
		<SimpleData name="AREA_TOTAL">15.97</SimpleData>
		<SimpleData name="FAZ_NOME">SÃO JOÃO DA NICÁCIA</SimpleData>
		<SimpleData name="TALHAO">1003</SimpleData>
		<SimpleData name="ZONA">1</SimpleData>
		<SimpleData name="ACIONISTA">Dr. CARLOS MONTEIRO</SimpleData>
		<SimpleData name="CODE"></SimpleData>
	</SchemaData></ExtendedData>
      <MultiGeometry><Polygon><outerBoundaryIs><LinearRing><coordinates>-36.424001766377,-9.72039940711693,0 -36.4239784956523,-9.72056389700256,0 -36.4239292459239,-9.7209962621612,0 -36.4238644478541,-9.72153697685696,0 -36.4237948531778,-9.72203603555787,0 -36.4237395465114,-9.7224865995641,0 -36.4237199381225,-9.7226558515479,0 -36.4237154995316,-9.72269416368673,0 -36.4237057308202,-9.72277848322334,0 -36.42367287294,-9.72304096669156,0 -36.4236413851633,-9.72329704431819,0 -36.4236007590277,-9.72362789971892,0 -36.423561174292,-9.72399902339969,0 -36.4236029724766,-9.72403071894679,0 -36.423797021804,-9.72419181198033,0 -36.4240175757255,-9.72439325412345,0 -36.4243053570204,-9.72464311553958,0 -36.4245070534313,-9.72480922152605,0 -36.4247122667439,-9.72498475772916,0 -36.4249374341217,-9.72516788693827,0 -36.4251606945685,-9.72535320819346,0 -36.4253744150699,-9.72553781872699,0 -36.425587598443,-9.72572047901653,0 -36.425693655766,-9.72581611096914,0 -36.4258397225153,-9.7259466453544,0 -36.4258904159043,-9.7259950762738,0 -36.4259944558842,-9.72592295761883,0 -36.4261543071836,-9.72580815288833,0 -36.4262422433757,-9.725756959903,0 -36.426359276531,-9.72569181698625,0 -36.4262594022529,-9.72515106937098,0 -36.4262018877724,-9.72484479691996,0 -36.4261255601353,-9.72439606653476,0 -36.4260866262997,-9.72411438392281,0 -36.4260486321574,-9.7238185980185,0 -36.4259882427259,-9.72332693304311,0 -36.4259292837427,-9.72276813865954,0 -36.4258682829591,-9.72215981567428,0 -36.4258072767242,-9.7215134850421,0 -36.4257817917093,-9.72103611091056,0 -36.4257999072814,-9.72040782925698,0 -36.4258414034924,-9.71960828093373,0 -36.4256693443315,-9.71944991876711,0 -36.4253219210457,-9.71914373348095,0 -36.4250719450272,-9.71892443977889,0 -36.4248884518508,-9.71875021668773,0 -36.4245874446897,-9.71847064230872,0 -36.4243437546044,-9.71825995484313,0 -36.4242992498218,-9.71822190844524,0 -36.4242876293169,-9.71825105548876,0 -36.4242596885017,-9.71832390734694,0 -36.4242363267069,-9.71841611558406,0 -36.4242225143677,-9.71855938769913,0 -36.4241904426835,-9.71881848227808,0 -36.4241320808362,-9.7193494529066,0 -36.4240722904875,-9.7199009031806,0 -36.424007034502,-9.72036216915697,0 -36.424001766377,-9.72039940711693,0</coordinates></LinearRing></outerBoundaryIs></Polygon></MultiGeometry>
  </Placemark>
</Folder>
</Document></kml>
