<?xml version="1.0" encoding="UTF-8"?>
<kml xmlns="http://www.opengis.net/kml/2.2" xmlns:gx="http://www.google.com/kml/ext/2.2" xmlns:kml="http://www.opengis.net/kml/2.2" xmlns:atom="http://www.w3.org/2005/Atom">
<Document>
  <name>01.kml</name>
  <StyleMap id="FFFF0000">
    <Pair>
      <key>normal</key>
      <styleUrl>#s_FFFF0000</styleUrl>
    </Pair>
    <Pair>
      <key>highlight</key>
      <styleUrl>#s_FFFF0000_hl</styleUrl>
    </Pair>
  </StyleMap>
  <Style id="s_FFFF0000">
   <IconStyle>
      <scale>1.1</scale>
      <Icon>
        <href>http://maps.google.com/mapfiles/kml/pushpin/agrocad.png</href>
      </Icon>
      <hotSpot x="20" y="2" xunits="pixels" yunits="pixels"/>
    </IconStyle>
    <LineStyle>
      <color>FFFF0000</color>
      <width>1</width>
    </LineStyle>
    <PolyStyle>
      <color>40ffffff</color>
      <fill>1</fill>
    </PolyStyle>
  </Style>
  <Style id="s_FFFF0000_hl">
    <IconStyle>
      <scale>1.3</scale>
      <Icon>
        <href>http://maps.google.com/mapfiles/kml/pushpin/agrocad.png</href>
      </Icon>
      <hotSpot x="20" y="2" xunits="pixels" yunits="pixels"/>
    </IconStyle>
    <LineStyle>
      <color>ff000000</color>
      <width>1</width>
    </LineStyle>
    <PolyStyle>
      <color>40ffffff</color>
      <fill>1</fill>
    </PolyStyle>
  </Style>
  <Placemark>
    <name>AgroCAD: 1BFFA</name>
    <styleUrl>FFFF0000</styleUrl>
    <Polygon>
      <outerBoundaryIs>
        <LinearRing>
          <coordinates>
           -36.19904615723090,-9.86348801899526 -36.20024455111984,-9.86491813593975 -36.20022506028644,-9.86492874982861 -36.20019887584204,-9.86494250205080 -36.20017899111983,-9.86495273621748 -36.20015799195313,-9.86496291705080 -36.20013722584204,-9.86497370871752 -36.20011615250863,-9.86498443816194 -36.20009505056425,-9.86499541843974 -36.20007350278644,-9.86500610260638 -36.20005156667533,-9.86501741066188 -36.20002989056424,-9.86502872621747 -36.20000754361984,-9.86503974038406 -36.19998525973093,-9.86505078982854 -36.19996253639754,-9.86506207232859 -36.19994036639752,-9.86507310982858 -36.19991805417533,-9.86508431899525 -36.19987293611983,-9.86510744538406 -36.19984881556423,-9.86511957871745 -36.19982433195314,-9.86513162677296 -36.19979927806423,-9.86514362093968 -36.19977419639753,-9.86515615232859 -36.19974941528642,-9.86516892149512 -36.19972527167532,-9.86518204010625 -36.19970201500873,-9.86519535427301 -36.19967910028642,-9.86520834482848 -36.19965642195313,-9.86522174816179 -36.19963398473093,-9.86523579371736 -36.19961247528642,-9.86524933121736 -36.19947865445312,-9.86533044205073 -36.19945571611981,-9.86534326566182 -36.19943401473091,-9.86535592677288 -36.19941333250871,-9.86536696455063 -36.19939395195311,-9.86537758788405 -36.19937370167531,-9.86538883732846 -36.19935270306421,-9.86540059621731 -36.19923499528650,-9.86546591121732 -36.19921277361980,-9.86547968288400 -36.19919106973090,-9.86549274149508 -36.19917044639761,-9.86550616121736 -36.19915001667540,-9.86551767593950 -36.19912987028649,-9.86552745538395 -36.19911154639760,-9.86553594871734 -36.19907138306420,-9.86555142788401 -36.19905150611979,-9.86555923343950 -36.19903099778650,-9.86556778316174 -36.19901146834199,-9.86557656705057 -36.19898974445309,-9.86558564621728 -36.19897106639759,-9.86560068399501 -36.19889281834199,-9.86564922927277 -36.19887411556418,-9.86566133093944 -36.19883958611981,-9.86568126982833 -36.19873211861979,-9.86572176371728 -36.19866380584199,-9.86573865760608 -36.19859801973088,-9.86575463010605 -36.19857300695318,-9.86575914316170 -36.19854769945319,-9.86576374455054 -36.19852352417538,-9.86576992955058 -36.19850047917537,-9.86577608427269 -36.19847649889757,-9.86578362955048 -36.19845299389758,-9.86579123177274 -36.19834851695318,-9.86581678566162 -36.19832270528646,-9.86582374343938 -36.19829999334198,-9.86583053899491 -36.19820567139757,-9.86585419260604 -36.19818290028646,-9.86585711649492 -36.19816205417536,-9.86586006538378 -36.19809721528646,-9.86586341982826 -36.19807789834206,-9.86586529455045 -36.19805881667535,-9.86586420316152 -36.19802971223097,-9.86586567066158 -36.19797532028645,-9.86586647149488 -36.19792394389756,-9.86586445705040 -36.19785986889755,-9.86586428593934 -36.19780807834204,-9.86586446399491 -36.19775394667533,-9.86587007510600 -36.19769413056424,-9.86587523260601 -36.19762964139754,-9.86588229899481 -36.19755336278644,-9.86589399288369 -36.19748059667543,-9.86591634732820 -36.19743055334204,-9.86593092538371 -36.19738225667533,-9.86594438982816 -36.19722638584202,-9.86601121899475 -36.19720402611982,-9.86602235955033 -36.19718210500873,-9.86603190038361 -36.19709022806422,-9.86606646871698 -36.19705453473092,-9.86608310232808 -36.19703189000872,-9.86609828177255 -36.19700776528651,-9.86611002288362 -36.19698274917542,-9.86612284288361 -36.19695808389761,-9.86613627149480 -36.19693408361981,-9.86614993538363 -36.19691096889761,-9.86616350371690 -36.19688749806432,-9.86617681232806 -36.19686438278652,-9.86619066593917 -36.19684153723091,-9.86620410871691 -36.19681793306431,-9.86621690843915 -36.19679304667542,-9.86622936149469 -36.19676759889761,-9.86624239260587 -36.19674231223092,-9.86625571093913 -36.19671723389761,-9.86626933566141 -36.19669204278650,-9.86628291010579 -36.19666688861980,-9.86629655593916 -36.19664219473090,-9.86630981649466 -36.19661855278650,-9.86632266205022 -36.19657320806430,-9.86634601205024 -36.19655052889761,-9.86635703621691 -36.19652798445320,-9.86636764205022 -36.19650523750870,-9.86637724205021 -36.19648393695320,-9.86638701205023 -36.19646403028649,-9.86639560482793 -36.19640879611980,-9.86642518705014 -36.19639067389760,-9.86643430843914 -36.19636880111979,-9.86644349510578 -36.19634193556428,-9.86645525205016 -36.19632218528650,-9.86646553955024 -36.19630184528649,-9.86647371399459 -36.19628260861988,-9.86648238621680 -36.19624338139759,-9.86649588760574 -36.19622320389758,-9.86650268455015 -36.19620304889758,-9.86650973732792 -36.19618258611978,-9.86651623205017 -36.19616247528649,-9.86652209455018 -36.19612312806427,-9.86653184010571 -36.19610502500869,-9.86653514593912 -36.19608655361978,-9.86653913149457 -36.19606751889757,-9.86654248566126 -36.19602608806427,-9.86654787316127 -36.19591824917537,-9.86656003788345 -36.19582657111987,-9.86658027010564 -36.19574271056426,-9.86659809538341 -36.19567884473096,-9.86660440121673 -36.19566730084207,-9.86660463038343 -36.19564323973096,-9.86660196566116 -36.19561892556426,-9.86659871482783 -36.19559506584206,-9.86659311121676 -36.19557539639765,-9.86658887649451 -36.19555774945315,-9.86658545205007 -36.19555313834205,-9.86658368732786 -36.19554837500876,-9.86658095927228 -36.19554002361986,-9.86657573371671 -36.19552510602766,-9.86656523555222 -36.19550702806426,-9.86654859316123 -36.19549485917545,-9.86653120982790 -36.19548146500875,-9.86651602177225 -36.19546192361986,-9.86649497677229 -36.19545257000876,-9.86648470955005 -36.19544434861985,-9.86647376566116 -36.19542602917535,-9.86644474816116 -36.19540655667544,-9.86641094205014 -36.19538570750876,-9.86637571955011 -36.19537494250875,-9.86635791288338 -36.19536353945316,-9.86633838593898 -36.19535142111985,-9.86631878149455 -36.19533956084205,-9.86629895593896 -36.19532763973095,-9.86627854066120 -36.19531519361985,-9.86625770705005 -36.19530219334205,-9.86623855232789 -36.19528839111985,-9.86622073482786 -36.19527447445315,-9.86620500510568 -36.19526129500874,-9.86619060482783 -36.19524981417545,-9.86617630955008 -36.19522743556425,-9.86614963010568 -36.19520812139765,-9.86612403593900 -36.19520044723095,-9.86611191816124 -36.19518902917544,-9.86608558316116 -36.19519001167545,-9.86605943510559 -36.19520212417545,-9.86603293316118 -36.19521232861985,-9.86602014760560 -36.19522745111986,-9.86600621316120 -36.19524438250875,-9.86599324677234 -36.19526303445315,-9.86598113399453 -36.19528108389764,-9.86596908121676 -36.19529909750875,-9.86595716788346 -36.19531669306425,-9.86594488343894 -36.19533400973094,-9.86593336871679 -36.19535146889766,-9.86592218538345 -36.19536958667545,-9.86591110260571 -36.19538752528656,-9.86589956649460 -36.19540517334205,-9.86588941482791 -36.19542206750875,-9.86587935927233 -36.19544029334206,-9.86587046205009 -36.19545909584206,-9.86585906427236 -36.19547889750875,-9.86584678093905 -36.19549807139755,-9.86583372816129 -36.19551731556426,-9.86582116455011 -36.19553625250875,-9.86580844816126 -36.19555541556425,-9.86579607121681 -36.19557427528646,-9.86578297871683 -36.19559169361986,-9.86577002705013 -36.19560901250876,-9.86575800177241 -36.19562662389767,-9.86574578066127 -36.19564451500876,-9.86573315399457 -36.19566151417535,-9.86571914260577 -36.19567708111986,-9.86570610816134 -36.19569099445316,-9.86569397843902 -36.19571948889757,-9.86566923288357 -36.19574186834207,-9.86563972455017 -36.19576083917536,-9.86560818510575 -36.19577204167537,-9.86557316260571 -36.19577101778658,-9.86556775705019 -36.19576969000877,-9.86555183927248 -36.19904615723090,-9.86348801899526 -36.19904615723090,-9.86348801899526 -36.19904615723090,-9.86348801899526
          </coordinates>
        </LinearRing>
      </outerBoundaryIs>
    </Polygon>
  </Placemark>
</Document>
</kml>
