<?xml version="1.0" encoding="UTF-8"?>
<kml xmlns="http://www.opengis.net/kml/2.2" xmlns:gx="http://www.google.com/kml/ext/2.2" xmlns:kml="http://www.opengis.net/kml/2.2" xmlns:atom="http://www.w3.org/2005/Atom">
<Document>
  <name>03.kml</name>
  <StyleMap id="FFFF0000">
    <Pair>
      <key>normal</key>
      <styleUrl>#s_FFFF0000</styleUrl>
    </Pair>
    <Pair>
      <key>highlight</key>
      <styleUrl>#s_FFFF0000_hl</styleUrl>
    </Pair>
  </StyleMap>
  <Style id="s_FFFF0000">
   <IconStyle>
      <scale>1.1</scale>
      <Icon>
        <href>http://maps.google.com/mapfiles/kml/pushpin/agrocad.png</href>
      </Icon>
      <hotSpot x="20" y="2" xunits="pixels" yunits="pixels"/>
    </IconStyle>
    <LineStyle>
      <color>FFFF0000</color>
      <width>1</width>
    </LineStyle>
    <PolyStyle>
      <color>40ffffff</color>
      <fill>1</fill>
    </PolyStyle>
  </Style>
  <Style id="s_FFFF0000_hl">
    <IconStyle>
      <scale>1.3</scale>
      <Icon>
        <href>http://maps.google.com/mapfiles/kml/pushpin/agrocad.png</href>
      </Icon>
      <hotSpot x="20" y="2" xunits="pixels" yunits="pixels"/>
    </IconStyle>
    <LineStyle>
      <color>ff000000</color>
      <width>1</width>
    </LineStyle>
    <PolyStyle>
      <color>40ffffff</color>
      <fill>1</fill>
    </PolyStyle>
  </Style>
  <Placemark>
    <name>AgroCAD: 1BFFE</name>
    <styleUrl>FFFF0000</styleUrl>
    <Polygon>
      <outerBoundaryIs>
        <LinearRing>
          <coordinates>
           -36.19883186808488,-9.85964882404864 -36.19885998697379,-9.85962491710422 -36.19888923280710,-9.85960132571531 -36.19891864058488,-9.85957783571531 -36.19894743558488,-9.85955383599308 -36.19897664502929,-9.85952962349309 -36.19900743280709,-9.85950463821530 -36.19903865641820,-9.85947862127091 -36.19906918697379,-9.85945149710424 -36.19909936919599,-9.85942462849315 -36.19912942030711,-9.85939812043757 -36.19915953197370,-9.85937168571536 -36.19918865475149,-9.85934452293760 -36.19921673114041,-9.85931664599313 -36.19924383475151,-9.85928844821538 -36.19926880669601,-9.85926063738204 -36.19929192447371,-9.85923385849316 -36.19931446808480,-9.85920755349315 -36.19933740086261,-9.85918061043760 -36.19936055614040,-9.85915278793762 -36.19938349780710,-9.85912365349316 -36.19940689586261,-9.85909338932652 -36.19943035975152,-9.85906225571541 -36.19945275225152,-9.85903006710431 -36.19947423419602,-9.85899782293760 -36.19949528030711,-9.85896703099319 -36.19951582669592,-9.85893695682652 -36.19953658225151,-9.85890699377100 -36.19955699586262,-9.85887769293767 -36.19957852447371,-9.85885018293763 -36.19960044975152,-9.85882370960432 -36.19962258502932,-9.85879831710433 -36.19964478975151,-9.85877558793765 -36.19966676530701,-9.85875505127100 -36.19968818280702,-9.85873600349322 -36.19970899002932,-9.85871811904878 -36.19972825558483,-9.85869935432655 -36.19974910114042,-9.85867897210432 -36.19977128002932,-9.85865649099324 -36.19979478919592,-9.85863239599322 -36.19982226084432,-9.85860109809963 -36.19986739919593,-9.85862805099327 -36.19991923252924,-9.85865565210434 -36.20005565252924,-9.85871717738214 -36.20014961225153,-9.85875795821549 -36.20019356891815,-9.85877912432661 -36.20018227808483,-9.85880122377104 -36.20016883502923,-9.85882080293771 -36.20015695836253,-9.85884322377106 -36.20014365725143,-9.85886785765991 -36.20012992780704,-9.85889088071546 -36.20011286614034,-9.85891724210438 -36.20009670558483,-9.85894610432655 -36.20007719169593,-9.85897425488214 -36.20005582419593,-9.85900302321550 -36.20003318197374,-9.85903218015992 -36.20001091419594,-9.85906147710433 -36.19998544697373,-9.85909152932655 -36.19995689058483,-9.85912258210434 -36.19992903586263,-9.85915576321542 -36.19990148086262,-9.85918867877101 -36.19987365391812,-9.85922110349320 -36.19984625614043,-9.85925336432656 -36.19981857697373,-9.85928523349322 -36.19979000752922,-9.85931553877097 -36.19976220225152,-9.85934615210429 -36.19973535475152,-9.85937665793762 -36.19970986725152,-9.85940662210429 -36.19968312919592,-9.85943524071537 -36.19965722641813,-9.85946442460428 -36.19963090641812,-9.85949288654874 -36.19960503364043,-9.85952188377093 -36.19957855586262,-9.85955146432648 -36.19955326030702,-9.85958243127093 -36.19952855836261,-9.85961419654871 -36.19950201891822,-9.85964592710425 -36.19947578891821,-9.85967899738203 -36.19944834558481,-9.85971226154871 -36.19942081252931,-9.85974678015981 -36.19939436197371,-9.85978267515980 -36.19936833836261,-9.85981830682645 -36.19934261669590,-9.85985374015979 -36.19931775502930,-9.85988882321532 -36.19929281502930,-9.85992314960422 -36.19926896114041,-9.85995685571534 -36.19924613530710,-9.85998899682643 -36.19922400114041,-9.86001908765978 -36.19920242114039,-9.86004775960419 -36.19918121558491,-9.86007709238198 -36.19916079169601,-9.86010561932640 -36.19914132141820,-9.86013324099308 -36.19912331697371,-9.86015879015974 -36.19910445586260,-9.86018440127083 -36.19908560502930,-9.86021150432640 -36.19906480280710,-9.86024028154864 -36.19904339252930,-9.86026967515974 -36.19902070725149,-9.86029971293749 -36.19899826391819,-9.86033024932642 -36.19897557086269,-9.86036000710415 -36.19895558864039,-9.86038945404862 -36.19893658891819,-9.86041967015971 -36.19891695086270,-9.86044703265971 -36.19889723280709,-9.86047358710416 -36.19887655447378,-9.86050134460414 -36.19885507252929,-9.86053031793746 -36.19883383252930,-9.86055948127079 -36.19881506697378,-9.86058828071526 -36.19879642864038,-9.86061740904855 -36.19877907447378,-9.86064590321522 -36.19876282530708,-9.86067158238188 -36.19874617919598,-9.86069496710412 -36.19872961836268,-9.86071892099299 -36.19871325669598,-9.86074400377078 -36.19869496364048,-9.86076946654853 -36.19867667947378,-9.86079637821520 -36.19865802947378,-9.86082294793743 -36.19863925669598,-9.86085034127077 -36.19862143558489,-9.86087871682632 -36.19860207058489,-9.86090790238186 -36.19858223614047,-9.86093876682629 -36.19856096419597,-9.86097017877074 -36.19853788280708,-9.86100174293741 -36.19851427864048,-9.86103352210408 -36.19849081308487,-9.86106480349295 -36.19846776725156,-9.86109485210405 -36.19844517086268,-9.86112549877071 -36.19842336586268,-9.86115716265961 -36.19840209308487,-9.86118934904847 -36.19838105891826,-9.86122114738182 -36.19835878030708,-9.86125216738183 -36.19833593141826,-9.86128314710403 -36.19831356419596,-9.86131458293735 -36.19829121169597,-9.86134609599291 -36.19826948114047,-9.86137770765959 -36.19824804891826,-9.86140812627068 -36.19822600419596,-9.86143762432623 -36.19820406002936,-9.86146692349289 -36.19818216114046,-9.86149713627066 -36.19816114752936,-9.86152814738178 -36.19813936808495,-9.86155894210401 -36.19811595586265,-9.86159018710399 -36.19809236669605,-9.86162243682620 -36.19807096836266,-9.86165522821512 -36.19805018475155,-9.86168662182621 -36.19802882280716,-9.86171772599288 -36.19800655141825,-9.86174903404844 -36.19798446864045,-9.86177958849286 -36.19796268419605,-9.86180935154843 -36.19794248752935,-9.86183812932620 -36.19792390780715,-9.86186461988176 -36.19790601391824,-9.86188953738176 -36.19788934752935,-9.86191270015953 -36.19787351002935,-9.86193241793729 -36.19783282252934,-9.86198526821506 -36.19754855586275,-9.86167915238173 -36.19755979725165,-9.86166716377062 -36.19757747919603,-9.86163762099285 -36.19759988169604,-9.86160804627060 -36.19761370280714,-9.86158849988173 -36.19762803725163,-9.86157067293729 -36.19764318252934,-9.86155023765951 -36.19765966641825,-9.86152741877061 -36.19767793891823,-9.86150384599286 -36.19769672836274,-9.86147974043729 -36.19771508280714,-9.86145487293731 -36.19773417864045,-9.86142969071511 -36.19775411141824,-9.86140427988175 -36.19777486308495,-9.86138016043734 -36.19779611475164,-9.86135822849288 -36.19781909225154,-9.86133780460398 -36.19784313530714,-9.86131659821509 -36.19786308641824,-9.86129393710401 -36.19788140919605,-9.86126979377067 -36.19789616447385,-9.86124221765955 -36.19791086947385,-9.86121681682621 -36.19792439419605,-9.86118998877066 -36.19793890697385,-9.86116267988176 -36.19795346780716,-9.86113445627065 -36.19796771919605,-9.86110665654844 -36.19798337197386,-9.86107830515958 -36.19800040586265,-9.86104861793738 -36.19801696280716,-9.86101762654847 -36.19803381669605,-9.86098644988183 -36.19805100364045,-9.86095526154849 -36.19806822891826,-9.86092414849291 -36.19808552308495,-9.86089373849290 -36.19810200141826,-9.86086409654847 -36.19811756752936,-9.86083434321514 -36.19813181864046,-9.86080438071519 -36.19814597780717,-9.86077501654852 -36.19816085280716,-9.86074595210405 -36.19817672447377,-9.86071650182628 -36.19819287114046,-9.86068727738186 -36.19820875419607,-9.86065815460406 -36.19822389836266,-9.86062833015963 -36.19823907391826,-9.86059794293741 -36.19825485002936,-9.86056702099296 -36.19827064947376,-9.86053577377072 -36.19828662280716,-9.86050439293742 -36.19830190114047,-9.86047320349296 -36.19831694780716,-9.86044204349298 -36.19833140364047,-9.86041139765966 -36.19834620336267,-9.86038127710411 -36.19836168364046,-9.86035047654855 -36.19837763975156,-9.86031940682636 -36.19839392752936,-9.86028776488190 -36.19841017558486,-9.86025573849300 -36.19842659558486,-9.86022348738189 -36.19844216030708,-9.86019096627079 -36.19845648808488,-9.86015901821526 -36.19847068058488,-9.86012829571524 -36.19848527169597,-9.86009823043747 -36.19850102780708,-9.86006822293748 -36.19851735975156,-9.86003870654857 -36.19853381780707,-9.86000974988193 -36.19855076447377,-9.85998135877080 -36.19856718141817,-9.85995358071528 -36.19858313864047,-9.85992707043753 -36.19859894975159,-9.85990110682636 -36.19861568725158,-9.85987562349304 -36.19863600114039,-9.85985025877084 -36.19865878141828,-9.85982453765971 -36.19868225808487,-9.85979895599305 -36.19870739558488,-9.85977503765972 -36.19873033808488,-9.85974947904861 -36.19875328447378,-9.85972398738197 -36.19877853891818,-9.85969852654859 -36.19880488864039,-9.85967324182643 -36.19883186808488,-9.85964882404864 -36.19883186808488,-9.85964882404864 -36.19883186808488,-9.85964882404864
          </coordinates>
        </LinearRing>
      </outerBoundaryIs>
    </Polygon>
  </Placemark>
</Document>
</kml>
