<?xml version="1.0" encoding="UTF-8"?>
<kml xmlns="http://www.opengis.net/kml/2.2" xmlns:gx="http://www.google.com/kml/ext/2.2" xmlns:kml="http://www.opengis.net/kml/2.2" xmlns:atom="http://www.w3.org/2005/Atom">
<Document>
  <name>10.kml</name>
  <StyleMap id="FFFF0000">
    <Pair>
      <key>normal</key>
      <styleUrl>#s_FFFF0000</styleUrl>
    </Pair>
    <Pair>
      <key>highlight</key>
      <styleUrl>#s_FFFF0000_hl</styleUrl>
    </Pair>
  </StyleMap>
  <Style id="s_FFFF0000">
   <IconStyle>
      <scale>1.1</scale>
      <Icon>
        <href>http://maps.google.com/mapfiles/kml/pushpin/agrocad.png</href>
      </Icon>
      <hotSpot x="20" y="2" xunits="pixels" yunits="pixels"/>
    </IconStyle>
    <LineStyle>
      <color>FFFF0000</color>
      <width>1</width>
    </LineStyle>
    <PolyStyle>
      <color>40ffffff</color>
      <fill>1</fill>
    </PolyStyle>
  </Style>
  <Style id="s_FFFF0000_hl">
    <IconStyle>
      <scale>1.3</scale>
      <Icon>
        <href>http://maps.google.com/mapfiles/kml/pushpin/agrocad.png</href>
      </Icon>
      <hotSpot x="20" y="2" xunits="pixels" yunits="pixels"/>
    </IconStyle>
    <LineStyle>
      <color>ff000000</color>
      <width>1</width>
    </LineStyle>
    <PolyStyle>
      <color>40ffffff</color>
      <fill>1</fill>
    </PolyStyle>
  </Style>
  <Placemark>
    <name>AgroCAD: 1C012</name>
    <styleUrl>FFFF0000</styleUrl>
    <Polygon>
      <outerBoundaryIs>
        <LinearRing>
          <coordinates>
           -36.21349293945306,-9.83764237955511 -36.21430428445299,-9.83674606677755 -36.21504433917522,-9.83595171399993 -36.21538941778633,-9.83557794149997 -36.21749097667521,-9.83791103122221 -36.21730709667521,-9.83802833677775 -36.21717664028630,-9.83811350177779 -36.21652438028626,-9.83855343649984 -36.21621897417527,-9.83876394816646 -36.21572140250855,-9.83915149677747 -36.21544391250854,-9.83937534483300 -36.21511917139741,-9.83966434261070 -36.21483733778631,-9.83992726483283 -36.21466798695300,-9.84010568594395 -36.21458195667520,-9.84020772427723 -36.21456540937800,-9.84023040021345 -36.21439419689648,-9.84036682033665 -36.21436756060899,-9.84046145667948 -36.21434855695299,-9.84044302899937 -36.21406205278637,-9.84012624622161 -36.21366254445307,-9.83968234177714 -36.21299877028633,-9.83894651122162 -36.21269269056411,-9.83861071372165 -36.21289533389754,-9.83837597955495 -36.21349293945306,-9.83764237955511 -36.21349293945306,-9.83764237955511 -36.21349293945306,-9.83764237955511
          </coordinates>
        </LinearRing>
      </outerBoundaryIs>
    </Polygon>
  </Placemark>
</Document>
</kml>
