<?xml version="1.0" encoding="UTF-8"?>
<kml xmlns="http://www.opengis.net/kml/2.2" xmlns:gx="http://www.google.com/kml/ext/2.2" xmlns:kml="http://www.opengis.net/kml/2.2" xmlns:atom="http://www.w3.org/2005/Atom">
<Document>
  <name>02.kml</name>
  <StyleMap id="FFFF0000">
    <Pair>
      <key>normal</key>
      <styleUrl>#s_FFFF0000</styleUrl>
    </Pair>
    <Pair>
      <key>highlight</key>
      <styleUrl>#s_FFFF0000_hl</styleUrl>
    </Pair>
  </StyleMap>
  <Style id="s_FFFF0000">
   <IconStyle>
      <scale>1.1</scale>
      <Icon>
        <href>http://maps.google.com/mapfiles/kml/pushpin/agrocad.png</href>
      </Icon>
      <hotSpot x="20" y="2" xunits="pixels" yunits="pixels"/>
    </IconStyle>
    <LineStyle>
      <color>FFFF0000</color>
      <width>1</width>
    </LineStyle>
    <PolyStyle>
      <color>40ffffff</color>
      <fill>1</fill>
    </PolyStyle>
  </Style>
  <Style id="s_FFFF0000_hl">
    <IconStyle>
      <scale>1.3</scale>
      <Icon>
        <href>http://maps.google.com/mapfiles/kml/pushpin/agrocad.png</href>
      </Icon>
      <hotSpot x="20" y="2" xunits="pixels" yunits="pixels"/>
    </IconStyle>
    <LineStyle>
      <color>ff000000</color>
      <width>1</width>
    </LineStyle>
    <PolyStyle>
      <color>40ffffff</color>
      <fill>1</fill>
    </PolyStyle>
  </Style>
  <Placemark>
    <name>AgroCAD: 1BFF9</name>
    <styleUrl>FFFF0000</styleUrl>
    <Polygon>
      <outerBoundaryIs>
        <LinearRing>
          <coordinates>
           -36.19641430725169,-9.86346180154815 -36.19643728530719,-9.86344663099259 -36.19646071641829,-9.86343129932593 -36.19648507114059,-9.86341417321482 -36.19650446614050,-9.86339501043708 -36.19652781725169,-9.86338189710372 -36.19655190502940,-9.86336633460371 -36.19657340752939,-9.86335120488152 -36.19659445808500,-9.86333726210375 -36.19661382336280,-9.86332249154819 -36.19663538947391,-9.86330569265930 -36.19665086280721,-9.86328070515932 -36.19667976364050,-9.86323297099264 -36.19669320419611,-9.86320502127040 -36.19670345864050,-9.86317487238155 -36.19671060114050,-9.86314351099267 -36.19671278530720,-9.86311170515930 -36.19671138834930,-9.86308199820736 -36.19670619334210,-9.86304940788390 -36.19669901973090,-9.86301946621720 -36.19669086667541,-9.86298954760615 -36.19668133000871,-9.86295904538395 -36.19667090806430,-9.86293043982832 -36.19666314417540,-9.86290407260614 -36.19665738834211,-9.86287475343947 -36.19665241057020,-9.86284726624991 -36.19665106141829,-9.86282005488157 -36.19665433697390,-9.86279221710376 -36.19666239336280,-9.86276403543711 -36.19667309030720,-9.86273451627046 -36.19668755530720,-9.86270757182601 -36.19670370086281,-9.86267974793712 -36.19672128530720,-9.86265361599269 -36.19674122864051,-9.86262940599269 -36.19676318002941,-9.86260677599271 -36.19678848447390,-9.86258569960383 -36.19681368141831,-9.86256226154824 -36.19684012197391,-9.86254032321490 -36.19686779669611,-9.86251854988159 -36.19689522864051,-9.86249717599269 -36.19692268502941,-9.86247627988161 -36.19694800669612,-9.86245628321493 -36.19697104669612,-9.86243641488161 -36.19699307891831,-9.86241629682607 -36.19701543280721,-9.86239535238159 -36.19703802475161,-9.86237359404829 -36.19706078864052,-9.86235115849272 -36.19708122919602,-9.86232668377051 -36.19709845002942,-9.86230144321496 -36.19711581252941,-9.86227856543715 -36.19713483891832,-9.86225525682609 -36.19715332058492,-9.86223182127054 -36.19717116502941,-9.86220919988162 -36.19718810475163,-9.86218686099276 -36.19720367780722,-9.86216455960387 -36.19721863114052,-9.86214272404832 -36.19723332364053,-9.86212149543723 -36.19724826947382,-9.86210079127053 -36.19726315558491,-9.86207982293721 -36.19727852197382,-9.86205800571501 -36.19729296280712,-9.86203403321502 -36.19730778641822,-9.86201234432614 -36.19732359558493,-9.86199026710386 -36.19734130725163,-9.86196827960389 -36.19735705475162,-9.86194437627057 -36.19737438030713,-9.86192382127059 -36.19739306641822,-9.86190265265944 -36.19741118586272,-9.86187937932614 -36.19742911447382,-9.86185671043723 -36.19744654030714,-9.86183454988171 -36.19746409641823,-9.86181298404836 -36.19748238225163,-9.86179095293726 -36.19749837836273,-9.86176782182616 -36.19751641919604,-9.86174444988171 -36.19753200530714,-9.86171467488170 -36.19782041169604,-9.86202524821506 -36.19898404530708,-9.86341389682617 -36.19900747197370,-9.86344185349285 -36.19902267706289,-9.86345999882335 -36.19575136750877,-9.86552057038356 -36.19573517528646,-9.86550574621690 -36.19570054084207,-9.86550032982795 -36.19566253139768,-9.86550159649467 -36.19564070278656,-9.86550370927249 -36.19561519139766,-9.86550784427238 -36.19558756639766,-9.86551575510576 -36.19556184889765,-9.86552743788356 -36.19551470556425,-9.86555334538355 -36.19549136834205,-9.86556767760569 -36.19546877361985,-9.86558217427239 -36.19544565278655,-9.86559579010570 -36.19542353389765,-9.86560885093902 -36.19538212000875,-9.86562909955011 -36.19536117973095,-9.86564150538347 -36.19533973000875,-9.86565383455015 -36.19531741278644,-9.86566654732791 -36.19529565695315,-9.86567869788344 -36.19526783167545,-9.86569176343896 -36.19524388834205,-9.86570286732785 -36.19522056417544,-9.86571697705011 -36.19519698111985,-9.86573100705019 -36.19517678473096,-9.86574640705009 -36.19515458834204,-9.86575783260568 -36.19513281973095,-9.86577182705008 -36.19511180084204,-9.86578493093898 -36.19509103417544,-9.86579862399452 -36.19507036111984,-9.86581218093899 -36.19504924028654,-9.86582613482788 -36.19502815973093,-9.86583957843895 -36.19500720556434,-9.86585187232783 -36.19498610223093,-9.86586367149455 -36.19496462723094,-9.86587617621668 -36.19494649695314,-9.86588964427233 -36.19492762695323,-9.86590042038337 -36.19490816195313,-9.86591128482784 -36.19488858334203,-9.86592242482785 -36.19486856473093,-9.86593412288335 -36.19484810361984,-9.86594701371669 -36.19482732139764,-9.86596036399447 -36.19480651417542,-9.86597465732780 -36.19478604167543,-9.86598847121673 -36.19476701139764,-9.86600147927221 -36.19474809139763,-9.86601361093894 -36.19472949417544,-9.86602601649444 -36.19471000167543,-9.86603839232776 -36.19469122750873,-9.86605068010560 -36.19467367806432,-9.86606288121669 -36.19465512917543,-9.86607377149442 -36.19463640584213,-9.86608542871663 -36.19461758889762,-9.86609642482778 -36.19459788334211,-9.86610839649450 -36.19458038834212,-9.86612100677223 -36.19456221028653,-9.86613262149439 -36.19454288861982,-9.86614534343880 -36.19450656278651,-9.86617089093884 -36.19448853695321,-9.86618380177223 -36.19447044445322,-9.86619609371658 -36.19445281389762,-9.86620784371660 -36.19443511584212,-9.86622003816112 -36.19441778111982,-9.86623131149438 -36.19440032139762,-9.86624261177217 -36.19438395556431,-9.86625377593884 -36.19436763250871,-9.86626493288333 -36.19435031806431,-9.86627667954994 -36.19431623389761,-9.86630110121658 -36.19430027584211,-9.86631248010553 -36.19427391334211,-9.86632904121657 -36.19426215334211,-9.86633501899437 -36.19424746056431,-9.86634193204987 -36.19423528167541,-9.86634811121662 -36.19422114834212,-9.86635101204995 -36.19420804250881,-9.86634930288330 -36.19419316611981,-9.86634108149440 -36.19417821361989,-9.86632578704996 -36.19416704473100,-9.86630914038327 -36.19415802723100,-9.86628723399436 -36.19414955945320,-9.86626436843886 -36.19414499667541,-9.86624035510546 -36.19413877028650,-9.86621332621661 -36.19413327250880,-9.86618746038322 -36.19412814334211,-9.86615916704989 -36.19412368028651,-9.86612936704996 -36.19411978195320,-9.86609959649435 -36.19411541139760,-9.86606982538331 -36.19411062584209,-9.86604002649441 -36.19409959611990,-9.86598118677211 -36.19409412000870,-9.86595436288325 -36.19409030056430,-9.86592748260554 -36.19408678250870,-9.86590142899436 -36.19408370778650,-9.86587510760555 -36.19408032195320,-9.86584886232774 -36.19407698669621,-9.86582287377000 -36.19407543806799,-9.86579587874905 -36.19407226861991,-9.86576785677222 -36.19406835389759,-9.86574052843887 -36.19406234167539,-9.86571673066107 -36.19405845500931,-9.86569468983060 -36.19405706556470,-9.86567218594028 -36.19404932861990,-9.86564714566108 -36.19404582973100,-9.86562627093885 -36.19404362611990,-9.86560396260548 -36.19404053500879,-9.86558113232774 -36.19403656250869,-9.86555821705002 -36.19403319223100,-9.86553554649447 -36.19403036139759,-9.86551029899442 -36.19402666139770,-9.86548474371667 -36.19402314667541,-9.86545938927222 -36.19401970142430,-9.86543505473802 -36.19402075892380,-9.86540904224831 -36.19401660917539,-9.86537764510550 -36.19401393558860,-9.86535125506738 -36.19401493809258,-9.86532480357337 -36.19400963139760,-9.86529956010556 -36.19400828306429,-9.86527834288341 -36.19400539917539,-9.86525359371669 -36.19400317695320,-9.86522935066106 -36.19400105362899,-9.86520422437967 -36.19399963723650,-9.86517719820063 -36.19399556530260,-9.86514814049801 -36.19399497780730,-9.86512128238112 -36.19399605030740,-9.86509399238118 -36.19400390169620,-9.86503924349226 -36.19401341336290,-9.86501480793671 -36.19402537586289,-9.86499118182561 -36.19404078864069,-9.86496945960339 -36.19405813197400,-9.86495074210339 -36.19407772502960,-9.86493500599228 -36.19410146752959,-9.86492325793673 -36.19412606002951,-9.86491089988116 -36.19415106447400,-9.86490086543673 -36.19417745502950,-9.86489344071453 -36.19420547141840,-9.86488756793673 -36.19423462419621,-9.86488264571451 -36.19426531252950,-9.86487844099230 -36.19429662058511,-9.86487416793674 -36.19432846558510,-9.86487056765897 -36.19436024919621,-9.86486641182564 -36.19439550391841,-9.86486293738120 -36.19443004114060,-9.86485353210339 -36.19446307752951,-9.86484485182565 -36.19449564419622,-9.86483525043677 -36.19452675225172,-9.86482390460344 -36.19455596975173,-9.86481244293677 -36.19458432002951,-9.86480185765899 -36.19461376030732,-9.86479137349233 -36.19464006141841,-9.86477870293678 -36.19466685058512,-9.86476936265901 -36.19469587225172,-9.86476037127011 -36.19472299419623,-9.86474801682569 -36.19474919891842,-9.86473670099235 -36.19477928697392,-9.86472691460348 -36.19480788141843,-9.86471472071458 -36.19483548086282,-9.86470112543682 -36.19486237836283,-9.86468671210348 -36.19488760475173,-9.86467150765902 -36.19491099308503,-9.86465719821462 -36.19493551086284,-9.86464447015905 -36.19495954725173,-9.86463133099238 -36.19498397225174,-9.86461846293684 -36.19500739780723,-9.86460510265908 -36.19503296447393,-9.86459458988127 -36.19508170864064,-9.86456453960350 -36.19510605086284,-9.86455119599242 -36.19513144502955,-9.86453622349240 -36.19515700391834,-9.86451978877020 -36.19518127947394,-9.86450185265906 -36.19520766586284,-9.86448337543684 -36.19523145558505,-9.86446207154797 -36.19525773641834,-9.86444384515909 -36.19528448808504,-9.86442320043686 -36.19531005086285,-9.86440263682576 -36.19533542725174,-9.86438212543689 -36.19536079558505,-9.86436230849244 -36.19538320752945,-9.86434227627023 -36.19540809391835,-9.86432655377024 -36.19543185530726,-9.86430808182577 -36.19545470502945,-9.86428953349245 -36.19547711086286,-9.86427069015910 -36.19550055780725,-9.86425158599245 -36.19552381225166,-9.86423173793693 -36.19554642419616,-9.86421155877026 -36.19556925475176,-9.86419148071469 -36.19559321919616,-9.86417039043691 -36.19561842530726,-9.86414706349248 -36.19564345752946,-9.86412252543693 -36.19566787114056,-9.86409692988139 -36.19569039197396,-9.86407011682583 -36.19571193502945,-9.86404408904803 -36.19573240475168,-9.86401896738139 -36.19575156169616,-9.86399637543696 -36.19577257558506,-9.86397590543695 -36.19579072475167,-9.86395236404805 -36.19580980252948,-9.86392994793695 -36.19582959030728,-9.86390783932584 -36.19585073002948,-9.86388602682584 -36.19587278225167,-9.86386486321474 -36.19589528225168,-9.86384423127028 -36.19592095364057,-9.86382313071474 -36.19595022641838,-9.86379595849253 -36.19597936864057,-9.86377127182590 -36.19600760225168,-9.86374700099255 -36.19603470641838,-9.86372417988145 -36.19606114947387,-9.86370308127033 -36.19608785364057,-9.86368118154808 -36.19611473475167,-9.86366024904810 -36.19614279725168,-9.86364103904814 -36.19617329114058,-9.86362259932589 -36.19620272891828,-9.86360251293699 -36.19623162864058,-9.86358344765927 -36.19625993558499,-9.86356492265927 -36.19628786808498,-9.86354671710370 -36.19631525891839,-9.86352827015925 -36.19634132530720,-9.86351051904816 -36.19636614725168,-9.86349326293705 -36.19639046058498,-9.86347727432592 -36.19641430725169,-9.86346180154815 -36.19641430725169,-9.86346180154815 -36.19641430725169,-9.86346180154815
          </coordinates>
        </LinearRing>
      </outerBoundaryIs>
    </Polygon>
  </Placemark>
</Document>
</kml>
