<?xml version="1.0" encoding="UTF-8"?>
<kml xmlns="http://www.opengis.net/kml/2.2" xmlns:gx="http://www.google.com/kml/ext/2.2" xmlns:kml="http://www.opengis.net/kml/2.2" xmlns:atom="http://www.w3.org/2005/Atom">
<Document>
  <name>56.kml</name>
  <StyleMap id="FFFF4000">
    <Pair>
      <key>normal</key>
      <styleUrl>#s_FFFF4000</styleUrl>
    </Pair>
    <Pair>
      <key>highlight</key>
      <styleUrl>#s_FFFF4000_hl</styleUrl>
    </Pair>
  </StyleMap>
  <Style id="s_FFFF4000">
   <IconStyle>
      <scale>1.1</scale>
      <Icon>
        <href>http://maps.google.com/mapfiles/kml/pushpin/agrocad.png</href>
      </Icon>
      <hotSpot x="20" y="2" xunits="pixels" yunits="pixels"/>
    </IconStyle>
    <LineStyle>
      <color>FFFF4000</color>
      <width>1</width>
    </LineStyle>
    <PolyStyle>
      <color>40ffffff</color>
      <fill>1</fill>
    </PolyStyle>
  </Style>
  <Style id="s_FFFF4000_hl">
    <IconStyle>
      <scale>1.3</scale>
      <Icon>
        <href>http://maps.google.com/mapfiles/kml/pushpin/agrocad.png</href>
      </Icon>
      <hotSpot x="20" y="2" xunits="pixels" yunits="pixels"/>
    </IconStyle>
    <LineStyle>
      <color>ff000000</color>
      <width>1</width>
    </LineStyle>
    <PolyStyle>
      <color>40ffffff</color>
      <fill>1</fill>
    </PolyStyle>
  </Style>
  <Placemark>
    <name>AgroCAD: 1A09E</name>
    <styleUrl>FFFF4000</styleUrl>
    <Polygon>
      <outerBoundaryIs>
        <LinearRing>
          <coordinates>
           -36.33335833337226,-9.74839999966820 -36.33334000003892,-9.74811833300155 -36.33334666670559,-9.74811666633487 -36.33337500003892,-9.74811999966820 -36.33338500003892,-9.74812499966821 -36.33340833337225,-9.74813333300154 -36.33343500003891,-9.74814166633488 -36.33346000003891,-9.74814999966822 -36.33349500003892,-9.74815499966821 -36.33353166670558,-9.74816499966822 -36.33354500003890,-9.74816666633489 -36.33359500003890,-9.74818166633488 -36.33362166670557,-9.74819166633488 -36.33363333337224,-9.74819833300155 -36.33364666670557,-9.74820166633488 -36.33367166670556,-9.74821166633488 -36.33369666670556,-9.74821999966822 -36.33371000003889,-9.74822166633489 -36.33372166670556,-9.74822499966821 -36.33373500003890,-9.74822666633489 -36.33376000003889,-9.74823166633489 -36.33378166670555,-9.74824166633488 -36.33380666670555,-9.74824999966821 -36.33383166670556,-9.74825999966823 -36.33384500003888,-9.74826333300156 -36.33385666670554,-9.74826833300156 -36.33388000003888,-9.74827499966822 -36.33392333337222,-9.74828166633488 -36.33396333337221,-9.74829166633490 -36.33397333337221,-9.74829666633490 -36.33398500003887,-9.74829999966822 -36.33402333337220,-9.74830833300156 -36.33403500003886,-9.74831333300157 -36.33406000003887,-9.74831999966824 -36.33407500003886,-9.74832166633490 -36.33411166670553,-9.74833333300156 -36.33414166670553,-9.74834166633490 -36.33415666670553,-9.74834833300156 -36.33418333337220,-9.74837166633489 -36.33419833337219,-9.74839499966824 -36.33420000003886,-9.74840833300158 -36.33421500003886,-9.74844333300156 -36.33421833337218,-9.74845833300157 -36.33423666670552,-9.74850333300156 -36.33425500003885,-9.74854499966823 -36.33426500003884,-9.74857666633490 -36.33427166670553,-9.74859166633489 -36.33427500003885,-9.74860666633489 -36.33428000003885,-9.74862166633490 -36.33428666670552,-9.74863666633491 -36.33429500003884,-9.74864999966824 -36.33431000003885,-9.74869166633489 -36.33431333337217,-9.74870666633489 -36.33432833337217,-9.74874999966823 -36.33433666670550,-9.74876333300156 -36.33435666670551,-9.74880499966823 -36.33438000003884,-9.74885499966823 -36.33438666670551,-9.74887999966823 -36.33440000003883,-9.74892166633489 -36.33441500003884,-9.74897166633490 -36.33442166670550,-9.74900166633489 -36.33442833337217,-9.74901666633489 -36.33443833337217,-9.74904666633488 -36.33444500003883,-9.74906166633488 -36.33444666670551,-9.74907499966823 -36.33445666670551,-9.74909833300156 -36.33447166670550,-9.74914666633489 -36.33447666670549,-9.74917333300156 -36.33448166670550,-9.74918833300155 -36.33448500003883,-9.74920333300155 -36.33450000003885,-9.74924999966822 -36.33450333337217,-9.74926499966822 -36.33451666670549,-9.74929666633489 -36.33453833337215,-9.74935333300155 -36.33454666670548,-9.74936333300155 -36.33455166670549,-9.74937499966822 -36.33457000003883,-9.74939833300155 -36.33458000003882,-9.74940833300156 -36.33458666670550,-9.74941999966822 -36.33458500003882,-9.74943333300155 -36.33458500003882,-9.74944999966822 -36.33459500003883,-9.74947499966822 -36.33460166670549,-9.74950333300154 -36.33460666670548,-9.74951499966823 -36.33461000003882,-9.74952833300155 -36.33463000003882,-9.74958499966821 -36.33464333337216,-9.74961499966821 -36.33464666670548,-9.74962666633488 -36.33466500003883,-9.74966833300154 -36.33466833337215,-9.74968333300155 -36.33467333337215,-9.74969833300154 -36.33468000003882,-9.74970999966821 -36.33470000003882,-9.74975333300155 -36.33470833337215,-9.74978499966821 -36.33472000003881,-9.74981166633487 -36.33474833337215,-9.74989166633488 -36.33475166670547,-9.74991666633488 -36.33476166670547,-9.74993999966820 -36.33479000003880,-9.74999166633488 -36.33480166670546,-9.75003166633487 -36.33481166670547,-9.75006166633487 -36.33481833337214,-9.75007333300153 -36.33483333337214,-9.75011499966821 -36.33484166670546,-9.75014333300154 -36.33485500003879,-9.75018333300153 -36.33486166670547,-9.75019666633487 -36.33486500003880,-9.75021166633487 -36.33487000003881,-9.75022666633487 -36.33487666670547,-9.75024166633487 -36.33488000003880,-9.75025499966821 -36.33488666670546,-9.75026999966821 -36.33489500003879,-9.75029666633487 -36.33490500003880,-9.75032333300154 -36.33491166670548,-9.75033499966821 -36.33491500003880,-9.75034999966821 -36.33493000003880,-9.75040333300154 -36.33495000003879,-9.75044499966820 -36.33495500003879,-9.75045999966820 -36.33496166670546,-9.75047166633486 -36.33497500003879,-9.75050166633488 -36.33497833337212,-9.75051499966820 -36.33498500003878,-9.75052999966819 -36.33499000003878,-9.75054666633487 -36.33499833337213,-9.75055666633486 -36.33501000003880,-9.75058333300153 -36.33501833337211,-9.75061499966821 -36.33502666670545,-9.75064166633487 -36.33503333337211,-9.75066666633487 -36.33505166670545,-9.75071666633487 -36.33505500003880,-9.75072999966821 -36.33506833337211,-9.75075333300153 -36.33507166670545,-9.75076499966819 -36.33508666670545,-9.75080333300153 -36.33509000003878,-9.75081666633487 -36.33510000003879,-9.75084333300153 -36.33510333337212,-9.75085833300153 -36.33511000003878,-9.75087166633487 -36.33511333337211,-9.75088666633486 -36.33513833337211,-9.75094333300153 -36.33514666670544,-9.75096999966820 -36.33515833337211,-9.75099499966820 -36.33517166670543,-9.75101833300153 -36.33518000003877,-9.75104333300153 -36.33518333337211,-9.75105833300153 -36.33518833337211,-9.75107333300153 -36.33519500003878,-9.75108833300154 -36.33520166670544,-9.75111666633486 -36.33522166670544,-9.75115499966820 -36.33523000003876,-9.75118166633486 -36.33524000003877,-9.75122333300153 -36.33525666670543,-9.75126333300152 -36.33527000003877,-9.75129666633486 -36.33529000003877,-9.75133833300152 -36.33529333337210,-9.75135166633484 -36.33530666670542,-9.75139166633486 -36.33532000003877,-9.75141499966819 -36.33532166670543,-9.75142833300151 -36.33532166670543,-9.75144333300151 -36.33532333337210,-9.75145833300152 -36.33534333337209,-9.75150166633485 -36.33536166670543,-9.75155666633484 -36.33538166670542,-9.75159499966819 -36.33539333337207,-9.75162333300152 -36.33540000003876,-9.75163499966818 -36.33541833337209,-9.75167333300153 -36.33542333337209,-9.75170999966818 -36.33543000003875,-9.75173666633484 -36.33544666670541,-9.75177666633485 -36.33545666670542,-9.75178999966819 -36.33547000003875,-9.75181833300152 -36.33548333337208,-9.75185833300152 -36.33548333337208,-9.75187333300151 -36.33548500003874,-9.75188666633484 -36.33550000003875,-9.75192666633484 -36.33550500003874,-9.75195333300151 -36.33551500003875,-9.75197833300151 -36.33553833337208,-9.75202499966819 -36.33554833337207,-9.75203833300151 -36.33556666670541,-9.75207833300150 -36.33558333337208,-9.75209999966818 -36.33559166670540,-9.75212333300152 -36.33559166670540,-9.75213999966818 -36.33558666670541,-9.75218333300151 -36.33557666670540,-9.75220833300151 -36.33557000003874,-9.75221499966817 -36.33555833337207,-9.75222166633484 -36.33554500003875,-9.75222333300152 -36.33551833337206,-9.75221666633483 -36.33547666670542,-9.75220333300150 -36.33546166670541,-9.75220166633483 -36.33545166670542,-9.75220499966817 -36.33542333337208,-9.75220499966817 -36.33540833337209,-9.75220833300150 -36.33539833337209,-9.75220166633484 -36.33538666670542,-9.75218999966818 -36.33537000003875,-9.75218166633484 -36.33534333337209,-9.75217166633484 -36.33532666670543,-9.75216833300150 -36.33531333337210,-9.75216333300150 -36.33530000003875,-9.75216166633482 -36.33528333337210,-9.75215666633483 -36.33526833337211,-9.75215499966816 -36.33525333337209,-9.75215166633482 -36.33523833337211,-9.75214999966817 -36.33522500003877,-9.75214666633483 -36.33518833337209,-9.75213166633482 -36.33515000003877,-9.75212333300149 -36.33513666670545,-9.75211833300148 -36.33509833337212,-9.75210833300149 -36.33507333337211,-9.75210666633482 -36.33505833337212,-9.75210333300149 -36.33504333337212,-9.75209666633483 -36.33503000003877,-9.75209333300149 -36.33500666670545,-9.75208333300149 -36.33497833337211,-9.75207666633482 -36.33496333337213,-9.75207499966815 -36.33493666670544,-9.75206333300149 -36.33492500003880,-9.75205999966815 -36.33491000003879,-9.75205333300148 -36.33489500003878,-9.75205166633481 -36.33486833337212,-9.75204499966816 -36.33484166670545,-9.75203499966815 -36.33481000003880,-9.75202999966814 -36.33478666670547,-9.75202333300147 -36.33475833337214,-9.75202166633481 -36.33474500003881,-9.75201499966814 -36.33470333337214,-9.75199999966813 -36.33467666670546,-9.75199499966814 -36.33463166670548,-9.75197999966813 -36.33460000003881,-9.75197499966814 -36.33458333337215,-9.75196833300147 -36.33456833337214,-9.75195999966813 -36.33455333337215,-9.75195499966813 -36.33453666670548,-9.75195166633482 -36.33452333337214,-9.75194666633480 -36.33450833337215,-9.75194333300147 -36.33449500003882,-9.75193833300148 -36.33446833337216,-9.75192499966813 -36.33444833337215,-9.75191833300146 -36.33443666670550,-9.75191833300146 -36.33442333337216,-9.75191499966813 -36.33439833337217,-9.75190833300146 -36.33437166670551,-9.75190333300146 -36.33436166670550,-9.75189833300145 -36.33433666670550,-9.75189499966813 -36.33432666670551,-9.75189166633479 -36.33429000003884,-9.75188499966813 -36.33427833337218,-9.75187999966813 -36.33424166670551,-9.75186666633478 -36.33422666670552,-9.75186499966812 -36.33421166670551,-9.75186499966813 -36.33416500003884,-9.75185499966812 -36.33415166670552,-9.75184999966811 -36.33412500003885,-9.75184333300145 -36.33409666670552,-9.75183999966811 -36.33407000003885,-9.75182999966811 -36.33405500003886,-9.75182666633478 -36.33402666670553,-9.75181499966811 -36.33400000003886,-9.75180833300146 -36.33396000003887,-9.75179166633478 -36.33394500003887,-9.75178999966811 -36.33391500003887,-9.75178333300144 -36.33389833337220,-9.75178166633478 -36.33386333337220,-9.75177499966811 -36.33384833337222,-9.75176833300144 -36.33380833337220,-9.75175666633478 -36.33378000003888,-9.75174999966810 -36.33374000003887,-9.75173666633477 -36.33371333337222,-9.75172666633476 -36.33369666670554,-9.75172499966811 -36.33368166670555,-9.75171999966811 -36.33365833337222,-9.75170833300144 -36.33363500003888,-9.75169833300144 -36.33359500003889,-9.75168833300144 -36.33355333337223,-9.75167666633476 -36.33354166670556,-9.75166999966809 -36.33351166670556,-9.75165666633476 -36.33346500003891,-9.75164333300143 -36.33339666670557,-9.75162666633477 -36.33338333337224,-9.75162166633476 -36.33332833337225,-9.75160666633476 -36.33331333337225,-9.75160333300142 -36.33330000003891,-9.75159833300142 -36.33327333337226,-9.75159166633475 -36.33325333337225,-9.75158166633475 -36.33324500003892,-9.75157999966809 -36.33324166670558,-9.75157333300142 -36.33324500003892,-9.75153999966808 -36.33324000003892,-9.75151333300142 -36.33323333337225,-9.75149833300143 -36.33323500003891,-9.75149166633476 -36.33323166670559,-9.75148166633475 -36.33323333337225,-9.75147166633476 -36.33324000003892,-9.75144833300143 -36.33324000003892,-9.75143833300143 -36.33324333337226,-9.75141499966809 -36.33324833337225,-9.75140666633475 -36.33325166670559,-9.75139499966810 -36.33325666670558,-9.75138666633476 -36.33326333337225,-9.75136499966809 -36.33327000003891,-9.75130999966809 -36.33327500003892,-9.75129833300143 -36.33327666670558,-9.75128499966810 -36.33328000003891,-9.75127333300143 -36.33328666670558,-9.75122166633478 -36.33328500003892,-9.75120833300144 -36.33328500003892,-9.75113499966811 -36.33329000003892,-9.75112166633477 -36.33330000003892,-9.75107499966811 -36.33330166670558,-9.75105666633477 -36.33330500003892,-9.75103833300144 -36.33330500003892,-9.75100666633478 -36.33330333337225,-9.75099166633478 -36.33330333337225,-9.75097666633477 -36.33330500003893,-9.75094999966811 -36.33330333337225,-9.75093499966811 -36.33330333337225,-9.75090499966811 -36.33330500003892,-9.75088999966811 -36.33330500003892,-9.75077333300146 -36.33331000003892,-9.75071999966812 -36.33331500003893,-9.75069166633477 -36.33331500003892,-9.75065999966811 -36.33331166670560,-9.75064666633480 -36.33330666670558,-9.75061833300145 -36.33330666670558,-9.75060166633478 -36.33330833337226,-9.75058666633479 -36.33330833337226,-9.75056999966812 -36.33330666670558,-9.75055333300147 -36.33331000003891,-9.75052166633479 -36.33331333337226,-9.75050499966813 -36.33331333337226,-9.75044833300146 -36.33331166670560,-9.75043333300145 -36.33331666670559,-9.75038666633479 -36.33331500003893,-9.75037333300147 -36.33331666670559,-9.75035833300146 -36.33331666670559,-9.75033166633480 -36.33332000003892,-9.75031999966814 -36.33332166670558,-9.75029166633480 -36.33332500003891,-9.75027666633480 -36.33332833337225,-9.75023499966813 -36.33332500003891,-9.75020499966814 -36.33332500003892,-9.75011333300148 -36.33332166670558,-9.75008166633481 -36.33332333337225,-9.75006499966814 -36.33332333337225,-9.75004999966814 -36.33332666670559,-9.75003333300148 -36.33332833337225,-9.75001666633481 -36.33332833337225,-9.75000166633480 -36.33333166670559,-9.74996999966814 -36.33333166670559,-9.74995166633482 -36.33333333337225,-9.74993666633482 -36.33333166670559,-9.74991999966814 -36.33332833337225,-9.74990666633482 -36.33332833337225,-9.74989166633482 -36.33332333337225,-9.74984666633482 -36.33332000003892,-9.74983166633481 -36.33332000003892,-9.74981499966814 -36.33331833337225,-9.74979833300148 -36.33332000003892,-9.74978166633481 -36.33331833337225,-9.74976999966816 -36.33332333337224,-9.74974999966815 -36.33332500003891,-9.74972333300149 -36.33332500003892,-9.74970833300149 -36.33332666670559,-9.74969333300149 -36.33332833337225,-9.74966333300149 -36.33333166670559,-9.74964833300149 -36.33333000003892,-9.74963166633482 -36.33333000003892,-9.74958666633483 -36.33333166670559,-9.74955833300149 -36.33333166670559,-9.74954333300150 -36.33333500003892,-9.74951166633483 -36.33333500003892,-9.74946833300150 -36.33333666670559,-9.74945333300150 -36.33333666670559,-9.74938499966816 -36.33333500003892,-9.74936833300150 -36.33333500003892,-9.74935333300150 -36.33333666670559,-9.74933999966816 -36.33333500003892,-9.74932333300150 -36.33333500003892,-9.74923666633483 -36.33333833337225,-9.74920999966817 -36.33333666670559,-9.74919499966816 -36.33333833337226,-9.74918166633483 -36.33333500003892,-9.74915333300150 -36.33333666670559,-9.74912499966817 -36.33333666670559,-9.74910999966818 -36.33333833337225,-9.74909666633484 -36.33333833337225,-9.74908166633484 -36.33334166670559,-9.74905166633485 -36.33334166670559,-9.74894666633483 -36.33334000003892,-9.74892166633485 -36.33333666670559,-9.74887833300151 -36.33333333337225,-9.74886166633484 -36.33333333337225,-9.74883499966818 -36.33333666670559,-9.74880666633484 -36.33334666670558,-9.74877999966818 -36.33335000003892,-9.74875166633485 -36.33334833337225,-9.74869666633486 -36.33334500003892,-9.74866999966820 -36.33334666670558,-9.74865499966819 -36.33334666670558,-9.74857499966818 -36.33335000003892,-9.74854666633486 -36.33335000003892,-9.74853166633487 -36.33335166670558,-9.74851666633486 -36.33335000003891,-9.74850333300153 -36.33335166670559,-9.74847499966819 -36.33334833337225,-9.74845999966819 -36.33334666670558,-9.74841999966820 -36.33335166670559,-9.74840833300154 -36.33335833337226,-9.74839999966820 -36.33335833337226,-9.74839999966820 -36.33335833337226,-9.74839999966820
          </coordinates>
        </LinearRing>
      </outerBoundaryIs>
    </Polygon>
  </Placemark>
</Document>
</kml>
