<?xml version="1.0" encoding="UTF-8"?>
<kml xmlns="http://www.opengis.net/kml/2.2" xmlns:gx="http://www.google.com/kml/ext/2.2" xmlns:kml="http://www.opengis.net/kml/2.2" xmlns:atom="http://www.w3.org/2005/Atom">
<Document>
  <name>28.kml</name>
  <StyleMap id="FFFF0000">
    <Pair>
      <key>normal</key>
      <styleUrl>#s_FFFF0000</styleUrl>
    </Pair>
    <Pair>
      <key>highlight</key>
      <styleUrl>#s_FFFF0000_hl</styleUrl>
    </Pair>
  </StyleMap>
  <Style id="s_FFFF0000">
   <IconStyle>
      <scale>1.1</scale>
      <Icon>
        <href>http://maps.google.com/mapfiles/kml/pushpin/agrocad.png</href>
      </Icon>
      <hotSpot x="20" y="2" xunits="pixels" yunits="pixels"/>
    </IconStyle>
    <LineStyle>
      <color>FFFF0000</color>
      <width>1</width>
    </LineStyle>
    <PolyStyle>
      <color>40ffffff</color>
      <fill>1</fill>
    </PolyStyle>
  </Style>
  <Style id="s_FFFF0000_hl">
    <IconStyle>
      <scale>1.3</scale>
      <Icon>
        <href>http://maps.google.com/mapfiles/kml/pushpin/agrocad.png</href>
      </Icon>
      <hotSpot x="20" y="2" xunits="pixels" yunits="pixels"/>
    </IconStyle>
    <LineStyle>
      <color>ff000000</color>
      <width>1</width>
    </LineStyle>
    <PolyStyle>
      <color>40ffffff</color>
      <fill>1</fill>
    </PolyStyle>
  </Style>
  <Placemark>
    <name>AgroCAD: 10234</name>
    <styleUrl>FFFF0000</styleUrl>
    <Polygon>
      <outerBoundaryIs>
        <LinearRing>
          <coordinates>
           -36.39430395326114,-9.81270481334212 -36.39430026522375,-9.81262254496249 -36.39430068431890,-9.81258147363697 -36.39429959467150,-9.81253939648302 -36.39429020693994,-9.81246525854948 -36.39428928493059,-9.81243290440326 -36.39427989719904,-9.81231983252944 -36.39427520333327,-9.81228412562194 -36.39426858162976,-9.81224837680490 -36.39426028354562,-9.81221241844031 -36.39425500294662,-9.81217595716153 -36.39424880033827,-9.81213932824467 -36.39424134044445,-9.81211053640727 -36.39423463492191,-9.81207684115651 -36.39422172679103,-9.81200764854585 -36.39420655554629,-9.81193937794450 -36.39418987555897,-9.81187081397656 -36.39417621305681,-9.81180509985570 -36.39415944925046,-9.81174956974718 -36.39415064825213,-9.81172630996593 -36.39414293690121,-9.81170003269945 -36.39413279479838,-9.81167329442834 -36.39412625691391,-9.81164689143337 -36.39412441289521,-9.81162493084704 -36.39412977731323,-9.81160485618893 -36.39414981006181,-9.81159601328109 -36.39419146812059,-9.81159173851050 -36.39424460938670,-9.81158855338729 -36.39430319888985,-9.81158989449181 -36.39437276868618,-9.81158838574922 -36.39444795435764,-9.81158469771180 -36.39452490022875,-9.81158209932183 -36.39460695906080,-9.81158151258861 -36.39469128100671,-9.81157903992719 -36.39477912335195,-9.81157216676657 -36.39487249775329,-9.81156902355290 -36.39497215858201,-9.81156655089145 -36.39507500453392,-9.81156072546877 -36.39517986214259,-9.81155808516928 -36.39528790487449,-9.81155678597429 -36.39539469032089,-9.81155930054524 -36.39550541526179,-9.81156747290082 -36.39573038554292,-9.81158767328747 -36.39584446324509,-9.81159454644807 -36.39595979823273,-9.81160032996129 -36.39607613904875,-9.81160426945574 -36.39619281514091,-9.81160565246980 -36.39630806630952,-9.81160317980834 -36.39641351065141,-9.81159873739967 -36.39650948344274,-9.81159429499101 -36.39659573322637,-9.81158172213623 -36.39667485839230,-9.81157505852323 -36.39681760220334,-9.81156877209587 -36.39687275512620,-9.81156726335327 -36.39691013841435,-9.81156881400538 -36.39693193136260,-9.81157430415194 -36.39694266019866,-9.81159094222973 -36.39695131580116,-9.81160288970391 -36.39695985384868,-9.81160851087868 -36.39697308650717,-9.81160573628881 -36.39698306097195,-9.81161654894394 -36.39699772930249,-9.81165321977032 -36.39700477010116,-9.81169948787580 -36.39701516366108,-9.81175577235561 -36.39702136626943,-9.81181385894458 -36.39702673068747,-9.81187559166144 -36.39702899380132,-9.81194235352020 -36.39703536404774,-9.81201146231184 -36.39704315921767,-9.81208421723138 -36.39705053529248,-9.81215973817893 -36.39705682171985,-9.81224045590646 -36.39706428161368,-9.81232452639529 -36.39707341788813,-9.81240847115554 -36.39708188361034,-9.81249501430579 -36.39709261244641,-9.81258423966506 -36.39710141344473,-9.81267488994784 -36.39711071735725,-9.81276256465503 -36.39712211674556,-9.81284659323431 -36.39713150447712,-9.81293414221293 -36.39714273622736,-9.81302441531009 -36.39715296214923,-9.81311225765530 -36.39716151169046,-9.81319578332042 -36.39716955831751,-9.81327851270472 -36.39717978423938,-9.81335889515614 -36.39718808232352,-9.81343420655612 -36.39719604513153,-9.81351102669872 -36.39721532350883,-9.81366609190736 -36.39722387305007,-9.81374169667397 -36.39723150058195,-9.81381734335009 -36.39723745173320,-9.81389370248798 -36.39724281615125,-9.81397110936378 -36.39725027604506,-9.81404709131602 -36.39725589192018,-9.81412060060684 -36.39726217834756,-9.81419247542656 -36.39727827160166,-9.81433161501916 -36.39729805289313,-9.81445084759176 -36.39731850473687,-9.81457171463551 -36.39732604844973,-9.81463252534302 -36.39733375980064,-9.81468533133299 -36.39734155497060,-9.81473478456169 -36.39734582974121,-9.81478398633331 -36.39734909868346,-9.81483285282879 -36.39734960159763,-9.81488050394834 -36.39734641647443,-9.81492170100244 -36.39733853748545,-9.81495367796304 -36.39732361769781,-9.81498280507655 -36.39730232766375,-9.81501142927586 -36.39727265572652,-9.81503623970927 -36.39723275786745,-9.81505761356234 -36.39718908815190,-9.81507781394898 -36.39714064075159,-9.81509566740274 -36.39708900822803,-9.81511226357100 -36.39703477731451,-9.81512730908720 -36.39692966824873,-9.81515899268121 -36.39687543733522,-9.81517252945480 -36.39682095496460,-9.81518271346717 -36.39676521530851,-9.81519457386016 -36.39670704490050,-9.81520614088654 -36.39659598468347,-9.81523137041508 -36.39654200522704,-9.81523732156633 -36.39648534356159,-9.81524059050855 -36.39642524531586,-9.81524088387516 -36.39636405742271,-9.81523924940403 -36.39630370771988,-9.81523677674261 -36.39623950234157,-9.81523074177234 -36.39617621897263,-9.81522294660238 -36.39611151068014,-9.81521443897067 -36.39597672967714,-9.81519151446548 -36.39590674078565,-9.81518242010054 -36.39583683571320,-9.81517428965449 -36.39576667918365,-9.81516490192290 -36.39569962395828,-9.81515735821008 -36.39563349074226,-9.81514792856900 -36.39556760898332,-9.81513745119004 -36.39550080521504,-9.81512835682507 -36.39537918380002,-9.81510756970519 -36.39526678247849,-9.81508963243244 -36.39521238392691,-9.81508552529987 -36.39515840447048,-9.81509013534661 -36.39510744249919,-9.81510576759602 -36.39506117439368,-9.81513221250052 -36.39502538366713,-9.81516192634726 -36.39499152077832,-9.81519742370722 -36.39496310612657,-9.81523350780033 -36.39494215136864,-9.81526649058935 -36.39492563901939,-9.81530098212090 -36.39491541309752,-9.81533220471020 -36.39490426516630,-9.81535764378633 -36.39489009974995,-9.81537512005444 -36.39487509614327,-9.81538253803873 -36.39485447666147,-9.81538341813859 -36.39482907949486,-9.81537436568314 -36.39480577780406,-9.81535546449148 -36.39478331430353,-9.81533253998632 -36.39475950969853,-9.81531016030485 -36.39471609144010,-9.81526527521338 -36.39469698070087,-9.81524352417462 -36.39468122272291,-9.81522080921705 -36.39466135761239,-9.81520358440603 -36.39464073813059,-9.81519109537030 -36.39462749472358,-9.81516997297431 -36.39461517332592,-9.81514134877500 -36.39460234901406,-9.81511393995164 -36.39458172953227,-9.81505149477296 -36.39456756411590,-9.81502257720705 -36.39455155468083,-9.81499738958801 -36.39453688635029,-9.81497186669286 -36.39452364294328,-9.81494345204112 -36.39450780114628,-9.81491428301806 -36.39448408036031,-9.81488498826649 -36.39446681363977,-9.81485305321541 -36.39443655496933,-9.81477757417736 -36.39442163518167,-9.81474601631189 -36.39439908786215,-9.81468524751393 -36.39439037068286,-9.81465645567650 -36.39437519943810,-9.81459254366483 -36.39436019583142,-9.81452301577803 -36.39435281975663,-9.81448663831826 -36.39434334820606,-9.81445021894898 -36.39432373455262,-9.81434666053531 -36.39431493355430,-9.81428383817104 -36.39430965295531,-9.81426066220876 -36.39430638401306,-9.81423677378472 -36.39430596491791,-9.81418174659038 -36.39430445617534,-9.81415018872497 -36.39430143869019,-9.81411766694065 -36.39429967849052,-9.81408468415168 -36.39429506844378,-9.81402626228661 -36.39429305678702,-9.81399503969730 -36.39429406261540,-9.81393225924252 -36.39429590663410,-9.81389588178277 -36.39429364352024,-9.81385011659143 -36.39429464934862,-9.81381445159345 -36.39429096131124,-9.81372531005322 -36.39429087749220,-9.81366466698378 -36.39429263769186,-9.81362858289063 -36.39429967849052,-9.81353768115072 -36.39430177396633,-9.81349321515440 -36.39430177396633,-9.81345382020950 -36.39430277979471,-9.81341413189799 -36.39430294743276,-9.81337582660049 -36.39430529436565,-9.81330286213340 -36.39430353416599,-9.81323438198447 -36.39430420471824,-9.81315684938015 -36.39430353416598,-9.81311514941186 -36.39430562964179,-9.81307659265727 -36.39431183225013,-9.81299310890169 -36.39431233516432,-9.81295052883358 -36.39431141315496,-9.81290463791373 -36.39430956913627,-9.81286163875045 -36.39430831185079,-9.81278222021791 -36.39430663547015,-9.81274429210607 -36.39430395326114,-9.81270481334212 -36.39430395326114,-9.81270481334212
          </coordinates>
        </LinearRing>
      </outerBoundaryIs>
    </Polygon>
  </Placemark>
</Document>
</kml>
