<?xml version="1.0" encoding="utf-8" ?>
<kml xmlns="http://www.opengis.net/kml/2.2">
<Document id="root_doc">
<Schema name="JEQUIA_II_TALHAO_1064_ID_1022" id="JEQUIA_II_TALHAO_1064_ID_1022">
	<SimpleField name="TALHAO" type="string"></SimpleField>
	<SimpleField name="FAZENDA" type="string"></SimpleField>
	<SimpleField name="ZONA" type="string"></SimpleField>
	<SimpleField name="ID" type="float"></SimpleField>
	<SimpleField name="AREA_TOTAL" type="float"></SimpleField>
	<SimpleField name="FAZ_NOME" type="string"></SimpleField>
	<SimpleField name="CODE" type="string"></SimpleField>
</Schema>
<Folder><name>JEQUIA_II_TALHAO_1064_ID_1022</name>
  <Placemark id="JEQUIA_II_TALHAO_1064_ID_1022.1">
	<Style><LineStyle><color>ff0000ff</color></LineStyle><PolyStyle><fill>0</fill></PolyStyle></Style>
	<ExtendedData><SchemaData schemaUrl="#JEQUIA_II_TALHAO_1064_ID_1022">
		<SimpleData name="TALHAO">1064</SimpleData>
		<SimpleData name="FAZENDA">1924</SimpleData>
		<SimpleData name="ZONA">1</SimpleData>
		<SimpleData name="ID">1022</SimpleData>
		<SimpleData name="AREA_TOTAL">39.26</SimpleData>
		<SimpleData name="FAZ_NOME">JEQUIA II</SimpleData>
		<SimpleData name="CODE"></SimpleData>
	</SchemaData></ExtendedData>
      <MultiGeometry><Polygon><outerBoundaryIs><LinearRing><coordinates>-36.185624312229,-9.92256744051176,0 -36.1856473433902,-9.92266328578616,0 -36.1856591496189,-9.92271034344683,0 -36.1856832664658,-9.92280253918094,0 -36.1856948866139,-9.92284663018713,0 -36.1857128489621,-9.92292623174767,0 -36.1857192904663,-9.9229585443775,0 -36.1857318513971,-9.92301548547909,0 -36.1857459523107,-9.92308283591246,0 -36.1857654026192,-9.92316261612645,0 -36.1857762912009,-9.923204654004,0 -36.1857872411862,-9.9232469292621,0 -36.1858194753911,-9.92337265867847,0 -36.1858407497867,-9.92345896523072,0 -36.185861845211,-9.92354630545151,0 -36.1858963513125,-9.92368383818835,0 -36.1859083831165,-9.92373204940089,0 -36.1859334041786,-9.92382919799343,0 -36.1859708342519,-9.92397410387345,0 -36.1859942264733,-9.9240686679842,0 -36.1860150789552,-9.92416013954054,0 -36.1860352157198,-9.92424997986952,0 -36.1860451180749,-9.92429490791665,0 -36.1860653675965,-9.92438495229596,0 -36.1860751787224,-9.92443061607138,0 -36.1860849417687,-9.924477039201,0 -36.186110485119,-9.92461617453017,0 -36.1861191404306,-9.92466156374229,0 -36.1861280519587,-9.92470722191243,0 -36.1861368514368,-9.92475373700362,0 -36.1861525531142,-9.92484715033845,0 -36.186159528194,-9.92489462236008,0 -36.1861663985361,-9.92494185638622,0 -36.1861734242655,-9.92498985053991,0 -36.1861799410506,-9.92503793387825,0 -36.1861869353453,-9.92508591930007,0 -36.1861938799167,-9.92513454697217,0 -36.1862004833521,-9.92518363452799,0 -36.1862066818203,-9.9252334331772,0 -36.1862116914753,-9.92528351161266,0 -36.1862159091872,-9.92533312151867,0 -36.1862201752882,-9.92538281972214,0 -36.1862238321403,-9.92543276449109,0 -36.1862273808144,-9.92548286352905,0 -36.1862305093233,-9.92553219743446,0 -36.1862334203276,-9.92558009122849,0 -36.1862387102814,-9.92567222990966,0 -36.1862446249016,-9.92576485770585,0 -36.1862468425326,-9.92581092843773,0 -36.1862487205436,-9.9258562899442,0 -36.1862515190741,-9.92594344358383,0 -36.1862535505659,-9.9259844787705,0 -36.1862556412318,-9.92602565508838,0 -36.1862604537143,-9.92611523429355,0 -36.1862624928914,-9.92616271655034,0 -36.1862642671952,-9.92621114939235,0 -36.1862673190629,-9.92630785536319,0 -36.1862689765685,-9.92635579624575,0 -36.1862704939752,-9.92640361017189,0 -36.1862719570593,-9.92645098397256,0 -36.1862738094787,-9.92649826845882,0 -36.1862759111147,-9.92654642934748,0 -36.1862775632041,-9.92659553688405,0 -36.1862787793368,-9.92664179150407,0 -36.1890596650686,-9.92556577759925,0 -36.1900868974679,-9.91696954791383,0 -36.1849744786808,-9.91892245737945,0 -36.1849756590462,-9.91895418771569,0 -36.1849835091805,-9.91903543799137,0 -36.1849873011758,-9.91908198448572,0 -36.1849940068731,-9.91917730355525,0 -36.1850004553516,-9.91927344305461,0 -36.1850069623302,-9.91936988524764,0 -36.1850128378307,-9.91946592804995,0 -36.1850221842553,-9.91960918025408,0 -36.1850278711589,-9.91970029494709,0 -36.1850323622422,-9.91978575363756,0 -36.1850347518071,-9.91982708856139,0 -36.1850407734087,-9.91991071701833,0 -36.1850462853956,-9.91999449652549,0 -36.1850546363218,-9.92012417192783,0 -36.1850572524582,-9.92016930306865,0 -36.1850595869167,-9.92021332751449,0 -36.1850645428068,-9.92029687861016,0 -36.185071883272,-9.92038412010507,0 -36.1850764880291,-9.92043182215208,0 -36.1850801205011,-9.92047998081433,0 -36.1850833033031,-9.92052775220723,0 -36.1850887445462,-9.92062126235766,0 -36.1850956575623,-9.92071424543357,0 -36.1851042154435,-9.92080718538399,0 -36.1851086536184,-9.92085354528571,0 -36.1851130585798,-9.92089973097534,0 -36.1851174094613,-9.92094543640542,0 -36.1851265528692,-9.92103534372266,0 -36.1851371319614,-9.92112241340076,0 -36.1851432788366,-9.92116379594391,0 -36.1851509864937,-9.92120514493909,0 -36.1851606259228,-9.9212467413453,0 -36.1851723467103,-9.92128789997755,0 -36.185235113799,-9.92146523577959,0 -36.1852644531605,-9.92154845555383,0 -36.1852770182983,-9.9215852754982,0 -36.1852999532002,-9.92164761403921,0 -36.1853265809145,-9.92171226029001,0 -36.1853435852854,-9.92175035727116,0 -36.1853776005293,-9.92183223924918,0 -36.1854325375629,-9.92196234630465,0 -36.1854515416663,-9.92200832237652,0 -36.1854877039353,-9.92209960001534,0 -36.1855203953444,-9.92218907012617,0 -36.1855361107436,-9.92223574999725,0 -36.1855885909927,-9.9224227728879,0 -36.1856007087082,-9.92247117843256,0 -36.1856126545055,-9.9225190880059,0 -36.185624312229,-9.92256744051176,0</coordinates></LinearRing></outerBoundaryIs></Polygon></MultiGeometry>
  </Placemark>
</Folder>
</Document></kml>
