<?xml version="1.0" encoding="utf-8" ?>
<kml xmlns="http://www.opengis.net/kml/2.2">
<Document id="root_doc">
<Schema name="JEQUIA_II_TALHAO_1082_ID_1082" id="JEQUIA_II_TALHAO_1082_ID_1082">
	<SimpleField name="TALHAO" type="string"></SimpleField>
	<SimpleField name="FAZENDA" type="string"></SimpleField>
	<SimpleField name="ZONA" type="string"></SimpleField>
	<SimpleField name="ID" type="float"></SimpleField>
	<SimpleField name="AREA_TOTAL" type="float"></SimpleField>
	<SimpleField name="FAZ_NOME" type="string"></SimpleField>
	<SimpleField name="CODE" type="string"></SimpleField>
</Schema>
<Folder><name>JEQUIA_II_TALHAO_1082_ID_1082</name>
  <Placemark id="JEQUIA_II_TALHAO_1082_ID_1082.1">
	<Style><LineStyle><color>ff0000ff</color></LineStyle><PolyStyle><fill>0</fill></PolyStyle></Style>
	<ExtendedData><SchemaData schemaUrl="#JEQUIA_II_TALHAO_1082_ID_1082">
		<SimpleData name="TALHAO">1082</SimpleData>
		<SimpleData name="FAZENDA">1924</SimpleData>
		<SimpleData name="ZONA">1</SimpleData>
		<SimpleData name="ID">1082</SimpleData>
		<SimpleData name="AREA_TOTAL">1.05</SimpleData>
		<SimpleData name="FAZ_NOME">JEQUIA II</SimpleData>
		<SimpleData name="CODE"></SimpleData>
	</SchemaData></ExtendedData>
      <MultiGeometry><Polygon><outerBoundaryIs><LinearRing><coordinates>-36.1749944778676,-9.91215113053475,0 -36.1750294141147,-9.91216541136403,0 -36.1750643504026,-9.91217969229623,0 -36.1750992866198,-9.9121939731045,0 -36.1751342228027,-9.91220825393076,0 -36.1751691590501,-9.91222253474258,0 -36.1752031196738,-9.91223641674661,0 -36.175236803656,-9.91224585224566,0 -36.1752715031934,-9.9122555722165,0 -36.1753062027337,-9.91226529218424,0 -36.175340902277,-9.91227501214898,0 -36.1753756018233,-9.91228473211069,0 -36.1754103013726,-9.91229445206936,0 -36.1754450009249,-9.91230417202501,0 -36.1754797005595,-9.91231389197512,0 -36.1755144000081,-9.91232361182816,0 -36.1755484857895,-9.91233315982009,0 -36.1755798016509,-9.91233962719165,0 -36.1756117419818,-9.91234622343539,0 -36.1756436823636,-9.91235281968659,0 -36.1756756227476,-9.91235941593506,0 -36.175707563215,-9.91236601217961,0 -36.1757395036609,-9.9123726085251,0 -36.1757714440023,-9.91237920475544,0 -36.1758033843947,-9.91238580099314,0 -36.1758353247891,-9.91239239722814,0 -36.1758653648594,-9.912398601011,0 -36.1759005281474,-9.91239836052535,0 -36.1759376324075,-9.91239810675977,0 -36.1759747367613,-9.91239785299079,0 -36.1760118410676,-9.912397599307,0 -36.1760489453788,-9.91239734553009,0 -36.1760860496433,-9.91239709174799,0 -36.1761231539097,-9.91239683796176,0 -36.1761602582689,-9.91239658417216,0 -36.1761973625367,-9.91239633037769,0 -36.1762336119641,-9.91239608242772,0 -36.1762702359813,-9.91239241454611,0 -36.176307710721,-9.91238866147056,0 -36.1763451853604,-9.91238490839071,0 -36.1763826600049,-9.91238115530598,0 -36.1764201347028,-9.91237740213112,0 -36.1764576093867,-9.91237364903362,0 -36.1764950840321,-9.9123698959356,0 -36.1765325587737,-9.91236614283344,0 -36.176570033415,-9.91236238972701,0 -36.1766074155566,-9.91235864588009,0 -36.1766504834924,-9.9123538919224,0 -36.1766936437374,-9.91234912775867,0 -36.1767368039871,-9.91234436358852,0 -36.1767799643329,-9.91233959941273,0 -36.1768231245787,-9.91233483523125,0 -36.1768662847924,-9.91233007095721,0 -36.1769094451768,-9.91232530675953,0 -36.1769526054235,-9.91232054256033,0 -36.1769957656751,-9.91231577835472,0 -36.1770382050162,-9.91231109372044,0 -36.1770750793407,-9.91230404544415,0 -36.1771126658156,-9.91229686102224,0 -36.177150252398,-9.91228967659321,0 -36.1771878389715,-9.91228249216112,0 -36.1772254254449,-9.91227530772518,0 -36.1772630120258,-9.91226812328213,0 -36.1773005984982,-9.91226093883684,0 -36.1773381850781,-9.91225375438442,0 -36.1773757715496,-9.9122465699298,0 -36.1774135984341,-9.91223933953498,0 -36.1774436966075,-9.91223441367906,0 -36.1774735532651,-9.91222952725635,0 -36.1775034099759,-9.91222464082202,0 -36.1775332667392,-9.91221975446639,0 -36.177563123296,-9.91221486803571,0 -36.1775929800681,-9.91220998167274,0 -36.177622836725,-9.9122050952355,0 -36.1777324721595,-9.91218880665884,0 -36.1777432618768,-9.91209001575369,0 -36.1777450427994,-9.9120708930228,0 -36.1777384443945,-9.91203246936193,0 -36.1777314449607,-9.91199171043866,0 -36.1777244455196,-9.91195095147044,0 -36.177718714847,-9.91191758025028,0 -36.1777018580065,-9.91190575412446,0 -36.1776730186387,-9.91191227853212,0 -36.1776526882545,-9.91192243762708,0 -36.1776080619787,-9.91194473723789,0 -36.1775634357109,-9.91196703683467,0 -36.1775400850114,-9.91197870511995,0 -36.1775124826143,-9.91198837018704,0 -36.1774626306249,-9.91199829947235,0 -36.177411059228,-9.91200565590118,0 -36.1773855232432,-9.91200929844675,0 -36.1773344511017,-9.91201658363255,0 -36.1773089150901,-9.9120202261756,0 -36.1772833791415,-9.91202386870758,0 -36.1772576693619,-9.91202753612408,0 -36.1772292524326,-9.9120310370517,0 -36.1772010098354,-9.91203451640901,0 -36.1771727671801,-9.91203799586118,0 -36.1771162818123,-9.91204495476497,0 -36.1770880392154,-9.91204843411209,0 -36.1770597965604,-9.91205191355405,0 -36.1770315539054,-9.91205539299351,0 -36.1770039289647,-9.91205879632931,0 -36.1769526852177,-9.91206866859613,0 -36.1769290606843,-9.9120751269215,0 -36.1768804563628,-9.91208841399231,0 -36.1768561541444,-9.91209505757244,0 -36.1768318519036,-9.91210170115647,0 -36.1767832475779,-9.91211498821096,0 -36.1767589453748,-9.91212163177818,0 -36.1767345998851,-9.91212828720234,0 -36.1767087941084,-9.91213520610066,0 -36.1766830316909,-9.91214211346144,0 -36.176657269215,-9.91214902083544,0 -36.176631506855,-9.9121559280858,0 -36.176605744452,-9.91216283543539,0 -36.1765799820494,-9.91216974280766,0 -36.1765542196877,-9.91217665005117,0 -36.1765028822664,-9.91219041449229,0 -36.1764537305806,-9.91220471391061,0 -36.1764063788921,-9.91221965993834,0 -36.1763826041206,-9.91222716418895,0 -36.1763588292969,-9.91223466842429,0 -36.1763350545542,-9.91224217266141,0 -36.1762862066267,-9.91225759099962,0 -36.176235054124,-9.9122657208209,0 -36.1761771549218,-9.9122632227161,0 -36.1761483279432,-9.91225813812501,0 -36.1761206917945,-9.91225326357387,0 -36.176093055763,-9.91224838895057,0 -36.1760654196746,-9.9122435144054,0 -36.1760377835877,-9.9122386398582,0 -36.1760101475023,-9.91223376530894,0 -36.1759552932861,-9.91222408992389,0 -36.1759003679021,-9.91221699954163,0 -36.1758726947946,-9.9122134271336,0 -36.1758450216883,-9.91220985472346,0 -36.175817348649,-9.91220628231967,0 -36.1757896753876,-9.91220270998637,0 -36.1757620022851,-9.91219913756986,0 -36.1757343291838,-9.91219556515123,0 -36.1757053164747,-9.91219181979545,0 -36.1756767230547,-9.91218374502708,0 -36.175648022025,-9.91217498139065,0 -36.1756201352841,-9.9121620276202,0 -36.1755934005055,-9.91214960885839,0 -36.1755666656361,-9.91213719014238,0 -36.1755399308625,-9.91212477137739,0 -36.1755131960212,-9.91211235266894,0 -36.175459726395,-9.91208751517934,0 -36.1754329916503,-9.91207509646601,0 -36.1754070196315,-9.91206303200053,0 -36.1753500440088,-9.91204268307612,0 -36.1753211600112,-9.91203236705001,0 -36.1752922760641,-9.91202205103906,0 -36.1752633920394,-9.91201173508813,0 -36.1752345079892,-9.9120014190664,0 -36.1752056239525,-9.91199110310547,0 -36.1751767399671,-9.91198078706937,0 -36.1751478560009,-9.91197047103729,0 -36.1751179606272,-9.91195979380661,0 -36.1750898342419,-9.91194585223836,0 -36.1750626692521,-9.91193238716127,0 -36.1750355042435,-9.91191892207195,0 -36.1750083393716,-9.91190545700312,0 -36.1749811743898,-9.91189199192123,0 -36.1749540093893,-9.91187852682711,0 -36.1749268445255,-9.91186506175346,0 -36.1748725145593,-9.91183813156789,0 -36.1748460524705,-9.91182501483705,0 -36.1748185679016,-9.9118142123028,0 -36.1747903527855,-9.91180312266648,0 -36.1747621377812,-9.91179203303632,0 -36.1747339227795,-9.91178094340427,0 -36.1747057077802,-9.91176985377039,0 -36.1746774927833,-9.91175876413464,0 -36.1746492778073,-9.91174767450422,0 -36.1746210627059,-9.91173658485677,0 -36.174592847669,-9.91172549519678,0 -36.17456567913,-9.91171481676322,0 -36.1745097282544,-9.91170041390522,0 -36.1744812079844,-9.91169307223312,0 -36.1744526878338,-9.91168573056661,0 -36.1744241675808,-9.91167838889379,0 -36.174395647323,-9.91167104721722,0 -36.1743386069109,-9.91165636386027,0 -36.1743091303999,-9.91164877599378,0 -36.1742790898136,-9.91163748442692,0 -36.1742526218708,-9.91162078716341,0 -36.1742060197915,-9.91158392333475,0 -36.174183099158,-9.91156579235587,0 -36.1741601786456,-9.91154766139848,0 -36.1741372581358,-9.91152953044022,0 -36.1741143376288,-9.91151139948104,0 -36.1740914171518,-9.9114932685426,0 -36.1740684965317,-9.91147513755931,0 -36.174045000953,-9.91145655168821,0 -36.1740232308919,-9.91143627682443,0 -36.1740019968751,-9.91141650136074,0 -36.1739595289424,-9.91137695033592,0 -36.1739382949333,-9.91135717487025,0 -36.1739170609582,-9.911337399342,0 -36.173895826988,-9.91131762381526,0 -36.173874593106,-9.9112978483746,0 -36.1738329430382,-9.91125905900367,0 -36.1737946832609,-9.91123133580607,0 -36.1737555175442,-9.91120295615299,0 -36.1737318028225,-9.91118577232841,0 -36.1737147595628,-9.91118039167292,0 -36.1736997666122,-9.91118308985511,0 -36.1736815096041,-9.91119619762902,0 -36.1736490901029,-9.91121947337765,0 -36.1736310979168,-9.91123239099424,0 -36.1736207308186,-9.91125298582338,0 -36.1736154321092,-9.91128890545317,0 -36.1736097109873,-9.9113276892776,0 -36.1736061532014,-9.91139602632482,0 -36.1736242375243,-9.9114070791904,0 -36.1736424853153,-9.91140986974817,0 -36.1736709502085,-9.91141314568861,0 -36.1736915631242,-9.91141865228346,0 -36.1737115590354,-9.91143297571329,0 -36.1737391551833,-9.91144811366923,0 -36.1737677115339,-9.91146377825329,0 -36.1737962679651,-9.91147944296892,0 -36.1738248243604,-9.91149510766139,0 -36.1738533807589,-9.91151077235217,0 -36.1738819371605,-9.91152643704126,0 -36.1739104935271,-9.91154210161684,0 -36.1739390500441,-9.91155776631314,0 -36.1739676064766,-9.91157343100876,0 -36.173996714548,-9.91158939830361,0 -36.1740263385124,-9.91160841225912,0 -36.1740554333057,-9.91162708650771,0 -36.1740845280547,-9.9116457607816,0 -36.1741136228886,-9.91166443513903,0 -36.1741427176111,-9.91168310938789,0 -36.1741718124193,-9.91170178362994,0 -36.1742009071831,-9.9117204578973,0 -36.1742300019987,-9.91173913213611,0 -36.17425909677,-9.9117578064002,0 -36.1742877165705,-9.91177617589318,0 -36.1743179491849,-9.91179303863894,0 -36.1743486749506,-9.91181017644405,0 -36.1743794007201,-9.91182731424724,0 -36.1744101264933,-9.91184445204848,0 -36.1744408523054,-9.91186158995813,0 -36.1744715780501,-9.91187872773543,0 -36.1745023038345,-9.91189586553082,0 -36.1745330296226,-9.91191300332426,0 -36.1745637553433,-9.91193014112602,0 -36.1745945138993,-9.91194729718821,0 -36.1746207706577,-9.91196208410597,0 -36.1746469947149,-9.91197685260462,0 -36.174673218816,-9.91199162121575,0 -36.1746994428369,-9.91200638968801,0 -36.1747256669024,-9.91202115818242,0 -36.1747518909706,-9.91203592667542,0 -36.1747781150416,-9.91205069516702,0 -36.1748043391154,-9.91206546365718,0 -36.1748557916198,-9.91209443991725,0 -36.1748896692407,-9.91210828803073,0 -36.1749246054761,-9.91212256886846,0 -36.1749595416395,-9.91213684970882,0 -36.1749944778676,-9.91215113053475,0</coordinates></LinearRing></outerBoundaryIs></Polygon></MultiGeometry>
  </Placemark>
</Folder>
</Document></kml>
