<?xml version="1.0" encoding="utf-8" ?>
<kml xmlns="http://www.opengis.net/kml/2.2">
<Document id="root_doc">
<Schema name="JEQUIA_II_TALHAO_1037_ID_1098" id="JEQUIA_II_TALHAO_1037_ID_1098">
	<SimpleField name="TALHAO" type="string"></SimpleField>
	<SimpleField name="FAZENDA" type="string"></SimpleField>
	<SimpleField name="ZONA" type="string"></SimpleField>
	<SimpleField name="ID" type="float"></SimpleField>
	<SimpleField name="AREA_TOTAL" type="float"></SimpleField>
	<SimpleField name="FAZ_NOME" type="string"></SimpleField>
	<SimpleField name="CODE" type="string"></SimpleField>
</Schema>
<Folder><name>JEQUIA_II_TALHAO_1037_ID_1098</name>
  <Placemark id="JEQUIA_II_TALHAO_1037_ID_1098.1">
	<Style><LineStyle><color>ff0000ff</color></LineStyle><PolyStyle><fill>0</fill></PolyStyle></Style>
	<ExtendedData><SchemaData schemaUrl="#JEQUIA_II_TALHAO_1037_ID_1098">
		<SimpleData name="TALHAO">1037</SimpleData>
		<SimpleData name="FAZENDA">1924</SimpleData>
		<SimpleData name="ZONA">1</SimpleData>
		<SimpleData name="ID">1098</SimpleData>
		<SimpleData name="AREA_TOTAL">42.18</SimpleData>
		<SimpleData name="FAZ_NOME">JEQUIA II</SimpleData>
		<SimpleData name="CODE"></SimpleData>
	</SchemaData></ExtendedData>
      <MultiGeometry><Polygon><outerBoundaryIs><LinearRing><coordinates>-36.1908613895606,-9.89198077541507,0 -36.1879024222463,-9.89972486739313,0 -36.1897507252988,-9.90045746972372,0 -36.1897763154169,-9.90046874472395,0 -36.1898156205748,-9.90048447424894,0 -36.1898681034779,-9.90050423271745,0 -36.1898949407363,-9.90051518718504,0 -36.1899239412738,-9.90052751791,0 -36.1899558400079,-9.90054058122387,0 -36.1899892987018,-9.90055387700975,0 -36.1900244521725,-9.9005675576728,0 -36.1900610488114,-9.90058272278618,0 -36.1900997506047,-9.90059894435829,0 -36.1901398685477,-9.9006157352737,0 -36.1901810840934,-9.90063268127404,0 -36.1902231139053,-9.90064924059597,0 -36.1902642014006,-9.90066665209826,0 -36.1903043042326,-9.90068530159661,0 -36.1903456616737,-9.90070205070922,0 -36.1903876565196,-9.90071882206941,0 -36.1904292737749,-9.90073613530973,0 -36.1904711426856,-9.90075391881089,0 -36.1905133266482,-9.90077200553998,0 -36.1905559831854,-9.90079032829208,0 -36.1905987418536,-9.90080862691045,0 -36.1906413230161,-9.90082568828264,0 -36.190683962865,-9.90084247399182,0 -36.1907267673441,-9.90085980705831,0 -36.1907698903166,-9.90087710443239,0 -36.1908127407762,-9.90089450561621,0 -36.1908560870839,-9.90091093914196,0 -36.1908999572968,-9.90092769625782,0 -36.1909444551008,-9.90094451955332,0 -36.1909898049581,-9.90096115364374,0 -36.1910363826963,-9.90097844846519,0 -36.1910832436975,-9.90099631314693,0 -36.1911300384401,-9.90101380924188,0 -36.1911774710941,-9.90103068189176,0 -36.1912248654512,-9.9010477283168,0 -36.1912697515365,-9.90106428946074,0 -36.1913110328884,-9.90107951149661,0 -36.1913505138774,-9.90109382566909,0 -36.1913902592658,-9.90110800602251,0 -36.1914308455913,-9.90112242283372,0 -36.1914717456811,-9.90113695057462,0 -36.1915131323626,-9.90115161186182,0 -36.1915552539515,-9.90116703169149,0 -36.1916350348594,-9.90119183333587,0 -36.1917123301986,-9.90115582478007,0 -36.1947005955141,-9.89328852088264,0 -36.1922024092656,-9.89208961802936,0 -36.1921712078859,-9.89208776328513,0 -36.1921383452911,-9.89208741662258,0 -36.1921038092814,-9.8920871922816,0 -36.1920686395408,-9.89208688251357,0 -36.1920316542301,-9.89208652469198,0 -36.1919914714084,-9.89208607237614,0 -36.1919514019742,-9.89208576695187,0 -36.1919109145148,-9.89208525906652,0 -36.191870400623,-9.89208426477445,0 -36.1918298646612,-9.89208332063734,0 -36.1917888731962,-9.89208273515001,0 -36.1917472865751,-9.89208132499286,0 -36.1917065845086,-9.89208007793978,0 -36.191667888212,-9.89207881984078,0 -36.1916318921554,-9.89207668021966,0 -36.1915984242058,-9.89207434485294,0 -36.191566533271,-9.89207126362258,0 -36.1915329769013,-9.89206829490771,0 -36.191496692695,-9.89206489104491,0 -36.1914610525599,-9.89206140275481,0 -36.1914252972747,-9.89205824860198,0 -36.1913879509938,-9.89205647550618,0 -36.1913514426813,-9.89205495682965,0 -36.1913164864577,-9.89205299754483,0 -36.1912823817883,-9.89205091188979,0 -36.1912496974927,-9.89204778581405,0 -36.1912181221559,-9.89204406910749,0 -36.1911868077055,-9.89204032012926,0 -36.1911552301256,-9.89203699531447,0 -36.1911235400464,-9.89203400681508,0 -36.1910919085748,-9.89203040905737,0 -36.1910599091269,-9.89202606074101,0 -36.1910250409095,-9.89202005691036,0 -36.1909918879768,-9.89201310854831,0 -36.1909625068578,-9.89200655974226,0 -36.1909157492884,-9.8919950890073,0 -36.1908613895606,-9.89198077541507,0</coordinates></LinearRing></outerBoundaryIs></Polygon></MultiGeometry>
  </Placemark>
</Folder>
</Document></kml>
