<?xml version="1.0" encoding="utf-8" ?>
<kml xmlns="http://www.opengis.net/kml/2.2">
<Document id="root_doc">
<Schema name="JEQUIA_II_TALHAO_1016_ID_1079" id="JEQUIA_II_TALHAO_1016_ID_1079">
	<SimpleField name="TALHAO" type="string"></SimpleField>
	<SimpleField name="FAZENDA" type="string"></SimpleField>
	<SimpleField name="ZONA" type="string"></SimpleField>
	<SimpleField name="ID" type="float"></SimpleField>
	<SimpleField name="AREA_TOTAL" type="float"></SimpleField>
	<SimpleField name="FAZ_NOME" type="string"></SimpleField>
	<SimpleField name="CODE" type="string"></SimpleField>
</Schema>
<Folder><name>JEQUIA_II_TALHAO_1016_ID_1079</name>
  <Placemark id="JEQUIA_II_TALHAO_1016_ID_1079.1">
	<Style><LineStyle><color>ff0000ff</color></LineStyle><PolyStyle><fill>0</fill></PolyStyle></Style>
	<ExtendedData><SchemaData schemaUrl="#JEQUIA_II_TALHAO_1016_ID_1079">
		<SimpleData name="TALHAO">1016</SimpleData>
		<SimpleData name="FAZENDA">1924</SimpleData>
		<SimpleData name="ZONA">1</SimpleData>
		<SimpleData name="ID">1079</SimpleData>
		<SimpleData name="AREA_TOTAL">0.18</SimpleData>
		<SimpleData name="FAZ_NOME">JEQUIA II</SimpleData>
		<SimpleData name="CODE"></SimpleData>
	</SchemaData></ExtendedData>
      <MultiGeometry><Polygon><outerBoundaryIs><LinearRing><coordinates>-36.2052663056298,-9.88633839998457,0 -36.2051405597203,-9.88690558586215,0 -36.205177045932,-9.8868750882786,0 -36.2052292023965,-9.88683773363432,0 -36.2052550040089,-9.88681925446608,0 -36.2052808056187,-9.88680077529502,0 -36.2053075411089,-9.88678162727184,0 -36.2053401931513,-9.88676397116471,0 -36.205371833829,-9.8867468620725,0 -36.205403474449,-9.88672975300615,0 -36.205435115086,-9.88671264378529,0 -36.2054669130966,-9.88669544960216,0 -36.2054968240558,-9.88668002475793,0 -36.2055265760146,-9.88666468190439,0 -36.2055563280099,-9.88664933902739,0 -36.2055860799247,-9.88663399627738,0 -36.2056148905826,-9.88661913883222,0 -36.20563357317,-9.88660657622014,0 -36.2056409981839,-9.88658220365487,0 -36.2056320131095,-9.88654514337121,0 -36.2056152737972,-9.88652225268816,0 -36.2055964138291,-9.88649646192204,0 -36.2055775537237,-9.88647067108815,0 -36.2055593680309,-9.88644580237739,0 -36.2055393143079,-9.88642459777277,0 -36.2055135959473,-9.88640618179404,0 -36.2054833328567,-9.88638914210046,0 -36.2054522054861,-9.88637161571767,0 -36.2054210780481,-9.88635408938355,0 -36.2053911994494,-9.88633726611851,0 -36.2053672331068,-9.88632834463323,0 -36.205341922302,-9.88631892266888,0 -36.2053000754544,-9.88631653155209,0 -36.2052663056298,-9.88633839998457,0</coordinates></LinearRing></outerBoundaryIs></Polygon></MultiGeometry>
  </Placemark>
</Folder>
</Document></kml>
