<?xml version="1.0" encoding="utf-8" ?>
<kml xmlns="http://www.opengis.net/kml/2.2">
<Document id="root_doc">
<Schema name="JEQUIA_II_TALHAO_1077_ID_1126" id="JEQUIA_II_TALHAO_1077_ID_1126">
	<SimpleField name="TALHAO" type="string"></SimpleField>
	<SimpleField name="FAZENDA" type="string"></SimpleField>
	<SimpleField name="ZONA" type="string"></SimpleField>
	<SimpleField name="ID" type="float"></SimpleField>
	<SimpleField name="AREA_TOTAL" type="float"></SimpleField>
	<SimpleField name="FAZ_NOME" type="string"></SimpleField>
	<SimpleField name="CODE" type="string"></SimpleField>
</Schema>
<Folder><name>JEQUIA_II_TALHAO_1077_ID_1126</name>
  <Placemark id="JEQUIA_II_TALHAO_1077_ID_1126.1">
	<Style><LineStyle><color>ff0000ff</color></LineStyle><PolyStyle><fill>0</fill></PolyStyle></Style>
	<ExtendedData><SchemaData schemaUrl="#JEQUIA_II_TALHAO_1077_ID_1126">
		<SimpleData name="TALHAO">1077</SimpleData>
		<SimpleData name="FAZENDA">1924</SimpleData>
		<SimpleData name="ZONA">1</SimpleData>
		<SimpleData name="ID">1126</SimpleData>
		<SimpleData name="AREA_TOTAL">0.29</SimpleData>
		<SimpleData name="FAZ_NOME">JEQUIA II</SimpleData>
		<SimpleData name="CODE"></SimpleData>
	</SchemaData></ExtendedData>
      <MultiGeometry><Polygon><outerBoundaryIs><LinearRing><coordinates>-36.1802919119424,-9.91071683478096,0 -36.1802696479944,-9.91072834960388,0 -36.1802472010856,-9.91074137666845,0 -36.180223961187,-9.91075378380026,0 -36.1802006622104,-9.91076873544231,0 -36.1801765599054,-9.91078306364225,0 -36.1801539408833,-9.91079721364081,0 -36.1801327807443,-9.91081295592681,0 -36.1801100586561,-9.91082848003576,0 -36.1800879271221,-9.91084621401776,0 -36.1800672814078,-9.91085780128883,0 -36.1800515012908,-9.9108677037688,0 -36.1800390923344,-9.91088544517333,0 -36.1800292643088,-9.91106032702635,0 -36.1800707375261,-9.91103832994697,0 -36.1800965349444,-9.91102000059916,0 -36.1801255280617,-9.91099734797309,0 -36.1801558565846,-9.91096943765828,0 -36.1801913418273,-9.91094083067796,0 -36.1802307923768,-9.91091303578889,0 -36.18027295789,-9.91088359623583,0 -36.1803157869483,-9.91085628259173,0 -36.1803587971213,-9.91082917811099,0 -36.1804022859674,-9.91080224733687,0 -36.1804461380056,-9.91077621626822,0 -36.180489260733,-9.91074961960063,0 -36.1805312749452,-9.9107231473159,0 -36.1805723644176,-9.91069678890242,0 -36.1806126163172,-9.91067185997974,0 -36.1806515154035,-9.91064781209706,0 -36.180689484694,-9.91062465105062,0 -36.1807246543053,-9.9106018761573,0 -36.1807585867337,-9.91057770117287,0 -36.1807907543347,-9.91055128646957,0 -36.180821195644,-9.91052272789168,0 -36.1808498729148,-9.9104957013999,0 -36.1808761917091,-9.91046884725363,0 -36.1809012816647,-9.9104427423634,0 -36.18092447598,-9.91041829168661,0 -36.1809460566922,-9.91039194312367,0 -36.1809675217381,-9.91036449104045,0 -36.180987602777,-9.91033667345425,0 -36.1810077020899,-9.91030992351507,0 -36.1810267968816,-9.91028395178345,0 -36.1810464325624,-9.91025774599407,0 -36.1810648721777,-9.91023159020394,0 -36.1810819619205,-9.91020512506048,0 -36.1810997596448,-9.91017788571502,0 -36.1811184441583,-9.91015231928487,0 -36.1811354168353,-9.91012705633172,0 -36.1811508688509,-9.91010097881034,0 -36.1811667488864,-9.9100744614706,0 -36.1811818227725,-9.91004987762344,0 -36.1811947422028,-9.91002460944876,0 -36.181207240134,-9.90999810364981,0 -36.1812200690788,-9.9099713974412,0 -36.1812343082465,-9.90994461046194,0 -36.1812471463246,-9.9099184632317,0 -36.1812601095462,-9.90989263701854,0 -36.1812752695173,-9.90986765927557,0 -36.1812874584783,-9.90983984729301,0 -36.1813009280217,-9.90980915082061,0 -36.1813194281649,-9.90977407279582,0 -36.1813418308828,-9.90973434833224,0 -36.181367610923,-9.9096922268165,0 -36.1813967845687,-9.90965203931817,0 -36.1814286572494,-9.90961407481999,0 -36.1814624799622,-9.90957877121457,0 -36.1814978276558,-9.90954456072882,0 -36.181531693609,-9.90951233166071,0 -36.181565153761,-9.9094778808308,0 -36.1815984196612,-9.9094461325033,0 -36.1816349709007,-9.90941203951895,0 -36.1816741499983,-9.90937693056746,0 -36.181713400995,-9.90933864193263,0 -36.1817524160468,-9.90930114554316,0 -36.1817900818402,-9.90926488025605,0 -36.1818268455913,-9.90922968995194,0 -36.1818630345483,-9.90919665082765,0 -36.181898231431,-9.90916623063573,0 -36.1819323297629,-9.90913738113318,0 -36.1819635223726,-9.90911304950517,0 -36.1819904588503,-9.90909249216724,0 -36.1820128419654,-9.9090753245673,0 -36.1820364015133,-9.90905730862763,0 -36.1820696500413,-9.9090320472996,0 -36.1820858215831,-9.90902072880452,0 -36.1821024289515,-9.90900901602808,0 -36.1821231065014,-9.90899315416862,0 -36.1821460987688,-9.90897535575587,0 -36.1821726087747,-9.90895554854677,0 -36.1822046134787,-9.90893371892908,0 -36.182220772144,-9.90892241559449,0 -36.1822028121574,-9.90892035850962,0 -36.1821823806468,-9.90891891331969,0 -36.1821617466465,-9.90892243833003,0 -36.1821374880761,-9.90892795146573,0 -36.1821124676531,-9.90893433275312,0 -36.1820890768304,-9.90894274524606,0 -36.1820687999687,-9.90895106787441,0 -36.1820485975577,-9.90896481507331,0 -36.1820264577845,-9.90897772932352,0 -36.1820049785177,-9.90898840308423,0 -36.1819801578698,-9.90900537319874,0 -36.1819635382292,-9.9090148718365,0 -36.1819423431759,-9.90902743010261,0 -36.1819225524923,-9.90904026683033,0 -36.1819049677196,-9.90905051470949,0 -36.1818845984137,-9.90906367782972,0 -36.1818612055281,-9.90907485761276,0 -36.1818414945661,-9.90908430644285,0 -36.1818248683334,-9.9090965666301,0 -36.1818135455824,-9.9091071174951,0 -36.1818010001373,-9.90912487544216,0 -36.1817837457095,-9.90913958749309,0 -36.1817722018118,-9.9091558554324,0 -36.1817586753683,-9.90917596293986,0 -36.1817437496602,-9.90919332039654,0 -36.1817288066779,-9.90921115152766,0 -36.1817149035383,-9.90922693714419,0 -36.1817023872451,-9.9092467492933,0 -36.1816906310014,-9.90926812854932,0 -36.1816752835083,-9.9092909468775,0 -36.1816584201271,-9.90930285916104,0 -36.1816431940753,-9.90932223923656,0 -36.181627065299,-9.90933678209091,0 -36.1816134463976,-9.90935066900942,0 -36.1815977601467,-9.90937156656331,0 -36.1815785563308,-9.90938939102845,0 -36.1815629275564,-9.90940605921161,0 -36.1815431805975,-9.90942358414019,0 -36.1815232088371,-9.90943845725432,0 -36.181505937265,-9.90945379689787,0 -36.1814844857554,-9.90947402183688,0 -36.1814618638082,-9.90949093360162,0 -36.1814411582035,-9.90950386574862,0 -36.1814237581154,-9.90951526916833,0 -36.181409433357,-9.90952774096346,0 -36.1813929900603,-9.90954733788546,0 -36.1813737028447,-9.90956729244606,0 -36.1813547252728,-9.90958061658567,0 -36.1813422883899,-9.90959435871159,0 -36.1813323216381,-9.90961444246032,0 -36.1813167737919,-9.90963731674263,0 -36.1813012526889,-9.90965705774049,0 -36.1812881823,-9.90967774151971,0 -36.1812747450997,-9.90969723811326,0 -36.1812654380361,-9.90971724405389,0 -36.181258559703,-9.90974091127779,0 -36.1812504877346,-9.90976731563038,0 -36.1812396469779,-9.9097935293335,0 -36.1812288800702,-9.90981759559875,0 -36.1812200974529,-9.90983830267933,0 -36.181217349585,-9.9098645524242,0 -36.181204959822,-9.90988849867841,0 -36.1811983640905,-9.90990975194734,0 -36.1811920930739,-9.90993566861309,0 -36.1811843278273,-9.90996218542933,0 -36.181172345562,-9.90998877100558,0 -36.1811581312613,-9.91001286156261,0 -36.1811419665404,-9.91003007703281,0 -36.1811320381409,-9.91005183553926,0 -36.1811166968737,-9.91006784923445,0 -36.1811013125869,-9.91008524355004,0 -36.1810873193919,-9.91010887189961,0 -36.1810695776435,-9.91012745370843,0 -36.1810554953433,-9.91014949533358,0 -36.1810426020946,-9.91016398980319,0 -36.1810284365461,-9.9101833712855,0 -36.1810121990368,-9.91020609331732,0 -36.1809966108703,-9.91022195387202,0 -36.1809825453396,-9.91024250014722,0 -36.1809662053788,-9.91026421398971,0 -36.1809485676973,-9.91028697605408,0 -36.1809316099775,-9.91030887132492,0 -36.1809122604721,-9.91032762705522,0 -36.1808960755127,-9.91034396146442,0 -36.1808810036494,-9.91036193674874,0 -36.1808637801037,-9.91038228376904,0 -36.1808452696895,-9.91039934795756,0 -36.1808272873192,-9.91041799348607,0 -36.1808082339227,-9.91043842944131,0 -36.1807891568999,-9.91045369836347,0 -36.1807711973162,-9.91047153350428,0 -36.1807554635974,-9.91048902250496,0 -36.1807343724117,-9.91051081067595,0 -36.1807117741938,-9.910528578626,0 -36.180692582095,-9.91054221076898,0 -36.1806731730968,-9.91056039393132,0 -36.1806538513493,-9.91057328924887,0 -36.1806298333161,-9.9105841733095,0 -36.1806063206616,-9.9105951090945,0 -36.1805804762047,-9.91060291495958,0 -36.1805592898576,-9.91060525152719,0 -36.1805390233709,-9.91061170605071,0 -36.1805137522813,-9.91062250956101,0 -36.1804879418575,-9.9106301836588,0 -36.1804639095362,-9.91064316846018,0 -36.1804377729683,-9.91065376516834,0 -36.180415211362,-9.9106578568163,0 -36.1803921108028,-9.91066889550924,0 -36.1803658259558,-9.91067960410335,0 -36.1803447779582,-9.91068720987077,0 -36.1803198094493,-9.91070634620982,0 -36.1802919119424,-9.91071683478096,0</coordinates></LinearRing></outerBoundaryIs></Polygon></MultiGeometry>
  </Placemark>
</Folder>
</Document></kml>
