<?xml version="1.0" encoding="utf-8" ?>
<kml xmlns="http://www.opengis.net/kml/2.2">
<Document id="root_doc">
<Schema name="JEQUIA_II_TALHAO_1065_ID_1031" id="JEQUIA_II_TALHAO_1065_ID_1031">
	<SimpleField name="TALHAO" type="string"></SimpleField>
	<SimpleField name="FAZENDA" type="string"></SimpleField>
	<SimpleField name="ZONA" type="string"></SimpleField>
	<SimpleField name="ID" type="float"></SimpleField>
	<SimpleField name="AREA_TOTAL" type="float"></SimpleField>
	<SimpleField name="FAZ_NOME" type="string"></SimpleField>
	<SimpleField name="CODE" type="string"></SimpleField>
</Schema>
<Folder><name>JEQUIA_II_TALHAO_1065_ID_1031</name>
  <Placemark id="JEQUIA_II_TALHAO_1065_ID_1031.1">
	<Style><LineStyle><color>ff0000ff</color></LineStyle><PolyStyle><fill>0</fill></PolyStyle></Style>
	<ExtendedData><SchemaData schemaUrl="#JEQUIA_II_TALHAO_1065_ID_1031">
		<SimpleData name="TALHAO">1065</SimpleData>
		<SimpleData name="FAZENDA">1924</SimpleData>
		<SimpleData name="ZONA">1</SimpleData>
		<SimpleData name="ID">1031</SimpleData>
		<SimpleData name="AREA_TOTAL">16.98</SimpleData>
		<SimpleData name="FAZ_NOME">JEQUIA II</SimpleData>
		<SimpleData name="CODE"></SimpleData>
	</SchemaData></ExtendedData>
      <MultiGeometry><Polygon><outerBoundaryIs><LinearRing><coordinates>-36.1870108901803,-9.926397307708,0 -36.1860059841216,-9.93321377356702,0 -36.1860429364689,-9.93320152741123,0 -36.1860988670705,-9.93318432103076,0 -36.1861402709485,-9.93317103687368,0 -36.1861885546034,-9.93316071651396,0 -36.1862359390197,-9.93314801894535,0 -36.1862831019487,-9.93313547073334,0 -36.1863320383275,-9.93312177846152,0 -36.1863854050528,-9.93310654266945,0 -36.1864376585631,-9.93309157285106,0 -36.1864872101432,-9.93307522658409,0 -36.1865344729105,-9.93305589141866,0 -36.1865880451299,-9.93304047750757,0 -36.1866415378373,-9.93302389919424,0 -36.1867022777643,-9.9330071283869,0 -36.1867608790587,-9.93299178435456,0 -36.1868191504406,-9.9329725952241,0 -36.1868774809917,-9.93295326760317,0 -36.186935200434,-9.93293605713094,0 -36.1869929149492,-9.93291747589259,0 -36.1870502952962,-9.93289974719424,0 -36.1871077011342,-9.93288152985889,0 -36.1871647328394,-9.93286308011971,0 -36.1872213168665,-9.93284454776839,0 -36.1872785511836,-9.93282639990484,0 -36.1873360276587,-9.93280879503974,0 -36.1873930279123,-9.93279120422051,0 -36.187449927081,-9.93277438787963,0 -36.1875048964266,-9.93275824525253,0 -36.1875546317717,-9.9327365022495,0 -36.1876096811381,-9.93271832908519,0 -36.1876637382663,-9.93270182335073,0 -36.1877165892579,-9.9326856713361,0 -36.1877699333626,-9.9326696800903,0 -36.187818687417,-9.93265131935013,0 -36.1878661844308,-9.93263434096579,0 -36.1879112700798,-9.93261831029626,0 -36.1879523294031,-9.93260524778386,0 -36.1879916111368,-9.93259200457855,0 -36.1880310189226,-9.9325783910179,0 -36.1880691864151,-9.93256489129525,0 -36.1881043480631,-9.93255303308349,0 -36.188162364932,-9.93253112190039,0 -36.1882173582783,-9.93250893511239,0 -36.1882304588675,-9.93250413451895,0 -36.189054804683,-9.92560644860387,0 -36.1870108901803,-9.926397307708,0</coordinates></LinearRing></outerBoundaryIs></Polygon></MultiGeometry>
  </Placemark>
</Folder>
</Document></kml>
