<?xml version="1.0" encoding="utf-8" ?>
<kml xmlns="http://www.opengis.net/kml/2.2">
<Document id="root_doc">
<Schema name="JEQUIA_II_TALHAO_1013_ID_1116" id="JEQUIA_II_TALHAO_1013_ID_1116">
	<SimpleField name="TALHAO" type="string"></SimpleField>
	<SimpleField name="FAZENDA" type="string"></SimpleField>
	<SimpleField name="ZONA" type="string"></SimpleField>
	<SimpleField name="ID" type="float"></SimpleField>
	<SimpleField name="AREA_TOTAL" type="float"></SimpleField>
	<SimpleField name="FAZ_NOME" type="string"></SimpleField>
	<SimpleField name="CODE" type="string"></SimpleField>
</Schema>
<Folder><name>JEQUIA_II_TALHAO_1013_ID_1116</name>
  <Placemark id="JEQUIA_II_TALHAO_1013_ID_1116.1">
	<Style><LineStyle><color>ff0000ff</color></LineStyle><PolyStyle><fill>0</fill></PolyStyle></Style>
	<ExtendedData><SchemaData schemaUrl="#JEQUIA_II_TALHAO_1013_ID_1116">
		<SimpleData name="TALHAO">1013</SimpleData>
		<SimpleData name="FAZENDA">1924</SimpleData>
		<SimpleData name="ZONA">1</SimpleData>
		<SimpleData name="ID">1116</SimpleData>
		<SimpleData name="AREA_TOTAL">28.95</SimpleData>
		<SimpleData name="FAZ_NOME">JEQUIA II</SimpleData>
		<SimpleData name="CODE"></SimpleData>
	</SchemaData></ExtendedData>
      <MultiGeometry><Polygon><outerBoundaryIs><LinearRing><coordinates>-36.1983457933894,-9.88905721239111,0 -36.1972727938404,-9.89393819868815,0 -36.2013407930672,-9.89588412405082,0 -36.2013718707921,-9.89589839269584,0 -36.2013941971586,-9.89590458394742,0 -36.2014145959729,-9.89590901920315,0 -36.2014363201354,-9.89591353786388,0 -36.2014582320109,-9.89591711859847,0 -36.2014799770993,-9.89591976983714,0 -36.2014997940613,-9.89591928091301,0 -36.2015164503842,-9.89590660046077,0 -36.2015318079303,-9.89589034538355,0 -36.2015438681932,-9.8958693804834,0 -36.2015545107768,-9.89584929321137,0 -36.2015630979732,-9.89583125706599,0 -36.2015703934592,-9.89581088777411,0 -36.2015786843496,-9.89578978721615,0 -36.201582756701,-9.89577352874686,0 -36.2026097582993,-9.89212838028635,0 -36.2026087134236,-9.89209634121766,0 -36.2026104378811,-9.8920726869196,0 -36.2026109231657,-9.8920492541303,0 -36.2026099852375,-9.89202605297241,0 -36.202606198167,-9.89200259212029,0 -36.2026017520799,-9.89198202709741,0 -36.2025983326559,-9.89196045921646,0 -36.2025933297125,-9.89193956919803,0 -36.2025858133231,-9.89192147139733,0 -36.2025712200645,-9.89189341278369,0 -36.2014235831139,-9.89024302995525,0 -36.2014036450754,-9.89021725066798,0 -36.2013904332091,-9.89019984446297,0 -36.2013754335846,-9.8901810583636,0 -36.2013594276835,-9.89016333229576,0 -36.2013413426132,-9.89014723281878,0 -36.201324255814,-9.89013229950334,0 -36.2013058230971,-9.89011843450351,0 -36.2012883265639,-9.89010522398104,0 -36.2012689904787,-9.89009474884982,0 -36.2012494662203,-9.89008452475333,0 -36.2012299033305,-9.89007325722092,0 -36.2012105177988,-9.89006391992138,0 -36.201193056047,-9.8900518211892,0 -36.2011737760835,-9.89004114279538,0 -36.2011538236847,-9.89003144788943,0 -36.2011338385978,-9.89002264368417,0 -36.2011154913408,-9.89001208381591,0 -36.2010961112533,-9.89000341718133,0 -36.2010762446091,-9.88999467819439,0 -36.2010557414991,-9.88998610727734,0 -36.2010363261223,-9.88997597062808,0 -36.2010164570228,-9.8899661772118,0 -36.2009946182333,-9.88995820833561,0 -36.2009730505267,-9.88994975223113,0 -36.2009519762269,-9.8899410332672,0 -36.2009302734539,-9.88993266827721,0 -36.2009068132391,-9.88992468020329,0 -36.2008859316785,-9.88991643046216,0 -36.2008635370209,-9.88990991492362,0 -36.2008423930771,-9.88990248115167,0 -36.200821737932,-9.88989475846302,0 -36.2008006134703,-9.88988858551276,0 -36.2007792947513,-9.88988145627763,0 -36.2007593842095,-9.88987500894036,0 -36.2007383351095,-9.88986991062508,0 -36.2007182883364,-9.88986302488586,0 -36.2006975014941,-9.88985513585491,0 -36.200676294812,-9.88984780644138,0 -36.2006556603416,-9.88983954790511,0 -36.2006343860483,-9.88983199369236,0 -36.2006124768563,-9.88982561661472,0 -36.2005915642724,-9.88981974093349,0 -36.200571946244,-9.88981195531675,0 -36.2005517628654,-9.88980597783535,0 -36.2005320229036,-9.8897984215787,0 -36.2005112530645,-9.88979145229247,0 -36.2004910676166,-9.88978478365858,0 -36.2004706021773,-9.88977776107271,0 -36.2004498324486,-9.88977124169778,0 -36.2004301629962,-9.88976440805339,0 -36.2004099886382,-9.88975908753179,0 -36.2003888749234,-9.88975264885717,0 -36.2003666157642,-9.88974483328409,0 -36.2003447870291,-9.88973958670483,0 -36.2003224725158,-9.88973350906894,0 -36.200300766219,-9.8897267801477,0 -36.2002807485121,-9.88972053164509,0 -36.2002606124865,-9.88971208498837,0 -36.2002411271691,-9.88970225163862,0 -36.2002209387293,-9.88969347487804,0 -36.2001998478888,-9.88968605804823,0 -36.2001783660903,-9.88967939441192,0 -36.2001567301039,-9.8896729601386,0 -36.2001349218652,-9.88966477907252,0 -36.2001130491287,-9.88965691981572,0 -36.2000920299777,-9.88964948397284,0 -36.2000708478739,-9.88964191396584,0 -36.2000493111214,-9.88963491947676,0 -36.2000282868851,-9.88962763265595,0 -36.2000068332848,-9.88961962049912,0 -36.1999841569633,-9.88961312659715,0 -36.1999619278177,-9.88960680445853,0 -36.1999407670512,-9.889598878396,0 -36.1999204444784,-9.88959039629018,0 -36.1998989355168,-9.88958406939609,0 -36.1998761433313,-9.88957699207485,0 -36.1998533804111,-9.88957084834035,0 -36.1998349503307,-9.8895649551734,0 -36.1998150171171,-9.88955767327385,0 -36.1997920628405,-9.88955200595214,0 -36.199770450727,-9.88954376732524,0 -36.1997493444891,-9.88953636434732,0 -36.1997304544752,-9.88953037573544,0 -36.1997097827231,-9.88952260993947,0 -36.1996893175875,-9.88951508355877,0 -36.1996680707117,-9.8895080531584,0 -36.1996462943558,-9.88949919890786,0 -36.1996242640195,-9.88949139441586,0 -36.1996019173205,-9.88948432440409,0 -36.1995791327175,-9.88947702099823,0 -36.199555993333,-9.88946983560618,0 -36.1995339272463,-9.88946200361797,0 -36.199510202942,-9.88945410749274,0 -36.1994875566605,-9.88944613623669,0 -36.19946426382,-9.88943900828457,0 -36.1994412489676,-9.88943092238059,0 -36.1994193416415,-9.88942163418898,0 -36.1993959280973,-9.8894148809681,0 -36.1993729243229,-9.88940633765056,0 -36.1993501389924,-9.8893985733811,0 -36.1993264930145,-9.88939101542296,0 -36.1993038050185,-9.88938379655545,0 -36.1992807082686,-9.8893764417465,0 -36.1992577649318,-9.88936880959352,0 -36.1992341637768,-9.88936177961236,0 -36.1992100126594,-9.88935314984389,0 -36.1991872784285,-9.88934429165429,0 -36.1991633431639,-9.88933543511125,0 -36.1991394759697,-9.88932741617096,0 -36.1991146973614,-9.88931914335785,0 -36.1990905537458,-9.88931145710713,0 -36.1990676539818,-9.88930469468667,0 -36.1990449192222,-9.88929705043696,0 -36.1990218875681,-9.88928907964839,0 -36.1990002379388,-9.88928019904592,0 -36.1989778057484,-9.88927272842503,0 -36.1989560209495,-9.88926429516152,0 -36.1989337430225,-9.88925569444606,0 -36.1989116269538,-9.88924651868354,0 -36.1988878709178,-9.88923950121434,0 -36.1988619576975,-9.88923122100977,0 -36.198839333629,-9.88922468664322,0 -36.1988161954516,-9.88921866512029,0 -36.1987938104011,-9.88921015954034,0 -36.1987703963348,-9.88920164484255,0 -36.198746835492,-9.8891935707927,0 -36.198725962704,-9.88918718264399,0 -36.1987041287623,-9.88917914231537,0 -36.1986814120924,-9.88917253769374,0 -36.1986708305038,-9.88916802266347,0 -36.198648172353,-9.88916013591456,0 -36.198624948613,-9.88915168730015,0 -36.198602780057,-9.88914181606799,0 -36.1985800712134,-9.88913340724698,0 -36.1985553978694,-9.88912603826498,0 -36.1985338855195,-9.88911898083911,0 -36.1985114431755,-9.88911127114837,0 -36.1984907499965,-9.8891055690204,0 -36.1984687721287,-9.88909931150166,0 -36.1984485920068,-9.88909052289068,0 -36.1984182729919,-9.88908124197173,0 -36.1983457933894,-9.88905721239111,0</coordinates></LinearRing></outerBoundaryIs></Polygon></MultiGeometry>
  </Placemark>
</Folder>
</Document></kml>
