<?xml version="1.0" encoding="utf-8" ?>
<kml xmlns="http://www.opengis.net/kml/2.2">
<Document id="root_doc">
<Schema name="JEQUIA_II_TALHAO_1038_ID_1060" id="JEQUIA_II_TALHAO_1038_ID_1060">
	<SimpleField name="TALHAO" type="string"></SimpleField>
	<SimpleField name="FAZENDA" type="string"></SimpleField>
	<SimpleField name="ZONA" type="string"></SimpleField>
	<SimpleField name="ID" type="float"></SimpleField>
	<SimpleField name="AREA_TOTAL" type="float"></SimpleField>
	<SimpleField name="FAZ_NOME" type="string"></SimpleField>
	<SimpleField name="CODE" type="string"></SimpleField>
</Schema>
<Folder><name>JEQUIA_II_TALHAO_1038_ID_1060</name>
  <Placemark id="JEQUIA_II_TALHAO_1038_ID_1060.1">
	<Style><LineStyle><color>ff0000ff</color></LineStyle><PolyStyle><fill>0</fill></PolyStyle></Style>
	<ExtendedData><SchemaData schemaUrl="#JEQUIA_II_TALHAO_1038_ID_1060">
		<SimpleData name="TALHAO">1038</SimpleData>
		<SimpleData name="FAZENDA">1924</SimpleData>
		<SimpleData name="ZONA">1</SimpleData>
		<SimpleData name="ID">1060</SimpleData>
		<SimpleData name="AREA_TOTAL">19.54</SimpleData>
		<SimpleData name="FAZ_NOME">JEQUIA II</SimpleData>
		<SimpleData name="CODE"></SimpleData>
	</SchemaData></ExtendedData>
      <MultiGeometry><Polygon><outerBoundaryIs><LinearRing><coordinates>-36.1917538809965,-9.9012301096032,0 -36.1917747078928,-9.90123445476181,0 -36.1918037552995,-9.90123910087357,0 -36.1918399706482,-9.90124311815086,0 -36.1918766435909,-9.90124543640185,0 -36.1919123891189,-9.90124598693054,0 -36.191947527043,-9.90124564296541,0 -36.1919834182351,-9.90124483380709,0 -36.192021635903,-9.90124303324496,0 -36.1920620600348,-9.90124033813278,0 -36.1921050124694,-9.90123715195667,0 -36.1921502213878,-9.90123445871231,0 -36.1921956964547,-9.90123156095525,0 -36.1922405607236,-9.90122849459297,0 -36.1922852670369,-9.90122507281243,0 -36.1923296374715,-9.90122134098691,0 -36.1923728506288,-9.90121820422205,0 -36.1924155003636,-9.9012151351912,0 -36.1924586673553,-9.90121124920775,0 -36.1925010239945,-9.90120723213481,0 -36.1925424030386,-9.90120339345402,0 -36.192583899504,-9.90120102474118,0 -36.1926267260407,-9.90120015204977,0 -36.1926711706164,-9.90119930723264,0 -36.1927163367735,-9.90119780609992,0 -36.1927618359612,-9.90119623719285,0 -36.1928073962773,-9.90119494868789,0 -36.1928534492973,-9.90119421930678,0 -36.1929003227932,-9.90119295206941,0 -36.1929493581684,-9.90118983291055,0 -36.1929987321998,-9.90118807207442,0 -36.1930471967532,-9.90118615323308,0 -36.193095601258,-9.90118493285671,0 -36.1931432618936,-9.90118377436754,0 -36.1931900790824,-9.90118234034794,0 -36.1932360218709,-9.90118140682946,0 -36.1932810367709,-9.90118124546565,0 -36.1933255412693,-9.90118206498094,0 -36.193369093989,-9.90118282289886,0 -36.1934105149706,-9.90118425129547,0 -36.1934514481517,-9.90118670036393,0 -36.1934924819318,-9.90118852712278,0 -36.1935345717444,-9.90118921920502,0 -36.1935756569426,-9.90119102926056,0 -36.1936153105741,-9.90119310765021,0 -36.1936535175734,-9.90119528703969,0 -36.1936916559894,-9.90119665820578,0 -36.1937305395472,-9.90119750235257,0 -36.1937708956285,-9.90119841647316,0 -36.1938122213921,-9.90119896555453,0 -36.1938755253955,-9.9012020874572,0 -36.1965536225728,-9.89417660177331,0 -36.1947272039616,-9.893294907884,0 -36.1917255323011,-9.90121475109445,0 -36.1917538809965,-9.9012301096032,0</coordinates></LinearRing></outerBoundaryIs></Polygon></MultiGeometry>
  </Placemark>
</Folder>
</Document></kml>
