<?xml version="1.0" encoding="utf-8" ?>
<kml xmlns="http://www.opengis.net/kml/2.2">
<Document id="root_doc">
<Schema name="JEQUIA_II_TALHAO_1041_ID_1061" id="JEQUIA_II_TALHAO_1041_ID_1061">
	<SimpleField name="TALHAO" type="string"></SimpleField>
	<SimpleField name="FAZENDA" type="string"></SimpleField>
	<SimpleField name="ZONA" type="string"></SimpleField>
	<SimpleField name="ID" type="float"></SimpleField>
	<SimpleField name="AREA_TOTAL" type="float"></SimpleField>
	<SimpleField name="FAZ_NOME" type="string"></SimpleField>
	<SimpleField name="CODE" type="string"></SimpleField>
</Schema>
<Folder><name>JEQUIA_II_TALHAO_1041_ID_1061</name>
  <Placemark id="JEQUIA_II_TALHAO_1041_ID_1061.1">
	<Style><LineStyle><color>ff0000ff</color></LineStyle><PolyStyle><fill>0</fill></PolyStyle></Style>
	<ExtendedData><SchemaData schemaUrl="#JEQUIA_II_TALHAO_1041_ID_1061">
		<SimpleData name="TALHAO">1041</SimpleData>
		<SimpleData name="FAZENDA">1924</SimpleData>
		<SimpleData name="ZONA">1</SimpleData>
		<SimpleData name="ID">1061</SimpleData>
		<SimpleData name="AREA_TOTAL">9.39</SimpleData>
		<SimpleData name="FAZ_NOME">JEQUIA II</SimpleData>
		<SimpleData name="CODE"></SimpleData>
	</SchemaData></ExtendedData>
      <MultiGeometry><Polygon><outerBoundaryIs><LinearRing><coordinates>-36.1981883135675,-9.90148205162584,0 -36.1982332223047,-9.90149474786652,0 -36.1982606662772,-9.90150736652892,0 -36.1982878215915,-9.90151936104775,0 -36.1983152857139,-9.90153117606276,0 -36.1983429011943,-9.90154281610639,0 -36.1983708177443,-9.90155401604451,0 -36.198398847499,-9.90156514233704,0 -36.1984271860477,-9.90157622512931,0 -36.1984557391696,-9.90158691210292,0 -36.1984845400707,-9.90159781135165,0 -36.1985134396928,-9.90160857161804,0 -36.1985424494957,-9.90161914751599,0 -36.1985719946551,-9.90162995576578,0 -36.1985950073756,-9.90163964557256,0 -36.1986288783977,-9.90165048943217,0 -36.1986580364186,-9.90166125131264,0 -36.1986865833926,-9.90167183881277,0 -36.1987152345139,-9.90168258756698,0 -36.1987434604507,-9.90169334476398,0 -36.1987713308285,-9.90170399343758,0 -36.1987992650298,-9.90171431587114,0 -36.1988271473606,-9.90172438117184,0 -36.198854923261,-9.90173417017984,0 -36.1988826495136,-9.90174457402691,0 -36.1989109763666,-9.90175543436313,0 -36.1989394413741,-9.90176642226419,0 -36.1989674270632,-9.90177725630083,0 -36.1989947831153,-9.90178769351877,0 -36.1990225358056,-9.90179775291574,0 -36.1990507898845,-9.90180751506022,0 -36.1990795305687,-9.90181600002537,0 -36.1991097416745,-9.90182220860064,0 -36.1991400072723,-9.90182666703717,0 -36.199169464612,-9.90182948948964,0 -36.1991994135448,-9.90183112619473,0 -36.199229646338,-9.90183150139884,0 -36.1992591731558,-9.90183215783299,0 -36.1992878900568,-9.90183340347515,0 -36.1993155661743,-9.9018348778532,0 -36.199341772488,-9.90183607958086,0 -36.1993705151888,-9.90183669779281,0 -36.1993999350976,-9.90183811576263,0 -36.1994269615985,-9.90184374134616,0 -36.1994520354562,-9.90184975008569,0 -36.199477459702,-9.90185408920376,0 -36.1994999947375,-9.901854296203,0 -36.1995288240472,-9.90185354827761,0 -36.1995546383354,-9.90185063240872,0 -36.1995800732377,-9.90184524486355,0 -36.1996054944456,-9.90183870588323,0 -36.1996293039617,-9.9018287780013,0 -36.1996502693831,-9.90181659289871,0 -36.19966408711,-9.9018019287584,0 -36.1996740760022,-9.90178063579807,0 -36.1996813976715,-9.90175521163938,0 -36.1996887982735,-9.90172821590705,0 -36.1996956332647,-9.90170157975427,0 -36.1997018943295,-9.90167500549846,0 -36.1997093473409,-9.90164836137443,0 -36.1997170431604,-9.90162179406094,0 -36.1997249882942,-9.9015951482242,0 -36.199732948019,-9.90156839263796,0 -36.1997409358012,-9.90154161446504,0 -36.1997496041602,-9.9015150377084,0 -36.1997576446379,-9.90148878363077,0 -36.199773136346,-9.90143649152584,0 -36.1997809362389,-9.90141060557936,0 -36.1997882598521,-9.90138469350473,0 -36.1997959949764,-9.9013579037928,0 -36.1998042271856,-9.90133040412104,0 -36.1998123917177,-9.90130325335884,0 -36.1998203237903,-9.90127544786101,0 -36.1998295706875,-9.90124786652959,0 -36.1998383230889,-9.90122150584637,0 -36.1998466615263,-9.9011952356649,0 -36.1998551970641,-9.9011686956069,0 -36.1998633993853,-9.90114245536197,0 -36.1998714029246,-9.90111717537918,0 -36.1998788541415,-9.90109183170229,0 -36.1998865063539,-9.90106540477111,0 -36.1998939150084,-9.90103903736068,0 -36.1999005707981,-9.90101305678154,0 -36.199907426358,-9.90098635665774,0 -36.1999152850991,-9.90095786901962,0 -36.1999234876302,-9.90092744950475,0 -36.1999321702883,-9.90089528625014,0 -36.1999402887236,-9.9008625770009,0 -36.1999473931384,-9.90083027500194,0 -36.199954494126,-9.9007978037697,0 -36.1999615096532,-9.90076652359561,0 -36.1999680814757,-9.90073639270994,0 -36.1999741463896,-9.90070695893321,0 -36.1999801034456,-9.90067803248356,0 -36.1999861474807,-9.90065007633154,0 -36.1999916809808,-9.90062277604637,0 -36.1999961633513,-9.90059644850599,0 -36.1999999635709,-9.90057147546754,0 -36.200003229131,-9.9005482560049,0 -36.2000061646112,-9.90052535508143,0 -36.2000109552126,-9.90050182220867,0 -36.2000175828493,-9.90047753630558,0 -36.2000253958589,-9.90045316006163,0 -36.200032727457,-9.9004282640314,0 -36.2000409962026,-9.90040357333988,0 -36.2000500858796,-9.90037914779755,0 -36.2000591295399,-9.90035475198374,0 -36.2000674435406,-9.90033050401692,0 -36.2000760180332,-9.90030813716434,0 -36.2000846963299,-9.90028786586092,0 -36.2000937670915,-9.90026639980227,0 -36.200103200871,-9.90024433177281,0 -36.2001134398247,-9.9002209252264,0 -36.200124298694,-9.90019718696902,0 -36.2001351385852,-9.90017398942313,0 -36.2001454875475,-9.90015077315897,0 -36.200153766004,-9.90012982465551,0 -36.2001606829425,-9.90011202442952,0 -36.2001731735738,-9.90008299595913,0 -36.2001860676433,-9.90005514471702,0 -36.2001952150304,-9.90003747515796,0 -36.2002714278189,-9.89981271578501,0 -36.2013467010045,-9.89648493627176,0 -36.2002720396745,-9.89596597131323,0 -36.1981883135675,-9.90148205162584,0</coordinates></LinearRing></outerBoundaryIs></Polygon></MultiGeometry>
  </Placemark>
</Folder>
</Document></kml>
