<?xml version="1.0" encoding="utf-8" ?>
<kml xmlns="http://www.opengis.net/kml/2.2">
<Document id="root_doc">
<Schema name="JEQUIA_II_TALHAO_1052_ID_1015" id="JEQUIA_II_TALHAO_1052_ID_1015">
	<SimpleField name="TALHAO" type="string"></SimpleField>
	<SimpleField name="FAZENDA" type="string"></SimpleField>
	<SimpleField name="ZONA" type="string"></SimpleField>
	<SimpleField name="ID" type="float"></SimpleField>
	<SimpleField name="AREA_TOTAL" type="float"></SimpleField>
	<SimpleField name="FAZ_NOME" type="string"></SimpleField>
	<SimpleField name="CODE" type="string"></SimpleField>
</Schema>
<Folder><name>JEQUIA_II_TALHAO_1052_ID_1015</name>
  <Placemark id="JEQUIA_II_TALHAO_1052_ID_1015.1">
	<Style><LineStyle><color>ff0000ff</color></LineStyle><PolyStyle><fill>0</fill></PolyStyle></Style>
	<ExtendedData><SchemaData schemaUrl="#JEQUIA_II_TALHAO_1052_ID_1015">
		<SimpleData name="TALHAO">1052</SimpleData>
		<SimpleData name="FAZENDA">1924</SimpleData>
		<SimpleData name="ZONA">1</SimpleData>
		<SimpleData name="ID">1015</SimpleData>
		<SimpleData name="AREA_TOTAL">1.71</SimpleData>
		<SimpleData name="FAZ_NOME">JEQUIA II</SimpleData>
		<SimpleData name="CODE"></SimpleData>
	</SchemaData></ExtendedData>
      <MultiGeometry><Polygon><outerBoundaryIs><LinearRing><coordinates>-36.1999537158638,-9.90361287387085,0 -36.1998432338363,-9.90454530256354,0 -36.199859810206,-9.90454642684111,0 -36.2000118458265,-9.9045539740789,0 -36.2002394796608,-9.90455587280309,0 -36.2003961242993,-9.9045960636846,0 -36.2005479312359,-9.9046776983685,0 -36.2007595909258,-9.9048303782928,0 -36.2009711767857,-9.90494339509419,0 -36.2010652971616,-9.90500943681073,0 -36.2011623924165,-9.90511134684932,0 -36.2012895505435,-9.90526353283397,0 -36.2015482455295,-9.90554023973131,0 -36.2016881242535,-9.90572154931047,0 -36.2017655682475,-9.90584095333994,0 -36.2017656520267,-9.90583951236835,0 -36.2017668658005,-9.90581648410738,0 -36.2017698377318,-9.90579750716969,0 -36.201770197181,-9.90577332143428,0 -36.2017703549487,-9.90575173014575,0 -36.2017732991545,-9.90573212219402,0 -36.2017709043013,-9.90570248571156,0 -36.2017746443824,-9.90567382197716,0 -36.2017753622061,-9.905651019868,0 -36.2017740337829,-9.90562765628542,0 -36.2017728229694,-9.90560527283292,0 -36.2017713808171,-9.90558253438694,0 -36.2017699863358,-9.90556015916037,0 -36.2017687270803,-9.90553690158613,0 -36.2017662940589,-9.90551241042488,0 -36.2017637122166,-9.905487750796,0 -36.2017598962711,-9.90546370795694,0 -36.2017558125172,-9.90544082796292,0 -36.2017484197993,-9.9054132762432,0 -36.2017450854673,-9.90539115940023,0 -36.2017455050999,-9.90537185618156,0 -36.2017416695717,-9.90534893001352,0 -36.2017397950801,-9.90532620178628,0 -36.2017352564966,-9.90530253534979,0 -36.2017295202103,-9.90527959866579,0 -36.2017229545734,-9.90525697587957,0 -36.2017122596669,-9.90523567663026,0 -36.2016962257631,-9.90520397694717,0 -36.2016794665618,-9.90518628610718,0 -36.2016417071184,-9.90517177166284,0 -36.20161201258,-9.90517198258657,0 -36.2015823354116,-9.90516465711554,0 -36.2015582319507,-9.90514997715565,0 -36.2015267294455,-9.90512720148734,0 -36.2015049641816,-9.90511001199688,0 -36.201486942353,-9.90509365955848,0 -36.2014697293084,-9.90507362077618,0 -36.2014529390096,-9.90504931611171,0 -36.2014389396854,-9.90502540204342,0 -36.2014268789748,-9.90500424897794,0 -36.201414059087,-9.90498474722183,0 -36.2014013039838,-9.90496413172623,0 -36.2013880000061,-9.90494338090618,0 -36.2013756160452,-9.90492570840906,0 -36.2013615631386,-9.90490842689096,0 -36.2013495394915,-9.90488967869386,0 -36.2013382471638,-9.90487232763686,0 -36.2013273749201,-9.90485421839365,0 -36.2013143282687,-9.90483365030273,0 -36.2012988463973,-9.9048117499562,0 -36.2012801108413,-9.90478841523366,0 -36.2012572646975,-9.90476435921965,0 -36.2012317830281,-9.9047399541165,0 -36.2012044427443,-9.9047159234401,0 -36.2011782340107,-9.90468990652269,0 -36.2011554326171,-9.90466228831877,0 -36.2011355686865,-9.90463385701559,0 -36.2011180165666,-9.90460442459693,0 -36.2011030093592,-9.90457253230815,0 -36.2010907267857,-9.9045391565213,0 -36.2010809025556,-9.90450539044727,0 -36.2010746589874,-9.90447063120584,0 -36.2010706965252,-9.90443610884473,0 -36.2010678928829,-9.90440021541021,0 -36.2010664207986,-9.90436491137254,0 -36.2010639372788,-9.90433036748214,0 -36.2010599482374,-9.90429554488982,0 -36.2010544531817,-9.90426091989797,0 -36.2010471162029,-9.90422675766642,0 -36.2010380265438,-9.90419372247762,0 -36.201027227724,-9.90416267892355,0 -36.2010132886128,-9.9041329793234,0 -36.2009975522036,-9.90410409241452,0 -36.2009798749203,-9.90407768054367,0 -36.2009599860782,-9.90405191345517,0 -36.2009393007595,-9.90402609788111,0 -36.2009179039415,-9.90399999295048,0 -36.2008962424534,-9.90397364237317,0 -36.2008739694568,-9.90394721614451,0 -36.2008514501085,-9.90391998595997,0 -36.2008299903307,-9.90389228008663,0 -36.200808322211,-9.90386552434075,0 -36.2007860534608,-9.90384039151306,0 -36.2007623701597,-9.90381828933887,0 -36.2007372158817,-9.90379843290584,0 -36.2007110254303,-9.9037798767625,0 -36.2006861184206,-9.90376159444669,0 -36.2006619762599,-9.90374350963632,0 -36.2006357611543,-9.9037260150026,0 -36.2006071088078,-9.90370963499356,0 -36.2005756367027,-9.90369507423405,0 -36.2005422667793,-9.90368269807414,0 -36.2005079102983,-9.90367237987309,0 -36.2004730716872,-9.9036646736719,0 -36.2004376144409,-9.90365964924504,0 -36.2004019830646,-9.90365705295469,0 -36.2003668571244,-9.90365627339714,0 -36.2003316322165,-9.90365752921801,0 -36.2002953152834,-9.90365876936347,0 -36.2002580512669,-9.9036591705313,0 -36.2002197738048,-9.90365938553501,0 -36.2001805752347,-9.90365899560394,0 -36.2001400968716,-9.9036561439771,0 -36.2000989644844,-9.90365101421239,0 -36.2000577765323,-9.90364331187199,0 -36.2000165256526,-9.90363337925916,0 -36.1999755655558,-9.90362063905239,0 -36.1999537158638,-9.90361287387085,0</coordinates></LinearRing></outerBoundaryIs></Polygon></MultiGeometry>
  </Placemark>
</Folder>
</Document></kml>
