<?xml version="1.0" encoding="utf-8" ?>
<kml xmlns="http://www.opengis.net/kml/2.2">
<Document id="root_doc">
<Schema name="JEQUIA_II_TALHAO_1019_ID_1138" id="JEQUIA_II_TALHAO_1019_ID_1138">
	<SimpleField name="TALHAO" type="string"></SimpleField>
	<SimpleField name="FAZENDA" type="string"></SimpleField>
	<SimpleField name="ZONA" type="string"></SimpleField>
	<SimpleField name="ID" type="float"></SimpleField>
	<SimpleField name="AREA_TOTAL" type="float"></SimpleField>
	<SimpleField name="FAZ_NOME" type="string"></SimpleField>
	<SimpleField name="CODE" type="string"></SimpleField>
</Schema>
<Folder><name>JEQUIA_II_TALHAO_1019_ID_1138</name>
  <Placemark id="JEQUIA_II_TALHAO_1019_ID_1138.1">
	<Style><LineStyle><color>ff0000ff</color></LineStyle><PolyStyle><fill>0</fill></PolyStyle></Style>
	<ExtendedData><SchemaData schemaUrl="#JEQUIA_II_TALHAO_1019_ID_1138">
		<SimpleData name="TALHAO">1019</SimpleData>
		<SimpleData name="FAZENDA">1924</SimpleData>
		<SimpleData name="ZONA">1</SimpleData>
		<SimpleData name="ID">1138</SimpleData>
		<SimpleData name="AREA_TOTAL">16.14</SimpleData>
		<SimpleData name="FAZ_NOME">JEQUIA II</SimpleData>
		<SimpleData name="CODE"></SimpleData>
	</SchemaData></ExtendedData>
      <MultiGeometry><Polygon><outerBoundaryIs><LinearRing><coordinates>-36.2043552752897,-9.88074533205439,0 -36.202992581629,-9.88698597817304,0 -36.2030355737944,-9.88700564764415,0 -36.203094516685,-9.88702539096315,0 -36.2031255704048,-9.88703404049562,0 -36.203187196073,-9.88705120542596,0 -36.2033244150954,-9.88706697257264,0 -36.2033589271072,-9.88706928420052,0 -36.2034285099872,-9.88706701607987,0 -36.2034631542371,-9.88706240720834,0 -36.2035342596151,-9.88705294769457,0 -36.2035686184907,-9.8870483767884,0 -36.2036697917773,-9.88702111006763,0 -36.2037712775417,-9.88698905174406,0 -36.2038046823287,-9.88697538826997,0 -36.2038387850078,-9.88696143929574,0 -36.2038728878082,-9.88694749030478,0 -36.2039056908448,-9.88693407291185,0 -36.2039682451843,-9.88689644826905,0 -36.2040319322135,-9.88685814226664,0 -36.2040953063498,-9.88681925643243,0 -36.2041268716712,-9.88679950273637,0 -36.2041585052255,-9.88677970633382,0 -36.2041905643316,-9.88675964364566,0 -36.2042575303449,-9.88672269640836,0 -36.2043268988308,-9.88668914011903,0 -36.2043948859063,-9.88665625209407,0 -36.2044531444758,-9.88661934032874,0 -36.204482714622,-9.88660060523385,0 -36.2045105774214,-9.88658295173745,0 -36.2045579965453,-9.88653549386398,0 -36.2045985811924,-9.88647347709639,0 -36.2046920600562,-9.88635388329523,0 -36.2047454871292,-9.88629618828603,0 -36.2048101093482,-9.88625452049927,0 -36.2048824124834,-9.8862309634463,0 -36.2049200944343,-9.88621868634663,0 -36.2050652032302,-9.88621685159523,0 -36.2051699169423,-9.88623115109961,0 -36.2052247219201,-9.88623889547775,0 -36.2066919918701,-9.87948533784113,0 -36.2066716942782,-9.87948728017353,0 -36.2066111083428,-9.87949637387196,0 -36.2065805646336,-9.87950095826888,0 -36.2065500209248,-9.87950554273853,0 -36.2065226029967,-9.87950965805331,0 -36.2064968851145,-9.87952338542764,0 -36.2064683837128,-9.8795385986899,0 -36.2064398822088,-9.87955381191256,0 -36.2064113807811,-9.87956902518013,0 -36.2063849404485,-9.87958313824294,0 -36.2063633904616,-9.87960301979611,0 -36.2063401267376,-9.87962448248594,0 -36.2063168628669,-9.87964594522109,0 -36.20629359911,-9.87966740784126,0 -36.2062712792868,-9.87968799969508,0 -36.206249463421,-9.87971474272921,0 -36.2062268366402,-9.87974247981804,0 -36.2062042098554,-9.87977021690424,0 -36.2061815830839,-9.87979795405603,0 -36.2061591451701,-9.87982545959943,0 -36.2061368141956,-9.8798547586922,0 -36.2061143022466,-9.87988429543178,0 -36.2060917902405,-9.87991383214856,0 -36.2060692781334,-9.87994336886918,0 -36.206046484604,-9.87997327493961,0 -36.2060216891996,-9.8800025592005,0 -36.205997193942,-9.88003148886038,0 -36.2059726988143,-9.880060418467,0 -36.2059482036605,-9.88008934809609,0 -36.205923212802,-9.88011886305059,0 -36.2058953511086,-9.88014662493644,0 -36.2058680330722,-9.8801738451048,0 -36.2058407150313,-9.88020106526965,0 -36.2058133968936,-9.88022828552104,0 -36.2057854620722,-9.88025612024014,0 -36.2057560330572,-9.88028029947123,0 -36.2057272772066,-9.88030392553996,0 -36.2056985214618,-9.88032755150074,0 -36.2056697656295,-9.88035117754072,0 -36.2056406968544,-9.88037506076671,0 -36.205613422702,-9.88039550576069,0 -36.2055864728212,-9.88041570758203,0 -36.2055595229987,-9.88043590944402,0 -36.2055325731422,-9.88045611132622,0 -36.2055048915081,-9.88047686165841,0 -36.2054765736258,-9.88049395047923,0 -36.2054490393034,-9.88051056635554,0 -36.2054215051669,-9.88052718226078,0 -36.2053939708165,-9.88054379814502,0 -36.205364865419,-9.88056136218385,0 -36.2053301502027,-9.88057375266558,0 -36.2052971654462,-9.88058552556752,0 -36.2052641806208,-9.88059729839953,0 -36.2052311958766,-9.88060907128816,0 -36.2051969799048,-9.88062128352743,0 -36.2051615879068,-9.88062847529183,0 -36.2051274778366,-9.8806354065797,0 -36.2050933676553,-9.88064233786693,0 -36.2050592575282,-9.88064926922937,0 -36.2050243256103,-9.88065636750742,0 -36.2049926092374,-9.88065984460358,0 -36.2049617266624,-9.88066323028661,0 -36.2049308441396,-9.88066661605123,0 -36.2048999615122,-9.88067000173404,0 -36.2048685429742,-9.88067344616601,0 -36.2048353888963,-9.88067512233983,0 -36.2048027733984,-9.88067677137167,0 -36.2047701578005,-9.88067842031506,0 -36.2047375422539,-9.88068006925261,0 -36.2047052487659,-9.88068170190473,0 -36.2046707288573,-9.88068466445577,0 -36.2046358876736,-9.88068765457539,0 -36.2046010463484,-9.88069064460457,0 -36.204566205217,-9.88069363471215,0 -36.2045316601828,-9.88069659940468,0 -36.2044990749873,-9.88070046134509,0 -36.2044661945398,-9.8807043582633,0 -36.2044333141962,-9.88070825517733,0 -36.2044004338464,-9.88071215208868,0 -36.2043714942804,-9.88071820735114,0 -36.2043595118624,-9.88072592579963,0 -36.2043552752897,-9.88074533205439,0</coordinates></LinearRing></outerBoundaryIs></Polygon></MultiGeometry>
  </Placemark>
</Folder>
</Document></kml>
