<?xml version="1.0" encoding="utf-8" ?>
<kml xmlns="http://www.opengis.net/kml/2.2">
<Document id="root_doc">
<Schema name="JEQUIA_II_TALHAO_1034_ID_1096" id="JEQUIA_II_TALHAO_1034_ID_1096">
	<SimpleField name="TALHAO" type="string"></SimpleField>
	<SimpleField name="FAZENDA" type="string"></SimpleField>
	<SimpleField name="ZONA" type="string"></SimpleField>
	<SimpleField name="ID" type="float"></SimpleField>
	<SimpleField name="AREA_TOTAL" type="float"></SimpleField>
	<SimpleField name="FAZ_NOME" type="string"></SimpleField>
	<SimpleField name="CODE" type="string"></SimpleField>
</Schema>
<Folder><name>JEQUIA_II_TALHAO_1034_ID_1096</name>
  <Placemark id="JEQUIA_II_TALHAO_1034_ID_1096.1">
	<Style><LineStyle><color>ff0000ff</color></LineStyle><PolyStyle><fill>0</fill></PolyStyle></Style>
	<ExtendedData><SchemaData schemaUrl="#JEQUIA_II_TALHAO_1034_ID_1096">
		<SimpleData name="TALHAO">1034</SimpleData>
		<SimpleData name="FAZENDA">1924</SimpleData>
		<SimpleData name="ZONA">1</SimpleData>
		<SimpleData name="ID">1096</SimpleData>
		<SimpleData name="AREA_TOTAL">11.93</SimpleData>
		<SimpleData name="FAZ_NOME">JEQUIA II</SimpleData>
		<SimpleData name="CODE"></SimpleData>
	</SchemaData></ExtendedData>
      <MultiGeometry><Polygon><outerBoundaryIs><LinearRing><coordinates>-36.1833973147528,-9.90257819217931,0 -36.1833816236689,-9.90261007178593,0 -36.1833667744544,-9.90264177509383,0 -36.1833523819477,-9.90267281853539,0 -36.18333767615,-9.90270654408851,0 -36.1833227747527,-9.90274176650687,0 -36.1833081300382,-9.90277640259975,0 -36.1832953282355,-9.90281025296582,0 -36.1832835140639,-9.90284454777557,0 -36.1832719614643,-9.90287981124822,0 -36.1832608164245,-9.9029128477035,0 -36.1832491257551,-9.90294285958056,0 -36.1832379081324,-9.90297273560025,0 -36.1832265034847,-9.90300348522979,0 -36.1832139007734,-9.90303620519541,0 -36.1831995252174,-9.90307171352484,0 -36.1831851575017,-9.90310793659055,0 -36.1831693324504,-9.90314370683238,0 -36.1831532073014,-9.90317982872162,0 -36.1831370992429,-9.90321654353367,0 -36.1831210601496,-9.90325314082736,0 -36.1831056641698,-9.90328915620087,0 -36.1830906001634,-9.90332350766773,0 -36.1830760291367,-9.90335533309405,0 -36.1830617671608,-9.90338509632623,0 -36.183048687612,-9.90341468379789,0 -36.1830339162861,-9.90344774876231,0 -36.1830187012382,-9.90348298929309,0 -36.1830032843816,-9.90351809962471,0 -36.1829893141347,-9.90355351174423,0 -36.1829756706264,-9.90358770814015,0 -36.182962498296,-9.90362086516329,0 -36.1829504736992,-9.90365308009069,0 -36.1829410667837,-9.90368426991255,0 -36.1829365971411,-9.90371421936498,0 -36.1829362058226,-9.90374092964082,0 -36.1829395816248,-9.90376712104782,0 -36.1829466399181,-9.90379584919438,0 -36.182956935978,-9.90382408291938,0 -36.1829701968513,-9.90385032888212,0 -36.1829863300589,-9.90387692565515,0 -36.1830061528914,-9.90390334337075,0 -36.1830293678789,-9.90392855171461,0 -36.1830555210197,-9.90395255606681,0 -36.1830824528705,-9.90397555330894,0 -36.1831083475075,-9.90399727080669,0 -36.1831368389135,-9.90401971009567,0 -36.1831645968913,-9.90404155374513,0 -36.1831927586065,-9.904061425887,0 -36.1832216685567,-9.90407920996304,0 -36.1832507075438,-9.90409443009206,0 -36.1832791069148,-9.90410709331866,0 -36.1833085380333,-9.90411741405698,0 -36.1833367264289,-9.90412518739081,0 -36.1833660529091,-9.90413141369462,0 -36.1833994135624,-9.90413679552094,0 -36.1834326750683,-9.9041401482559,0 -36.1834664684684,-9.90414150350388,0 -36.1834985137905,-9.90414171680814,0 -36.1835315045297,-9.90413969118785,0 -36.1835645040696,-9.90413647070378,0 -36.1835966804162,-9.90413174374898,0 -36.1836284051965,-9.90412714056033,0 -36.1836784795236,-9.90412100823603,0 -36.1837250474928,-9.90411890595992,0 -36.1837687451394,-9.90412518785112,0 -36.1838072433028,-9.90413125503105,0 -36.1838581422071,-9.90413213252289,0 -36.1839069684838,-9.90412262370895,0 -36.1839377677144,-9.90411379892167,0 -36.1839698741131,-9.90410319816658,0 -36.1840036546046,-9.9040913255099,0 -36.1840391481195,-9.90407863308051,0 -36.1840741695374,-9.90406499951912,0 -36.1841097448632,-9.90405096034827,0 -36.1841463517255,-9.9040359656673,0 -36.1841850064658,-9.90401869643267,0 -36.1842230417707,-9.90400097623599,0 -36.1842601870173,-9.90398404186498,0 -36.1842962290771,-9.90396806206164,0 -36.1843342315611,-9.90395096783376,0 -36.1843741842652,-9.90393405621484,0 -36.1844141778026,-9.9039165289983,0 -36.1844538713987,-9.90389900947401,0 -36.1844920061372,-9.90388207583264,0 -36.1845273115621,-9.90386634471168,0 -36.1845620762163,-9.90385040788847,0 -36.1845974814703,-9.90383356368219,0 -36.1846343886866,-9.90381578882548,0 -36.1846716992153,-9.90379747172796,0 -36.1847070977936,-9.90377988622134,0 -36.1847434302811,-9.90376093757792,0 -36.1847818367562,-9.90374010095315,0 -36.1848190475837,-9.90371974337373,0 -36.1848536128559,-9.90369918003466,0 -36.184889210615,-9.90367700357097,0 -36.1849276159557,-9.9036531373145,0 -36.1849660034834,-9.90362900832172,0 -36.1850027216138,-9.90360563388373,0 -36.1850383340491,-9.90358347138701,0 -36.1850744490827,-9.90356113325359,0 -36.1851110679624,-9.90353863818279,0 -36.1851479538256,-9.90351630044627,0 -36.1851837949373,-9.90349437102634,0 -36.1852178163617,-9.9034731644176,0 -36.1852500303017,-9.90345278001131,0 -36.1852812670112,-9.90343297529252,0 -36.1853146930014,-9.9034118459494,0 -36.1853491951748,-9.90338989779581,0 -36.185384915653,-9.90336846095298,0 -36.1854211334091,-9.90334833816566,0 -36.1854577115545,-9.90332957472179,0 -36.18549519918,-9.90331352740354,0 -36.1855328369469,-9.90330143915604,0 -36.1855701623176,-9.90329291052271,0 -36.1856059581677,-9.90328878703358,0 -36.1856372470256,-9.9032903530977,0 -36.1856661408906,-9.90329539794334,0 -36.1856953411169,-9.90330478369519,0 -36.1857264470049,-9.9033151682945,0 -36.1857565969992,-9.90332382272276,0 -36.1857838790819,-9.90332914839779,0 -36.1858133299,-9.90333137505137,0 -36.1858431380021,-9.9033300706807,0 -36.1858712485515,-9.90332645691358,0 -36.1859004292152,-9.9033204907089,0 -36.1859322779308,-9.90331169901031,0 -36.1859644654535,-9.90330067398097,0 -36.1859965735134,-9.90328683752667,0 -36.1860281226629,-9.90327120914788,0 -36.1860573039136,-9.90325533055503,0 -36.1860850056987,-9.90323800021596,0 -36.1861119821342,-9.90321910897462,0 -36.1861386624672,-9.90319815657502,0 -36.1861651156017,-9.90317622043562,0 -36.1861893882813,-9.90315363334143,0 -36.1862123584631,-9.90313111282203,0 -36.1862366538879,-9.90310713018331,0 -36.186262232082,-9.90308142249775,0 -36.1862873168805,-9.90305455046564,0 -36.1863134804303,-9.9030293176166,0 -36.1863632951363,-9.90299291032204,0 -36.1864164962064,-9.90297359066976,0 -36.1864465394406,-9.90296868379126,0 -36.1864754106973,-9.90296593003535,0 -36.1865274583461,-9.90296492516759,0 -36.1865748364545,-9.9029660033953,0 -36.186616667777,-9.90296336186442,0 -36.1866411988618,-9.9029626221518,0 -36.1878632251066,-9.89974566147753,0 -36.187427273729,-9.89957561671974,0 -36.1874148633205,-9.89957015606995,0 -36.1873838872028,-9.89956761024027,0 -36.1873514029377,-9.89957688943073,0 -36.1873204473645,-9.89958923772714,0 -36.187293040821,-9.89960840855026,0 -36.1872770574409,-9.89962791020787,0 -36.1871676861072,-9.89998933977555,0 -36.186640046045,-9.90138298369893,0 -36.1866143775785,-9.90141881305357,0 -36.1865881813806,-9.90141668460914,0 -36.1865597469849,-9.9014019949976,0 -36.1865262776507,-9.90138479674126,0 -36.1864902606165,-9.90136625144143,0 -36.1864568019925,-9.90135482121915,0 -36.1864259499513,-9.90134404117137,0 -36.1863927990364,-9.90132946633346,0 -36.1863598866039,-9.9013108143242,0 -36.186324215439,-9.90129702810682,0 -36.1862900629764,-9.90127932631861,0 -36.1862558996555,-9.90126181930676,0 -36.1862208372003,-9.90124714920674,0 -36.1861854207494,-9.90123284554989,0 -36.1861510923409,-9.90121673926977,0 -36.1861173340806,-9.90120281846392,0 -36.1860807388041,-9.90118772580175,0 -36.1860474073586,-9.90117183421179,0 -36.1860132339463,-9.90115816540861,0 -36.1859788076488,-9.90114413907411,0 -36.1859469279835,-9.90112900939967,0 -36.1859128949943,-9.90111370438937,0 -36.185879795351,-9.90110177924992,0 -36.1858486191223,-9.90108768239221,0 -36.1858157971481,-9.90107342231211,0 -36.1857829382599,-9.90105842670911,0 -36.1857523490199,-9.90104452954364,0 -36.185718588394,-9.90103314651078,0 -36.1856880133308,-9.90101855969117,0 -36.1856644229534,-9.90099829101987,0 -36.1856582594143,-9.90097845696478,0 -36.1856584191284,-9.90094513286663,0 -36.185651609314,-9.90090479006241,0 -36.1848222283467,-9.90050287032535,0 -36.1847940087665,-9.90053499259994,0 -36.1847722073226,-9.90056214399011,0 -36.1847466506924,-9.90059442959748,0 -36.1847202347245,-9.90062747312811,0 -36.1846660085882,-9.90069487348294,0 -36.184639664818,-9.90072819576283,0 -36.1846141430427,-9.90076023356097,0 -36.184565238946,-9.90082156121996,0 -36.1845402139635,-9.90085302540338,0 -36.184513889046,-9.90088692827952,0 -36.1844595876649,-9.90095495742274,0 -36.1844324745781,-9.90098888735163,0 -36.1843521480578,-9.90108840066229,0 -36.1843253949118,-9.90111955471236,0 -36.1843005015762,-9.90114969848405,0 -36.1842299337155,-9.90123529772023,0 -36.1842071645903,-9.90126369737758,0 -36.1841854141041,-9.90129116845225,0 -36.1841672207627,-9.90131388562288,0 -36.1841470349987,-9.90133770023848,0 -36.1841279286583,-9.90135972410195,0 -36.1841065783344,-9.90138650137027,0 -36.1840529603463,-9.90145386098424,0 -36.1840261984388,-9.90148662871229,0 -36.1839998757005,-9.90151900397024,0 -36.1839744128197,-9.90155094239781,0 -36.1839501675182,-9.90158091945096,0 -36.1839266898549,-9.90160949510205,0 -36.1839011711201,-9.90163939312781,0 -36.1838743506386,-9.90167193896924,0 -36.1838477981061,-9.90170441239226,0 -36.1838226231277,-9.90173633563693,0 -36.183802081829,-9.9017688315121,0 -36.1837869563706,-9.90180035263383,0 -36.1837737266486,-9.90182736093604,0 -36.1837610042753,-9.90185270550086,0 -36.183748059985,-9.90188030029142,0 -36.1837340990775,-9.90191036376384,0 -36.1837191319381,-9.90194313691877,0 -36.183703735775,-9.90197527971271,0 -36.1836881093813,-9.90200506422834,0 -36.1836735408546,-9.90203371902218,0 -36.1836595772695,-9.90206047306291,0 -36.1836459066653,-9.90208780954964,0 -36.1836310967815,-9.90211848212245,0 -36.1836156475654,-9.90215074007285,0 -36.1836004695494,-9.90218176724116,0 -36.1835865919227,-9.9022112767628,0 -36.1835727717895,-9.90223951306592,0 -36.1835574733586,-9.90227044779744,0 -36.1835407738415,-9.90230224276797,0 -36.1835245381992,-9.90233312326943,0 -36.1835085710343,-9.90236313921055,0 -36.1834933215545,-9.90239194542415,0 -36.1834779647608,-9.90242095100195,0 -36.1834612182532,-9.90245225961868,0 -36.1834454402935,-9.90248375573004,0 -36.1834296023453,-9.90251437822929,0 -36.1834137338211,-9.90254627543463,0 -36.1833973147528,-9.90257819217931,0</coordinates></LinearRing></outerBoundaryIs></Polygon></MultiGeometry>
  </Placemark>
</Folder>
</Document></kml>
