<?xml version="1.0" encoding="utf-8" ?>
<kml xmlns="http://www.opengis.net/kml/2.2">
<Document id="root_doc">
<Schema name="JEQUIA_II_TALHAO_1022_ID_1088" id="JEQUIA_II_TALHAO_1022_ID_1088">
	<SimpleField name="TALHAO" type="string"></SimpleField>
	<SimpleField name="FAZENDA" type="string"></SimpleField>
	<SimpleField name="ZONA" type="string"></SimpleField>
	<SimpleField name="ID" type="float"></SimpleField>
	<SimpleField name="AREA_TOTAL" type="float"></SimpleField>
	<SimpleField name="FAZ_NOME" type="string"></SimpleField>
	<SimpleField name="CODE" type="string"></SimpleField>
</Schema>
<Folder><name>JEQUIA_II_TALHAO_1022_ID_1088</name>
  <Placemark id="JEQUIA_II_TALHAO_1022_ID_1088.1">
	<Style><LineStyle><color>ff0000ff</color></LineStyle><PolyStyle><fill>0</fill></PolyStyle></Style>
	<ExtendedData><SchemaData schemaUrl="#JEQUIA_II_TALHAO_1022_ID_1088">
		<SimpleData name="TALHAO">1022</SimpleData>
		<SimpleData name="FAZENDA">1924</SimpleData>
		<SimpleData name="ZONA">1</SimpleData>
		<SimpleData name="ID">1088</SimpleData>
		<SimpleData name="AREA_TOTAL">50.45</SimpleData>
		<SimpleData name="FAZ_NOME">JEQUIA II</SimpleData>
		<SimpleData name="CODE"></SimpleData>
	</SchemaData></ExtendedData>
      <MultiGeometry><Polygon><outerBoundaryIs><LinearRing><coordinates>-36.175091227132,-9.89887100130097,0 -36.1739527147801,-9.90862985586735,0 -36.1739991915249,-9.90866750032037,0 -36.1740383645671,-9.90868745864056,0 -36.1740861980703,-9.90870964913298,0 -36.1741125906412,-9.9087216055439,0 -36.1741372543509,-9.9087344037681,0 -36.1741652257778,-9.90874789702213,0 -36.1741964460864,-9.90876249107209,0 -36.1742300601766,-9.9087772999094,0 -36.174264938436,-9.90879351907762,0 -36.1742979104337,-9.90881148779795,0 -36.1743302846264,-9.90882846925278,0 -36.1743629754165,-9.90884535790563,0 -36.1744102390627,-9.90886891162582,0 -36.1744736301694,-9.90890095806719,0 -36.1745097698287,-9.90891962654283,0 -36.1745465778406,-9.90893693214504,0 -36.1745823540201,-9.90895454526147,0 -36.1746187347597,-9.90897234703609,0 -36.1746585443844,-9.90899134691537,0 -36.1746994018701,-9.90901112175256,0 -36.174741497371,-9.90903104359483,0 -36.1747845358415,-9.90905126286067,0 -36.1748278627107,-9.90907155120433,0 -36.1748711395118,-9.90909200293243,0 -36.1749122700639,-9.9091120360582,0 -36.1749518320235,-9.90913090009526,0 -36.174990951436,-9.9091492589674,0 -36.1750295140054,-9.90916762966046,0 -36.1750679103736,-9.90918571472931,0 -36.1751073911205,-9.90920344217078,0 -36.1751475864741,-9.90922148347626,0 -36.1751881380939,-9.90924040251544,0 -36.1752309492663,-9.90925835396201,0 -36.1752739046079,-9.90927679220359,0 -36.175316179065,-9.90929236748868,0 -36.1753561349354,-9.90930557379811,0 -36.1753941226325,-9.9093173020399,0 -36.1754304716921,-9.90932693975345,0 -36.175467599544,-9.90933560970526,0 -36.1755049026799,-9.90934233296884,0 -36.1755414258453,-9.90934590907031,0 -36.1755759787808,-9.90935163655492,0 -36.1756621229584,-9.90936219918493,0 -36.175705761358,-9.90936675829117,0 -36.1757504510849,-9.90937007641461,0 -36.1757961961731,-9.90937155262335,0 -36.1758433392531,-9.90937154431702,0 -36.1758912829559,-9.90937020987083,0 -36.1759393563788,-9.90936866279668,0 -36.1759860591458,-9.90936774403315,0 -36.1760314067047,-9.90936657223283,0 -36.176077273254,-9.90936507213875,0 -36.1761235759989,-9.90936609961437,0 -36.17616949733,-9.90937072128479,0 -36.1762295129299,-9.90938291344589,0 -36.1763077988826,-9.90941389903782,0 -36.1764036104085,-9.90945699047521,0 -36.1764762389688,-9.90949090341879,0 -36.1765718939109,-9.90954090481546,0 -36.1766368087938,-9.90957948639423,0 -36.1766738809429,-9.90960272915806,0 -36.1767086670131,-9.90962401179773,0 -36.1767426747766,-9.90964594681792,0 -36.1767758897112,-9.90966680129339,0 -36.1768119882852,-9.9096906004116,0 -36.1768738658119,-9.90973386061098,0 -36.1769059340058,-9.90975519958413,0 -36.1769396681756,-9.90977456892398,0 -36.1769769752455,-9.90979419997885,0 -36.1770169343489,-9.90981369680111,0 -36.1770579401864,-9.90983259530491,0 -36.1770990620088,-9.90984944958833,0 -36.1771404643553,-9.90986408634673,0 -36.1771829322987,-9.90987557257105,0 -36.1772258966914,-9.90988483326147,0 -36.1772689029696,-9.9098921066565,0 -36.1773125002252,-9.90989764871382,0 -36.1773565524516,-9.909901714317,0 -36.1773996383532,-9.90990409921488,0 -36.1774404068888,-9.90990411403994,0 -36.177480385492,-9.90990146500366,0 -36.1775207037364,-9.90989568184586,0 -36.1775610591394,-9.90988708397831,0 -36.1776004892193,-9.90987690744713,0 -36.177639206965,-9.90986637268833,0 -36.1776871552466,-9.90985073936529,0 -36.1777598120403,-9.90983012794603,0 -36.1777990369627,-9.90981885261408,0 -36.1778339571221,-9.90980851375539,0 -36.1778734375427,-9.90978395005686,0 -36.1790908188962,-9.8994230428507,0 -36.175091227132,-9.89887100130097,0</coordinates></LinearRing></outerBoundaryIs></Polygon></MultiGeometry>
  </Placemark>
</Folder>
</Document></kml>
