<?xml version="1.0" encoding="utf-8" ?>
<kml xmlns="http://www.opengis.net/kml/2.2">
<Document id="root_doc">
<Schema name="JEQUIA_II_TALHAO_1015_ID_1131" id="JEQUIA_II_TALHAO_1015_ID_1131">
	<SimpleField name="TALHAO" type="string"></SimpleField>
	<SimpleField name="FAZENDA" type="string"></SimpleField>
	<SimpleField name="ZONA" type="string"></SimpleField>
	<SimpleField name="ID" type="float"></SimpleField>
	<SimpleField name="AREA_TOTAL" type="float"></SimpleField>
	<SimpleField name="FAZ_NOME" type="string"></SimpleField>
	<SimpleField name="CODE" type="string"></SimpleField>
</Schema>
<Folder><name>JEQUIA_II_TALHAO_1015_ID_1131</name>
  <Placemark id="JEQUIA_II_TALHAO_1015_ID_1131.1">
	<Style><LineStyle><color>ff0000ff</color></LineStyle><PolyStyle><fill>0</fill></PolyStyle></Style>
	<ExtendedData><SchemaData schemaUrl="#JEQUIA_II_TALHAO_1015_ID_1131">
		<SimpleData name="TALHAO">1015</SimpleData>
		<SimpleData name="FAZENDA">1924</SimpleData>
		<SimpleData name="ZONA">1</SimpleData>
		<SimpleData name="ID">1131</SimpleData>
		<SimpleData name="AREA_TOTAL">18.74</SimpleData>
		<SimpleData name="FAZ_NOME">JEQUIA II</SimpleData>
		<SimpleData name="CODE"></SimpleData>
	</SchemaData></ExtendedData>
      <MultiGeometry><Polygon><outerBoundaryIs><LinearRing><coordinates>-36.2025699082252,-9.89176283182233,0 -36.2026338666578,-9.89185618519724,0 -36.2026520216855,-9.89189109204679,0 -36.2026629154109,-9.89191732170964,0 -36.2026698978533,-9.89194647718877,0 -36.2026734417882,-9.8919688303852,0 -36.2026778665969,-9.89198929696458,0 -36.2026826401451,-9.89201886899151,0 -36.2026838399532,-9.89204854800578,0 -36.2026832706825,-9.89207603650065,0 -36.2026816853406,-9.89209778262301,0 -36.2026829687981,-9.89213713707651,0 -36.2026300191306,-9.89235333079251,0 -36.2016415409236,-9.89583082245633,0 -36.2016409204307,-9.89587307946437,0 -36.201644376696,-9.89589822428652,0 -36.2016513546075,-9.89594406602041,0 -36.2016565880418,-9.89597844725328,0 -36.2016664132397,-9.89599843335371,0 -36.2016906553094,-9.89602401051119,0 -36.2017148973836,-9.89604958757759,0 -36.2017391394607,-9.89607516473358,0 -36.2017554207697,-9.89608485415131,0 -36.2046145269703,-9.89747230058994,0 -36.2046217387387,-9.8974771057628,0 -36.2046586102188,-9.89749480271944,0 -36.204689889329,-9.89750654894991,0 -36.2047204778206,-9.89751439622137,0 -36.2047515901873,-9.89752100895768,0 -36.2047829647212,-9.89752700429144,0 -36.2048002232617,-9.89752497738573,0 -36.2058139259405,-9.89306893937886,0 -36.2039697990234,-9.89219240226166,0 -36.2039658884057,-9.89220056184894,0 -36.2024121493934,-9.89146864365018,0 -36.2024110471221,-9.89152774019081,0 -36.2024324271595,-9.8915745200498,0 -36.2024519125504,-9.89160120982064,0 -36.2024713980177,-9.89162789965932,0 -36.2024908835501,-9.89165458949154,0 -36.2025103689235,-9.89168127922577,0 -36.2025298544262,-9.89170796900891,0 -36.2025493399672,-9.89173465884023,0 -36.2025699082252,-9.89176283182233,0</coordinates></LinearRing></outerBoundaryIs></Polygon></MultiGeometry>
  </Placemark>
</Folder>
</Document></kml>
