<?xml version="1.0" encoding="utf-8" ?>
<kml xmlns="http://www.opengis.net/kml/2.2">
<Document id="root_doc">
<Schema name="JEQUIA_II_TALHAO_1080_ID_1078" id="JEQUIA_II_TALHAO_1080_ID_1078">
	<SimpleField name="TALHAO" type="string"></SimpleField>
	<SimpleField name="FAZENDA" type="string"></SimpleField>
	<SimpleField name="ZONA" type="string"></SimpleField>
	<SimpleField name="ID" type="float"></SimpleField>
	<SimpleField name="AREA_TOTAL" type="float"></SimpleField>
	<SimpleField name="FAZ_NOME" type="string"></SimpleField>
	<SimpleField name="CODE" type="string"></SimpleField>
</Schema>
<Folder><name>JEQUIA_II_TALHAO_1080_ID_1078</name>
  <Placemark id="JEQUIA_II_TALHAO_1080_ID_1078.1">
	<Style><LineStyle><color>ff0000ff</color></LineStyle><PolyStyle><fill>0</fill></PolyStyle></Style>
	<ExtendedData><SchemaData schemaUrl="#JEQUIA_II_TALHAO_1080_ID_1078">
		<SimpleData name="TALHAO">1080</SimpleData>
		<SimpleData name="FAZENDA">1924</SimpleData>
		<SimpleData name="ZONA">1</SimpleData>
		<SimpleData name="ID">1078</SimpleData>
		<SimpleData name="AREA_TOTAL">60.11</SimpleData>
		<SimpleData name="FAZ_NOME">JEQUIA II</SimpleData>
		<SimpleData name="CODE"></SimpleData>
	</SchemaData></ExtendedData>
      <MultiGeometry><Polygon><outerBoundaryIs><LinearRing><coordinates>-36.1751072813963,-9.93321421939923,0 -36.1751339879039,-9.9332215778636,0 -36.1751578590081,-9.93323462686384,0 -36.1751873272881,-9.93324859067507,0 -36.1752048412278,-9.93325843084753,0 -36.1752242358849,-9.93325859532222,0 -36.1752458408911,-9.93325924239592,0 -36.1752703453655,-9.93326254171115,0 -36.1752934512512,-9.9332682682815,0 -36.1753148000737,-9.93327462116079,0 -36.1753438725619,-9.93328100277469,0 -36.1753680585991,-9.93329034379168,0 -36.1753896907848,-9.93329636286958,0 -36.1754142502477,-9.93330460661213,0 -36.1754382055777,-9.93331378840733,0 -36.1754628136473,-9.93332306564641,0 -36.1754879512213,-9.93333632511534,0 -36.1755041932259,-9.93334645190328,0 -36.1755215835963,-9.93335200149976,0 -36.1755531952926,-9.93336178391139,0 -36.1755766901747,-9.93336977995515,0 -36.1756092495907,-9.93337790455348,0 -36.1756303100907,-9.93338220363509,0 -36.1756559050563,-9.93338746658118,0 -36.1756937249859,-9.93339782977672,0 -36.1757180483603,-9.93340263486966,0 -36.1757755036667,-9.93341754355352,0 -36.1758245680764,-9.93342815232935,0 -36.1758746759891,-9.93344555247183,0 -36.1759239576627,-9.9334604342237,0 -36.1759905222528,-9.93348229693073,0 -36.1760595584617,-9.93350574882655,0 -36.1761561922587,-9.93351745670495,0 -36.1762879941453,-9.93352632086755,0 -36.1763431049133,-9.93352678577025,0 -36.1764151533664,-9.93350401451346,0 -36.1764698577594,-9.93348071181896,0 -36.1765227242922,-9.93345030661447,0 -36.1765635997116,-9.93341371690326,0 -36.1766019672928,-9.93338228056475,0 -36.1766371474812,-9.93336323347526,0 -36.1766747565061,-9.93334112857409,0 -36.176716215289,-9.93332177045004,0 -36.176755501192,-9.93330671849759,0 -36.1767928365005,-9.93329457864901,0 -36.1768318843136,-9.93328504659344,0 -36.176868335063,-9.93327891649532,0 -36.1769081065476,-9.93327614911325,0 -36.1769479390911,-9.93327809514695,0 -36.176989827512,-9.93328442565561,0 -36.1770290663746,-9.9332970979075,0 -36.1770675669387,-9.93331492790375,0 -36.1771066756635,-9.93333317470864,0 -36.1771381092948,-9.93336177689031,0 -36.1771646930062,-9.93339423262902,0 -36.1771892059197,-9.93342382925117,0 -36.1772195288945,-9.93345124408903,0 -36.1772426950338,-9.93348623844645,0 -36.177265682262,-9.93351575195689,0 -36.177296813191,-9.93353949217109,0 -36.1773191336016,-9.93356174249848,0 -36.1773578423403,-9.93359619069001,0 -36.1774080055415,-9.93361612591952,0 -36.1774570754697,-9.93362431746984,0 -36.1775042580664,-9.93363002895628,0 -36.1775530557501,-9.93363956454841,0 -36.1775903945265,-9.93365721786483,0 -36.177635836953,-9.93367184389952,0 -36.1776858298159,-9.93367834522594,0 -36.1777256806252,-9.93367487946872,0 -36.1777677834834,-9.93366055243912,0 -36.1778157301329,-9.93365650528536,0 -36.1778616177495,-9.93365100019027,0 -36.1779064120006,-9.93364652426299,0 -36.1779498776914,-9.93363907371878,0 -36.1779944567941,-9.93363170383703,0 -36.1780396023783,-9.93362480694884,0 -36.178084396176,-9.93361660896638,0 -36.1781319149408,-9.9336051669924,0 -36.1781737563096,-9.93360493700061,0 -36.1782127626252,-9.93360226392527,0 -36.1782570111082,-9.93358733920929,0 -36.1783147396416,-9.93356628707646,0 -36.1783573648974,-9.93354967744429,0 -36.178395177871,-9.93352908393523,0 -36.1784272802381,-9.93349642209405,0 -36.1784516508138,-9.93348374553703,0 -36.1784796250125,-9.93345616542156,0 -36.1785025117114,-9.93342348094148,0 -36.1785169832745,-9.93338690244408,0 -36.1785275939952,-9.93334953188634,0 -36.1785328694466,-9.93331001061592,0 -36.1785341175556,-9.93326878819145,0 -36.1785307768644,-9.93322965209641,0 -36.1785259462325,-9.9331914525517,0 -36.1785216102787,-9.93315665013018,0 -36.1785195879586,-9.93312109449982,0 -36.1785242705777,-9.93307906387598,0 -36.1785430675715,-9.93304236874933,0 -36.1785576001574,-9.93300600481922,0 -36.1785743167306,-9.93296623027309,0 -36.1786016210163,-9.93293009252088,0 -36.1786303887646,-9.93289598865723,0 -36.1786586685479,-9.93286306469492,0 -36.1786736132251,-9.93283210664335,0 -36.178701231021,-9.93279459038697,0 -36.1787253216236,-9.93276018746914,0 -36.178746899094,-9.93272593778344,0 -36.1787705351778,-9.93268978197094,0 -36.178795730669,-9.93265351959834,0 -36.1788215763112,-9.93261941754824,0 -36.1788478673393,-9.93258606159141,0 -36.1788744404808,-9.93255388337383,0 -36.1789008702281,-9.93252302948691,0 -36.1789267903622,-9.93249277086526,0 -36.1789528099307,-9.93246275746153,0 -36.178981155051,-9.93243452774959,0 -36.1790148653272,-9.93241194061292,0 -36.1790417137841,-9.9323843625495,0 -36.1790757253912,-9.93235740099973,0 -36.1791256664963,-9.9323042856342,0 -36.1791646643104,-9.93227994168209,0 -36.1792020533471,-9.93226202523308,0 -36.1792471168935,-9.93224804797077,0 -36.179284763996,-9.93224164387476,0 -36.1793195451196,-9.93223438884669,0 -36.1793530379845,-9.9322354462142,0 -36.1793878336251,-9.93223683738802,0 -36.1794186579491,-9.93224422195268,0 -36.1794225458834,-9.93224609672056,0 -36.1794786255755,-9.93177474453705,0 -36.1794607115923,-9.93177908372343,0 -36.1794603064208,-9.93177917862969,0 -36.1794598998385,-9.93177926740696,0 -36.1794594919396,-9.93177935003466,0 -36.1794590828187,-9.9317794264936,0 -36.1794586725708,-9.93177949676605,0 -36.179458261291,-9.93177956083573,0 -36.1794578490748,-9.93177961868774,0 -36.1794420484088,-9.93178171465435,0 -36.1794027099788,-9.93178716657212,0 -36.1794023018949,-9.93178722002585,0 -36.1794018930455,-9.93178726738101,0 -36.1794014835232,-9.93178730862693,0 -36.1793598059966,-9.93179119216642,0 -36.1793166219282,-9.93179594238186,0 -36.1792699448967,-9.93180310013332,0 -36.1792227185521,-9.93181283555955,0 -36.1791758844548,-9.93182590774035,0 -36.1791266324841,-9.93184142317909,0 -36.1790784913128,-9.93185838228635,0 -36.179032801477,-9.93187690054073,0 -36.1789901066826,-9.93189640802562,0 -36.1789503386075,-9.93191590355633,0 -36.1789500358713,-9.93191604967328,0 -36.1789117734268,-9.9319342290657,0 -36.1788771338695,-9.93195196663127,0 -36.1788423386367,-9.93197011300257,0 -36.178808630721,-9.9319881408774,0 -36.1788083029048,-9.93198831336402,0 -36.1787501605889,-9.93201840629204,0 -36.1787498355733,-9.93201857178051,0 -36.1787495083558,-9.93201873294716,0 -36.1786963473615,-9.93204447895076,0 -36.178695963492,-9.93204466120356,0 -36.178695576807,-9.93204483750866,0 -36.1786440557428,-9.93206784794687,0 -36.1786436785979,-9.93206801300757,0 -36.1785959592242,-9.9320884729175,0 -36.1785541999503,-9.93210919350373,0 -36.1785537833936,-9.93210939583203,0 -36.1785533634341,-9.93210959112323,0 -36.1785529401927,-9.93210977932109,0 -36.1785525137913,-9.93210996037141,0 -36.1785520843526,-9.93211013422207,0 -36.1785516520002,-9.93211030082301,0 -36.1785512168588,-9.93211046012624,0 -36.1785030923959,-9.93212761965785,0 -36.1784480021707,-9.93215087180304,0 -36.1784477302499,-9.93215098485997,0 -36.1783837809129,-9.93217717198019,0 -36.1783236669882,-9.93220490293715,0 -36.1782688840178,-9.9322334162501,0 -36.1782175115438,-9.93226618297078,0 -36.1781666820755,-9.93229853922345,0 -36.1781250085639,-9.93232606686866,0 -36.1780412969877,-9.93236677839532,0 -36.1780024327488,-9.93238564241291,0 -36.1780021082548,-9.93238579729766,0 -36.1780017817309,-9.93238594793043,0 -36.1779599096228,-9.93240493279101,0 -36.1779595281614,-9.9324051022616,0 -36.1779591441309,-9.93240526592915,0 -36.177958757621,-9.93240542375539,0 -36.1779583687222,-9.93240557570342,0 -36.1779160104515,-9.93242175578415,0 -36.1779156192426,-9.93242190182272,0 -36.1779152258271,-9.93242204191304,0 -36.1779148302969,-9.93242217602234,0 -36.1779144327444,-9.93242230411925,0 -36.1779140332627,-9.93242242617383,0 -36.1778720675784,-9.93243490050793,0 -36.1778716919019,-9.93243500927816,0 -36.1778713146934,-9.93243511270467,0 -36.1778709360299,-9.93243521076628,0 -36.1778705559893,-9.93243530344288,0 -36.1778283957169,-9.93244526784832,0 -36.1778280312536,-9.93244535137892,0 -36.1777860311768,-9.9324546776067,0 -36.1777856350181,-9.93245476252178,0 -36.1777852376331,-9.9324548416039,0 -36.1777848391091,-9.93245491483568,0 -36.1777844395337,-9.932454982201,0 -36.1777840389949,-9.93245504368508,0 -36.1777836375806,-9.93245509927438,0 -36.1777441558488,-9.93246027127664,0 -36.1777437650335,-9.93246031963493,0 -36.1777433735561,-9.93246036240561,0 -36.1777429814977,-9.93246039957977,0 -36.1776989783558,-9.93246425491177,0 -36.1776986060924,-9.93246428498786,0 -36.1776982334494,-9.93246431001831,0 -36.1776978604962,-9.93246432999844,0 -36.1776974873024,-9.93246434492453,0 -36.1776473317621,-9.9324660107289,0 -36.1776470465141,-9.93246601872517,0 -36.1775924564596,-9.93246726633243,0 -36.1775924199125,-9.93246726714345,0 -36.1775355351521,-9.93246849172346,0 -36.1775354273934,-9.9324684938325,0 -36.1774790070048,-9.93246948776284,0 -36.1774787245555,-9.93246949129136,0 -36.1774784420845,-9.93246949192596,0 -36.1774224232408,-9.93246933080925,0 -36.1773674424817,-9.93246981600295,0 -36.1773145810018,-9.93247050856217,0 -36.1772641573483,-9.93247341356183,0 -36.177215837259,-9.93247776897655,0 -36.1772153741308,-9.93247780678912,0 -36.1772149104212,-9.93247783679069,0 -36.1772144462642,-9.93247785897259,0 -36.1772139817939,-9.93247787332842,0 -36.1772135171447,-9.93247787985403,0 -36.1772130524506,-9.93247787854754,0 -36.1771608498321,-9.93247729182051,0 -36.1771603854751,-9.93247728268915,0 -36.1771599213415,-9.93247726573706,0 -36.1771044738415,-9.9324747727403,0 -36.1770498721762,-9.93247411738033,0 -36.1769979043232,-9.93247422091714,0 -36.1769976112827,-9.93247421994363,0 -36.1769469181613,-9.9324737821199,0 -36.1768996429906,-9.93247452743777,0 -36.1768567770338,-9.93247610848283,0 -36.1768564008815,-9.93247611978655,0 -36.1768560246079,-9.93247612595509,0 -36.1768556482843,-9.93247612698726,0 -36.1768094432733,-9.93247593837934,0 -36.1768091840831,-9.9324759361029,0 -36.1767586988048,-9.93247525535047,0 -36.1767090809995,-9.93247604836995,0 -36.1767086315364,-9.93247605188921,0 -36.1767081820757,-9.93247604808083,0 -36.1766596004051,-9.93247524036193,0 -36.1766110039258,-9.93247510080617,0 -36.1765582576645,-9.93247512893149,0 -36.176503405686,-9.932476500983,0 -36.1764430183634,-9.93247820156767,0 -36.1763820667435,-9.9324809200057,0 -36.1763230563213,-9.93248485074952,0 -36.1762655686599,-9.9324893031188,0 -36.1762654366346,-9.93248931302513,0 -36.17620902057,-9.93249340991321,0 -36.1762087751608,-9.93249342663432,0 -36.1762085296097,-9.93249344116524,0 -36.1761526709949,-9.93249649668183,0 -36.1761525012327,-9.9324965054431,0 -36.1760976762961,-9.93249916546005,0 -36.1760445492082,-9.93250220967484,0 -36.1759921768204,-9.9325053931293,0 -36.1759921224915,-9.93250539637786,0 -36.1759383157092,-9.93250856040726,0 -36.1758818348551,-9.93251199207738,0 -36.1758815190525,-9.93251200944732,0 -36.1758258737586,-9.93251475001442,0 -36.1757711410851,-9.93251763697396,0 -36.175719989722,-9.93252101420564,0 -36.1756743986174,-9.93252440796571,0 -36.1756304672414,-9.93252784241748,0 -36.1755867750832,-9.93253125098403,0 -36.1755457278966,-9.93253461013142,0 -36.1755456189008,-9.93253461883364,0 -36.1755065541483,-9.93253765980209,0 -36.1755061615001,-9.93253768754873,0 -36.1755057684897,-9.93253770968658,0 -36.1754682528648,-9.93253955432315,0 -36.1754310431789,-9.93254181300729,0 -36.1753932432994,-9.93254443865248,0 -36.1753571401242,-9.9325478089387,0 -36.175356694056,-9.93254784692865,0 -36.1753562474202,-9.93254787767028,0 -36.1753558003364,-9.93254790115534,0 -36.1753553529246,-9.93254791737751,0 -36.1753549053049,-9.93254792633244,0 -36.1753544575973,-9.93254792801777,0 -36.1753540099218,-9.932547922433,0 -36.1753535623987,-9.93254790957964,0 -36.1753531151479,-9.93254788946116,0 -36.1752016772251,-9.93253984476765,0 -36.175204484688,-9.93251441271896,0 -36.1753058856603,-9.93251824003022,0 -36.1753545776691,-9.93252082664122,0 -36.1753910065291,-9.93251742595096,0 -36.1754292526873,-9.93251476930559,0 -36.1754667405812,-9.93251249373297,0 -36.1755044144932,-9.9325106413126,0 -36.1755434792424,-9.93250760034351,0 -36.1755845786116,-9.93250423692472,0 -36.1756283184804,-9.9325008246355,0 -36.1756723009304,-9.93249738618989,0 -36.1757180582247,-9.93249398005776,0 -36.1757695067381,-9.93249058320574,0 -36.1758244695369,-9.93248768410664,0 -36.1758801628346,-9.93248494117406,0 -36.1759366704831,-9.93248150787467,0 -36.1759905040632,-9.9324783422682,0 -36.1760429242229,-9.93247515590872,0 -36.1760962196174,-9.93247210204865,0 -36.1761511651308,-9.93246943618026,0 -36.176207023741,-9.93246638066266,0 -36.1762634398007,-9.93246228377363,0 -36.1763210756325,-9.93245781992735,0 -36.1763805361462,-9.93245385920111,0 -36.1764420160236,-9.93245111720143,0 -36.1765026729071,-9.93244940902422,0 -36.1765579055435,-9.93244802744975,0 -36.1766110361628,-9.93244799911831,0 -36.1766598691709,-9.9324481393522,0 -36.1767086404039,-9.93244895022164,0 -36.1767586643669,-9.93244815070957,0 -36.1768095558181,-9.93244883693774,0 -36.1768557608253,-9.93244902554462,0 -36.1768989174952,-9.93244743377604,0 -36.1769468198955,-9.93244667856847,0 -36.1769978493948,-9.93244711929629,0 -36.1770500101668,-9.93244701537393,0 -36.1771052586851,-9.93244767849648,0 -36.1771611596958,-9.9324501918825,0 -36.17721336231,-9.93245077860833,0 -36.1772621264623,-9.93244638316608,0 -36.1773136070488,-9.93244341727335,0 -36.1773671402373,-9.93244271591265,0 -36.1774223412369,-9.93244222877408,0 -36.177478521379,-9.93244239035347,0 -36.1775349417629,-9.93244139642193,0 -36.1775918265185,-9.93244017184072,0 -36.1776464165684,-9.93243892423231,0 -36.1776965721045,-9.93243725842694,0 -36.1777405752427,-9.93243340309424,0 -36.177780056971,-9.93242823109152,0 -36.1778220570441,-9.93241890486359,0 -36.1778642173128,-9.93240894045807,0 -36.1779061829936,-9.93239646612408,0 -36.1779485412608,-9.93238028604383,0 -36.1779904133656,-9.93236130118399,0 -36.1780295052018,-9.93234232669398,0 -36.1780990146569,-9.93231015789832,0 -36.1781098522265,-9.93230351254483,0 -36.1781517184921,-9.93227585757464,0 -36.1782027221559,-9.93224339044795,0 -36.1782551096678,-9.93220997630861,0 -36.1783115413975,-9.93218060485237,0 -36.1783727922688,-9.93215234941324,0 -36.1784372950482,-9.93212593565829,0 -36.1784931052607,-9.93210237962413,0 -36.1785419660665,-9.932084957537,0 -36.1785844082355,-9.93206389810342,0 -36.1786328285192,-9.93204313767413,0 -36.1786843495794,-9.93202012723675,0 -36.1787375105696,-9.93199438123419,0 -36.1787956528812,-9.9319642883075,0 -36.17882948656,-9.93194619317079,0 -36.1788644989985,-9.93192793352204,0 -36.1788995922304,-9.93190996364688,0 -36.1789382226816,-9.93189160940513,0 -36.1789783260811,-9.9318719494874,0 -36.1790219039892,-9.93185203850222,0 -36.17906873812,-9.93183305645998,0 -36.1791179151353,-9.93181573244601,0 -36.1791680396905,-9.9317999421231,0 -36.1792162246677,-9.93178649288799,0 -36.1792650702655,-9.9317764236614,0 -36.1793130240171,-9.93176907012851,0 -36.1793570197554,-9.93176423062897,0 -36.1793989257168,-9.93176032580284,0 -36.1794383437468,-9.93175486285238,0 -36.1794542240789,-9.93175275631766,0 -36.1794820433578,-9.93174601783548,0 -36.1808165888757,-9.92052821964955,0 -36.1764992569635,-9.92218052666122,0 -36.1751072813963,-9.93321421939923,0</coordinates></LinearRing></outerBoundaryIs></Polygon></MultiGeometry>
  </Placemark>
</Folder>
</Document></kml>
