<?xml version="1.0" encoding="utf-8" ?>
<kml xmlns="http://www.opengis.net/kml/2.2">
<Document id="root_doc">
<Schema name="JEQUIA_II_TALHAO_1066_ID_1034" id="JEQUIA_II_TALHAO_1066_ID_1034">
	<SimpleField name="TALHAO" type="string"></SimpleField>
	<SimpleField name="FAZENDA" type="string"></SimpleField>
	<SimpleField name="ZONA" type="string"></SimpleField>
	<SimpleField name="ID" type="float"></SimpleField>
	<SimpleField name="AREA_TOTAL" type="float"></SimpleField>
	<SimpleField name="FAZ_NOME" type="string"></SimpleField>
	<SimpleField name="CODE" type="string"></SimpleField>
</Schema>
<Folder><name>JEQUIA_II_TALHAO_1066_ID_1034</name>
  <Placemark id="JEQUIA_II_TALHAO_1066_ID_1034.1">
	<Style><LineStyle><color>ff0000ff</color></LineStyle><PolyStyle><fill>0</fill></PolyStyle></Style>
	<ExtendedData><SchemaData schemaUrl="#JEQUIA_II_TALHAO_1066_ID_1034">
		<SimpleData name="TALHAO">1066</SimpleData>
		<SimpleData name="FAZENDA">1924</SimpleData>
		<SimpleData name="ZONA">1</SimpleData>
		<SimpleData name="ID">1034</SimpleData>
		<SimpleData name="AREA_TOTAL">14.56</SimpleData>
		<SimpleData name="FAZ_NOME">JEQUIA II</SimpleData>
		<SimpleData name="CODE"></SimpleData>
	</SchemaData></ExtendedData>
      <MultiGeometry><Polygon><outerBoundaryIs><LinearRing><coordinates>-36.1842144053383,-9.93190109424411,0 -36.1841620280817,-9.93200097551083,0 -36.1841385986019,-9.93205072970864,0 -36.1841146481331,-9.93210403749862,0 -36.1840892346033,-9.93215162934061,0 -36.1840640639735,-9.93219782055816,0 -36.1840105147396,-9.93228819997051,0 -36.1839464453607,-9.9323824353422,0 -36.1839105062785,-9.93243364389648,0 -36.183871575922,-9.93248477361423,0 -36.1837912303705,-9.93257641828312,0 -36.1837160498686,-9.93266759122757,0 -36.1836804367611,-9.93271231881702,0 -36.1835740459151,-9.93284865018639,0 -36.1835408874139,-9.93289380212798,0 -36.1835076038948,-9.93293952702292,0 -36.1834754234539,-9.9329846890608,0 -36.1834442226213,-9.93303296548323,0 -36.1833557028742,-9.93317601841013,0 -36.1833334392981,-9.93322751606814,0 -36.1833145757467,-9.93328076875376,0 -36.1833011996414,-9.9333324677055,0 -36.1832974312698,-9.93348962260962,0 -36.1833148017975,-9.9335359359405,0 -36.1833459754565,-9.9335797642559,0 -36.1833835009398,-9.93361526972557,0 -36.1834747771467,-9.93366888641517,0 -36.1835238631025,-9.93368889462101,0 -36.1835731433602,-9.93370482459131,0 -36.1836245159781,-9.93371908038086,0 -36.1837850218727,-9.93375597960814,0 -36.183839450944,-9.93376390893435,0 -36.1838926570523,-9.93376755580487,0 -36.1839516318405,-9.93376130726775,0 -36.1840112460756,-9.93375346826347,0 -36.1840678079328,-9.9337421829382,0 -36.1841193799233,-9.93372774785949,0 -36.1841720672709,-9.93371679320698,0 -36.1842203176576,-9.93370591014405,0 -36.1842689316689,-9.93369486255844,0 -36.1843196479012,-9.93368335501832,0 -36.1843710916222,-9.93366924293025,0 -36.1844261097626,-9.93365520015864,0 -36.184480009346,-9.93364126637034,0 -36.1845372564581,-9.9336290192085,0 -36.1845976312153,-9.93361454006337,0 -36.184660278805,-9.93360762826371,0 -36.1847097574564,-9.93358709115735,0 -36.1847693531021,-9.93357045539106,0 -36.1848232050575,-9.93355617930374,0 -36.184875483824,-9.93354177277803,0 -36.1849294857488,-9.93352462079022,0 -36.1849906699973,-9.9335038835901,0 -36.1850585424704,-9.9334894757079,0 -36.1851237512695,-9.93346484486098,0 -36.1851936225618,-9.93344363249336,0 -36.1852633065216,-9.93342695528799,0 -36.1853272776559,-9.93340918817731,0 -36.1853905839222,-9.93339277979788,0 -36.1854525537839,-9.9333760973213,0 -36.1855103679296,-9.93335602404084,0 -36.1855714569394,-9.93333933965477,0 -36.1856302330226,-9.93332188287962,0 -36.185689352312,-9.93330844510306,0 -36.1857902831674,-9.9332782703642,0 -36.1858335414764,-9.93326268488108,0 -36.1858807097571,-9.93325288391073,0 -36.1859259914358,-9.93324028344471,0 -36.1859670061933,-9.93322669100261,0 -36.1869715749027,-9.92641251993275,0 -36.1862797694103,-9.92668019852261,0 -36.1862811006888,-9.92674280399383,0 -36.1862820109138,-9.92679096826317,0 -36.1862827385,-9.92683882409771,0 -36.1862824245592,-9.92688675074171,0 -36.1862804327067,-9.926935126467,0 -36.18627595141,-9.92698226460515,0 -36.18626953568,-9.92702814190892,0 -36.1862595055653,-9.92707281575531,0 -36.1862449526552,-9.92711518051382,0 -36.1862256511961,-9.92715330399294,0 -36.1862026376279,-9.92718723943369,0 -36.1861763576705,-9.92721645605246,0 -36.1861476313055,-9.92724353281436,0 -36.1861144904306,-9.92727170032357,0 -36.1860984115056,-9.9272826364373,0 -36.1860813569329,-9.92730939779078,0 -36.1860183811417,-9.92737622890102,0 -36.185924782902,-9.92744796996,0 -36.1858869230885,-9.92746556166395,0 -36.1858528641889,-9.92747798544122,0 -36.185832047074,-9.92748520900752,0 -36.1857989673457,-9.92749604081971,0 -36.1857727044704,-9.9275035716402,0 -36.1857441123416,-9.92750914423517,0 -36.1857185856517,-9.92751731461778,0 -36.1856913136449,-9.92752728376199,0 -36.1856624462006,-9.92753672158674,0 -36.1856285589627,-9.92754920546948,0 -36.1855917700665,-9.92756448317886,0 -36.1855528043197,-9.92758125318255,0 -36.1855149857484,-9.92760033012161,0 -36.185483667697,-9.92762222230512,0 -36.1854580286701,-9.92764672406042,0 -36.1854350306211,-9.92767015173866,0 -36.1854143953559,-9.92769318176252,0 -36.1853939256222,-9.92771726981434,0 -36.1853754373711,-9.92774212518162,0 -36.1853568705819,-9.92776676236547,0 -36.1853392568498,-9.92779185380668,0 -36.1853203946388,-9.92781628773526,0 -36.1853014700904,-9.92784143791981,0 -36.1852808737679,-9.92786725113465,0 -36.1852609705272,-9.92789480475759,0 -36.1852418363819,-9.92792334917223,0 -36.1852239155075,-9.92795145772224,0 -36.1852062534989,-9.92798079649427,0 -36.1851883030064,-9.92800580396185,0 -36.1851692667102,-9.92803493553775,0 -36.1851490429107,-9.92806477898271,0 -36.1851295941502,-9.92809618115218,0 -36.1851114083986,-9.92812818777433,0 -36.1850941950947,-9.9281611209006,0 -36.185076271082,-9.92819402542781,0 -36.1850630561078,-9.92822995599632,0 -36.1850495774049,-9.92826547495735,0 -36.185036905763,-9.9282994588697,0 -36.1850253349395,-9.92833361011975,0 -36.1850141991002,-9.92836725417441,0 -36.1850036929191,-9.92839905333228,0 -36.1849943698423,-9.9284295707357,0 -36.1849857157997,-9.9284573863753,0 -36.1849788208278,-9.92848275197325,0 -36.1849720041351,-9.92850623983854,0 -36.1849680682607,-9.92852533350572,0 -36.1849620601365,-9.9285463396145,0 -36.184954654735,-9.92856988716559,0 -36.1849492912035,-9.92858607095403,0 -36.1849463313229,-9.92860439916238,0 -36.1849405056307,-9.92862413950277,0 -36.1849344429651,-9.92864937430462,0 -36.1849259508634,-9.92867369795862,0 -36.1849222536539,-9.92870200358854,0 -36.1849134937523,-9.92872640578686,0 -36.1849093977112,-9.92875169989583,0 -36.1849043633653,-9.928780624007,0 -36.1848982169356,-9.92881112246113,0 -36.1848917327956,-9.92884160595411,0 -36.1848855691861,-9.92887144322363,0 -36.1848793715425,-9.92890011378243,0 -36.1848732386952,-9.92892822081858,0 -36.1848665100978,-9.92895411808671,0 -36.1848610843985,-9.92897902798698,0 -36.184856318729,-9.92900509610286,0 -36.1848512549419,-9.92903073085371,0 -36.18484669555,-9.92905736381093,0 -36.1848423900758,-9.92908395037029,0 -36.1848384650674,-9.92911047268988,0 -36.184833410327,-9.92913735402712,0 -36.1848275730671,-9.92916443161657,0 -36.1848218166715,-9.92919189979186,0 -36.1848144692746,-9.92921371339525,0 -36.1848101081087,-9.92923930389621,0 -36.1848072335823,-9.92926025231869,0 -36.1848043153892,-9.92928112521318,0 -36.1848009920284,-9.92930714842201,0 -36.1847971301178,-9.92933505865774,0 -36.1847901918232,-9.92936537637813,0 -36.1847834721981,-9.9293972255093,0 -36.184775948332,-9.92943256223303,0 -36.1847675419309,-9.92947064298469,0 -36.1847586491264,-9.92950823154621,0 -36.1847496476013,-9.92954924433936,0 -36.1847400067998,-9.92959110581304,0 -36.1847299361441,-9.92963113465775,0 -36.1847206958354,-9.92967003904441,0 -36.1847188517619,-9.92967835866957,0 -36.1847105652449,-9.92997551667886,0 -36.1847105485734,-9.93002480259443,0 -36.1847124942366,-9.93011214948912,0 -36.1847141059967,-9.93015196927353,0 -36.1847110027552,-9.93027048512121,0 -36.184705004772,-9.93035084245377,0 -36.1846988629912,-9.9303920124111,0 -36.1846917478132,-9.93044003891091,0 -36.1846695072376,-9.93059699739641,0 -36.184658551395,-9.93064192616657,0 -36.1846487612504,-9.93068845860744,0 -36.1846380837914,-9.93073683452725,0 -36.1846203351555,-9.9308343233676,0 -36.1845982996369,-9.93092810507299,0 -36.1845863696509,-9.93099653777883,0 -36.1845546917046,-9.93109590929831,0 -36.1845391131555,-9.93115907133863,0 -36.184526847229,-9.93120813967252,0 -36.1845092022569,-9.93126738687923,0 -36.1844444026145,-9.93142794519487,0 -36.1844223778904,-9.93148637394909,0 -36.184398306005,-9.9315366587485,0 -36.1843733120076,-9.93158943375278,0 -36.1843252417183,-9.93168982470484,0 -36.1842987909527,-9.93174093704127,0 -36.1842419637725,-9.93184842086323,0 -36.1842144053383,-9.93190109424411,0</coordinates></LinearRing></outerBoundaryIs></Polygon></MultiGeometry>
  </Placemark>
</Folder>
</Document></kml>
