<?xml version="1.0" encoding="utf-8" ?>
<kml xmlns="http://www.opengis.net/kml/2.2">
<Document id="root_doc">
<Schema name="JEQUIA_II_TALHAO_1003_ID_1130" id="JEQUIA_II_TALHAO_1003_ID_1130">
	<SimpleField name="TALHAO" type="string"></SimpleField>
	<SimpleField name="FAZENDA" type="string"></SimpleField>
	<SimpleField name="ZONA" type="string"></SimpleField>
	<SimpleField name="ID" type="float"></SimpleField>
	<SimpleField name="AREA_TOTAL" type="float"></SimpleField>
	<SimpleField name="FAZ_NOME" type="string"></SimpleField>
	<SimpleField name="CODE" type="string"></SimpleField>
</Schema>
<Folder><name>JEQUIA_II_TALHAO_1003_ID_1130</name>
  <Placemark id="JEQUIA_II_TALHAO_1003_ID_1130.1">
	<Style><LineStyle><color>ff0000ff</color></LineStyle><PolyStyle><fill>0</fill></PolyStyle></Style>
	<ExtendedData><SchemaData schemaUrl="#JEQUIA_II_TALHAO_1003_ID_1130">
		<SimpleData name="TALHAO">1003</SimpleData>
		<SimpleData name="FAZENDA">1924</SimpleData>
		<SimpleData name="ZONA">1</SimpleData>
		<SimpleData name="ID">1130</SimpleData>
		<SimpleData name="AREA_TOTAL">5.59</SimpleData>
		<SimpleData name="FAZ_NOME">JEQUIA II</SimpleData>
		<SimpleData name="CODE"></SimpleData>
	</SchemaData></ExtendedData>
      <MultiGeometry><Polygon><outerBoundaryIs><LinearRing><coordinates>-36.1813172460778,-9.88064280286481,0 -36.1810392829289,-9.88307014301266,0 -36.18300777735,-9.88374490295152,0 -36.1832701993714,-9.88146502020489,0 -36.1832385660589,-9.88145591792104,0 -36.1832092434303,-9.88144644813125,0 -36.183179040021,-9.88143655227175,0 -36.1831515544316,-9.88142752658235,0 -36.1831250050631,-9.88141891365352,0 -36.1830988801004,-9.88141112352952,0 -36.1830715505897,-9.88140343878433,0 -36.1830429490669,-9.88139512114431,0 -36.1830143291588,-9.88138693354341,0 -36.1829854279553,-9.88137886945351,0 -36.1829552639173,-9.88137059750141,0 -36.1829237881084,-9.88136217111429,0 -36.1828909913926,-9.88135345687728,0 -36.1828588226976,-9.88134459931672,0 -36.1828269700716,-9.8813364506761,0 -36.1827956479476,-9.88132838648753,0 -36.1827648206718,-9.88132054998469,0 -36.1827342919679,-9.88131296742441,0 -36.1827036016845,-9.88130539851639,0 -36.1826735189198,-9.88129867823258,0 -36.182643018099,-9.8812920144011,0 -36.1826121706625,-9.88128527363874,0 -36.1825814076335,-9.88127901327937,0 -36.182549852321,-9.88127277718133,0 -36.1825183536811,-9.88126609545208,0 -36.1824864019138,-9.88125929457135,0 -36.1824545036977,-9.88125258757777,0 -36.1824244573598,-9.8812457253512,0 -36.1823953686667,-9.8812391555203,0 -36.182366188057,-9.88123272921681,0 -36.1823365640877,-9.88122621967432,0 -36.1823056413375,-9.88121943796428,0 -36.1822747121651,-9.88121218894984,0 -36.1822445129269,-9.88120416107139,0 -36.1822151510583,-9.88119588395096,0 -36.1821858450813,-9.88118739069203,0 -36.1821562938309,-9.88117836922909,0 -36.1821267501088,-9.88116857770239,0 -36.1820974738814,-9.88115803551587,0 -36.1820688394535,-9.8811474581948,0 -36.1820405528318,-9.88113625424659,0 -36.1820142013726,-9.88112648543987,0 -36.1819885952831,-9.88111741326748,0 -36.1819627122587,-9.88110781597888,0 -36.1819377220001,-9.8810983206125,0 -36.1819118864765,-9.88109013757162,0 -36.1818861923914,-9.88107948116282,0 -36.1818625113571,-9.88106767166163,0 -36.1818389419405,-9.88105732993822,0 -36.1818140466854,-9.88104498823953,0 -36.1817883962233,-9.88103059832808,0 -36.181763198584,-9.88101438914585,0 -36.1817383308062,-9.88099734396326,0 -36.1817146584696,-9.8809813293297,0 -36.181691333253,-9.88096659340215,0 -36.1816681268901,-9.88095317248833,0 -36.1816449878571,-9.88094092333646,0 -36.1816212033938,-9.88092770495972,0 -36.1815974710091,-9.88091205579221,0 -36.1815754787663,-9.88089464150009,0 -36.1815540320779,-9.88087684690977,0 -36.1815330512421,-9.88085859901745,0 -36.181511942157,-9.88083987197561,0 -36.1814903981232,-9.88082141994347,0 -36.1814686846803,-9.88080196059634,0 -36.1814487180597,-9.88078201773496,0 -36.1814290246853,-9.88076191710689,0 -36.1814106002607,-9.88074141744693,0 -36.1813930062235,-9.88072201710656,0 -36.1813759566073,-9.88070428200164,0 -36.1813606468454,-9.88068799077194,0 -36.1813351174336,-9.88066148815302,0 -36.1813172460778,-9.88064280286481,0</coordinates></LinearRing></outerBoundaryIs></Polygon></MultiGeometry>
  </Placemark>
</Folder>
</Document></kml>
