<?xml version="1.0" encoding="utf-8" ?>
<kml xmlns="http://www.opengis.net/kml/2.2">
<Document id="root_doc">
<Schema name="JEQUIA_II_TALHAO_1039_ID_1059" id="JEQUIA_II_TALHAO_1039_ID_1059">
	<SimpleField name="TALHAO" type="string"></SimpleField>
	<SimpleField name="FAZENDA" type="string"></SimpleField>
	<SimpleField name="ZONA" type="string"></SimpleField>
	<SimpleField name="ID" type="float"></SimpleField>
	<SimpleField name="AREA_TOTAL" type="float"></SimpleField>
	<SimpleField name="FAZ_NOME" type="string"></SimpleField>
	<SimpleField name="CODE" type="string"></SimpleField>
</Schema>
<Folder><name>JEQUIA_II_TALHAO_1039_ID_1059</name>
  <Placemark id="JEQUIA_II_TALHAO_1039_ID_1059.1">
	<Style><LineStyle><color>ff0000ff</color></LineStyle><PolyStyle><fill>0</fill></PolyStyle></Style>
	<ExtendedData><SchemaData schemaUrl="#JEQUIA_II_TALHAO_1039_ID_1059">
		<SimpleData name="TALHAO">1039</SimpleData>
		<SimpleData name="FAZENDA">1924</SimpleData>
		<SimpleData name="ZONA">1</SimpleData>
		<SimpleData name="ID">1059</SimpleData>
		<SimpleData name="AREA_TOTAL">17.46</SimpleData>
		<SimpleData name="FAZ_NOME">JEQUIA II</SimpleData>
		<SimpleData name="CODE"></SimpleData>
	</SchemaData></ExtendedData>
      <MultiGeometry><Polygon><outerBoundaryIs><LinearRing><coordinates>-36.196019598555,-9.90138018901949,0 -36.1984003975638,-9.89507042306957,0 -36.1965840871546,-9.89418836249509,0 -36.1939112526851,-9.90120704947467,0 -36.1939455624819,-9.90120406741983,0 -36.1939925951717,-9.90120684120592,0 -36.1940406114074,-9.90121008217542,0 -36.1940883681706,-9.90121259046953,0 -36.1941353306526,-9.9012144434567,0 -36.1941814203573,-9.90121640570488,0 -36.1942283760563,-9.90121844149547,0 -36.194276583247,-9.90122106610151,0 -36.1943249768077,-9.90122396935156,0 -36.1943726022631,-9.9012261502821,0 -36.1944188374688,-9.90122857809873,0 -36.1944638822211,-9.90123144713045,0 -36.1945085770056,-9.90123561782425,0 -36.1945521965016,-9.9012404158145,0 -36.1945950322447,-9.90124424584611,0 -36.1946367974221,-9.90124783101556,0 -36.1946770496657,-9.90125209935668,0 -36.1947161746062,-9.90125642650047,0 -36.1947551209582,-9.90125908062198,0 -36.194793215621,-9.90126334148117,0 -36.1948282029335,-9.9012674095586,0 -36.1948632501003,-9.90126931780367,0 -36.1948991616802,-9.90127139999518,0 -36.1949366942925,-9.90127382257865,0 -36.1949764543163,-9.90127568464184,0 -36.1950185098273,-9.90127633388233,0 -36.1950622608263,-9.90127762926126,0 -36.195106898635,-9.90127870898628,0 -36.1951520406267,-9.90127993124796,0 -36.1951976377433,-9.90128197168942,0 -36.1952422439487,-9.90128469491722,0 -36.1952833435172,-9.90128713286676,0 -36.1953190323629,-9.90128894704988,0 -36.1953480350863,-9.90129063530305,0 -36.1953768358003,-9.90129277076611,0 -36.1954089496202,-9.9012953187763,0 -36.1954402003326,-9.90129831160043,0 -36.195469043013,-9.90130113190123,0 -36.1954957249919,-9.90130349663834,0 -36.1955227861996,-9.90130586792961,0 -36.195549939903,-9.90130902154422,0 -36.1955770655673,-9.90131237996978,0 -36.1956058939612,-9.90131523289816,0 -36.1956355666102,-9.90131805348411,0 -36.1956637761655,-9.90132130189136,0 -36.19569054044,-9.90132483687068,0 -36.1957159326071,-9.90132802505992,0 -36.1957395108753,-9.90133085805873,0 -36.195760688849,-9.90133289286951,0 -36.1957807710446,-9.90133602530214,0 -36.1958012128689,-9.90133936173944,0 -36.1958380359275,-9.90134642872803,0 -36.1958685224851,-9.90135162255708,0 -36.195898255542,-9.90135593945928,0 -36.1959185020654,-9.90135959588168,0 -36.1959419622072,-9.90136377449351,0 -36.1959687929084,-9.90136824703944,0 -36.1959985663819,-9.90137403682468,0 -36.196019598555,-9.90138018901949,0</coordinates></LinearRing></outerBoundaryIs></Polygon></MultiGeometry>
  </Placemark>
</Folder>
</Document></kml>
