<?xml version="1.0" encoding="utf-8" ?>
<kml xmlns="http://www.opengis.net/kml/2.2">
<Document id="root_doc">
<Schema name="JEQUIA_II_TALHAO_1020_ID_1136" id="JEQUIA_II_TALHAO_1020_ID_1136">
	<SimpleField name="TALHAO" type="string"></SimpleField>
	<SimpleField name="FAZENDA" type="string"></SimpleField>
	<SimpleField name="ZONA" type="string"></SimpleField>
	<SimpleField name="ID" type="float"></SimpleField>
	<SimpleField name="AREA_TOTAL" type="float"></SimpleField>
	<SimpleField name="FAZ_NOME" type="string"></SimpleField>
	<SimpleField name="CODE" type="string"></SimpleField>
</Schema>
<Folder><name>JEQUIA_II_TALHAO_1020_ID_1136</name>
  <Placemark id="JEQUIA_II_TALHAO_1020_ID_1136.1">
	<Style><LineStyle><color>ff0000ff</color></LineStyle><PolyStyle><fill>0</fill></PolyStyle></Style>
	<ExtendedData><SchemaData schemaUrl="#JEQUIA_II_TALHAO_1020_ID_1136">
		<SimpleData name="TALHAO">1020</SimpleData>
		<SimpleData name="FAZENDA">1924</SimpleData>
		<SimpleData name="ZONA">1</SimpleData>
		<SimpleData name="ID">1136</SimpleData>
		<SimpleData name="AREA_TOTAL">11.85</SimpleData>
		<SimpleData name="FAZ_NOME">JEQUIA II</SimpleData>
		<SimpleData name="CODE"></SimpleData>
	</SchemaData></ExtendedData>
      <MultiGeometry><Polygon><outerBoundaryIs><LinearRing><coordinates>-36.2009203521811,-9.88455414293653,0 -36.2009108301667,-9.8845786334593,0 -36.2009072112076,-9.88460398337285,0 -36.200903227705,-9.88463188609026,0 -36.200899244272,-9.88465978895028,0 -36.2008952607681,-9.88468769165771,0 -36.2008914794672,-9.88471417870031,0 -36.2008911342435,-9.88473833822312,0 -36.2008904030215,-9.88478951705712,0 -36.2008896906407,-9.88483937701068,0 -36.2008950344283,-9.88489089038536,0 -36.200900452835,-9.88494312308435,0 -36.2009082139274,-9.8849922919028,0 -36.2009185059638,-9.88503962547384,0 -36.2009287306917,-9.88508664957707,0 -36.200942869636,-9.8851323836321,0 -36.2009571412916,-9.88517854724073,0 -36.2009734080813,-9.88522374071996,0 -36.2009826156208,-9.88524609813428,0 -36.2010012267813,-9.88529128920147,0 -36.2010160863005,-9.88532325581304,0 -36.2010637137517,-9.88540538442459,0 -36.2010743766199,-9.88541026786976,0 -36.2011045422193,-9.88542408325066,0 -36.2011653416787,-9.88545435315609,0 -36.2011959757479,-9.88547080675069,0 -36.2012263607045,-9.88548712663358,0 -36.2012567455909,-9.88550344638414,0 -36.2012884839771,-9.88552049309661,0 -36.2013443003908,-9.88556389022389,0 -36.2013716030027,-9.88558511794302,0 -36.2013989055858,-9.88560634554463,0 -36.2014271685005,-9.88562831996078,0 -36.2014524169758,-9.88565403188335,0 -36.2014768140596,-9.88567887696519,0 -36.2015256082128,-9.88572856691772,0 -36.2015505728955,-9.88575398991323,0 -36.2015716333556,-9.88577966470143,0 -36.2015921804756,-9.88580471367316,0 -36.2016127276183,-9.88582976275977,0 -36.2016545087762,-9.88588069810344,0 -36.2016721853015,-9.88590843924658,0 -36.2017235794694,-9.88598909602903,0 -36.2017569902871,-9.8860442255066,0 -36.2017731971724,-9.88607235519148,0 -36.2017893042741,-9.88610031183904,0 -36.201821715372,-9.88615656654952,0 -36.2018812007997,-9.88627111638634,0 -36.2018959976655,-9.88629961039188,0 -36.2019055005262,-9.88631760013837,0 -36.2019200458194,-9.88634519754052,0 -36.2019421669568,-9.88639447047018,0 -36.2019625437588,-9.8864461533035,0 -36.2019726555938,-9.88647180051756,0 -36.20198282819,-9.8864976020725,0 -36.2019940392544,-9.88652765100678,0 -36.2020051922782,-9.88655754461492,0 -36.2020163452866,-9.88658743817829,0 -36.2020274983651,-9.8866173315903,0 -36.2020386375723,-9.88664718815486,0 -36.2020516362497,-9.88668156583844,0 -36.2020646489147,-9.88671598041763,0 -36.2020776615155,-9.88675039515529,0 -36.2020906741695,-9.88678480969603,0 -36.202103150464,-9.88681780604246,0 -36.2021202291229,-9.88684697665731,0 -36.2021380747107,-9.88687745734885,0 -36.2021559202811,-9.88690793800584,0 -36.2021737658543,-9.88693841866274,0 -36.2021896554996,-9.88696555854488,0 -36.2022118908623,-9.88698141747023,0 -36.2022372887082,-9.88699953194331,0 -36.2022626866338,-9.88701764640561,0 -36.2022880845554,-9.88703576101685,0 -36.2023086960717,-9.88705046168221,0 -36.2023327089052,-9.88705040615759,0 -36.2023626176315,-9.88705033699754,0 -36.2023925264132,-9.88705026792505,0 -36.2024224350855,-9.8870501987598,0 -36.2024500362141,-9.88705013492848,0 -36.2024800074609,-9.88704241084243,0 -36.2025122122629,-9.887034111243,0 -36.2025444168555,-9.88702581157941,0 -36.2025766215064,-9.88701751189701,0 -36.202608247,-9.88700936146966,0 -36.2026382107169,-9.88699951748609,0 -36.2026687423129,-9.88698948681269,0 -36.2026992741224,-9.88697945618626,0 -36.2027631849001,-9.88695845941701,0 -36.2027961336413,-9.88695866781928,0 -36.202826082731,-9.88695885724566,0 -36.2028571816664,-9.88695905394209,0 -36.2029473138453,-9.88697253144393,0 -36.2029611663614,-9.88697847918641,0 -36.2043258637638,-9.88074578439987,0 -36.204276675785,-9.88077086157948,0 -36.2042409065297,-9.88078527420074,0 -36.2042242543473,-9.88079198381107,0 -36.2041957488255,-9.88080522091838,0 -36.2041667068627,-9.8808187070388,0 -36.2041376647511,-9.88083219327124,0 -36.2041086228099,-9.88084567937357,0 -36.2040800802187,-9.88085893367903,0 -36.2040506389309,-9.88087437007025,0 -36.204020710204,-9.88089006207503,0 -36.2039907814748,-9.8809057540764,0 -36.2039608527433,-9.88092144607424,0 -36.203931615995,-9.8809367752524,0 -36.203904080871,-9.88095370729224,0 -36.2038758804203,-9.88097104854331,0 -36.2038476800128,-9.88098838967317,0 -36.2038194796477,-9.88100573077229,0 -36.2037918943183,-9.88102269375398,0 -36.2037647480265,-9.88104185517315,0 -36.2037370120569,-9.88106143297055,0 -36.2037092761036,-9.88108101059626,0 -36.2036815400952,-9.88110058834536,0 -36.2036555275521,-9.88111894954062,0 -36.2036338922107,-9.88114120980985,0 -36.203610788891,-9.88116498045367,0 -36.2035425023361,-9.88123523929236,0 -36.2035233278845,-9.88126090356481,0 -36.2035032754219,-9.88128774301485,0 -36.2034832229455,-9.88131458235375,0 -36.2034631704534,-9.88134142191872,0 -36.2034433734225,-9.88136791934188,0 -36.2034240635632,-9.88139591111374,0 -36.2034045114061,-9.88142425424837,0 -36.2033849591822,-9.88145259733949,0 -36.2033654069547,-9.88148094042847,0 -36.203346050772,-9.88150899932155,0 -36.2033275483601,-9.8815376578494,0 -36.2033088587409,-9.88156660633657,0 -36.2032901690828,-9.88159555496528,0 -36.2032714794561,-9.88162450344848,0 -36.2032526496998,-9.88165366906146,0 -36.2032317731701,-9.88168443576534,0 -36.2032110416828,-9.88171498879395,0 -36.2031903101912,-9.88174554182022,0 -36.2031695786954,-9.88177609484408,0 -36.2031488137349,-9.88180669717783,0 -36.2031298882291,-9.88183427411964,0 -36.203110996481,-9.88186180177592,0 -36.20309210469,-9.88188932957681,0 -36.2030732129348,-9.88191685722914,0 -36.2030541483072,-9.88194463686116,0 -36.2030351462596,-9.88197078028344,0 -36.2030163238675,-9.88199667652537,0 -36.2029975013971,-9.88202257295802,0 -36.2029786789165,-9.88204846918299,0 -36.2029593399864,-9.88207507606922,0 -36.2029368538969,-9.88210143911489,0 -36.2029149382285,-9.88212713327574,0 -36.2028930225355,-9.88215282754811,0 -36.2028711068954,-9.8821785217701,0 -36.2028486130534,-9.88220489376732,0 -36.2028232137046,-9.8822303220676,0 -36.2027984444176,-9.88225511949175,0 -36.2027736750384,-9.88227991709109,0 -36.2027489056826,-9.88230471447892,0 -36.2027238552525,-9.88232979343593,0 -36.2026990499696,-9.88235294384463,0 -36.2026745356588,-9.8823758226835,0 -36.202650021219,-9.88239870164075,0 -36.2026255068415,-9.88242158044439,0 -36.2026011749991,-9.88244428897457,0 -36.202577425283,-9.88246745277223,0 -36.2025534967873,-9.88249079093284,0 -36.2025295683515,-9.88251412893969,0 -36.2025056398803,-9.8825374670646,0 -36.20248196765,-9.8825605552645,0 -36.2024595221881,-9.88258387362957,0 -36.2024368285313,-9.88260744974066,0 -36.2024141349304,-9.8826310258831,0 -36.2023914412946,-9.88265460205603,0 -36.2023689518279,-9.88267796601953,0 -36.2023463897796,-9.88270265862435,0 -36.2023236290056,-9.88272756870338,0 -36.2023008682835,-9.88275247862972,0 -36.2022781075332,-9.88277738867013,0 -36.2022554175567,-9.88280222125814,0 -36.2022327966901,-9.88282744292229,0 -36.2022101059093,-9.882852742443,0 -36.2021874150976,-9.88287804208112,0 -36.2021647242823,-9.88290334171677,0 -36.2021427080194,-9.88292788923868,0 -36.2021240825999,-9.88295280780598,0 -36.2021048527652,-9.88297853500176,0 -36.2020856229273,-9.88300426219559,0 -36.2020663930861,-9.88302998938744,0 -36.2020479935372,-9.88305460574321,0 -36.202030847845,-9.88308460932515,0 -36.2020130147336,-9.88311581573774,0 -36.2019951815791,-9.88314702230605,0 -36.2019773483653,-9.88317822880916,0 -36.201960048984,-9.88320850121447,0 -36.2019465308378,-9.88323847386405,0 -36.201932570639,-9.88326942642852,0 -36.2019186104727,-9.883300379115,0 -36.2019046502554,-9.88333133161474,0 -36.2018907081415,-9.88336224405557,0 -36.2018775047083,-9.88339182746494,0 -36.2018642832891,-9.88342145116549,0 -36.2018510618231,-9.88345107475837,0 -36.2018378404113,-9.88348069842651,0 -36.2018242243185,-9.88351120631082,0 -36.2018083842553,-9.88353980546584,0 -36.2017930137456,-9.88356755691369,0 -36.2017776432201,-9.88359530838307,0 -36.2017622726251,-9.88362305989464,0 -36.2017459514056,-9.88365252782626,0 -36.2017236708579,-9.88368011738748,0 -36.2017026247734,-9.88370617833062,0 -36.2016815787643,-9.88373223919787,0 -36.2016605326663,-9.88375830014444,0 -36.2016387209061,-9.88378530918761,0 -36.2016146549977,-9.88380930313804,0 -36.2015914529353,-9.88383243581938,0 -36.2015682508343,-9.88385556871471,0 -36.2015450487336,-9.88387870142273,0 -36.2015215424047,-9.88390213753403,0 -36.2014967631412,-9.88392503919573,0 -36.2014722994255,-9.8839476493884,0 -36.2014478356137,-9.8839702595792,0 -36.2014233718965,-9.88399286958716,0 -36.2013988776466,-9.88401550798326,0 -36.2013752639009,-9.88403717263575,0 -36.2013516808444,-9.88405880912672,0 -36.2013280978111,-9.88408044567556,0 -36.2013045147506,-9.88410208215963,0 -36.2012809641475,-9.88412368894969,0 -36.2012580099068,-9.88414491341827,0 -36.2012350232471,-9.88416616794737,0 -36.20121203668,-9.88418742238109,0 -36.2011890500164,-9.88420867690368,0 -36.2011660495309,-9.88422994420143,0 -36.2011431443289,-9.8842510530497,0 -36.2011202529887,-9.88427214920305,0 -36.2010973615878,-9.88429324532249,0 -36.2010744702175,-9.88431434140874,0 -36.2010528647615,-9.88433425250546,0 -36.2010349236258,-9.8843567939176,0 -36.2010158950234,-9.88438070153831,0 -36.2009968664166,-9.88440460936359,0 -36.2009778377232,-9.88442851717688,0 -36.2009609428875,-9.88444974390911,0 -36.200951724478,-9.8844734535856,0 -36.2009412670414,-9.88450035011249,0 -36.2009308096124,-9.88452724652493,0 -36.2009203521811,-9.88455414293653,0</coordinates></LinearRing></outerBoundaryIs></Polygon></MultiGeometry>
  </Placemark>
</Folder>
</Document></kml>
