<?xml version="1.0" encoding="utf-8" ?>
<kml xmlns="http://www.opengis.net/kml/2.2">
<Document id="root_doc">
<Schema name="JEQUIA_II_TALHAO_1042_ID_1103" id="JEQUIA_II_TALHAO_1042_ID_1103">
	<SimpleField name="TALHAO" type="string"></SimpleField>
	<SimpleField name="FAZENDA" type="string"></SimpleField>
	<SimpleField name="ZONA" type="string"></SimpleField>
	<SimpleField name="ID" type="float"></SimpleField>
	<SimpleField name="AREA_TOTAL" type="float"></SimpleField>
	<SimpleField name="FAZ_NOME" type="string"></SimpleField>
	<SimpleField name="CODE" type="string"></SimpleField>
</Schema>
<Folder><name>JEQUIA_II_TALHAO_1042_ID_1103</name>
  <Placemark id="JEQUIA_II_TALHAO_1042_ID_1103.1">
	<Style><LineStyle><color>ff0000ff</color></LineStyle><PolyStyle><fill>0</fill></PolyStyle></Style>
	<ExtendedData><SchemaData schemaUrl="#JEQUIA_II_TALHAO_1042_ID_1103">
		<SimpleData name="TALHAO">1042</SimpleData>
		<SimpleData name="FAZENDA">1924</SimpleData>
		<SimpleData name="ZONA">1</SimpleData>
		<SimpleData name="ID">1103</SimpleData>
		<SimpleData name="AREA_TOTAL">2.45</SimpleData>
		<SimpleData name="FAZ_NOME">JEQUIA II</SimpleData>
		<SimpleData name="CODE"></SimpleData>
	</SchemaData></ExtendedData>
      <MultiGeometry><Polygon><outerBoundaryIs><LinearRing><coordinates>-36.2004394524027,-9.90057584119827,0 -36.2004582316412,-9.90060183533351,0 -36.200470862977,-9.90062264073535,0 -36.2004845065178,-9.90064345369889,0 -36.2004982784077,-9.90066521176676,0 -36.2005119139711,-9.90068575219574,0 -36.2005289634169,-9.90070545979377,0 -36.2005467457874,-9.90072812636127,0 -36.20055947929,-9.90075478436119,0 -36.2005661303659,-9.90078082233445,0 -36.2005769200072,-9.90080571418214,0 -36.200627440319,-9.9008645407393,0 -36.2006478061922,-9.90088176417302,0 -36.2006636664214,-9.90090953391203,0 -36.2006745162889,-9.90094880143929,0 -36.2006880490606,-9.90097280574496,0 -36.20070050037,-9.90099656984319,0 -36.2007141259865,-9.90101941348871,0 -36.2007251189925,-9.90104496168246,0 -36.2007345552012,-9.90106846910352,0 -36.2007444766883,-9.90109284197061,0 -36.2007560775723,-9.90111681982791,0 -36.2007685524655,-9.90114056778343,0 -36.2007814080362,-9.90116479247762,0 -36.2008001212426,-9.90120138371509,0 -36.2008184504945,-9.90123727505142,0 -36.2008315038729,-9.90126127880789,0 -36.2008414516015,-9.90128612333671,0 -36.2008551373617,-9.90130634531433,0 -36.2008725504529,-9.90132981196244,0 -36.2008802728906,-9.90135691489121,0 -36.2008942986301,-9.90137912629896,0 -36.2009063846992,-9.90140678149747,0 -36.2009124195134,-9.90143083566618,0 -36.2009251172925,-9.90145367243116,0 -36.2009348225106,-9.90148131096082,0 -36.2009400378116,-9.9015088789262,0 -36.2009471004875,-9.90153242751677,0 -36.2009598663925,-9.90155598320823,0 -36.2009679065348,-9.90157854660323,0 -36.2009837721762,-9.90160174252903,0 -36.2009995365381,-9.90162148767201,0 -36.2010178011966,-9.90163796581254,0 -36.2010398400073,-9.90165563854403,0 -36.2010597934408,-9.90167660748217,0 -36.2010793146163,-9.901697145725,0 -36.2010991874251,-9.90172047700209,0 -36.2011119724608,-9.90174563777359,0 -36.2011281913317,-9.90176547630169,0 -36.2011476925082,-9.90178496051468,0 -36.2011679394584,-9.90180289149461,0 -36.2011902909731,-9.90182032374375,0 -36.2012095852694,-9.90183963626723,0 -36.201231034098,-9.90185395764773,0 -36.2012513525939,-9.90187124609189,0 -36.2012732511795,-9.90188529159361,0 -36.2012964495915,-9.90189805382651,0 -36.2013215748622,-9.90190966712446,0 -36.201347052327,-9.90192120913124,0 -36.2013724883582,-9.90193259814587,0 -36.2013978464923,-9.90194079399927,0 -36.2014247724039,-9.90194866419519,0 -36.2014535612971,-9.90195557657943,0 -36.2014816144206,-9.90196383571008,0 -36.201508672428,-9.90196986586811,0 -36.2015349947689,-9.90197521784701,0 -36.2015608051504,-9.90196970984596,0 -36.2016006774087,-9.90195550713896,0 -36.2020609258049,-9.90036168890995,0 -36.2020335790438,-9.90035729727043,0 -36.2020083884535,-9.90035022545887,0 -36.201984039489,-9.90034493173804,0 -36.2019581689775,-9.90033825259328,0 -36.2019334176585,-9.90033230213641,0 -36.201908805555,-9.9003251818364,0 -36.2018825916055,-9.90031997414652,0 -36.2018599720336,-9.90031359507855,0 -36.2018377285242,-9.90030765102056,0 -36.2018131950027,-9.90030204928707,0 -36.201787893653,-9.90029518519407,0 -36.2017627711797,-9.90028717457012,0 -36.2017388231729,-9.90028054243047,0 -36.2017134798245,-9.90027397785332,0 -36.2016885871089,-9.90026712391494,0 -36.2016641531771,-9.90026044071244,0 -36.2016382708165,-9.90025438992516,0 -36.2016135483524,-9.90024636774648,0 -36.2015901056103,-9.90024039535362,0 -36.2015649069741,-9.90023488462596,0 -36.2015412367562,-9.90022687698694,0 -36.2015176625163,-9.90022088755217,0 -36.2014921961684,-9.90021593886166,0 -36.2014658910364,-9.90020906978029,0 -36.2014421538525,-9.90020069018511,0 -36.2014183732554,-9.90019427588457,0 -36.2013946005244,-9.90018730490684,0 -36.2013701102204,-9.90018108529543,0 -36.2013449272668,-9.90017375793277,0 -36.2013208723396,-9.90016678352389,0 -36.2012959760198,-9.9001599884752,0 -36.2012703272116,-9.90015242800882,0 -36.2012467132293,-9.9001461108791,0 -36.2012214257261,-9.90014044745057,0 -36.2011950521804,-9.9001326726073,0 -36.2011702183204,-9.90012445364407,0 -36.2011447478393,-9.90011667079344,0 -36.2011196291062,-9.90010973274373,0 -36.2010943285216,-9.90010286593824,0 -36.2010695506812,-9.90009559784678,0 -36.2010449380295,-9.90009057977644,0 -36.2010197858485,-9.90008578456146,0 -36.2009937578308,-9.90007947975134,0 -36.2009678965117,-9.90007335450021,0 -36.2009400070033,-9.90006606133355,0 -36.200914085354,-9.90005570857494,0 -36.2008892540786,-9.90004724387503,0 -36.2008635204559,-9.90003926695224,0 -36.2008378492295,-9.90003143068187,0 -36.2008123114348,-9.90002312363974,0 -36.2007872819727,-9.90001509439617,0 -36.2007613201196,-9.90000657921164,0 -36.2007348030409,-9.89999984323071,0 -36.2007092422636,-9.89999203443653,0 -36.2006839158689,-9.89998570393398,0 -36.2006582535083,-9.89998066239027,0 -36.2006326049119,-9.89997350405711,0 -36.2006078989265,-9.89996696952304,0 -36.2005825538857,-9.89996153953624,0 -36.2005568068397,-9.89995631129316,0 -36.2005314980474,-9.89995096319619,0 -36.2005069400015,-9.89994652810904,0 -36.2004823141511,-9.8999426956716,0 -36.2004578292703,-9.89994004963017,0 -36.2004344100105,-9.8999385822906,0 -36.2004127916216,-9.89993545508082,0 -36.2004394524027,-9.90057584119827,0</coordinates></LinearRing></outerBoundaryIs></Polygon></MultiGeometry>
  </Placemark>
</Folder>
</Document></kml>
