<?xml version="1.0" encoding="utf-8" ?>
<kml xmlns="http://www.opengis.net/kml/2.2">
<Document id="root_doc">
<Schema name="JEQUIA_II_TALHAO_1042_ID_1065" id="JEQUIA_II_TALHAO_1042_ID_1065">
	<SimpleField name="TALHAO" type="string"></SimpleField>
	<SimpleField name="FAZENDA" type="string"></SimpleField>
	<SimpleField name="ZONA" type="string"></SimpleField>
	<SimpleField name="ID" type="float"></SimpleField>
	<SimpleField name="AREA_TOTAL" type="float"></SimpleField>
	<SimpleField name="FAZ_NOME" type="string"></SimpleField>
	<SimpleField name="CODE" type="string"></SimpleField>
</Schema>
<Folder><name>JEQUIA_II_TALHAO_1042_ID_1065</name>
  <Placemark id="JEQUIA_II_TALHAO_1042_ID_1065.1">
	<Style><LineStyle><color>ff0000ff</color></LineStyle><PolyStyle><fill>0</fill></PolyStyle></Style>
	<ExtendedData><SchemaData schemaUrl="#JEQUIA_II_TALHAO_1042_ID_1065">
		<SimpleData name="TALHAO">1042</SimpleData>
		<SimpleData name="FAZENDA">1924</SimpleData>
		<SimpleData name="ZONA">1</SimpleData>
		<SimpleData name="ID">1065</SimpleData>
		<SimpleData name="AREA_TOTAL">6.88</SimpleData>
		<SimpleData name="FAZ_NOME">JEQUIA II</SimpleData>
		<SimpleData name="CODE"></SimpleData>
	</SchemaData></ExtendedData>
      <MultiGeometry><Polygon><outerBoundaryIs><LinearRing><coordinates>-36.2004245659645,-9.89990063943911,0 -36.2004381960094,-9.89990261109385,0 -36.2004609543474,-9.89990403702242,0 -36.2004871165493,-9.89990686432844,0 -36.2005130314894,-9.89991089738176,0 -36.2005385628723,-9.899915508249,0 -36.2005642609153,-9.89992093859919,0 -36.2005900583704,-9.89992617707761,0 -36.200616448677,-9.89993183100403,0 -36.2006422389482,-9.89993865232213,0 -36.2006667453228,-9.89994549186892,0 -36.2006919168482,-9.89995043698383,0 -36.2007190684619,-9.89995722371122,0 -36.2007446963844,-9.89996505301744,0 -36.2007715770591,-9.89997188135963,0 -36.2007986137643,-9.89998074908222,0 -36.2008236005745,-9.89998876464253,0 -36.2008488916536,-9.89999699143108,0 -36.2008743190981,-9.90000475328495,0 -36.2009006177568,-9.900012905357,0 -36.2009268263402,-9.90002183956458,0 -36.2009515068844,-9.90003169664169,0 -36.2009767781348,-9.90003830512738,0 -36.2010023158702,-9.90004435373689,0 -36.2010275556352,-9.90005046760643,0 -36.2010520489432,-9.90005513720777,0 -36.2010784058265,-9.90006051089419,0 -36.2011043095744,-9.90006810924765,0 -36.2011293298142,-9.90007489996417,0 -36.2011550060046,-9.90008199198847,0 -36.2011813554933,-9.9000900434309,0 -36.201206017396,-9.90009820548267,0 -36.201230643657,-9.90010546523073,0 -36.2012554782083,-9.9001110272146,0 -36.2012802678458,-9.90011765885066,0 -36.2013060054979,-9.90012524550463,0 -36.2013308230515,-9.90013201905449,0 -36.2013551889344,-9.90013908363737,0 -36.2013797651784,-9.90014623446787,0 -36.2014042926639,-9.90015246352111,0 -36.2014283251812,-9.9001595106763,0 -36.2014530645873,-9.90016618359393,0 -36.201476662653,-9.90017451407745,0 -36.2015003496613,-9.90018069948517,0 -36.2015256965616,-9.90018562496343,0 -36.2015516595906,-9.90019222130967,0 -36.2015747463344,-9.90020003155862,0 -36.2015985674048,-9.90020524102346,0 -36.2016237611998,-9.90021165952265,0 -36.2016481376411,-9.90021956941986,0 -36.2016731836207,-9.90022542467682,0 -36.2016983082784,-9.90023229680679,0 -36.2017229615763,-9.90023908482335,0 -36.2017483313283,-9.90024565623887,0 -36.2017732554609,-9.90025255870505,0 -36.2017982861389,-9.90026054005809,0 -36.2018220967114,-9.9002669997121,0 -36.2018465623764,-9.90027258595111,0 -36.2018696992539,-9.90027876874009,0 -36.2018911698451,-9.90028482377713,0 -36.2019175052186,-9.90029005558825,0 -36.2019428201388,-9.90029737921293,0 -36.2019670548297,-9.90030320546658,0 -36.2019925369447,-9.9003097843359,0 -36.2020172631949,-9.90031516008179,0 -36.202041482595,-9.9003219592482,0 -36.2020679771022,-9.90032621402259,0 -36.2020710788851,-9.90032652900448,0 -36.202987268804,-9.89715373382186,0 -36.2015265362611,-9.89649676509681,0 -36.2004178682175,-9.89989540198402,0 -36.2004245659645,-9.89990063943911,0</coordinates></LinearRing></outerBoundaryIs></Polygon></MultiGeometry>
  </Placemark>
</Folder>
</Document></kml>
