<?xml version="1.0" encoding="utf-8" ?>
<kml xmlns="http://www.opengis.net/kml/2.2">
<Document id="root_doc">
<Schema name="JEQUIA_II_TALHAO_1050_ID_1030" id="JEQUIA_II_TALHAO_1050_ID_1030">
	<SimpleField name="TALHAO" type="string"></SimpleField>
	<SimpleField name="FAZENDA" type="string"></SimpleField>
	<SimpleField name="ZONA" type="string"></SimpleField>
	<SimpleField name="ID" type="float"></SimpleField>
	<SimpleField name="AREA_TOTAL" type="float"></SimpleField>
	<SimpleField name="FAZ_NOME" type="string"></SimpleField>
	<SimpleField name="CODE" type="string"></SimpleField>
</Schema>
<Folder><name>JEQUIA_II_TALHAO_1050_ID_1030</name>
  <Placemark id="JEQUIA_II_TALHAO_1050_ID_1030.1">
	<Style><LineStyle><color>ff0000ff</color></LineStyle><PolyStyle><fill>0</fill></PolyStyle></Style>
	<ExtendedData><SchemaData schemaUrl="#JEQUIA_II_TALHAO_1050_ID_1030">
		<SimpleData name="TALHAO">1050</SimpleData>
		<SimpleData name="FAZENDA">1924</SimpleData>
		<SimpleData name="ZONA">1</SimpleData>
		<SimpleData name="ID">1030</SimpleData>
		<SimpleData name="AREA_TOTAL">1.93</SimpleData>
		<SimpleData name="FAZ_NOME">JEQUIA II</SimpleData>
		<SimpleData name="CODE"></SimpleData>
	</SchemaData></ExtendedData>
      <MultiGeometry><Polygon><outerBoundaryIs><LinearRing><coordinates>-36.1998065086178,-9.92311055521863,0 -36.1997244381912,-9.92381424793962,0 -36.1997432004973,-9.92380857826959,0 -36.1997725714319,-9.92379886081153,0 -36.1997985558092,-9.92378786410271,0 -36.1998254755225,-9.92377409089397,0 -36.1998518522413,-9.92375792596628,0 -36.1998726507511,-9.9237510248453,0 -36.1998913425033,-9.9237441056315,0 -36.199915028356,-9.92373488658382,0 -36.199950738411,-9.92371852242554,0 -36.1999757692815,-9.92371063376709,0 -36.2000053776036,-9.92370025308821,0 -36.2000398562383,-9.92369089841853,0 -36.2000736341374,-9.92367769967728,0 -36.200107250294,-9.92366314369153,0 -36.2001524342644,-9.92363643557305,0 -36.2002123917043,-9.92361266879563,0 -36.2002548823289,-9.92359380638834,0 -36.2002902439994,-9.92357577522299,0 -36.2003250298166,-9.92355669546837,0 -36.2003620311947,-9.92353598718148,0 -36.2003987946645,-9.92351332714837,0 -36.2004358015864,-9.92349018718259,0 -36.2004736425721,-9.92346752985714,0 -36.2005011370481,-9.92345438586274,0 -36.2005408624445,-9.92342252809763,0 -36.2005931592617,-9.92338576602378,0 -36.2006238787123,-9.92336350445135,0 -36.2006585033044,-9.92333531174096,0 -36.200701349989,-9.92330959232038,0 -36.200726941559,-9.92328601046017,0 -36.2007549871425,-9.92326656549695,0 -36.2007978552414,-9.92323632215382,0 -36.2008600713281,-9.92319292698756,0 -36.2008971156193,-9.92316775571769,0 -36.2009330373364,-9.92314294945425,0 -36.2009679785048,-9.92311753652569,0 -36.2010020692861,-9.92309213705279,0 -36.2010358454578,-9.92306696548846,0 -36.2010696971754,-9.92304275759084,0 -36.2011033081023,-9.92302129697403,0 -36.2011340345103,-9.92300048783058,0 -36.2011722363702,-9.92297195024066,0 -36.2012260497119,-9.92293361316733,0 -36.2012557739491,-9.92291115613867,0 -36.2012885035437,-9.92288965691485,0 -36.201318731479,-9.92286969440706,0 -36.201349019255,-9.92285041652359,0 -36.2013812322179,-9.92282984133226,0 -36.2014185288382,-9.9228080128221,0 -36.2014556616494,-9.92278812514146,0 -36.2014908117089,-9.92276735640837,0 -36.2015252799499,-9.92274529443744,0 -36.2015613343721,-9.92272243734805,0 -36.2015952129744,-9.92270063443962,0 -36.2016279090276,-9.92268097898485,0 -36.2016611395189,-9.92266049985703,0 -36.2016943145357,-9.92263988887734,0 -36.2017247179669,-9.92261611736039,0 -36.2017550953176,-9.92259209857764,0 -36.2017829563543,-9.92256963333369,0 -36.2018067330365,-9.922550287492,0 -36.201877658614,-9.92249625168882,0 -36.2019610059301,-9.92179103413727,0 -36.2019070108856,-9.92181176832037,0 -36.2018097232392,-9.9218600192774,0 -36.2016987817987,-9.92190634476696,0 -36.2015917310442,-9.92195195417056,0 -36.2014496500906,-9.92203777537586,0 -36.2013416587571,-9.92210287707155,0 -36.2011788968406,-9.92221481998775,0 -36.2010274837705,-9.92230737045538,0 -36.200825931354,-9.92246355115283,0 -36.2006669064105,-9.9225759379079,0 -36.2004731824781,-9.92270500719417,0 -36.2003636984626,-9.92277702404988,0 -36.2002128931754,-9.92287131434404,0 -36.2000585730412,-9.92297190745529,0 -36.1998997754984,-9.92305904403577,0 -36.1998065086178,-9.92311055521863,0</coordinates></LinearRing></outerBoundaryIs></Polygon></MultiGeometry>
  </Placemark>
</Folder>
</Document></kml>
