<?xml version="1.0" encoding="utf-8" ?>
<kml xmlns="http://www.opengis.net/kml/2.2">
<Document id="root_doc">
<Schema name="JEQUIA_II_TALHAO_1101_ID_1105" id="JEQUIA_II_TALHAO_1101_ID_1105">
	<SimpleField name="TALHAO" type="string"></SimpleField>
	<SimpleField name="FAZENDA" type="string"></SimpleField>
	<SimpleField name="ZONA" type="string"></SimpleField>
	<SimpleField name="ID" type="float"></SimpleField>
	<SimpleField name="AREA_TOTAL" type="float"></SimpleField>
	<SimpleField name="FAZ_NOME" type="string"></SimpleField>
	<SimpleField name="CODE" type="string"></SimpleField>
</Schema>
<Folder><name>JEQUIA_II_TALHAO_1101_ID_1105</name>
  <Placemark id="JEQUIA_II_TALHAO_1101_ID_1105.1">
	<Style><LineStyle><color>ff0000ff</color></LineStyle><PolyStyle><fill>0</fill></PolyStyle></Style>
	<ExtendedData><SchemaData schemaUrl="#JEQUIA_II_TALHAO_1101_ID_1105">
		<SimpleData name="TALHAO">1101</SimpleData>
		<SimpleData name="FAZENDA">1924</SimpleData>
		<SimpleData name="ZONA">1</SimpleData>
		<SimpleData name="ID">1105</SimpleData>
		<SimpleData name="AREA_TOTAL">2.69</SimpleData>
		<SimpleData name="FAZ_NOME">JEQUIA II</SimpleData>
		<SimpleData name="CODE"></SimpleData>
	</SchemaData></ExtendedData>
      <MultiGeometry><Polygon><outerBoundaryIs><LinearRing><coordinates>-36.2002824477151,-9.8998936070014,0 -36.2002188550705,-9.90007094138659,0 -36.2002065006306,-9.90009762703138,0 -36.200194457552,-9.90012561538595,0 -36.2001877359819,-9.90014291285016,0 -36.200179135683,-9.90016467577563,0 -36.2001683414616,-9.90018889091291,0 -36.2001574276788,-9.90021224659233,0 -36.2001467542585,-9.90023557944952,0 -36.2001366959154,-9.90025857311919,0 -36.2001273509027,-9.90028043350494,0 -36.2001182764672,-9.90030190826234,0 -36.2001098368824,-9.90032162197171,0 -36.2001017397581,-9.90034274359798,0 -36.2000934903321,-9.90036680323782,0 -36.2000842846159,-9.90039163621335,0 -36.2000753945253,-9.90041552543814,0 -36.2000675243172,-9.90043902609288,0 -36.2000602585887,-9.90046369845655,0 -36.2000525550887,-9.90048773304278,0 -36.2000464442075,-9.90051012538672,0 -36.2000421507985,-9.90053121591184,0 -36.2000393546638,-9.90055302976027,0 -36.2000360303735,-9.90057666683559,0 -36.2000321521781,-9.90060215230786,0 -36.2000275224521,-9.90062934536828,0 -36.2000218311977,-9.90065742397016,0 -36.2000157753498,-9.90068543477422,0 -36.2000098530287,-9.9007141925704,0 -36.2000037463589,-9.90074382900871,0 -36.1999971079562,-9.90077426516893,0 -36.1999900902731,-9.90080555496979,0 -36.1999830051485,-9.90083795367876,0 -36.1999757928904,-9.90087074602982,0 -36.1999674705402,-9.90090427686717,0 -36.1999586952277,-9.90093678334862,0 -36.1999504656586,-9.90096730314628,0 -36.1999426644322,-9.90099558230617,0 -36.1999358933209,-9.90102195351927,0 -36.1999291345422,-9.90104833612169,0 -36.1999215750804,-9.90107524026503,0 -36.1999138627875,-9.90110187469331,0 -36.199906286189,-9.90112764483636,0 -36.1998981904493,-9.9011532160515,0 -36.1998899637525,-9.90117953428469,0 -36.1998814040841,-9.90120614938126,0 -36.1998730145228,-9.9012325806361,0 -36.1998641708371,-9.90125921625911,0 -36.1998551676258,-9.90128607074018,0 -36.1998473901228,-9.90131333441087,0 -36.199839158503,-9.90134070827889,0 -36.1998309830258,-9.90136801844624,0 -36.1998233246779,-9.90139454226094,0 -36.1998159445527,-9.90142065429252,0 -36.1998080795749,-9.90144675624844,0 -36.1997925648144,-9.90149912618369,0 -36.1997843809686,-9.90152584840062,0 -36.1997757532337,-9.90155230061358,0 -36.1997679032838,-9.9015786166938,0 -36.1997599371829,-9.90160539369661,0 -36.1997520321999,-9.9016319048869,0 -36.1997444214333,-9.90165817859191,0 -36.1997372129193,-9.90168394865951,0 -36.1997310406259,-9.90171014614801,0 -36.1997240442777,-9.90173741112384,0 -36.1997165050893,-9.90176491239849,0 -36.1997083313722,-9.90179329526261,0 -36.1996946820216,-9.90182239109479,0 -36.1996732766138,-9.90184510770502,0 -36.1996456536359,-9.90186116217907,0 -36.1996171946541,-9.90187302875345,0 -36.1995884596763,-9.90188042011878,0 -36.1995605214646,-9.90188633790661,0 -36.1995313680049,-9.90188963095281,0 -36.1995003026405,-9.90189043688776,0 -36.1994741786175,-9.90189019692045,0 -36.1994446554635,-9.90188515824697,0 -36.1994189352925,-9.90187899462311,0 -36.1993952775542,-9.90187407024905,0 -36.1993692350673,-9.90187281506208,0 -36.1993405352926,-9.9018721977725,0 -36.1993137467107,-9.90187096934329,0 -36.1992861160091,-9.90186949738387,0 -36.1992579681614,-9.90186827642447,0 -36.1992290098021,-9.90186763262729,0 -36.1991981821222,-9.90186725003938,0 -36.1991667079509,-9.90186552997928,0 -36.1991355738821,-9.90186254687018,0 -36.1991033605944,-9.90185780151775,0 -36.1990706164474,-9.90185107238529,0 -36.1990395879986,-9.90184191201407,0 -36.1990102827224,-9.90183178666647,0 -36.1989819820004,-9.90182152862583,0 -36.1989542558323,-9.90181095019563,0 -36.1989262199711,-9.90180009671647,0 -36.1988977939716,-9.90178912387196,0 -36.1988696281636,-9.90177832527837,0 -36.1988423697328,-9.90176809697318,0 -36.1988148105942,-9.90175838435712,0 -36.1987866675502,-9.90174822494001,0 -36.198758414935,-9.90173778484295,0 -36.1987303852807,-9.90172707529814,0 -36.1987022484565,-9.90171635206187,0 -36.1986737510736,-9.90170566098307,0 -36.1986452957108,-9.90169510745861,0 -36.1986169168209,-9.90168463314519,0 -36.1985822605351,-9.90167353788086,0 -36.1985585570692,-9.90166355722585,0 -36.1985298539804,-9.90165305702237,0 -36.1985007455377,-9.90164244516297,0 -36.1984716366435,-9.90163160697668,0 -36.1984428063973,-9.9016206966217,0 -36.1984140642243,-9.90160993888823,0 -36.1983853891533,-9.90159872448592,0 -36.1983572106816,-9.90158753915975,0 -36.1983289366478,-9.90157619580032,0 -36.198300903952,-9.90156437989755,0 -36.1982731535773,-9.90155244173618,0 -36.1982455846828,-9.90154026453761,0 -36.1982180534324,-9.90152760574393,0 -36.1981902811178,-9.90151516404912,0 -36.1981625530514,-9.90150306718812,0 -36.1981349753289,-9.90149145050775,0 -36.1981073619496,-9.90148048325273,0 -36.1980790937258,-9.90147014612338,0 -36.198050153203,-9.90146040627693,0 -36.1980209398172,-9.90145077640653,0 -36.1979915964619,-9.90144132341669,0 -36.1979616114202,-9.90143224337682,0 -36.1979312649599,-9.90142294563769,0 -36.1979005322255,-9.90141382574605,0 -36.1978698837168,-9.90140452184724,0 -36.1978397551804,-9.90139623122435,0 -36.1978096609316,-9.90138956845956,0 -36.1977794794405,-9.90138424280625,0 -36.1977494398253,-9.90138005289464,0 -36.1977193243314,-9.90137700993747,0 -36.1976900939836,-9.90137663817686,0 -36.1976614477953,-9.9013797698231,0 -36.1976331271287,-9.90138549235682,0 -36.1976051427385,-9.90139411600265,0 -36.1975815804155,-9.90140517442449,0 -36.197558499417,-9.90143263050051,0 -36.1975403168294,-9.90145916677041,0 -36.197517182363,-9.90149227195583,0 -36.1974936064294,-9.90152033640966,0 -36.1974769834067,-9.90154726985565,0 -36.197451972989,-9.90157020168745,0 -36.1974285506606,-9.90158793980741,0 -36.1974014196792,-9.90161569286554,0 -36.1973689520007,-9.9016357853578,0 -36.1973365444181,-9.90164803879805,0 -36.1973091694179,-9.90165689900595,0 -36.1972781941559,-9.90166428062659,0 -36.1972598354124,-9.90166887648233,0 -36.1972310508212,-9.90166814025791,0 -36.1972134820106,-9.90166728756315,0 -36.1971872909302,-9.90166433480115,0 -36.1971704976041,-9.90166284440598,0 -36.1971388637686,-9.90165918687853,0 -36.1971074333896,-9.90165529827012,0 -36.1970889011157,-9.90165146093276,0 -36.1970687525824,-9.9016475283845,0 -36.197046221429,-9.90164341034439,0 -36.1970213706664,-9.90163883175546,0 -36.1969952350121,-9.9016337433476,0 -36.1969679624502,-9.90162854586248,0 -36.1969396595241,-9.90162308879372,0 -36.1969106905703,-9.9016174761233,0 -36.1968810263566,-9.90161185379043,0 -36.1968506489595,-9.90160597785516,0 -36.1968208712061,-9.90159976791577,0 -36.1967919064161,-9.90159394451778,0 -36.1967628003197,-9.90158797490898,0 -36.1967335271335,-9.90158208190092,0 -36.1967031829884,-9.90157562679762,0 -36.1966724006267,-9.90156858428056,0 -36.196640620385,-9.901561189889,0 -36.196607683777,-9.90155319180606,0 -36.1965736813338,-9.9015449970343,0 -36.1965400100477,-9.90153660105766,0 -36.1965067428664,-9.90152868291821,0 -36.1964733652093,-9.90152125441734,0 -36.1964397527569,-9.90151359427347,0 -36.1964063027007,-9.90150648894229,0 -36.1963733313614,-9.90149942301371,0 -36.1963409151679,-9.9014927963297,0 -36.196307976067,-9.9014862148669,0 -36.1962746082535,-9.90147909653477,0 -36.1962408149263,-9.90147132430539,0 -36.1962065286119,-9.90146294909286,0 -36.196173352464,-9.90145429591552,0 -36.1961424403112,-9.90144775749333,0 -36.196113081939,-9.90144173951994,0 -36.1960823733907,-9.90143370921528,0 -36.1960516295995,-9.90142457900276,0 -36.1960206395018,-9.90141674885897,0 -36.1959906391236,-9.90140931987067,0 -36.195962263781,-9.90140380196672,0 -36.1959357192398,-9.90139937712141,0 -36.1959120151589,-9.90139515505957,0 -36.1958923485545,-9.90139160336708,0 -36.195862795914,-9.90138731265835,0 -36.195831486867,-9.9013819787053,0 -36.1957947892524,-9.90137493579048,0 -36.1957749796048,-9.90137170253406,0 -36.1957560955951,-9.90136875699462,0 -36.1957355607401,-9.90136678397495,0 -36.1957114513535,-9.90136388715998,0 -36.1956858452291,-9.90136067210595,0 -36.1956592677555,-9.90135716179812,0 -36.1956317252144,-9.90135399019856,0 -36.1956023453365,-9.90135119744157,0 -36.1955729974851,-9.90134829310552,0 -36.1955455622129,-9.90134489634662,0 -36.1955190614878,-9.90134181856774,0 -36.1954924986203,-9.90133949094366,0 -36.1954656323665,-9.90133710987404,0 -36.1954366601975,-9.90133427691072,0 -36.1954057441066,-9.90133131613175,0 -36.1953740234828,-9.90132879931796,0 -36.1953456081945,-9.90132669243192,0 -36.1953170314606,-9.90132502897483,0 -36.1952813223508,-9.9013232137605,0 -36.1952400359492,-9.9013207647271,0 -36.1951956962423,-9.90131805776787,0 -36.1951507215799,-9.90131604517949,0 -36.1951059568407,-9.9013148331309,0 -36.1950612725512,-9.90131375228022,0 -36.1950176822379,-9.90131246165759,0 -36.1949753106562,-9.90131180753637,0 -36.1949346507422,-9.90130990332781,0 -36.1948969142454,-9.90130746758328,0 -36.1948611872618,-9.90130539609376,0 -36.1948250785831,-9.9013034300504,0 -36.1947890508011,-9.90129924099354,0 -36.1947518274009,-9.90129507758332,0 -36.1947129037133,-9.9012924250051,0 -36.1946730919773,-9.90128802190188,0 -36.1946332877179,-9.90128380106372,0 -36.1945918240543,-9.90128024177528,0 -36.1945485504701,-9.90127637259406,0 -36.1945048602796,-9.90127156682643,0 -36.1944610061409,-9.90126747457617,0 -36.1944167056488,-9.9012646529472,0 -36.1943707979255,-9.90126224232532,0 -36.1943230355476,-9.90126005512315,0 -36.1942744836973,-9.90125714237548,0 -36.1942265809566,-9.90125453434355,0 -36.1941798569812,-9.90125250858688,0 -36.1941338244204,-9.90125054877018,0 -36.1940866796868,-9.90124868859053,0 -36.1940384098493,-9.90124615334711,0 -36.1939902756595,-9.90124290441464,0 -36.1939434932363,-9.90124014538679,0 -36.193897991727,-9.90123769722518,0 -36.1938540350101,-9.90123578882757,0 -36.1938116774274,-9.90123509770677,0 -36.1937702352928,-9.90123454707792,0 -36.1937297418082,-9.90123362982743,0 -36.1936905967875,-9.90123278000316,0 -36.1936518105585,-9.90123138554548,0 -36.1936133021351,-9.90122918896116,0 -36.1935738861901,-9.90122712302831,0 -36.1935334605526,-9.9012253420293,0 -36.1934913622612,-9.90122464980631,0 -36.1934495331904,-9.90122278764115,0 -36.1934087837914,-9.90122034956734,0 -36.1933681407999,-9.90121894799836,0 -36.1933248831624,-9.90121819521425,0 -36.1932807642668,-9.90121738279824,0 -36.1932364611125,-9.9012175416093,0 -36.1931910150757,-9.90121846503285,0 -36.1931442711001,-9.90121989680845,0 -36.193096527623,-9.90122105729479,0 -36.1930483870266,-9.901222271016,0 -36.1930001142073,-9.90122418226461,0 -36.192951180094,-9.90122592741042,0 -36.1929019866022,-9.90122905662555,0 -36.1928542369954,-9.90123034754742,0 -36.1928082068543,-9.90123107656479,0 -36.1927629888039,-9.90123235538865,0 -36.1927175805243,-9.90123392115964,0 -36.1926721303677,-9.9012354317299,0 -36.1926274497025,-9.90123628103341,0 -36.1925853216802,-9.90123713948968,0 -36.1925451486369,-9.90123943265734,0 -36.1925044564079,-9.90124320762194,0 -36.1924620499457,-9.90124722941872,0 -36.1924184671452,-9.90125115283285,0 -36.1923755114699,-9.90125424387031,0 -36.1923325081049,-9.90125736540545,0 -36.1922882096124,-9.9012610911788,0 -36.1922432162574,-9.9012645349279,0 -36.1921981181714,-9.90126761726959,0 -36.1921524828565,-9.90127052523661,0 -36.1921074648493,-9.90127320710644,0 -36.1920646419644,-9.90127638367132,0 -36.1920237234222,-9.901279111745,0 -36.1919846974799,-9.90128095038645,0 -36.1919481211605,-9.90128177498968,0 -36.1919122859873,-9.9012821257791,0 -36.1918752003961,-9.9012815546105,0 -36.1918367835588,-9.90127912611945,0 -36.191798824549,-9.90127491542108,0 -36.1917680502616,-9.90126999309508,0 -36.1917463770907,-9.90126547137576,0 -36.1916850042549,-9.90124824198591,0 -36.1916704913933,-9.90128913711714,0 -36.1917116820022,-9.9012870062121,0 -36.191744377689,-9.90129452181645,0 -36.1917766613737,-9.90130248868945,0 -36.1918122009545,-9.9013095919725,0 -36.1918508112006,-9.90131406996252,0 -36.191891149153,-9.90131568904365,0 -36.1919319931855,-9.90131589455606,0 -36.1919731237601,-9.90131537284884,0 -36.1920148243658,-9.90131554530446,0 -36.1920572545655,-9.90131561788775,0 -36.1920991945444,-9.90131487009694,0 -36.1921397422115,-9.90131384811336,0 -36.1921793176608,-9.90131337900882,0 -36.1922146104043,-9.90131526470589,0 -36.1922487776511,-9.90131649315894,0 -36.1922860391017,-9.90131448482912,0 -36.1923240375978,-9.90131463084175,0 -36.1923634860962,-9.9013154070882,0 -36.1924045213338,-9.90131749292853,0 -36.1924459494832,-9.90132078240995,0 -36.1924874098733,-9.90132444363076,0 -36.1925287035897,-9.90132737571418,0 -36.1925699027496,-9.90132984128209,0 -36.192610838015,-9.90133214348856,0 -36.1926517054567,-9.90133314407386,0 -36.1926934773702,-9.90133292375013,0 -36.1927366413817,-9.9013325325708,0 -36.192780164992,-9.90133162572897,0 -36.1928210772669,-9.90132952297727,0 -36.1928606237471,-9.90132704163922,0 -36.1929002921301,-9.90132623087903,0 -36.1929408228794,-9.90132601608761,0 -36.1929823081262,-9.90132558776104,0 -36.193024467307,-9.90132482977208,0 -36.1930668859372,-9.90132285746021,0 -36.1931096943007,-9.90132094468547,0 -36.1931536136686,-9.90132057709996,0 -36.1931980407944,-9.9013209579509,0 -36.1932434766975,-9.90132237886375,0 -36.1932905096049,-9.90132615952121,0 -36.193337482379,-9.90133284360362,0 -36.1933828316,-9.90134230940447,0 -36.1934254895372,-9.90135255637357,0 -36.1934676798448,-9.90136055028971,0 -36.1935113675922,-9.90136849072175,0 -36.1935566747712,-9.90137494495499,0 -36.1936033151239,-9.90138000643029,0 -36.1936511303363,-9.90138431354571,0 -36.1936990705761,-9.90138802224906,0 -36.1937468705814,-9.90139074178671,0 -36.1937947029616,-9.90139218556404,0 -36.1938423780487,-9.90139315645187,0 -36.1938894771681,-9.90139343395704,0 -36.1939366156199,-9.90139312481214,0 -36.1939842097999,-9.90139222424265,0 -36.1940319039069,-9.90139092831108,0 -36.1940792827139,-9.90138849797618,0 -36.1941269244648,-9.90138358970477,0 -36.1941738663351,-9.90138198944766,0 -36.1942148429273,-9.90137793977806,0 -36.1942523334518,-9.90137286253274,0 -36.194289703616,-9.90136800346907,0 -36.1943278222692,-9.90136080438122,0 -36.1943676484573,-9.90135286383171,0 -36.194408823313,-9.90134681567122,0 -36.1944508769972,-9.90134294851424,0 -36.194493121984,-9.90134375771242,0 -36.1945332235221,-9.90134778830018,0 -36.1945715114603,-9.90135127341888,0 -36.1946094030863,-9.9013549142324,0 -36.1946468516609,-9.90135879282962,0 -36.194684424697,-9.90136269610058,0 -36.1947231138004,-9.90136707607457,0 -36.1947605330074,-9.90137310383638,0 -36.1947968713668,-9.90137848331349,0 -36.1948333575129,-9.90138377387545,0 -36.1948697611723,-9.90138899649812,0 -36.1949059845176,-9.90139406432971,0 -36.1949424831917,-9.90139876850623,0 -36.1949807093797,-9.90140395557505,0 -36.1950201650112,-9.90141097768293,0 -36.195058664983,-9.90141850311197,0 -36.1950964087882,-9.90142437648619,0 -36.1951358298081,-9.90142837419818,0 -36.195176214348,-9.90143273825193,0 -36.1952155802321,-9.901436363667,0 -36.195253544428,-9.90143905049107,0 -36.1952905812153,-9.90144241339293,0 -36.1953268630338,-9.90144625146898,0 -36.1953616700407,-9.90145095257153,0 -36.1953936488574,-9.90145563757483,0 -36.1954225758623,-9.90145714316274,0 -36.195454916229,-9.9014584957595,0 -36.1954875050585,-9.90146058315331,0 -36.1955183343853,-9.90146082035426,0 -36.1955478220433,-9.90146301080408,0 -36.1955718545187,-9.90146414692042,0 -36.1955908886464,-9.90146323727793,0 -36.1956273184054,-9.90146384468623,0 -36.1956514352187,-9.90146613095528,0 -36.1956797001586,-9.9014701671273,0 -36.1957124703593,-9.90147607522691,0 -36.1957455687732,-9.90148243482725,0 -36.1957780150189,-9.90148892545634,0 -36.1958100479189,-9.90149536319213,0 -36.1958431588624,-9.90150366609085,0 -36.195872297656,-9.90151053388499,0 -36.1958998895701,-9.90151603517165,0 -36.1959289758264,-9.90152532032825,0 -36.1959604833568,-9.90153565673713,0 -36.1959930034187,-9.90154657850698,0 -36.1960272592233,-9.90155775543643,0 -36.196063611437,-9.90156979319306,0 -36.1961015746445,-9.90158097348832,0 -36.1961413297758,-9.90159169652313,0 -36.196181116437,-9.90160138688089,0 -36.1962217298206,-9.90160911393617,0 -36.196261402529,-9.90161449122689,0 -36.1962994893443,-9.90161860198556,0 -36.1963370307293,-9.90162134901739,0 -36.19637455559,-9.90162320853668,0 -36.1964125910217,-9.90162431941787,0 -36.1964516728859,-9.90162621522587,0 -36.1964911914919,-9.90163068429365,0 -36.1965291516174,-9.90163895448435,0 -36.1965650624473,-9.90164868208007,0 -36.1966006175589,-9.90165984800939,0 -36.1966363717158,-9.90167193572324,0 -36.1966715698014,-9.9016861112238,0 -36.196706886802,-9.90170075880107,0 -36.1967428186996,-9.90171641924981,0 -36.1967785417625,-9.90173270751009,0 -36.1968135718421,-9.90174751515584,0 -36.196849054206,-9.90176067572433,0 -36.1968849794045,-9.90177187928247,0 -36.1969213832985,-9.90178138394905,0 -36.1969579717958,-9.90178957102869,0 -36.1969941365795,-9.90179711407291,0 -36.1970292546567,-9.90180408758961,0 -36.1970637415112,-9.90181018940448,0 -36.1970985279806,-9.90181625050592,0 -36.197134289927,-9.90182213683028,0 -36.1971703176975,-9.90182951282489,0 -36.1972058835888,-9.90183812951043,0 -36.1972414092526,-9.90184852976502,0 -36.1972781359664,-9.90185898244622,0 -36.1973172970129,-9.90186925623032,0 -36.1973583388796,-9.90188097337048,0 -36.1973986557429,-9.90189457891075,0 -36.1974376651637,-9.90190816665355,0 -36.1974773511038,-9.90192087635207,0 -36.1975175354131,-9.90193309683879,0 -36.1975571391442,-9.90194316461728,0 -36.1975965854157,-9.90195151450253,0 -36.1976356055123,-9.90196046537513,0 -36.1976741981737,-9.9019672787521,0 -36.1977128737096,-9.90197193967443,0 -36.1977522508326,-9.90197473949423,0 -36.1977927507393,-9.90197752084793,0 -36.1978333072129,-9.90197996455361,0 -36.1978719000697,-9.9019815302794,0 -36.1979097276198,-9.90198313303516,0 -36.1979464005373,-9.90198466949508,0 -36.1979837026083,-9.90198753177873,0 -36.1980213915239,-9.90199090871156,0 -36.198060475759,-9.90199425289477,0 -36.198101083126,-9.90199850358648,0 -36.1981421960398,-9.90200391403145,0 -36.1981830092309,-9.90201106654763,0 -36.1982225979647,-9.90202057396595,0 -36.1982619132279,-9.90202990931437,0 -36.1983016611583,-9.902038547699,0 -36.1983410111123,-9.90204847109937,0 -36.1983795932796,-9.90205790155495,0 -36.1984180868105,-9.90206675637343,0 -36.1985376893713,-9.90208076214348,0 -36.198577775317,-9.90208087398896,0 -36.1986602841619,-9.90207738099716,0 -36.1986998601101,-9.90207760134886,0 -36.1987381750404,-9.90207772902447,0 -36.1987771422798,-9.90207750216822,0 -36.1988177578417,-9.90207599145032,0 -36.1989412853118,-9.9020789439261,0 -36.1989806929368,-9.90207979996351,0 -36.1990179089813,-9.90207837264476,0 -36.1990804880167,-9.90207045434217,0 -36.1991060254957,-9.90206048045961,0 -36.1991366136769,-9.90205075767997,0 -36.1991640280271,-9.90203751915005,0 -36.1991896715337,-9.90202118574565,0 -36.1992155956801,-9.90200475539415,0 -36.1992417671285,-9.90198666198838,0 -36.1992972123146,-9.90195820227514,0 -36.1993279737983,-9.90194890890289,0 -36.1993619814265,-9.90194471666249,0 -36.1993978214045,-9.90194827224506,0 -36.1994332729403,-9.9019593725757,0 -36.1994662912511,-9.90197392232465,0 -36.1995001319438,-9.90198881983603,0 -36.199536251396,-9.90200319401082,0 -36.1996118240768,-9.90203432661,0 -36.1996490213872,-9.90204829634101,0 -36.1996860650806,-9.90206028673266,0 -36.1997210566606,-9.90207035782267,0 -36.1997830422765,-9.90208706315958,0 -36.1998121970547,-9.90209031914416,0 -36.1999134900782,-9.90208837859173,0 -36.1999518901535,-9.90208490620073,0 -36.1999897949094,-9.90207894563478,0 -36.2000641514,-9.90206060924903,0 -36.2000983027059,-9.90204756601549,0 -36.200160456103,-9.90200773009727,0 -36.2001834345715,-9.90198248237605,0 -36.2002005459745,-9.90195262681295,0 -36.2002123368113,-9.90191847664806,0 -36.2002200503504,-9.90188133031695,0 -36.2002244563731,-9.90184156477396,0 -36.2002397113295,-9.90172131984938,0 -36.2002480970241,-9.90168204219334,0 -36.200258686547,-9.90164608905552,0 -36.2002701818075,-9.90161210119076,0 -36.2002799293585,-9.90158143879384,0 -36.2002890577268,-9.90154926199316,0 -36.2002994506409,-9.90151504476066,0 -36.2003113410926,-9.90147909070957,0 -36.2003323326391,-9.90140594061976,0 -36.2003349184258,-9.90133098580505,0 -36.2003309897529,-9.90129558195144,0 -36.2003210902338,-9.90122726842227,0 -36.2003107000152,-9.90116108030918,0 -36.2003114678033,-9.90109620597954,0 -36.200308835681,-9.90106639239925,0 -36.2003053879569,-9.90099399295245,0 -36.2003031983349,-9.90095620867024,0 -36.2003004566039,-9.90091739449827,0 -36.200299182025,-9.90088415044487,0 -36.2002922555071,-9.90081749183166,0 -36.2002916608921,-9.90078077693753,0 -36.2002895500792,-9.90074551449936,0 -36.2002841405728,-9.90068232803164,0 -36.2002857164829,-9.900630739271,0 -36.2002883578484,-9.90058930238626,0 -36.2003242051335,-9.90057305654438,0 -36.2003093768603,-9.90040068472492,0 -36.2002952698485,-9.90022674700001,0 -36.2002817203163,-9.89997951904611,0 -36.2002824477151,-9.8998936070014,0</coordinates></LinearRing></outerBoundaryIs></Polygon></MultiGeometry>
  </Placemark>
</Folder>
</Document></kml>
