<?xml version="1.0" encoding="utf-8" ?>
<kml xmlns="http://www.opengis.net/kml/2.2">
<Document id="root_doc">
<Schema name="JEQUIA_II_TALHAO_1006_ID_1050" id="JEQUIA_II_TALHAO_1006_ID_1050">
	<SimpleField name="TALHAO" type="string"></SimpleField>
	<SimpleField name="FAZENDA" type="string"></SimpleField>
	<SimpleField name="ZONA" type="string"></SimpleField>
	<SimpleField name="ID" type="float"></SimpleField>
	<SimpleField name="AREA_TOTAL" type="float"></SimpleField>
	<SimpleField name="FAZ_NOME" type="string"></SimpleField>
	<SimpleField name="CODE" type="string"></SimpleField>
</Schema>
<Folder><name>JEQUIA_II_TALHAO_1006_ID_1050</name>
  <Placemark id="JEQUIA_II_TALHAO_1006_ID_1050.1">
	<Style><LineStyle><color>ff0000ff</color></LineStyle><PolyStyle><fill>0</fill></PolyStyle></Style>
	<ExtendedData><SchemaData schemaUrl="#JEQUIA_II_TALHAO_1006_ID_1050">
		<SimpleData name="TALHAO">1006</SimpleData>
		<SimpleData name="FAZENDA">1924</SimpleData>
		<SimpleData name="ZONA">1</SimpleData>
		<SimpleData name="ID">1050</SimpleData>
		<SimpleData name="AREA_TOTAL">19.26</SimpleData>
		<SimpleData name="FAZ_NOME">JEQUIA II</SimpleData>
		<SimpleData name="CODE"></SimpleData>
	</SchemaData></ExtendedData>
      <MultiGeometry><Polygon><outerBoundaryIs><LinearRing><coordinates>-36.1870063577029,-9.88518130471197,0 -36.1864426097047,-9.88996263338353,0 -36.1864443844044,-9.89000875108278,0 -36.1864377108021,-9.89004404135627,0 -36.1864297513872,-9.89008078040907,0 -36.1864201172891,-9.89011932582358,0 -36.1864143617336,-9.89015825896793,0 -36.1864187896106,-9.89019200256468,0 -36.1864488480529,-9.89020482657392,0 -36.1864797243062,-9.89021975844443,0 -36.1865151179607,-9.89023111783478,0 -36.1865528439637,-9.89024781560113,0 -36.1865859120043,-9.8902643810531,0 -36.1866225756186,-9.89027717866492,0 -36.1866608438699,-9.89028575884767,0 -36.1866993905919,-9.89029423854683,0 -36.1867356997377,-9.89030378950384,0 -36.1867717525309,-9.89032035869172,0 -36.1868074878393,-9.89033147626708,0 -36.1868462642506,-9.89033800935451,0 -36.1868726034907,-9.89034093656141,0 -36.1869112280454,-9.89034616146797,0 -36.1869499644897,-9.89035210309511,0 -36.1869895317612,-9.89035331435047,0 -36.187028339059,-9.89035990233454,0 -36.1870535850067,-9.89036246307168,0 -36.1870936106987,-9.89036655982538,0 -36.1871197625329,-9.89037168177684,0 -36.1871587918735,-9.89037867670369,0 -36.1871953302336,-9.89038765594662,0 -36.1872344420414,-9.8903936437783,0 -36.1872738558703,-9.8903949118986,0 -36.1873114563912,-9.89040224357732,0 -36.187351176705,-9.89040242128246,0 -36.1873786367573,-9.89040176732418,0 -36.187418417948,-9.89040470560348,0 -36.1874586683686,-9.89040705379844,0 -36.1874970194019,-9.89040511069771,0 -36.1875348167719,-9.89039877652976,0 -36.1875743338058,-9.89040586231178,0 -36.1876097684291,-9.89041802789566,0 -36.1876463106956,-9.89042917472946,0 -36.1876795497963,-9.89043936519547,0 -36.1877101643074,-9.89044837577143,0 -36.1877399340562,-9.89045448368898,0 -36.1877724100476,-9.89046907226208,0 -36.1878000151509,-9.89047859149045,0 -36.1878324047599,-9.89049189709595,0 -36.1878655089884,-9.89050104358729,0 -36.187897271096,-9.89050950235777,0 -36.1879295996021,-9.89051159423216,0 -36.1879643475999,-9.89052292008291,0 -36.1879992604801,-9.89052905610143,0 -36.188035487544,-9.89053565166476,0 -36.1880742072777,-9.89054025749024,0 -36.1881119672435,-9.89054818469951,0 -36.1881495462862,-9.89055467474803,0 -36.188187394369,-9.89056039506093,0 -36.1882248754853,-9.89056961445354,0 -36.1882610454374,-9.89057960488496,0 -36.1882977249428,-9.89058885984552,0 -36.1883344247805,-9.89059864890095,0 -36.1883726385635,-9.89060725356959,0 -36.1884095249529,-9.89061580602493,0 -36.1884468278656,-9.89061922206522,0 -36.1884851886394,-9.8906224265127,0 -36.1885238226335,-9.8906297353648,0 -36.1885601116085,-9.89063549427481,0 -36.1885978257399,-9.89064139158205,0 -36.1886358226898,-9.89064710568598,0 -36.1886752268998,-9.89065198811208,0 -36.1887144013305,-9.89065680645584,0 -36.1887536905367,-9.89066073885589,0 -36.1887954267902,-9.8906639530717,0 -36.188821521501,-9.89066455392186,0 -36.1888459264622,-9.89066604596722,0 -36.18888308741,-9.89067040910718,0 -36.1889205601435,-9.89067403268122,0 -36.1889680198321,-9.89067476567466,0 -36.1890049876986,-9.8906784461797,0 -36.1890383496507,-9.89068626649772,0 -36.189066385224,-9.89068103735918,0 -36.1890694658028,-9.89067779676171,0 -36.1892034447105,-9.89040076006228,0 -36.1906635398734,-9.8866059459678,0 -36.190660601489,-9.88656825870999,0 -36.1906506908788,-9.88653434520549,0 -36.1906393941943,-9.88649999559729,0 -36.1906245903753,-9.88646562165674,0 -36.1906043968349,-9.88643369995753,0 -36.1905777614777,-9.88640675710526,0 -36.1905419435741,-9.8863869783723,0 -36.1870063577029,-9.88518130471197,0</coordinates></LinearRing></outerBoundaryIs></Polygon></MultiGeometry>
  </Placemark>
</Folder>
</Document></kml>
