<?xml version="1.0" encoding="utf-8" ?>
<kml xmlns="http://www.opengis.net/kml/2.2">
<Document id="root_doc">
<Schema name="JEQUIA_II_TALHAO_1002_ID_1123" id="JEQUIA_II_TALHAO_1002_ID_1123">
	<SimpleField name="TALHAO" type="string"></SimpleField>
	<SimpleField name="FAZENDA" type="string"></SimpleField>
	<SimpleField name="ZONA" type="string"></SimpleField>
	<SimpleField name="ID" type="float"></SimpleField>
	<SimpleField name="AREA_TOTAL" type="float"></SimpleField>
	<SimpleField name="FAZ_NOME" type="string"></SimpleField>
	<SimpleField name="CODE" type="string"></SimpleField>
</Schema>
<Folder><name>JEQUIA_II_TALHAO_1002_ID_1123</name>
  <Placemark id="JEQUIA_II_TALHAO_1002_ID_1123.1">
	<Style><LineStyle><color>ff0000ff</color></LineStyle><PolyStyle><fill>0</fill></PolyStyle></Style>
	<ExtendedData><SchemaData schemaUrl="#JEQUIA_II_TALHAO_1002_ID_1123">
		<SimpleData name="TALHAO">1002</SimpleData>
		<SimpleData name="FAZENDA">1924</SimpleData>
		<SimpleData name="ZONA">1</SimpleData>
		<SimpleData name="ID">1123</SimpleData>
		<SimpleData name="AREA_TOTAL">5.19</SimpleData>
		<SimpleData name="FAZ_NOME">JEQUIA II</SimpleData>
		<SimpleData name="CODE"></SimpleData>
	</SchemaData></ExtendedData>
      <MultiGeometry><Polygon><outerBoundaryIs><LinearRing><coordinates>-36.1794069188413,-9.88148589342625,0 -36.1793930856364,-9.88150856409076,0 -36.179378432292,-9.8815318189054,0 -36.1793616305745,-9.88155715273498,0 -36.1793435201068,-9.88158358248163,0 -36.1793242549155,-9.88161078351513,0 -36.179304895043,-9.88163753141737,0 -36.1792879957986,-9.88166406944545,0 -36.1792735632448,-9.88169385896793,0 -36.1792571470483,-9.88172904096768,0 -36.1792385529745,-9.88176882510353,0 -36.1792182966635,-9.88181063738209,0 -36.1791989319676,-9.88185140069635,0 -36.1791808916445,-9.88189238201887,0 -36.1791642830561,-9.88193438726727,0 -36.1791586589742,-9.88195109734366,0 -36.1791493294446,-9.88198191197109,0 -36.1791390168985,-9.88202747190617,0 -36.1791313407387,-9.8820727465803,0 -36.1791266981406,-9.88211780180656,0 -36.1791246744159,-9.8821623778066,0 -36.1791255272593,-9.88220653007264,0 -36.1791290849542,-9.88225051502704,0 -36.1791355711174,-9.88229254279253,0 -36.1791462784656,-9.88233135604243,0 -36.1791624025741,-9.8823668835933,0 -36.1791838197586,-9.88239893545937,0 -36.1792089716251,-9.88242631524497,0 -36.1792367503033,-9.88244862356212,0 -36.1792661593587,-9.88246692123578,0 -36.1792979471571,-9.88248248079973,0 -36.1793316167193,-9.88249608219031,0 -36.1793641162788,-9.88250894277886,0 -36.1793946378279,-9.88252027429815,0 -36.1794235616531,-9.88253030897398,0 -36.1794509346911,-9.88253912738158,0 -36.1794786394469,-9.88254795719979,0 -36.1795027833808,-9.88255542444348,0 -36.1795314244643,-9.88256409392314,0 -36.1795585977857,-9.88257205754125,0 -36.1795773564977,-9.88257554971038,0 -36.1810039834813,-9.88305812282545,0 -36.1812842809675,-9.88061039951025,0 -36.1812620665824,-9.88059127568626,0 -36.1812443564068,-9.88056527800539,0 -36.1812279622019,-9.88054119656829,0 -36.181210987033,-9.88051715357932,0 -36.1811936779783,-9.88049280970236,0 -36.1811770338863,-9.8804685085511,0 -36.1811613966324,-9.88044543013265,0 -36.1811437615499,-9.88041993676385,0 -36.1811248785822,-9.88039134479186,0 -36.1811064672842,-9.88036321051336,0 -36.1810883305775,-9.88033577372023,0 -36.1810713697573,-9.88030935587006,0 -36.1810558672544,-9.8802848673122,0 -36.1810403483705,-9.88025822120636,0 -36.1810251368441,-9.88023061713735,0 -36.1810081938105,-9.88020342383501,0 -36.1809906666578,-9.88017671005819,0 -36.1809731512678,-9.88014989353488,0 -36.180955666994,-9.88012360980374,0 -36.1809379272398,-9.88009730585569,0 -36.180920411645,-9.88007010046113,0 -36.1809034716558,-9.88004213584936,0 -36.1808867259287,-9.88001430299667,0 -36.1808700998145,-9.87998707729144,0 -36.1808536054234,-9.8799612504516,0 -36.1808370100578,-9.87993704103899,0 -36.1808195760535,-9.87991357119626,0 -36.180800590274,-9.87989115584134,0 -36.1807805935514,-9.87987011678178,0 -36.1807592161419,-9.87985066931695,0 -36.1807368420276,-9.87983258300873,0 -36.1807151734322,-9.87981593767635,0 -36.1806925245998,-9.87980277809714,0 -36.1806683521457,-9.8797933196943,0 -36.1806432701567,-9.8797881979467,0 -36.1806182350328,-9.87978741491638,0 -36.1805932035493,-9.87979128200618,0 -36.1805684265728,-9.87980031713293,0 -36.1805447839648,-9.87981425370376,0 -36.1805229163717,-9.87983339166026,0 -36.1805030576186,-9.87985589818644,0 -36.1804855466392,-9.87988174930514,0 -36.180470561984,-9.87990983066743,0 -36.1804573456781,-9.87993931971648,0 -36.180446125247,-9.87996855123543,0 -36.1804341395944,-9.87999885295176,0 -36.1804212586429,-9.8800290551796,0 -36.1804081417813,-9.88005890527127,0 -36.1803952226515,-9.8800882272586,0 -36.1803825866902,-9.88011647841272,0 -36.1803705182809,-9.88014360457613,0 -36.1803605975525,-9.88017110630522,0 -36.1803490956107,-9.88020009509082,0 -36.1803366743139,-9.8802276354457,0 -36.1803238164705,-9.88025438070266,0 -36.1803047289337,-9.88028504733319,0 -36.1802877048706,-9.88031809359138,0 -36.1802674997312,-9.88036072752737,0 -36.1802427402252,-9.88039971917513,0 -36.1802282497493,-9.88042541117747,0 -36.1802129606912,-9.88045060703095,0 -36.1801940414178,-9.88047412102724,0 -36.1801750637565,-9.88049790032967,0 -36.1801553303838,-9.88052181864086,0 -36.1801370272106,-9.88054393857101,0 -36.1801218449608,-9.88056452072823,0 -36.180106412775,-9.88058588904579,0 -36.1800818254473,-9.88062460945977,0 -36.1800628557625,-9.88064901197031,0 -36.1800454642624,-9.88067110626573,0 -36.1800284849134,-9.88070839522928,0 -36.1800099585781,-9.88074079993351,0 -36.1799894389712,-9.8807670313947,0 -36.1799718969077,-9.88078180788852,0 -36.179953615166,-9.88079630489715,0 -36.1799341565981,-9.88081054713735,0 -36.1799148952581,-9.8808249290859,0 -36.1798978425032,-9.88083882721956,0 -36.1798808388969,-9.88085396326297,0 -36.1798660113178,-9.88086980382141,0 -36.1798511186424,-9.88088584819576,0 -36.1798385492824,-9.88090248849482,0 -36.1798252530858,-9.8809209957895,0 -36.1798106501487,-9.88093976642346,0 -36.1797952336626,-9.88095891261912,0 -36.1797790147629,-9.8809784786771,0 -36.1797632357163,-9.88099861245985,0 -36.1797487571002,-9.88101855379903,0 -36.1797364857694,-9.88103718651313,0 -36.1797254247369,-9.88105592367623,0 -36.1797132245214,-9.88107776018726,0 -36.1797005063631,-9.881101294752,0 -36.1796864066935,-9.88112593050723,0 -36.1796724710801,-9.881149476268,0 -36.1796582496334,-9.88117302890194,0 -36.1796442041603,-9.88119654162674,0 -36.1796298121676,-9.88121991059356,0 -36.1796149423312,-9.88124429619291,0 -36.179599793298,-9.88126811823373,0 -36.1795852990394,-9.88128943146589,0 -36.1795711197772,-9.88130882369355,0 -36.1795578410076,-9.88132689202336,0 -36.1795444016335,-9.88134421997671,0 -36.1795295487026,-9.88136075370746,0 -36.1795122538122,-9.88137364778333,0 -36.1794941482821,-9.88138475449311,0 -36.1794734060278,-9.88139304105325,0 -36.1794538669794,-9.88142158686199,0 -36.179434603095,-9.88144305578713,0 -36.1794200584867,-9.88146343664059,0 -36.1794069188413,-9.88148589342625,0</coordinates></LinearRing></outerBoundaryIs></Polygon></MultiGeometry>
  </Placemark>
</Folder>
</Document></kml>
