<?xml version="1.0" encoding="utf-8" ?>
<kml xmlns="http://www.opengis.net/kml/2.2">
<Document id="root_doc">
<Schema name="JEQUIA_II_TALHAO_1059_ID_1020" id="JEQUIA_II_TALHAO_1059_ID_1020">
	<SimpleField name="TALHAO" type="string"></SimpleField>
	<SimpleField name="FAZENDA" type="string"></SimpleField>
	<SimpleField name="ZONA" type="string"></SimpleField>
	<SimpleField name="ID" type="float"></SimpleField>
	<SimpleField name="AREA_TOTAL" type="float"></SimpleField>
	<SimpleField name="FAZ_NOME" type="string"></SimpleField>
	<SimpleField name="CODE" type="string"></SimpleField>
</Schema>
<Folder><name>JEQUIA_II_TALHAO_1059_ID_1020</name>
  <Placemark id="JEQUIA_II_TALHAO_1059_ID_1020.1">
	<Style><LineStyle><color>ff0000ff</color></LineStyle><PolyStyle><fill>0</fill></PolyStyle></Style>
	<ExtendedData><SchemaData schemaUrl="#JEQUIA_II_TALHAO_1059_ID_1020">
		<SimpleData name="TALHAO">1059</SimpleData>
		<SimpleData name="FAZENDA">1924</SimpleData>
		<SimpleData name="ZONA">1</SimpleData>
		<SimpleData name="ID">1020</SimpleData>
		<SimpleData name="AREA_TOTAL">24.31</SimpleData>
		<SimpleData name="FAZ_NOME">JEQUIA II</SimpleData>
		<SimpleData name="CODE"></SimpleData>
	</SchemaData></ExtendedData>
      <MultiGeometry><Polygon><outerBoundaryIs><LinearRing><coordinates>-36.1890932779888,-9.92559162358164,0 -36.1883429771778,-9.93186977367595,0 -36.1883966012048,-9.93186338468131,0 -36.1884299685738,-9.93185830492916,0 -36.1884640808573,-9.93185174952698,0 -36.1884981852657,-9.93184376122942,0 -36.1885321372851,-9.93183523897699,0 -36.1885649756182,-9.93182472936384,0 -36.1885977406008,-9.93181097902497,0 -36.1886309535865,-9.93179581719775,0 -36.1886638887616,-9.93177974502111,0 -36.1886958430796,-9.93176462441011,0 -36.1887280531059,-9.93175074758954,0 -36.1887617891552,-9.93173577139278,0 -36.1887960852226,-9.93172000564355,0 -36.1888302336409,-9.93170385474609,0 -36.1888644225085,-9.93168771792757,0 -36.1888974731494,-9.93167205382003,0 -36.1889291317689,-9.93165638678109,0 -36.1889608808854,-9.93164137147713,0 -36.1889929409825,-9.93162613591031,0 -36.1890261785535,-9.93161044777815,0 -36.1890596639306,-9.93159465833272,0 -36.1890920949021,-9.93157907864146,0 -36.1891231768696,-9.93156401691813,0 -36.1891526589345,-9.93155046414091,0 -36.1891816262467,-9.93153845972079,0 -36.1892094471158,-9.93152663705433,0 -36.1892352895897,-9.93151507722903,0 -36.1892587666258,-9.93150420756448,0 -36.1892801203225,-9.93149412724659,0 -36.1893018653482,-9.93148339774864,0 -36.1893257661151,-9.93147112611943,0 -36.1893525798674,-9.93145671096951,0 -36.189380217012,-9.93144163396884,0 -36.1894075530352,-9.93142592197901,0 -36.1894346447652,-9.93140991026016,0 -36.1894612651043,-9.93139312917859,0 -36.1894886659881,-9.93137586897413,0 -36.1895160354527,-9.93135919581527,0 -36.1895428612596,-9.93134282256137,0 -36.1895695004371,-9.93132661548278,0 -36.1895958400613,-9.93131082618726,0 -36.1896219845518,-9.93129504608475,0 -36.189648150342,-9.93127924812106,0 -36.1896738967866,-9.93126347499241,0 -36.1897000294849,-9.9312483133775,0 -36.1897199339077,-9.93123676526797,0 -36.1897532044082,-9.93121839160737,0 -36.1897796596699,-9.93120392554805,0 -36.1898069604297,-9.93118866401814,0 -36.189835712317,-9.93117181193478,0 -36.1898654500829,-9.93115383780432,0 -36.1898958569379,-9.931135747023,0 -36.1899268051004,-9.93111764827292,0 -36.1899610163859,-9.93109764121423,0 -36.1899955460384,-9.93107744796487,0 -36.1900136523498,-9.93106377287823,0 -36.1900411488302,-9.93104402584878,0 -36.1900685894691,-9.9310249121476,0 -36.190094607041,-9.93100683883368,0 -36.1901193822327,-9.9309895056734,0 -36.1901439635896,-9.93097288967232,0 -36.1901678310387,-9.93095539312098,0 -36.1901915464404,-9.93093589904924,0 -36.1902160939019,-9.93091526882361,0 -36.1902419225736,-9.93089457997294,0 -36.1902682658609,-9.93087412361091,0 -36.1902949011472,-9.93085325831184,0 -36.1903223029684,-9.93083235045373,0 -36.1903529303317,-9.93080898146871,0 -36.1903764768599,-9.93078949489396,0 -36.1904043678764,-9.93076652977595,0 -36.1904333098334,-9.93074203078753,0 -36.1904623496973,-9.93071679098317,0 -36.1904905338055,-9.93069161181354,0 -36.1905172800201,-9.93066749038324,0 -36.1905411693368,-9.93064503421925,0 -36.1905622724407,-9.93062331127061,0 -36.1905828402015,-9.93060032117441,0 -36.1906037020795,-9.93057583230248,0 -36.1906255586493,-9.93055046963527,0 -36.1906479065549,-9.93052515399539,0 -36.1906692737384,-9.93050122552087,0 -36.1906944722353,-9.9304730064647,0 -36.1907108876768,-9.93045479421361,0 -36.1907324104984,-9.93043044464346,0 -36.1907550616846,-9.93040544111025,0 -36.1907783375936,-9.93038045546851,0 -36.190802720332,-9.93035532844751,0 -36.1908277311407,-9.93032997589151,0 -36.1908523768688,-9.93030449559346,0 -36.1908768931832,-9.93027916723399,0 -36.1909009197061,-9.93025474301037,0 -36.190924710678,-9.93023087138923,0 -36.1909483830438,-9.9302078192842,0 -36.1909713726573,-9.93018504533645,0 -36.1909940973174,-9.93016117127621,0 -36.191017473011,-9.93013692105297,0 -36.1910409586139,-9.93011351207945,0 -36.1910640424702,-9.93009081367312,0 -36.1910862665894,-9.93006784346135,0 -36.1911073810039,-9.9300439257299,0 -36.1911277502771,-9.9300192507545,0 -36.1911471956217,-9.92999436529115,0 -36.1911662416017,-9.92996917253699,0 -36.1911853025671,-9.92994387061399,0 -36.1912046108153,-9.92991824736264,0 -36.1912286606987,-9.92988633165655,0 -36.1912424497833,-9.92986709913383,0 -36.1912612293572,-9.92984084211439,0 -36.1912796465209,-9.92981434424162,0 -36.1912971169531,-9.92978767123819,0 -36.191312976282,-9.92976197306956,0 -36.1913274348512,-9.92973726742791,0 -36.1913564224574,-9.92969203435935,0 -36.1913716150552,-9.92966960438795,0 -36.1914025435973,-9.92962534324607,0 -36.1914169780888,-9.92960466343952,0 -36.1914307504566,-9.92958291709028,0 -36.191444440044,-9.92956000313863,0 -36.1914583941651,-9.92953625090333,0 -36.1914730631646,-9.92951218457687,0 -36.1914888483543,-9.9294881510028,0 -36.1915048490145,-9.92946396199909,0 -36.1915208878603,-9.92943917180896,0 -36.1915366075317,-9.92941340158759,0 -36.1915522603492,-9.92938672033182,0 -36.1915693455865,-9.92935980499596,0 -36.1915887027742,-9.92933456011901,0 -36.1916073666223,-9.92931350787133,0 -36.1916217067246,-9.92929493903241,0 -36.191633581307,-9.92927558234419,0 -36.1916459286142,-9.92925373605379,0 -36.1916607098853,-9.92923130484158,0 -36.1916769164463,-9.92920998593043,0 -36.1916931151082,-9.92918892674907,0 -36.1917091190008,-9.92916810516884,0 -36.1917251419602,-9.92914811815024,0 -36.1917407984736,-9.92912937165425,0 -36.1917565491279,-9.92911064343623,0 -36.1917787721065,-9.92908443133488,0 -36.1918074797153,-9.92905374669215,0 -36.1918413261371,-9.92901646134218,0 -36.1918594788075,-9.92899485287193,0 -36.1918845437391,-9.92896879379371,0 -36.1919206742871,-9.92893347073089,0 -36.1919533074353,-9.92890273376748,0 -36.1919737389565,-9.92888257328694,0 -36.1919955420335,-9.9288610459958,0 -36.1920178172361,-9.92883990751289,0 -36.1920382165367,-9.92882062270367,0 -36.1920556632925,-9.92880347829148,0 -36.1920704696195,-9.92878796998445,0 -36.1920842712452,-9.92877184082579,0 -36.1921063488318,-9.9287530936314,0 -36.1920931997715,-9.92871337370698,0 -36.1920901321738,-9.92867468301231,0 -36.192088489277,-9.92865256484147,0 -36.1920892431553,-9.92863190273808,0 -36.1920899212621,-9.92861033578901,0 -36.1920898537961,-9.92858831168347,0 -36.1920892808434,-9.92856428147071,0 -36.1920902009322,-9.92854388126182,0 -36.192089714907,-9.92852054494604,0 -36.1920898674641,-9.92849658279003,0 -36.1920878607166,-9.92846534348853,0 -36.1920871297067,-9.9284220526459,0 -36.1920878428312,-9.92839608348748,0 -36.1920884142744,-9.92837290496209,0 -36.192087944231,-9.92834796570334,0 -36.192088368239,-9.92832328468218,0 -36.1920883670561,-9.92829940416237,0 -36.1920867860223,-9.92826452839138,0 -36.1920906010548,-9.92822655591979,0 -36.1920920030964,-9.92820207875009,0 -36.1920968672615,-9.92816903341808,0 -36.1921031945053,-9.9281361171946,0 -36.192106609972,-9.92811191186259,0 -36.1921132366662,-9.92808668074507,0 -36.1921198160862,-9.92806240486391,0 -36.1921277734718,-9.92803761625356,0 -36.1921376949911,-9.92801427648191,0 -36.1921485336689,-9.92799315779305,0 -36.192160289811,-9.92797033502292,0 -36.1921744514748,-9.92794906002857,0 -36.1921899840023,-9.92792931555388,0 -36.1922058748692,-9.92791200446222,0 -36.1922193778129,-9.92789673750731,0 -36.1922351400054,-9.92787905665061,0 -36.1922538594587,-9.92786236095578,0 -36.1922707225173,-9.92784651925509,0 -36.19228612939,-9.92782987802477,0 -36.1923005662365,-9.9278138425915,0 -36.1923132679422,-9.92779691598228,0 -36.1923231863402,-9.92777953595139,0 -36.1923298176205,-9.92776097942961,0 -36.1923367832076,-9.92773501845245,0 -36.1927579611383,-9.92419422755739,0 -36.1890932779888,-9.92559162358164,0</coordinates></LinearRing></outerBoundaryIs></Polygon></MultiGeometry>
  </Placemark>
</Folder>
</Document></kml>
