<?xml version="1.0" encoding="utf-8" ?>
<kml xmlns="http://www.opengis.net/kml/2.2">
<Document id="root_doc">
<Schema name="JEQUIA_II_TALHAO_1082_ID_1081" id="JEQUIA_II_TALHAO_1082_ID_1081">
	<SimpleField name="TALHAO" type="string"></SimpleField>
	<SimpleField name="FAZENDA" type="string"></SimpleField>
	<SimpleField name="ZONA" type="string"></SimpleField>
	<SimpleField name="ID" type="float"></SimpleField>
	<SimpleField name="AREA_TOTAL" type="float"></SimpleField>
	<SimpleField name="FAZ_NOME" type="string"></SimpleField>
	<SimpleField name="CODE" type="string"></SimpleField>
</Schema>
<Folder><name>JEQUIA_II_TALHAO_1082_ID_1081</name>
  <Placemark id="JEQUIA_II_TALHAO_1082_ID_1081.1">
	<Style><LineStyle><color>ff0000ff</color></LineStyle><PolyStyle><fill>0</fill></PolyStyle></Style>
	<ExtendedData><SchemaData schemaUrl="#JEQUIA_II_TALHAO_1082_ID_1081">
		<SimpleData name="TALHAO">1082</SimpleData>
		<SimpleData name="FAZENDA">1924</SimpleData>
		<SimpleData name="ZONA">1</SimpleData>
		<SimpleData name="ID">1081</SimpleData>
		<SimpleData name="AREA_TOTAL">19.84</SimpleData>
		<SimpleData name="FAZ_NOME">JEQUIA II</SimpleData>
		<SimpleData name="CODE"></SimpleData>
	</SchemaData></ExtendedData>
      <MultiGeometry><Polygon><outerBoundaryIs><LinearRing><coordinates>-36.1736074837035,-9.91146522940601,0 -36.1729670971236,-9.91688555267208,0 -36.1773491746676,-9.91522753796892,0 -36.1777252695788,-9.91221988118122,0 -36.1776287721409,-9.91224074841941,0 -36.177598915374,-9.9122456348738,0 -36.1775690587235,-9.91225052121593,0 -36.1775392020381,-9.91225540766674,0 -36.1775093453781,-9.91226029400457,0 -36.1774794886638,-9.91226518043856,0 -36.1774496318961,-9.91227006687836,0 -36.1774200166454,-9.91227491369844,0 -36.1773826703846,-9.91228205222361,0 -36.177345083892,-9.91228923668115,0 -36.1773074973246,-9.91229642113,0 -36.177269910831,-9.91230360557817,0 -36.1772323242626,-9.9123107900177,0 -36.177194737768,-9.91231797445654,0 -36.1771571511902,-9.9123251588883,0 -36.1771195646203,-9.91233234331378,0 -36.1770819781242,-9.91233952773862,0 -36.1770436792944,-9.91234684829812,0 -36.1769997981267,-9.91235169208611,0 -36.1769566378702,-9.91235645629093,0 -36.1769134776095,-9.91236122049035,0 -36.1768703173047,-9.91236598467794,0 -36.1768271570105,-9.91237074895951,0 -36.1767839967507,-9.91237551314122,0 -36.1767408364091,-9.91238027731524,0 -36.1766976761543,-9.91238504148462,0 -36.1766545158954,-9.91238980564857,0 -36.1766112631456,-9.91239458000523,0 -36.1765736959902,-9.91239834238023,0 -36.1765362213351,-9.9124020954869,0 -36.1764987465988,-9.91240584858741,0 -36.1764612719491,-9.91240960168472,0 -36.1764237973385,-9.91241335477368,0 -36.1763863225587,-9.9124171079556,0 -36.1763488479099,-9.91242086103967,0 -36.1763113732567,-9.9124246141197,0 -36.1762738985223,-9.91242836719363,0 -36.1762355732481,-9.91243220545419,0 -36.1761976139497,-9.91243246509878,0 -36.1761605096764,-9.91243271889218,0 -36.1761234053145,-9.91243297268065,0 -36.176086301044,-9.91243322646578,0 -36.176049196774,-9.91243348024681,0 -36.1760120923706,-9.91243373402322,0 -36.1759749881483,-9.91243398770531,0 -36.1759378837919,-9.91243424147316,0 -36.1759007795263,-9.91243449523767,0 -36.1758617341083,-9.91243476227225,0 -36.1758278933824,-9.91242777358879,0 -36.1757959529851,-9.91242117735218,0 -36.1757640125898,-9.91241458111287,0 -36.1757320721479,-9.91240798486077,0 -36.1757001318162,-9.91240138853782,0 -36.1756681913265,-9.91239479228767,0 -36.1756362509396,-9.9123881960376,0 -36.1756043105549,-9.91238159978482,0 -36.1755723701234,-9.91237500351925,0 -36.1755398052282,-9.91236827819535,0 -36.1755044917021,-9.91235838629069,0 -36.175469792212,-9.91234866642485,0 -36.1754350925512,-9.91233894646627,0 -36.1754003929961,-9.91232922650869,0 -36.1753656934441,-9.91231950654805,0 -36.175330993895,-9.91230978658442,0 -36.1752962943488,-9.91230006661771,0 -36.1752615948057,-9.91229034664802,0 -36.1752268952655,-9.91228062667527,0 -36.1751911801761,-9.91227062222464,0 -36.1751552682645,-9.91225594259596,0 -36.1751203319845,-9.9122416617695,0 -36.1750853958299,-9.91222738095339,0 -36.1750504595352,-9.91221310011207,0 -36.1750155233206,-9.91219881920844,0 -36.1749805870713,-9.9121845383769,0 -36.1749456508108,-9.91217025753635,0 -36.1749107146756,-9.91215597670617,0 -36.174875778438,-9.91214169586618,0 -36.1748397835935,-9.91212698229628,0 -36.1747863397847,-9.91209688460035,0 -36.1747601157101,-9.91208211610832,0 -36.1747338916382,-9.91206734761489,0 -36.1747076675691,-9.91205257912004,0 -36.1746814435027,-9.91203781062376,0 -36.1746552193972,-9.91202304210253,0 -36.1746289953789,-9.91200827353666,0 -36.1746027713207,-9.91199350503615,0 -36.1745765799691,-9.91197875495194,0 -36.1745458869329,-9.91196163543285,0 -36.1745151612508,-9.91194449765105,0 -36.1744844354616,-9.91192735985543,0 -36.1744537096761,-9.91191022205788,0 -36.1744229838584,-9.91189308423833,0 -36.1743922581171,-9.91187594636659,0 -36.1743615323428,-9.91185880856319,0 -36.1743308065723,-9.91184167075785,0 -36.1743000808055,-9.91182453295055,0 -36.1742688618949,-9.91180712007995,0 -36.1742392921894,-9.91178814089287,0 -36.1742101974606,-9.91176946665434,0 -36.1741811026013,-9.91175079238574,0 -36.17415200788,-9.91173211814394,0 -36.1741229130281,-9.91171344387208,0 -36.1740938182802,-9.91169476960524,0 -36.1740647234705,-9.91167609526155,0 -36.174035628764,-9.91165742101322,0 -36.174006533927,-9.91163874673483,0 -36.1739779684508,-9.91162041216166,0 -36.1739499636922,-9.91160505008993,0 -36.1739214073011,-9.91158938541555,0 -36.1738928508188,-9.91157372073692,0 -36.1738642943729,-9.91155805611641,0 -36.1738357379702,-9.91154239142532,0 -36.1738071815707,-9.91152672673253,0 -36.1737786251743,-9.91151106203805,0 -36.1737500688203,-9.91149539736334,0 -36.1737215123904,-9.91147973273436,0 -36.1736919957659,-9.9114635412931,0 -36.1736756339196,-9.9114518210084,0 -36.1736640712426,-9.91144873212044,0 -36.1736432686416,-9.91144633800999,0 -36.1736214231501,-9.91144979226118,0 -36.1736074837035,-9.91146522940601,0</coordinates></LinearRing></outerBoundaryIs></Polygon></MultiGeometry>
  </Placemark>
</Folder>
</Document></kml>
