<?xml version="1.0" encoding="utf-8" ?>
<kml xmlns="http://www.opengis.net/kml/2.2">
<Document id="root_doc">
<Schema name="JEQUIA_II_TALHAO_1029_ID_1091" id="JEQUIA_II_TALHAO_1029_ID_1091">
	<SimpleField name="TALHAO" type="string"></SimpleField>
	<SimpleField name="FAZENDA" type="string"></SimpleField>
	<SimpleField name="ZONA" type="string"></SimpleField>
	<SimpleField name="ID" type="float"></SimpleField>
	<SimpleField name="AREA_TOTAL" type="float"></SimpleField>
	<SimpleField name="FAZ_NOME" type="string"></SimpleField>
	<SimpleField name="CODE" type="string"></SimpleField>
</Schema>
<Folder><name>JEQUIA_II_TALHAO_1029_ID_1091</name>
  <Placemark id="JEQUIA_II_TALHAO_1029_ID_1091.1">
	<Style><LineStyle><color>ff0000ff</color></LineStyle><PolyStyle><fill>0</fill></PolyStyle></Style>
	<ExtendedData><SchemaData schemaUrl="#JEQUIA_II_TALHAO_1029_ID_1091">
		<SimpleData name="TALHAO">1029</SimpleData>
		<SimpleData name="FAZENDA">1924</SimpleData>
		<SimpleData name="ZONA">1</SimpleData>
		<SimpleData name="ID">1091</SimpleData>
		<SimpleData name="AREA_TOTAL">25.32</SimpleData>
		<SimpleData name="FAZ_NOME">JEQUIA II</SimpleData>
		<SimpleData name="CODE"></SimpleData>
	</SchemaData></ExtendedData>
      <MultiGeometry><Polygon><outerBoundaryIs><LinearRing><coordinates>-36.1842390044866,-9.89085777615435,0 -36.1829687115588,-9.90260756761992,0 -36.1829905077875,-9.9026522687414,0 -36.1830575523247,-9.90281259003832,0 -36.1830735252868,-9.90278437996606,0 -36.1831134822574,-9.90271132799175,0 -36.1832455697091,-9.90247633485534,0 -36.1832933184466,-9.90239139998451,0 -36.1833417093874,-9.90230327328119,0 -36.1833909409862,-9.90221327136835,0 -36.1834404060859,-9.90212253345559,0 -36.1834885517598,-9.90203495159647,0 -36.1835822871153,-9.90187733775637,0 -36.1836289830079,-9.90180667232856,0 -36.1836763416853,-9.90174036028042,0 -36.1837247693514,-9.90167593556962,0 -36.1837738342853,-9.90161260078897,0 -36.1838246436272,-9.90154851191462,0 -36.1839325003422,-9.90141900157959,0 -36.1839889124365,-9.90135208214198,0 -36.1840465499754,-9.90128412002483,0 -36.1841633583005,-9.90114460611168,0 -36.1842203487534,-9.90107483401865,0 -36.1842747715993,-9.9010069775682,0 -36.184384416657,-9.90087157702875,0 -36.1844402635429,-9.90080236345066,0 -36.184495801521,-9.90073214622351,0 -36.1846659294003,-9.90052090796741,0 -36.1847202747367,-9.90045472148032,0 -36.1847720433448,-9.90039115733386,0 -36.185004429671,-9.90010157707598,0 -36.1850871566372,-9.89999901232265,0 -36.185127002707,-9.89995021252008,0 -36.1852091238988,-9.89984649864392,0 -36.1852535060606,-9.89979127863972,0 -36.1852983762423,-9.89973464898555,0 -36.1855022784772,-9.89944367802321,0 -36.1855938467019,-9.89930042274272,0 -36.1855848381483,-9.89929537950027,0 -36.1849429943876,-9.8989565344171,0 -36.1854282036801,-9.89805290179091,0 -36.1855459964868,-9.89811508747354,0 -36.186230142251,-9.89101642504605,0 -36.1861231571922,-9.89100413850738,0 -36.1854269211892,-9.89090883688893,0 -36.1847340372862,-9.89086064290179,0 -36.184505131017,-9.89086747124237,0 -36.1842390044866,-9.89085777615435,0</coordinates></LinearRing></outerBoundaryIs></Polygon></MultiGeometry>
  </Placemark>
</Folder>
</Document></kml>
