<?xml version="1.0" encoding="utf-8" ?>
<kml xmlns="http://www.opengis.net/kml/2.2">
<Document id="root_doc">
<Schema name="JEQUIA_II_TALHAO_1003_ID_1071" id="JEQUIA_II_TALHAO_1003_ID_1071">
	<SimpleField name="TALHAO" type="string"></SimpleField>
	<SimpleField name="FAZENDA" type="string"></SimpleField>
	<SimpleField name="ZONA" type="string"></SimpleField>
	<SimpleField name="ID" type="float"></SimpleField>
	<SimpleField name="AREA_TOTAL" type="float"></SimpleField>
	<SimpleField name="FAZ_NOME" type="string"></SimpleField>
	<SimpleField name="CODE" type="string"></SimpleField>
</Schema>
<Folder><name>JEQUIA_II_TALHAO_1003_ID_1071</name>
  <Placemark id="JEQUIA_II_TALHAO_1003_ID_1071.1">
	<Style><LineStyle><color>ff0000ff</color></LineStyle><PolyStyle><fill>0</fill></PolyStyle></Style>
	<ExtendedData><SchemaData schemaUrl="#JEQUIA_II_TALHAO_1003_ID_1071">
		<SimpleData name="TALHAO">1003</SimpleData>
		<SimpleData name="FAZENDA">1924</SimpleData>
		<SimpleData name="ZONA">1</SimpleData>
		<SimpleData name="ID">1071</SimpleData>
		<SimpleData name="AREA_TOTAL">0.57</SimpleData>
		<SimpleData name="FAZ_NOME">JEQUIA II</SimpleData>
		<SimpleData name="CODE"></SimpleData>
	</SchemaData></ExtendedData>
      <MultiGeometry><Polygon><outerBoundaryIs><LinearRing><coordinates>-36.1817834798842,-9.88098436216537,0 -36.1818073020098,-9.88099968650324,0 -36.1818311777441,-9.88101308079107,0 -36.1818544712546,-9.88102462843182,0 -36.1818780802423,-9.88103498751709,0 -36.1819014280798,-9.8810466308553,0 -36.1819244850108,-9.88105619352537,0 -36.1819497953326,-9.88106421021496,0 -36.1819756137914,-9.8810740202656,0 -36.182001108346,-9.88108347351076,0 -36.1820267131834,-9.88109254523857,0 -36.1820536938011,-9.88110254728103,0 -36.1820819606437,-9.88111374339391,0 -36.1821100539849,-9.88112412084099,0 -36.1821387472774,-9.88113445311526,0 -36.1821674324934,-9.88114396011057,0 -36.1821963183094,-9.88115277842739,0 -36.1822252451453,-9.8811611618053,0 -36.1822542139883,-9.88116932813074,0 -36.1822836233245,-9.88117714602815,0 -36.1823137676614,-9.88118421109607,0 -36.1823444482262,-9.88119093969422,0 -36.1823740888155,-9.88119745289185,0 -36.1824033655516,-9.88120390036385,0 -36.1824325933748,-9.88121050161712,0 -36.1824623733816,-9.88121730301586,0 -36.1824940054392,-9.88122395404534,0 -36.1825259768791,-9.88123075912126,0 -36.1825572255865,-9.88123738783196,0 -36.1825886320108,-9.88124359450502,0 -36.1826197552799,-9.88124992817331,0 -36.1826508591775,-9.88125672497641,0 -36.1826814439852,-9.88126340715639,0 -36.1827120049077,-9.88127023425639,0 -36.1827431167999,-9.88127790714155,0 -36.1827737725884,-9.88128552126545,0 -36.1828047516955,-9.88129339636381,0 -36.182836100785,-9.8813014674939,0 -36.1828682502504,-9.88130969207191,0 -36.1829005825878,-9.88131859468989,0 -36.1829332532057,-9.88132727542104,0 -36.1829648698558,-9.88133573951168,0 -36.1829952200928,-9.88134406252455,0 -36.183024315379,-9.8813521807669,0 -36.1830531275396,-9.88136042336654,0 -36.1830816493269,-9.88136871781768,0 -36.183109098665,-9.88137643625602,0 -36.183135919299,-9.88138443381921,0 -36.1831629480931,-9.88139320227848,0 -36.1831904728935,-9.88140224085154,0 -36.1832206024424,-9.88141211251031,0 -36.1832492892274,-9.88142137695246,0 -36.1832682666382,-9.88142683758107,0 -36.1832744229278,-9.88142832600693,0 -36.1832974342229,-9.88122840387715,0 -36.1832765333579,-9.88122021589214,0 -36.1832428214777,-9.8812075456621,0 -36.1832089249084,-9.88119456302584,0 -36.1831759688979,-9.88118144635557,0 -36.1831681708218,-9.88117829085569,0 -36.1831328945115,-9.88116414122704,0 -36.1831118320967,-9.88115586002373,0 -36.1830794371366,-9.88114416536474,0 -36.1830472712772,-9.88113424986686,0 -36.1830147111641,-9.88112561334573,0 -36.1829815725429,-9.88111785085315,0 -36.1829474314506,-9.88111138015726,0 -36.1829127819603,-9.8811059569583,0 -36.1828775362796,-9.88110196647875,0 -36.1828416749305,-9.88109851564372,0 -36.1828051711867,-9.88109522382208,0 -36.1827686128774,-9.88109156535212,0 -36.1827291028798,-9.88109074065625,0 -36.1826888654688,-9.88108490799772,0 -36.1826492974468,-9.88107772890987,0 -36.1826111878746,-9.88106864015163,0 -36.1825751665289,-9.8810595554751,0 -36.1825392598048,-9.88105025222337,0 -36.1825036032042,-9.88103991454553,0 -36.1824685823687,-9.88102875301879,0 -36.1824336821932,-9.88101785699346,0 -36.1823977507916,-9.88100626743642,0 -36.1823602039342,-9.88099340290886,0 -36.1823210678331,-9.88097882203557,0 -36.182281710474,-9.88096230774469,0 -36.182243501829,-9.88094640612707,0 -36.1822075216207,-9.88092978888615,0 -36.1821725782728,-9.88091301577349,0 -36.1821384386332,-9.88089573342126,0 -36.1821047243661,-9.88087823557857,0 -36.1820721444618,-9.88086057940501,0 -36.1820400003248,-9.88084309269012,0 -36.182008889402,-9.88082605064618,0 -36.1819768727118,-9.88080895091716,0 -36.1819468291236,-9.88078989221286,0 -36.1819165275424,-9.8807714127024,0 -36.1818873531344,-9.88075218603067,0 -36.1818589540846,-9.8807321350728,0 -36.1818123157127,-9.88069853781671,0 -36.1817751901752,-9.88067282879807,0 -36.1817465823011,-9.88065293759423,0 -36.181717433635,-9.88063301713531,0 -36.181688079906,-9.8806121161746,0 -36.1816602404936,-9.8805908109178,0 -36.181633581111,-9.88056983357185,0 -36.1816074406964,-9.88054969405802,0 -36.1815817162723,-9.8805292490964,0 -36.1815558875067,-9.88050788441185,0 -36.1815293774113,-9.88048683892809,0 -36.1815018814077,-9.88046584588239,0 -36.1814741026424,-9.88044469231585,0 -36.1814458558522,-9.88042325378447,0 -36.1814181497025,-9.88040116472404,0 -36.1813912253244,-9.88037879432357,0 -36.1813663235364,-9.8803556413894,0 -36.1813518462642,-9.88034064773393,0 -36.1813227448833,-9.88059478319888,0 -36.1813401050802,-9.88061419109522,0 -36.1813615137753,-9.88063657482485,0 -36.1813871537258,-9.88066319219293,0 -36.1814024759358,-9.88067949666677,0 -36.1814197484473,-9.88069746362634,0 -36.1814377511372,-9.88071731457137,0 -36.181455708344,-9.88073729438594,0 -36.1814747181273,-9.88075669728402,0 -36.1814938508164,-9.88077580720392,0 -36.181514528507,-9.88079433831924,0 -36.18153600308,-9.88081273085762,0 -36.181557215495,-9.88083154956715,0 -36.1815777426765,-9.88084940289581,0 -36.1815985441587,-9.88086666214854,0 -36.1816189707343,-9.88088283668432,0 -36.1816402284668,-9.8808968540614,0 -36.1816624789173,-9.88090921989898,0 -36.1816858937381,-9.88092161504394,0 -36.1817103105619,-9.88093573600118,0 -36.1817347225418,-9.88095115850046,0 -36.1817589602639,-9.88096755562284,0 -36.1817834798842,-9.88098436216537,0</coordinates></LinearRing></outerBoundaryIs></Polygon></MultiGeometry>
  </Placemark>
</Folder>
</Document></kml>
