<?xml version="1.0" encoding="utf-8" ?>
<kml xmlns="http://www.opengis.net/kml/2.2">
<Document id="root_doc">
<Schema name="JEQUIA_II_TALHAO_1053_ID_1070" id="JEQUIA_II_TALHAO_1053_ID_1070">
	<SimpleField name="TALHAO" type="string"></SimpleField>
	<SimpleField name="FAZENDA" type="string"></SimpleField>
	<SimpleField name="ZONA" type="string"></SimpleField>
	<SimpleField name="ID" type="float"></SimpleField>
	<SimpleField name="AREA_TOTAL" type="float"></SimpleField>
	<SimpleField name="FAZ_NOME" type="string"></SimpleField>
	<SimpleField name="CODE" type="string"></SimpleField>
</Schema>
<Folder><name>JEQUIA_II_TALHAO_1053_ID_1070</name>
  <Placemark id="JEQUIA_II_TALHAO_1053_ID_1070.1">
	<Style><LineStyle><color>ff0000ff</color></LineStyle><PolyStyle><fill>0</fill></PolyStyle></Style>
	<ExtendedData><SchemaData schemaUrl="#JEQUIA_II_TALHAO_1053_ID_1070">
		<SimpleData name="TALHAO">1053</SimpleData>
		<SimpleData name="FAZENDA">1924</SimpleData>
		<SimpleData name="ZONA">1</SimpleData>
		<SimpleData name="ID">1070</SimpleData>
		<SimpleData name="AREA_TOTAL">2.37</SimpleData>
		<SimpleData name="FAZ_NOME">JEQUIA II</SimpleData>
		<SimpleData name="CODE"></SimpleData>
	</SchemaData></ExtendedData>
      <MultiGeometry><Polygon><outerBoundaryIs><LinearRing><coordinates>-36.1979101263175,-9.90358287312973,0 -36.1977962593957,-9.90454292223458,0 -36.19785032052,-9.90454337353652,0 -36.1980803776858,-9.90457024904731,0 -36.1982555154707,-9.90458234098768,0 -36.1984451514165,-9.90459101669238,0 -36.1985836242844,-9.90459247057973,0 -36.1987575710423,-9.90460019156099,0 -36.1989227276262,-9.9045858475147,0 -36.199074481137,-9.90458711382522,0 -36.1991884306357,-9.90456614627204,0 -36.19938994481,-9.904551991506,0 -36.1995557213737,-9.90454074751033,0 -36.1997001139996,-9.90453559555393,0 -36.1998068310279,-9.90454283357254,0 -36.1999184307924,-9.90360097238691,0 -36.1998969591678,-9.90359413209276,0 -36.1998590726348,-9.90358330538558,0 -36.1998232338894,-9.9035738371593,0 -36.1997901277978,-9.90356723211494,0 -36.1997594131624,-9.90356223580543,0 -36.1997295376439,-9.90355794749189,0 -36.1996994721363,-9.90355468615289,0 -36.1996717657505,-9.90355281843292,0 -36.1996457205021,-9.90355270961275,0 -36.1996200896427,-9.90355193256462,0 -36.1995907676453,-9.90355196220557,0 -36.1995580784659,-9.90355157185615,0 -36.199523913501,-9.90355138923472,0 -36.1994887526329,-9.90355185991091,0 -36.1994535463393,-9.9035533373131,0 -36.1994183711004,-9.90355540683063,0 -36.1993824414131,-9.90355845827439,0 -36.1993454839709,-9.90356229930212,0 -36.199308723862,-9.90356677148531,0 -36.1992713035059,-9.90357165426691,0 -36.1992337092162,-9.90357699540496,0 -36.1991957590303,-9.90358252783924,0 -36.1991572928455,-9.90358821046503,0 -36.1991181544977,-9.90359354928028,0 -36.1990789482878,-9.90359867844447,0 -36.1990404072279,-9.90360407990019,0 -36.1990028349872,-9.90360912291999,0 -36.1989658359832,-9.90361431295475,0 -36.1989287831735,-9.90361971651653,0 -36.1988916035705,-9.90362571131011,0 -36.1988538932778,-9.9036318730375,0 -36.1988153641091,-9.90363831987377,0 -36.1987753425835,-9.90364359283714,0 -36.1987342494633,-9.90364736692094,0 -36.1986918481183,-9.90364962571244,0 -36.1986489477025,-9.90365077493564,0 -36.1986063653023,-9.90365098969316,0 -36.1985644516748,-9.90364979250644,0 -36.198524137759,-9.90364752416907,0 -36.1984860162343,-9.90364534966646,0 -36.1984492045705,-9.90364302819486,0 -36.1984131563644,-9.90363974791816,0 -36.198377840981,-9.90363599996887,0 -36.1983424159065,-9.90363291685452,0 -36.1983066790732,-9.90362995199008,0 -36.1982723105778,-9.9036266938371,0 -36.1982403015011,-9.9036226813242,0 -36.1982107828612,-9.90361889100004,0 -36.1981839770544,-9.90361412521358,0 -36.1981575217453,-9.90360878797073,0 -36.1981307587583,-9.90360478126064,0 -36.1981004984524,-9.90360203410541,0 -36.1980669673707,-9.9035988478447,0 -36.1980310207682,-9.90359495817955,0 -36.1979936745133,-9.9035912897804,0 -36.1979567340911,-9.90358724932133,0 -36.1979203082459,-9.90358394394221,0 -36.1979101263175,-9.90358287312973,0</coordinates></LinearRing></outerBoundaryIs></Polygon></MultiGeometry>
  </Placemark>
</Folder>
</Document></kml>
