<?xml version="1.0" encoding="UTF-8"?>
<kml xmlns="http://www.opengis.net/kml/2.2" xmlns:gx="http://www.google.com/kml/ext/2.2" xmlns:kml="http://www.opengis.net/kml/2.2" xmlns:atom="http://www.w3.org/2005/Atom">
<Document>
  <name>02.kml</name>
  <StyleMap id="FFFF0000">
    <Pair>
      <key>normal</key>
      <styleUrl>#s_FFFF0000</styleUrl>
    </Pair>
    <Pair>
      <key>highlight</key>
      <styleUrl>#s_FFFF0000_hl</styleUrl>
    </Pair>
  </StyleMap>
  <Style id="s_FFFF0000">
   <IconStyle>
      <scale>1.1</scale>
      <Icon>
        <href>http://maps.google.com/mapfiles/kml/pushpin/agrocad.png</href>
      </Icon>
      <hotSpot x="20" y="2" xunits="pixels" yunits="pixels"/>
    </IconStyle>
    <LineStyle>
      <color>FFFF0000</color>
      <width>1</width>
    </LineStyle>
    <PolyStyle>
      <color>40ffffff</color>
      <fill>1</fill>
    </PolyStyle>
  </Style>
  <Style id="s_FFFF0000_hl">
    <IconStyle>
      <scale>1.3</scale>
      <Icon>
        <href>http://maps.google.com/mapfiles/kml/pushpin/agrocad.png</href>
      </Icon>
      <hotSpot x="20" y="2" xunits="pixels" yunits="pixels"/>
    </IconStyle>
    <LineStyle>
      <color>ff000000</color>
      <width>1</width>
    </LineStyle>
    <PolyStyle>
      <color>40ffffff</color>
      <fill>1</fill>
    </PolyStyle>
  </Style>
  <Placemark>
    <name>AgroCAD: B844</name>
    <styleUrl>FFFF0000</styleUrl>
    <Polygon>
      <outerBoundaryIs>
        <LinearRing>
          <coordinates>
           -36.37724085588999,-9.77344988167113 -36.37724535291180,-9.77346205533902 -36.37726970948334,-9.77352047275797 -36.37729884795640,-9.77359467505353 -36.37733125405417,-9.77367699108761 -36.37736094207612,-9.77375248961095 -36.37739196528745,-9.77382651648517 -36.37742890922206,-9.77391731175452 -36.37746960109352,-9.77402032031007 -36.37751150832507,-9.77412648148503 -36.37754917405472,-9.77421805405601 -36.37757926530941,-9.77428867120532 -36.37761421957070,-9.77437627411678 -36.37765359712398,-9.77447500749245 -36.37769307502935,-9.77457691153751 -36.37773337933206,-9.77467524780073 -36.37777112947574,-9.77477134250821 -36.37780727662408,-9.77486675096063 -36.37783975839195,-9.77496028795270 -36.37786985882843,-9.77504788036163 -36.37789919258738,-9.77512670417214 -36.37792963937887,-9.77520248426711 -36.37795777714295,-9.77527005863846 -36.37798334897400,-9.77533422533647 -36.37800880363883,-9.77539604038989 -36.37803508597144,-9.77545539258888 -36.37805911606328,-9.77550963406916 -36.37807127448315,-9.77553722645168 -36.37809452268160,-9.77560057898060 -36.37812855026645,-9.77569470480024 -36.37816570180482,-9.77579113625886 -36.37819966927937,-9.77588463651425 -36.37823806086537,-9.77598205770357 -36.37827817985273,-9.77608748810444 -36.37837641475455,-9.77631759899928 -36.37840600908536,-9.77640317215511 -36.37845146983337,-9.77649504023556 -36.37849822994143,-9.77659941315647 -36.37853684417500,-9.77669111818703 -36.37857355475512,-9.77677711345150 -36.37860840185854,-9.77686353690838 -36.37864143581707,-9.77694818900132 -36.37867466139475,-9.77703850170858 -36.37871545106021,-9.77713971599064 -36.37875891263663,-9.77724958344558 -36.37880339039991,-9.77736318540985 -36.37884607448774,-9.77747060627683 -36.37888853734517,-9.77757838720117 -36.37892938308008,-9.77768056153592 -36.37896849999409,-9.77778547591703 -36.37899983670735,-9.77789121270188 -36.37903684518132,-9.77799843374504 -36.37907566618868,-9.77809412478893 -36.37911489108933,-9.77819389589039 -36.37916330816405,-9.77828039073390 -36.37916706910369,-9.77828807826845 -36.37920264530555,-9.77828128899738 -36.37936941660957,-9.77825265095711 -36.37957630389767,-9.77821643959664 -36.37980048898690,-9.77818061554164 -36.38004612401416,-9.77814213129796 -36.38030426716336,-9.77810359079840 -36.38056402688329,-9.77806216095135 -36.38082759857323,-9.77802070372196 -36.38110045775388,-9.77797709714820 -36.38135179337370,-9.77793559315138 -36.38154932333688,-9.77790594102468 -36.38170387627962,-9.77787848687728 -36.38174543894788,-9.77787108162831 -36.38163763861044,-9.77751760453774 -36.38135575363326,-9.77657265345096 -36.38075286731940,-9.77453205056754 -36.38047277004395,-9.77357787914120 -36.38016592403413,-9.77251508980735 -36.38007101573567,-9.77254527137031 -36.37993765520501,-9.77259206306843 -36.37978300564510,-9.77264514973026 -36.37962349051885,-9.77269770307802 -36.37946382566786,-9.77275066743809 -36.37930574193898,-9.77280239223796 -36.37913894071969,-9.77285758210061 -36.37898163951817,-9.77291023362679 -36.37884871645888,-9.77295270568619 -36.37870060397800,-9.77299943976493 -36.37855446440350,-9.77304592608338 -36.37840488332087,-9.77309378828272 -36.37823760274045,-9.77314904290004 -36.37808685038976,-9.77319651614085 -36.37793341974656,-9.77324132894519 -36.37775134508542,-9.77329568625969 -36.37757276432408,-9.77335086839730 -36.37741286576137,-9.77340063813546 -36.37727111241672,-9.77344060785631 -36.37724085588999,-9.77344988167113 -36.37724085588999,-9.77344988167113 -36.37724085588999,-9.77344988167113
          </coordinates>
        </LinearRing>
      </outerBoundaryIs>
    </Polygon>
  </Placemark>
</Document>
</kml>
