<?xml version="1.0" encoding="UTF-8"?>
<kml xmlns="http://www.opengis.net/kml/2.2" xmlns:gx="http://www.google.com/kml/ext/2.2" xmlns:kml="http://www.opengis.net/kml/2.2" xmlns:atom="http://www.w3.org/2005/Atom">
<Document>
  <name>03.kml</name>
  <StyleMap id="FFFF0000">
    <Pair>
      <key>normal</key>
      <styleUrl>#s_FFFF0000</styleUrl>
    </Pair>
    <Pair>
      <key>highlight</key>
      <styleUrl>#s_FFFF0000_hl</styleUrl>
    </Pair>
  </StyleMap>
  <Style id="s_FFFF0000">
   <IconStyle>
      <scale>1.1</scale>
      <Icon>
        <href>http://maps.google.com/mapfiles/kml/pushpin/agrocad.png</href>
      </Icon>
      <hotSpot x="20" y="2" xunits="pixels" yunits="pixels"/>
    </IconStyle>
    <LineStyle>
      <color>FFFF0000</color>
      <width>1</width>
    </LineStyle>
    <PolyStyle>
      <color>40ffffff</color>
      <fill>1</fill>
    </PolyStyle>
  </Style>
  <Style id="s_FFFF0000_hl">
    <IconStyle>
      <scale>1.3</scale>
      <Icon>
        <href>http://maps.google.com/mapfiles/kml/pushpin/agrocad.png</href>
      </Icon>
      <hotSpot x="20" y="2" xunits="pixels" yunits="pixels"/>
    </IconStyle>
    <LineStyle>
      <color>ff000000</color>
      <width>1</width>
    </LineStyle>
    <PolyStyle>
      <color>40ffffff</color>
      <fill>1</fill>
    </PolyStyle>
  </Style>
  <Placemark>
    <name>AgroCAD: B846</name>
    <styleUrl>FFFF0000</styleUrl>
    <Polygon>
      <outerBoundaryIs>
        <LinearRing>
          <coordinates>
           -36.38587490128449,-9.78953757655446 -36.38576164023820,-9.78937584152698 -36.38560105250068,-9.78912714260413 -36.38549630004779,-9.78893616658923 -36.38541505016684,-9.78874679575459 -36.38536366939212,-9.78861094504565 -36.38527168499964,-9.78836773823022 -36.38515814954641,-9.78802177615248 -36.38498534040033,-9.78751320514280 -36.38481151993507,-9.78699306061271 -36.38464736794790,-9.78651211538769 -36.38449527712111,-9.78606727055240 -36.38435660937244,-9.78565211217080 -36.38420903137137,-9.78521967208259 -36.38404662467336,-9.78474749604809 -36.38388501397054,-9.78427258834037 -36.38373157327470,-9.78381532715217 -36.38365603760021,-9.78359305330504 -36.38351020569668,-9.78316462961358 -36.38336137046653,-9.78273355341058 -36.38312364361134,-9.78203709909958 -36.38290243262615,-9.78137391586127 -36.38273865367795,-9.78089930790586 -36.38250690730934,-9.78021443880987 -36.38225531972291,-9.77947471648607 -36.38204783953014,-9.77883707257864 -36.38188224707385,-9.77831967457378 -36.38175606043954,-9.77790590945467 -36.38173524629787,-9.77790961792489 -36.38165168452744,-9.77792447592551 -36.38155526168663,-9.77794160297444 -36.38135751144945,-9.77797128816210 -36.38110634736142,-9.77801276382594 -36.38083334961571,-9.77805639253652 -36.38056977225895,-9.77809785064978 -36.38030987101029,-9.77813930306219 -36.38005167790345,-9.77817785101317 -36.37980622880809,-9.77821630611941 -36.37958236752350,-9.77825207842521 -36.37937569004185,-9.77828825305742 -36.37920919541145,-9.77831684358253 -36.37918280856583,-9.77832187918007 -36.37920273731452,-9.77837258674086 -36.37930196890014,-9.77861369574900 -36.37936102152647,-9.77876266230855 -36.37942385684271,-9.77892156625700 -36.37949124218472,-9.77909231226731 -36.37963198460591,-9.77944011101235 -36.37970272458577,-9.77962017330320 -36.37977304546712,-9.77980034583971 -36.37984414427116,-9.77997518778694 -36.37991006154784,-9.78013952392035 -36.37996686993883,-9.78028896234758 -36.38001607278959,-9.78041245472704 -36.38006950161094,-9.78054603563975 -36.38012656478876,-9.78068617225310 -36.38018682498609,-9.78083658576694 -36.38024879828666,-9.78099936919882 -36.38030630569983,-9.78114926865261 -36.38036825721233,-9.78130664291680 -36.38043539436032,-9.78146991503903 -36.38049841783171,-9.78163069632467 -36.38055213124166,-9.78177079366309 -36.38059400369325,-9.78187761251909 -36.38064473095425,-9.78199847045442 -36.38070683731721,-9.78214422905965 -36.38077509251389,-9.78231430184311 -36.38084900419112,-9.78249592313825 -36.38092902514689,-9.78268937095228 -36.38100336085794,-9.78287314325335 -36.38105921673650,-9.78301601683211 -36.38114515024106,-9.78323277557544 -36.38119168398789,-9.78335170868552 -36.38125254111376,-9.78349551001404 -36.38132607025734,-9.78367573344231 -36.38140682625819,-9.78387489999775 -36.38149364375398,-9.78409324610004 -36.38158432463992,-9.78431735685817 -36.38167505119631,-9.78454435195482 -36.38176525164610,-9.78476694994503 -36.38184908437351,-9.78497237029311 -36.38191633696401,-9.78513766383646 -36.38197230454688,-9.78527062622423 -36.38203699474224,-9.78541991035359 -36.38210397819432,-9.78558219355696 -36.38217579098991,-9.78575599778653 -36.38224942311131,-9.78593963423261 -36.38232210795766,-9.78612373094109 -36.38238940336327,-9.78629330803234 -36.38245707823975,-9.78646634532479 -36.38252812265313,-9.78664822931677 -36.38259863280485,-9.78682863850875 -36.38266881233402,-9.78701193942137 -36.38273891758160,-9.78718924747791 -36.38280702811456,-9.78736609341511 -36.38287713759741,-9.78754326015653 -36.38294742724450,-9.78772096168082 -36.38301755401233,-9.78790068218665 -36.38308876323069,-9.78807742448100 -36.38315930029568,-9.78825125034387 -36.38321607593649,-9.78840322763231 -36.38322735234796,-9.78843403291360 -36.38324794672527,-9.78849889600837 -36.38329189036338,-9.78861148859715 -36.38334092957696,-9.78874389584083 -36.38339758698188,-9.78889423706322 -36.38346345828550,-9.78906159116845 -36.38353538056380,-9.78924763343292 -36.38361134195598,-9.78943480944808 -36.38368805438013,-9.78961400411106 -36.38376100548216,-9.78979005375374 -36.38379293031736,-9.78986824914370 -36.38385523897795,-9.78985514334420 -36.38394883433944,-9.78983746445327 -36.38410936275555,-9.78980911033304 -36.38425004695167,-9.78978872900074 -36.38432291630105,-9.78977712941621 -36.38443560134617,-9.78976209474098 -36.38458426054736,-9.78973627639080 -36.38475420736964,-9.78971179816524 -36.38493130065803,-9.78968335264646 -36.38509969042181,-9.78965714620555 -36.38525949438120,-9.78963332737529 -36.38541743483711,-9.78960903905280 -36.38558653664268,-9.78958345715939 -36.38574045591483,-9.78956013326151 -36.38587490128449,-9.78953757655446 -36.38587490128449,-9.78953757655446
          </coordinates>
        </LinearRing>
      </outerBoundaryIs>
    </Polygon>
  </Placemark>
</Document>
</kml>
