<?xml version="1.0" encoding="UTF-8"?>
<kml xmlns="http://www.opengis.net/kml/2.2" xmlns:gx="http://www.google.com/kml/ext/2.2" xmlns:kml="http://www.opengis.net/kml/2.2" xmlns:atom="http://www.w3.org/2005/Atom">
<Document>
  <name>04.kml</name>
  <StyleMap id="FFFF0000">
    <Pair>
      <key>normal</key>
      <styleUrl>#s_FFFF0000</styleUrl>
    </Pair>
    <Pair>
      <key>highlight</key>
      <styleUrl>#s_FFFF0000_hl</styleUrl>
    </Pair>
  </StyleMap>
  <Style id="s_FFFF0000">
   <IconStyle>
      <scale>1.1</scale>
      <Icon>
        <href>http://maps.google.com/mapfiles/kml/pushpin/agrocad.png</href>
      </Icon>
      <hotSpot x="20" y="2" xunits="pixels" yunits="pixels"/>
    </IconStyle>
    <LineStyle>
      <color>FFFF0000</color>
      <width>1</width>
    </LineStyle>
    <PolyStyle>
      <color>40ffffff</color>
      <fill>1</fill>
    </PolyStyle>
  </Style>
  <Style id="s_FFFF0000_hl">
    <IconStyle>
      <scale>1.3</scale>
      <Icon>
        <href>http://maps.google.com/mapfiles/kml/pushpin/agrocad.png</href>
      </Icon>
      <hotSpot x="20" y="2" xunits="pixels" yunits="pixels"/>
    </IconStyle>
    <LineStyle>
      <color>ff000000</color>
      <width>1</width>
    </LineStyle>
    <PolyStyle>
      <color>40ffffff</color>
      <fill>1</fill>
    </PolyStyle>
  </Style>
  <Placemark>
    <name>AgroCAD: B847</name>
    <styleUrl>FFFF0000</styleUrl>
    <Polygon>
      <outerBoundaryIs>
        <LinearRing>
          <coordinates>
           -36.38533371121059,-9.78201472458534 -36.38529265835585,-9.78202146450490 -36.38523699341228,-9.78203060337934 -36.38505686370460,-9.78206755696878 -36.38463456564149,-9.78215159565534 -36.38432803671211,-9.78221515765880 -36.38358254164021,-9.78236231514350 -36.38330412619948,-9.78242497498309 -36.38329755135381,-9.78240571305777 -36.38328577701818,-9.78237121849951 -36.38316683445337,-9.78202275941492 -36.38294559956099,-9.78135950478506 -36.38278178879473,-9.78088480482078 -36.38255007435720,-9.78020003037588 -36.38229857131595,-9.77946055694194 -36.38209121674424,-9.77882329938001 -36.38192575131267,-9.77830629849634 -36.38180119164740,-9.77789786839081 -36.38190926435697,-9.77787861296145 -36.38215507523727,-9.77783637201518 -36.38241635510667,-9.77779218627939 -36.38267833971954,-9.77775048585292 -36.38294575038543,-9.77771125754419 -36.38320385160534,-9.77766616490979 -36.38345545074570,-9.77762586668620 -36.38369705184992,-9.77758331031671 -36.38391556864175,-9.77754878968643 -36.38407695450207,-9.77752375927313 -36.38408944989830,-9.77757429812840 -36.38414096930086,-9.77776585567440 -36.38419797454271,-9.77797213980302 -36.38425971258466,-9.77819526159548 -36.38431944731213,-9.77841414546051 -36.38437910907881,-9.77862519281914 -36.38443444559149,-9.77882871601610 -36.38448365418691,-9.77901773969764 -36.38452654223829,-9.77919061169608 -36.38456723082371,-9.77935406362855 -36.38460832520086,-9.77950829271787 -36.38464390971317,-9.77963908628783 -36.38468676843469,-9.77978928320744 -36.38471851222436,-9.77990452574282 -36.38476315241553,-9.78005731400970 -36.38480815763636,-9.78021283870853 -36.38485696418646,-9.78037131706823 -36.38490303886191,-9.78052304067947 -36.38494628258065,-9.78066655670828 -36.38499202849414,-9.78080297047705 -36.38503904202403,-9.78094165069092 -36.38508591425570,-9.78107715426449 -36.38512549162786,-9.78120151106267 -36.38516089956028,-9.78132360246131 -36.38519449703458,-9.78147474557654 -36.38523227718277,-9.78162807244638 -36.38527144555983,-9.78177781389664 -36.38530528232514,-9.78190994544839 -36.38533157311051,-9.78200739812205 -36.38533371121059,-9.78201472458534 -36.38533371121059,-9.78201472458534
          </coordinates>
        </LinearRing>
      </outerBoundaryIs>
    </Polygon>
  </Placemark>
</Document>
</kml>
