<?xml version="1.0" encoding="UTF-8"?>
<kml xmlns="http://www.opengis.net/kml/2.2" xmlns:gx="http://www.google.com/kml/ext/2.2" xmlns:kml="http://www.opengis.net/kml/2.2" xmlns:atom="http://www.w3.org/2005/Atom">
<Document>
  <name>07.kml</name>
  <StyleMap id="FFFF0000">
    <Pair>
      <key>normal</key>
      <styleUrl>#s_FFFF0000</styleUrl>
    </Pair>
    <Pair>
      <key>highlight</key>
      <styleUrl>#s_FFFF0000_hl</styleUrl>
    </Pair>
  </StyleMap>
  <Style id="s_FFFF0000">
   <IconStyle>
      <scale>1.1</scale>
      <Icon>
        <href>http://maps.google.com/mapfiles/kml/pushpin/agrocad.png</href>
      </Icon>
      <hotSpot x="20" y="2" xunits="pixels" yunits="pixels"/>
    </IconStyle>
    <LineStyle>
      <color>FFFF0000</color>
      <width>1</width>
    </LineStyle>
    <PolyStyle>
      <color>40ffffff</color>
      <fill>1</fill>
    </PolyStyle>
  </Style>
  <Style id="s_FFFF0000_hl">
    <IconStyle>
      <scale>1.3</scale>
      <Icon>
        <href>http://maps.google.com/mapfiles/kml/pushpin/agrocad.png</href>
      </Icon>
      <hotSpot x="20" y="2" xunits="pixels" yunits="pixels"/>
    </IconStyle>
    <LineStyle>
      <color>ff000000</color>
      <width>1</width>
    </LineStyle>
    <PolyStyle>
      <color>40ffffff</color>
      <fill>1</fill>
    </PolyStyle>
  </Style>
  <Placemark>
    <name>AgroCAD: B845</name>
    <styleUrl>FFFF0000</styleUrl>
    <Polygon>
      <outerBoundaryIs>
        <LinearRing>
          <coordinates>
           -36.38715355829936,-9.79131258807776 -36.38713115869340,-9.79128191697248 -36.38671473228363,-9.79070842790996 -36.38641482302753,-9.79029169364341 -36.38603203544538,-9.78976196146096 -36.38589787174075,-9.78957037799321 -36.38574624619530,-9.78959581712127 -36.38559203944146,-9.78961918457790 -36.38542297304552,-9.78964476111085 -36.38526499300780,-9.78966905551575 -36.38510522182106,-9.78969286945674 -36.38493703708196,-9.78971904398501 -36.38475973824308,-9.78974752251503 -36.38459002211406,-9.78977196750823 -36.38444117453481,-9.78979781857037 -36.38432823284889,-9.78981288748414 -36.38425556718178,-9.78982445464374 -36.38411519127626,-9.78984479130926 -36.38395543679486,-9.78987300872485 -36.38386242729963,-9.78989057695100 -36.38380682122163,-9.78990227295023 -36.38382728736676,-9.78995240187078 -36.38388433163236,-9.79009938411240 -36.38393734980431,-9.79023629251704 -36.38398705249700,-9.79036074028600 -36.38404036493361,-9.79048820960504 -36.38410095355253,-9.79063979722143 -36.38416911347556,-9.79080826714961 -36.38424135188890,-9.79098491691789 -36.38431907431062,-9.79116696137623 -36.38439278017351,-9.79134768121592 -36.38446465233073,-9.79152541792929 -36.38453895626103,-9.79170822700514 -36.38461087575171,-9.79188574071384 -36.38467566279286,-9.79204939300287 -36.38473607195285,-9.79220151760278 -36.38479385198307,-9.79233884186486 -36.38480203881008,-9.79235784078271 -36.38497673624477,-9.79230404904563 -36.38509432924398,-9.79231986912422 -36.38522212283515,-9.79230649303522 -36.38535605350643,-9.79231192477029 -36.38548953779017,-9.79228144685930 -36.38562638765225,-9.79221100650959 -36.38578590541133,-9.79217119681492 -36.38593783996287,-9.79211013316297 -36.38608572003987,-9.79202015025496 -36.38624353823905,-9.79194997104394 -36.38639858041036,-9.79185881151645 -36.38655220892808,-9.79176471316215 -36.38669474148220,-9.79169952803919 -36.38680143401761,-9.79159978277542 -36.38692642672181,-9.79150049332106 -36.38704653476715,-9.79140356241075 -36.38715355829936,-9.79131258807776 -36.38715355829936,-9.79131258807776
          </coordinates>
        </LinearRing>
      </outerBoundaryIs>
    </Polygon>
  </Placemark>
</Document>
</kml>
