<?xml version="1.0" encoding="UTF-8"?>
<kml xmlns="http://www.opengis.net/kml/2.2" xmlns:gx="http://www.google.com/kml/ext/2.2" xmlns:kml="http://www.opengis.net/kml/2.2" xmlns:atom="http://www.w3.org/2005/Atom">
<Document>
  <name>08.kml</name>
  <StyleMap id="FFFF0000">
    <Pair>
      <key>normal</key>
      <styleUrl>#s_FFFF0000</styleUrl>
    </Pair>
    <Pair>
      <key>highlight</key>
      <styleUrl>#s_FFFF0000_hl</styleUrl>
    </Pair>
  </StyleMap>
  <Style id="s_FFFF0000">
   <IconStyle>
      <scale>1.1</scale>
      <Icon>
        <href>http://maps.google.com/mapfiles/kml/pushpin/agrocad.png</href>
      </Icon>
      <hotSpot x="20" y="2" xunits="pixels" yunits="pixels"/>
    </IconStyle>
    <LineStyle>
      <color>FFFF0000</color>
      <width>1</width>
    </LineStyle>
    <PolyStyle>
      <color>40ffffff</color>
      <fill>1</fill>
    </PolyStyle>
  </Style>
  <Style id="s_FFFF0000_hl">
    <IconStyle>
      <scale>1.3</scale>
      <Icon>
        <href>http://maps.google.com/mapfiles/kml/pushpin/agrocad.png</href>
      </Icon>
      <hotSpot x="20" y="2" xunits="pixels" yunits="pixels"/>
    </IconStyle>
    <LineStyle>
      <color>ff000000</color>
      <width>1</width>
    </LineStyle>
    <PolyStyle>
      <color>40ffffff</color>
      <fill>1</fill>
    </PolyStyle>
  </Style>
  <Placemark>
    <name>AgroCAD: B840</name>
    <styleUrl>FFFF0000</styleUrl>
    <Polygon>
      <outerBoundaryIs>
        <LinearRing>
          <coordinates>
           -36.38926576741533,-9.79858544145764 -36.38912420387945,-9.79818517374528 -36.38903197562799,-9.79792313108254 -36.38898248144188,-9.79778341842665 -36.38889420241397,-9.79753011666355 -36.38877129324703,-9.79717713673638 -36.38869095635275,-9.79694852765059 -36.38861531660879,-9.79672969529311 -36.38853351503615,-9.79649968343577 -36.38838813859271,-9.79606790130003 -36.38825201184281,-9.79568464020652 -36.38821576832349,-9.79557345613098 -36.38813275960306,-9.79533710093630 -36.38805089755998,-9.79509741133956 -36.38800853247124,-9.79497223795267 -36.38797220392435,-9.79487309791657 -36.38792860449601,-9.79475199919993 -36.38791619430918,-9.79469645113631 -36.38791066827118,-9.79463894109021 -36.38791264952274,-9.79458249180565 -36.38792223500271,-9.79452053502179 -36.38793780232094,-9.79444735667603 -36.38795590916117,-9.79437095403384 -36.38799545773596,-9.79421583612118 -36.38804268077096,-9.79404018078587 -36.38810924424893,-9.79381567526897 -36.38820161126816,-9.79348226133730 -36.38826306074992,-9.79327096281694 -36.38829128889785,-9.79316886798020 -36.38831228759884,-9.79306978966484 -36.38831772460555,-9.79298496750761 -36.38829973474609,-9.79291135014454 -36.38826183723995,-9.79283692900614 -36.38813385214437,-9.79265901457533 -36.38796187514819,-9.79241602024965 -36.38761444281367,-9.79194156149559 -36.38736952062587,-9.79160829849390 -36.38724184033816,-9.79143346995786 -36.38716669254288,-9.79153266665043 -36.38708688610377,-9.79163259934428 -36.38697185977264,-9.79174234555506 -36.38683724643943,-9.79184899336688 -36.38669160901445,-9.79195159996429 -36.38657731648514,-9.79205781797289 -36.38646720439300,-9.79213884638612 -36.38631639443949,-9.79223431458641 -36.38614488072222,-9.79232652915646 -36.38597430588482,-9.79242412008573 -36.38579254865192,-9.79250081866112 -36.38561301149610,-9.79257648024374 -36.38546104478562,-9.79265284318918 -36.38530029990788,-9.79267728873545 -36.38513233472063,-9.79267485593963 -36.38500229373939,-9.79265623385797 -36.38486961247754,-9.79243030873222 -36.38484945381485,-9.79238397832350 -36.38484826461176,-9.79238145059062 -36.38481643567772,-9.79239125114710 -36.38485079144521,-9.79247097949171 -36.38491424805832,-9.79262287138850 -36.38497588379678,-9.79278190398513 -36.38503893438020,-9.79293841126456 -36.38510138752135,-9.79309554807097 -36.38516891901484,-9.79326519373649 -36.38523677408221,-9.79343747105528 -36.38530294051673,-9.79360869880365 -36.38536622274390,-9.79376865692456 -36.38542541491926,-9.79392841307197 -36.38549201863121,-9.79410107604314 -36.38556276365717,-9.79427511241451 -36.38563084015498,-9.79444417201355 -36.38569848383911,-9.79461200895421 -36.38576853626002,-9.79478838027353 -36.38583731952212,-9.79495826444902 -36.38590337207534,-9.79512652124420 -36.38597129748033,-9.79529741530441 -36.38604402120183,-9.79547050236613 -36.38611954551942,-9.79565335922739 -36.38619504596074,-9.79583789866921 -36.38626772634723,-9.79601710435143 -36.38633707889171,-9.79619090228884 -36.38640822669183,-9.79636541888233 -36.38647285871059,-9.79652256222231 -36.38649257412118,-9.79657041166501 -36.38656921841953,-9.79675753293284 -36.38667459248850,-9.79700985329600 -36.38678997568487,-9.79729137625774 -36.38685221127066,-9.79744810103020 -36.38698339080452,-9.79777407591634 -36.38704610799945,-9.79793064406504 -36.38711228926761,-9.79809778755731 -36.38718225753804,-9.79827167680763 -36.38732110377687,-9.79861645209991 -36.38741310211190,-9.79884627379640 -36.38746763738853,-9.79897685686291 -36.38753280210256,-9.79913675659658 -36.38759202537259,-9.79928809281285 -36.38765027018718,-9.79943329602346 -36.38770648239564,-9.79956871349487 -36.38776005593368,-9.79969538126326 -36.38780905737061,-9.79981748980410 -36.38785835860232,-9.79993305394556 -36.38787918672335,-9.79998264003111 -36.38795294952457,-9.79992207601973 -36.38803518160695,-9.79985374717812 -36.38811139301993,-9.79978506478999 -36.38817899962953,-9.79972598820939 -36.38824760892845,-9.79967267709963 -36.38832567790714,-9.79961565275696 -36.38840479425291,-9.79955364477886 -36.38847695702825,-9.79948168475154 -36.38854049415375,-9.79940577386374 -36.38859117072342,-9.79935232776954 -36.38866348624487,-9.79929098530971 -36.38872840171581,-9.79923264363450 -36.38878884360191,-9.79916432522017 -36.38883740681753,-9.79910626306995 -36.38894279752482,-9.79897881052256 -36.38901416381847,-9.79889328720586 -36.38908461220959,-9.79880848616643 -36.38914709007476,-9.79873122370488 -36.38920136996091,-9.79866432838566 -36.38926576741534,-9.79858544145764 -36.38926576741533,-9.79858544145764 -36.38926576741533,-9.79858544145764
          </coordinates>
        </LinearRing>
      </outerBoundaryIs>
    </Polygon>
  </Placemark>
</Document>
</kml>
