<?xml version="1.0" encoding="UTF-8"?>
<kml xmlns="http://www.opengis.net/kml/2.2" xmlns:gx="http://www.google.com/kml/ext/2.2" xmlns:kml="http://www.opengis.net/kml/2.2" xmlns:atom="http://www.w3.org/2005/Atom">
<Document>
  <name>09.kml</name>
  <StyleMap id="FFFF0000">
    <Pair>
      <key>normal</key>
      <styleUrl>#s_FFFF0000</styleUrl>
    </Pair>
    <Pair>
      <key>highlight</key>
      <styleUrl>#s_FFFF0000_hl</styleUrl>
    </Pair>
  </StyleMap>
  <Style id="s_FFFF0000">
   <IconStyle>
      <scale>1.1</scale>
      <Icon>
        <href>http://maps.google.com/mapfiles/kml/pushpin/agrocad.png</href>
      </Icon>
      <hotSpot x="20" y="2" xunits="pixels" yunits="pixels"/>
    </IconStyle>
    <LineStyle>
      <color>FFFF0000</color>
      <width>1</width>
    </LineStyle>
    <PolyStyle>
      <color>40ffffff</color>
      <fill>1</fill>
    </PolyStyle>
  </Style>
  <Style id="s_FFFF0000_hl">
    <IconStyle>
      <scale>1.3</scale>
      <Icon>
        <href>http://maps.google.com/mapfiles/kml/pushpin/agrocad.png</href>
      </Icon>
      <hotSpot x="20" y="2" xunits="pixels" yunits="pixels"/>
    </IconStyle>
    <LineStyle>
      <color>ff000000</color>
      <width>1</width>
    </LineStyle>
    <PolyStyle>
      <color>40ffffff</color>
      <fill>1</fill>
    </PolyStyle>
  </Style>
  <Placemark>
    <name>AgroCAD: B843</name>
    <styleUrl>FFFF0000</styleUrl>
    <Polygon>
      <outerBoundaryIs>
        <LinearRing>
          <coordinates>
           -36.38874852026612,-9.79349368331713 -36.38836278711038,-9.79297758596815 -36.38836361897347,-9.79298099008168 -36.38835753527321,-9.79307590143720 -36.38833557878720,-9.79317949893871 -36.38830690705120,-9.79328319817937 -36.38824545442663,-9.79349450759445 -36.38815305616054,-9.79382803446195 -36.38808654137831,-9.79405237582937 -36.38803954324653,-9.79422719467220 -36.38800016061239,-9.79438166180485 -36.38798226089364,-9.79445719052812 -36.38796706325487,-9.79452863113920 -36.38795807642757,-9.79458671851607 -36.38795629137000,-9.79463757809039 -36.38796127029785,-9.79468939422973 -36.38797245714491,-9.79473946658615 -36.38801505554197,-9.79485778486123 -36.38805153279287,-9.79495733066959 -36.38809405728249,-9.79508297497533 -36.38817583662047,-9.79532242231462 -36.38825894955920,-9.79555907415973 -36.38829516847779,-9.79567018271960 -36.38843122271605,-9.79605323950483 -36.38857659629437,-9.79648501294938 -36.38865833747544,-9.79671485490410 -36.38873400481383,-9.79693376700494 -36.38881432477348,-9.79716232780859 -36.38893725106380,-9.79751535677328 -36.38902549233105,-9.79776855008547 -36.38907496351628,-9.79790819775827 -36.38916719568497,-9.79817025144514 -36.38929957283624,-9.79854454473046 -36.38939492721547,-9.79840731299766 -36.38943098657197,-9.79835162363723 -36.38947168000130,-9.79828949559327 -36.38951480791987,-9.79822516943310 -36.38956161626979,-9.79815252982522 -36.38960273208518,-9.79808141800836 -36.38964320537527,-9.79801102242643 -36.38969127262173,-9.79794150366356 -36.38974182588186,-9.79786931048291 -36.38979495114008,-9.79779757379592 -36.38984858315291,-9.79773298794385 -36.38990143868013,-9.79767714060067 -36.38995739719932,-9.79762222032031 -36.39008585186279,-9.79750691894358 -36.39014386344578,-9.79745307949132 -36.39020108606460,-9.79740139521376 -36.39031590941933,-9.79729218064654 -36.39033401093470,-9.79727366551171 -36.39031807907507,-9.79724665004208 -36.39021880766243,-9.79708848106017 -36.39018620790110,-9.79702328969507 -36.39013987194193,-9.79690549729529 -36.39005671987079,-9.79670590123825 -36.39001197768640,-9.79659948947249 -36.38995980186460,-9.79648136505446 -36.38990791354726,-9.79635813505051 -36.38984914690335,-9.79622071413396 -36.38978606919515,-9.79607817967305 -36.38973273530001,-9.79595046163278 -36.38967396966545,-9.79580979394791 -36.38960942847126,-9.79565898355402 -36.38953896506889,-9.79549810696852 -36.38946944851204,-9.79534622808312 -36.38939498767312,-9.79518438648373 -36.38932471504450,-9.79502000004742 -36.38925778104930,-9.79485386632676 -36.38918985245470,-9.79468371669079 -36.38911838591238,-9.79450808976197 -36.38905239687871,-9.79432511784486 -36.38898806567692,-9.79415149350172 -36.38893880157020,-9.79400330410561 -36.38888373799938,-9.79386150670783 -36.38882486582635,-9.79370191160722 -36.38876408723905,-9.79353626357682 -36.38874852026612,-9.79349368331713 -36.38874852026612,-9.79349368331713 -36.38874852026612,-9.79349368331713
          </coordinates>
        </LinearRing>
      </outerBoundaryIs>
    </Polygon>
  </Placemark>
</Document>
</kml>
