<?xml version="1.0" encoding="UTF-8"?>
<kml xmlns="http://www.opengis.net/kml/2.2" xmlns:gx="http://www.google.com/kml/ext/2.2" xmlns:kml="http://www.opengis.net/kml/2.2" xmlns:atom="http://www.w3.org/2005/Atom">
<Document>
  <name>72.kml</name>
  <StyleMap id="FFFF4000">
    <Pair>
      <key>normal</key>
      <styleUrl>#s_FFFF4000</styleUrl>
    </Pair>
    <Pair>
      <key>highlight</key>
      <styleUrl>#s_FFFF4000_hl</styleUrl>
    </Pair>
  </StyleMap>
  <Style id="s_FFFF4000">
   <IconStyle>
      <scale>1.1</scale>
      <Icon>
        <href>http://maps.google.com/mapfiles/kml/pushpin/agrocad.png</href>
      </Icon>
      <hotSpot x="20" y="2" xunits="pixels" yunits="pixels"/>
    </IconStyle>
    <LineStyle>
      <color>FFFF4000</color>
      <width>1</width>
    </LineStyle>
    <PolyStyle>
      <color>40ffffff</color>
      <fill>1</fill>
    </PolyStyle>
  </Style>
  <Style id="s_FFFF4000_hl">
    <IconStyle>
      <scale>1.3</scale>
      <Icon>
        <href>http://maps.google.com/mapfiles/kml/pushpin/agrocad.png</href>
      </Icon>
      <hotSpot x="20" y="2" xunits="pixels" yunits="pixels"/>
    </IconStyle>
    <LineStyle>
      <color>ff000000</color>
      <width>1</width>
    </LineStyle>
    <PolyStyle>
      <color>40ffffff</color>
      <fill>1</fill>
    </PolyStyle>
  </Style>
  <Placemark>
    <name>AgroCAD: 18629</name>
    <styleUrl>FFFF4000</styleUrl>
    <Polygon>
      <outerBoundaryIs>
        <LinearRing>
          <coordinates>
           -36.37727372899222,-9.77364000624321 -36.37720209837844,-9.77345723146934 -36.37700544987693,-9.77351009725733 -36.37625343865032,-9.77373946207162 -36.37602889046851,-9.77381569441410 -36.37602097180562,-9.77385950130061 -36.37599829037635,-9.77389024168284 -36.37597181340814,-9.77391148970929 -36.37592915669690,-9.77392805452256 -36.37590163623225,-9.77393874149824 -36.37587444830266,-9.77393833307443 -36.37586210505357,-9.77393529325818 -36.37584976179051,-9.77393225344692 -36.37583141317956,-9.77392214602454 -36.37582157133041,-9.77391343501532 -36.37581114631762,-9.77391121690253 -36.37578783582120,-9.77390460292517 -36.37576394215744,-9.77390448184267 -36.37572899933041,-9.77391648449875 -36.37561595554718,-9.77394784961435 -36.37485333074519,-9.77416096626611 -36.37401611237855,-9.77440710033612 -36.37345719365673,-9.77458654123996 -36.37343876302807,-9.77459213159674 -36.37344739737088,-9.77462167744061 -36.37345815955180,-9.77466449646150 -36.37348143359912,-9.77473065579109 -36.37351551081218,-9.77483178522242 -36.37378003595360,-9.77556816730607 -36.37411302941519,-9.77650714750379 -36.37411357163222,-9.77650850356215 -36.37433709138881,-9.77710910692739 -36.37436543634281,-9.77716341963170 -36.37442669848252,-9.77720059538611 -36.37451108117689,-9.77719613324398 -36.37461000994907,-9.77718384526049 -36.37480079390170,-9.77712500172665 -36.37553521934034,-9.77691738996633 -36.37748529329371,-9.77634184876606 -36.37804964054965,-9.77618583878750 -36.37812648722621,-9.77616252905787 -36.37818397474985,-9.77611843173470 -36.37819834302259,-9.77607148284342 -36.37820506142750,-9.77602750464744 -36.37818772836492,-9.77598415699171 -36.37808558605403,-9.77573423726169 -36.37769132159368,-9.77468744281657 -36.37727372899222,-9.77364000624321 -36.37727372899222,-9.77364000624321 -36.37727372899222,-9.77364000624321
          </coordinates>
        </LinearRing>
      </outerBoundaryIs>
    </Polygon>
  </Placemark>
</Document>
</kml>
