<?xml version="1.0" encoding="UTF-8"?>
<kml xmlns="http://www.opengis.net/kml/2.2" xmlns:gx="http://www.google.com/kml/ext/2.2" xmlns:kml="http://www.opengis.net/kml/2.2" xmlns:atom="http://www.w3.org/2005/Atom">
<Document>
  <name>76.kml</name>
  <StyleMap id="FFFF4000">
    <Pair>
      <key>normal</key>
      <styleUrl>#s_FFFF4000</styleUrl>
    </Pair>
    <Pair>
      <key>highlight</key>
      <styleUrl>#s_FFFF4000_hl</styleUrl>
    </Pair>
  </StyleMap>
  <Style id="s_FFFF4000">
   <IconStyle>
      <scale>1.1</scale>
      <Icon>
        <href>http://maps.google.com/mapfiles/kml/pushpin/agrocad.png</href>
      </Icon>
      <hotSpot x="20" y="2" xunits="pixels" yunits="pixels"/>
    </IconStyle>
    <LineStyle>
      <color>FFFF4000</color>
      <width>1</width>
    </LineStyle>
    <PolyStyle>
      <color>40ffffff</color>
      <fill>1</fill>
    </PolyStyle>
  </Style>
  <Style id="s_FFFF4000_hl">
    <IconStyle>
      <scale>1.3</scale>
      <Icon>
        <href>http://maps.google.com/mapfiles/kml/pushpin/agrocad.png</href>
      </Icon>
      <hotSpot x="20" y="2" xunits="pixels" yunits="pixels"/>
    </IconStyle>
    <LineStyle>
      <color>ff000000</color>
      <width>1</width>
    </LineStyle>
    <PolyStyle>
      <color>40ffffff</color>
      <fill>1</fill>
    </PolyStyle>
  </Style>
  <Placemark>
    <name>AgroCAD: 1862C</name>
    <styleUrl>FFFF4000</styleUrl>
    <Polygon>
      <outerBoundaryIs>
        <LinearRing>
          <coordinates>
           -36.38207898231922,-9.79563559744479 -36.38154047214461,-9.79575830323488 -36.37971021752579,-9.79618313345151 -36.37908008284147,-9.79633909776404 -36.37913429927142,-9.79661677122358 -36.37930166232428,-9.79740410548028 -36.37942380365384,-9.79794420548009 -36.37956694895204,-9.79853996204287 -36.37979578343605,-9.79952936810069 -36.37987823103216,-9.79986734523418 -36.37996989916813,-9.80026558420929 -36.38002941711093,-9.80058991282768 -36.38012606591972,-9.80095833888579 -36.38018033567101,-9.80124090089780 -36.38029453085195,-9.80179268467293 -36.38038524070533,-9.80215462502344 -36.38045362000382,-9.80249086736677 -36.38052401944686,-9.80280586160230 -36.38063021900352,-9.80322156211028 -36.38067954321953,-9.80347753623517 -36.38084376406370,-9.80420017454780 -36.38097589297930,-9.80475610306935 -36.38110932785469,-9.80534435383684 -36.38126679866726,-9.80592858071499 -36.38140342606278,-9.80644517295743 -36.38148170342406,-9.80671742118042 -36.38150631981769,-9.80679343938511 -36.38152566757277,-9.80680407273924 -36.38155506157039,-9.80681189551011 -36.38159650238241,-9.80680030190967 -36.38162774244029,-9.80677685315547 -36.38172101490527,-9.80665314507889 -36.38193987870137,-9.80630977088217 -36.38221095319675,-9.80578213254533 -36.38232219422197,-9.80563601398254 -36.38250833045005,-9.80542949537620 -36.38272003318916,-9.80525527075377 -36.38296163734179,-9.80503892563761 -36.38320273699542,-9.80476421092145 -36.38366478746966,-9.80424221727464 -36.38397337460924,-9.80390940670334 -36.38415559033636,-9.80367523426905 -36.38420538878966,-9.80359845458772 -36.38421497112854,-9.80355164678586 -36.38421179386889,-9.80352178057062 -36.38420359354063,-9.80349331969314 -36.38414690432281,-9.80329656805701 -36.38398266955154,-9.80264178310190 -36.38383829430818,-9.80210301955295 -36.38370707427793,-9.80165230060543 -36.38361765509782,-9.80129014295371 -36.38352927734954,-9.80094572844100 -36.38343244979308,-9.80060495443229 -36.38325752790717,-9.79992719527940 -36.38306576208348,-9.79928045898815 -36.38288623013479,-9.79868089025008 -36.38278459753431,-9.79832814396738 -36.38265810063566,-9.79788909755546 -36.38256388454145,-9.79753854172158 -36.38247645157174,-9.79720681848479 -36.38238628024988,-9.79683733130910 -36.38228196342950,-9.79639990729558 -36.38218966537432,-9.79603245666307 -36.38207898231922,-9.79563559744479 -36.38207898231922,-9.79563559744479 -36.38207898231922,-9.79563559744479
          </coordinates>
        </LinearRing>
      </outerBoundaryIs>
    </Polygon>
  </Placemark>
</Document>
</kml>
