<?xml version="1.0" encoding="UTF-8"?>
<kml xmlns="http://www.opengis.net/kml/2.2" xmlns:gx="http://www.google.com/kml/ext/2.2" xmlns:kml="http://www.opengis.net/kml/2.2" xmlns:atom="http://www.w3.org/2005/Atom">
<Document>
  <name>75.kml</name>
  <StyleMap id="FFFF4000">
    <Pair>
      <key>normal</key>
      <styleUrl>#s_FFFF4000</styleUrl>
    </Pair>
    <Pair>
      <key>highlight</key>
      <styleUrl>#s_FFFF4000_hl</styleUrl>
    </Pair>
  </StyleMap>
  <Style id="s_FFFF4000">
   <IconStyle>
      <scale>1.1</scale>
      <Icon>
        <href>http://maps.google.com/mapfiles/kml/pushpin/agrocad.png</href>
      </Icon>
      <hotSpot x="20" y="2" xunits="pixels" yunits="pixels"/>
    </IconStyle>
    <LineStyle>
      <color>FFFF4000</color>
      <width>1</width>
    </LineStyle>
    <PolyStyle>
      <color>40ffffff</color>
      <fill>1</fill>
    </PolyStyle>
  </Style>
  <Style id="s_FFFF4000_hl">
    <IconStyle>
      <scale>1.3</scale>
      <Icon>
        <href>http://maps.google.com/mapfiles/kml/pushpin/agrocad.png</href>
      </Icon>
      <hotSpot x="20" y="2" xunits="pixels" yunits="pixels"/>
    </IconStyle>
    <LineStyle>
      <color>ff000000</color>
      <width>1</width>
    </LineStyle>
    <PolyStyle>
      <color>40ffffff</color>
      <fill>1</fill>
    </PolyStyle>
  </Style>
  <Placemark>
    <name>AgroCAD: 1862D</name>
    <styleUrl>FFFF4000</styleUrl>
    <Polygon>
      <outerBoundaryIs>
        <LinearRing>
          <coordinates>
           -36.38213618149617,-9.79561266673005 -36.38260045407680,-9.79549264968801 -36.38523406656731,-9.79479712124787 -36.38558178183302,-9.79471116739771 -36.38563182896915,-9.79470263629449 -36.38566964935165,-9.79471183159151 -36.38569879409058,-9.79472626694421 -36.38572422380440,-9.79476119590765 -36.38616514269128,-9.79584364348714 -36.38635155936751,-9.79632276670959 -36.38665231763305,-9.79704127306718 -36.38736923323680,-9.79880169331524 -36.38763693350381,-9.79946941841673 -36.38776961428717,-9.79976921995695 -36.38783642417367,-9.79994936149039 -36.38783665556103,-9.80002312151508 -36.38779263618502,-9.80006898707086 -36.38768326559230,-9.80016115180000 -36.38700931368037,-9.80074156293449 -36.38672936881068,-9.80098213558469 -36.38625101541931,-9.80137206373954 -36.38593930281140,-9.80162503422836 -36.38580324298965,-9.80175774672335 -36.38549837767448,-9.80211141217381 -36.38526993113970,-9.80233830404602 -36.38512555174808,-9.80246831199762 -36.38508154370454,-9.80250975505913 -36.38487899367419,-9.80276708090274 -36.38456621086881,-9.80318523735686 -36.38437177752904,-9.80342148804885 -36.38433603140356,-9.80344743759511 -36.38427217835865,-9.80346182568790 -36.38426054898356,-9.80346349877901 -36.38424870253245,-9.80345479969004 -36.38422438684003,-9.80341538384167 -36.38418927137568,-9.80334761194027 -36.38414154460645,-9.80320362891699 -36.38408701603886,-9.80295138866644 -36.38361087526668,-9.80113460363772 -36.38317577506759,-9.79955961728216 -36.38276940341881,-9.79816775642060 -36.38239423713073,-9.79674685148746 -36.38211360079054,-9.79561997034040 -36.38213618149617,-9.79561266673005 -36.38213618149617,-9.79561266673005 -36.38213618149617,-9.79561266673005
          </coordinates>
        </LinearRing>
      </outerBoundaryIs>
    </Polygon>
  </Placemark>
</Document>
</kml>
