<?xml version="1.0" encoding="UTF-8"?>
<kml xmlns="http://www.opengis.net/kml/2.2" xmlns:gx="http://www.google.com/kml/ext/2.2" xmlns:kml="http://www.opengis.net/kml/2.2" xmlns:atom="http://www.w3.org/2005/Atom">
<Document>
  <name>1006.kml</name>
  <StyleMap id="FF0040FF">
    <Pair>
      <key>normal</key>
      <styleUrl>#s_FF0040FF</styleUrl>
    </Pair>
    <Pair>
      <key>highlight</key>
      <styleUrl>#s_FF0040FF_hl</styleUrl>
    </Pair>
  </StyleMap>
  <Style id="s_FF0040FF">
   <IconStyle>
      <scale>1.1</scale>
      <Icon>
        <href>http://maps.google.com/mapfiles/kml/pushpin/agrocad.png</href>
      </Icon>
      <hotSpot x="20" y="2" xunits="pixels" yunits="pixels"/>
    </IconStyle>
    <LineStyle>
      <color>FF0040FF</color>
      <width>1</width>
    </LineStyle>
    <PolyStyle>
      <color>40ffffff</color>
      <fill>1</fill>
    </PolyStyle>
  </Style>
  <Style id="s_FF0040FF_hl">
    <IconStyle>
      <scale>1.3</scale>
      <Icon>
        <href>http://maps.google.com/mapfiles/kml/pushpin/agrocad.png</href>
      </Icon>
      <hotSpot x="20" y="2" xunits="pixels" yunits="pixels"/>
    </IconStyle>
    <LineStyle>
      <color>ff000000</color>
      <width>1</width>
    </LineStyle>
    <PolyStyle>
      <color>40ffffff</color>
      <fill>1</fill>
    </PolyStyle>
  </Style>
  <Placemark>
    <name>AgroCAD: 845D</name>
    <styleUrl>FF0040FF</styleUrl>
    <Polygon>
      <outerBoundaryIs>
        <LinearRing>
          <coordinates>
           -36.36144248573476,-9.76375564339913 -36.36146698705401,-9.76379291406616 -36.36181325334959,-9.76434030689635 -36.36220170504270,-9.76494100050661 -36.36287161352568,-9.76598206034764 -36.36314939753670,-9.76638799688232 -36.36311526092185,-9.76641789732085 -36.36299283210354,-9.76651981463527 -36.36258305309613,-9.76686031915347 -36.36193811411871,-9.76737839477207 -36.36080250177354,-9.76829066388184 -36.35990991205601,-9.76900454688271 -36.35975462350102,-9.76912469123999 -36.35968513398475,-9.76918367746886 -36.35960689910382,-9.76925763036040 -36.35956071851288,-9.76916999206230 -36.35953657323300,-9.76912833666844 -36.35948569861998,-9.76904606124448 -36.35942975194061,-9.76896472292459 -36.35937373996004,-9.76888625399546 -36.35931762843987,-9.76880516379828 -36.35925900235791,-9.76872450470398 -36.35920074419717,-9.76864421718267 -36.35917317896556,-9.76860400820855 -36.35908535879047,-9.76848781197450 -36.35902495834279,-9.76840927776334 -36.35899371110281,-9.76836986896180 -36.35896395979728,-9.76833012236573 -36.35890343355562,-9.76825063559270 -36.35884511686639,-9.76817295070282 -36.35879006957644,-9.76809376818021 -36.35876469710879,-9.76805428562959 -36.35871754431920,-9.76797263477501 -36.35869744768918,-9.76793199880302 -36.35865998521268,-9.76784599895047 -36.35864422969593,-9.76780241914898 -36.35862989263384,-9.76775769280764 -36.35861705727041,-9.76771303552466 -36.35859742165736,-9.76762010788443 -36.35859047937568,-9.76757282017791 -36.35857835067811,-9.76749028932609 -36.35857048373499,-9.76739942739298 -36.35855996030506,-9.76725774624883 -36.35855476809837,-9.76721183336862 -36.35854717090730,-9.76711949250795 -36.35853681626752,-9.76702294414072 -36.35853090386669,-9.76697444477132 -36.35851856601835,-9.76687856407665 -36.35850155862335,-9.76678223177643 -36.35848360560960,-9.76668659861891 -36.35847285979632,-9.76664006387459 -36.35846229485138,-9.76659440893638 -36.35845133871740,-9.76654941563214 -36.35842558566999,-9.76645890451730 -36.35840993673931,-9.76641254076603 -36.35837786282404,-9.76632309446904 -36.35836008232225,-9.76628020744811 -36.35833863520963,-9.76622476359811 -36.35840312450292,-9.76617415324662 -36.35846759773636,-9.76612450614419 -36.35849763591178,-9.76609940784881 -36.35855920103015,-9.76605070385208 -36.35874658655527,-9.76590148961949 -36.35890009005351,-9.76577724907670 -36.35920498332160,-9.76553601445039 -36.35935475726868,-9.76541433195696 -36.35971468954215,-9.76512619068621 -36.36012266461438,-9.76480141141777 -36.36043298201095,-9.76455561070421 -36.36070594295138,-9.76433475915385 -36.36100719268555,-9.76409252820294 -36.36122252413015,-9.76391883272749 -36.36138309798067,-9.76379651857974 -36.36144149741012,-9.76375624803354 -36.36144248573476,-9.76375564339913 -36.36144248573476,-9.76375564339913
          </coordinates>
        </LinearRing>
      </outerBoundaryIs>
    </Polygon>
  </Placemark>
</Document>
</kml>
