<?xml version="1.0" encoding="UTF-8"?>
<kml xmlns="http://www.opengis.net/kml/2.2" xmlns:gx="http://www.google.com/kml/ext/2.2" xmlns:kml="http://www.opengis.net/kml/2.2" xmlns:atom="http://www.w3.org/2005/Atom">
<Document>
  <name>1005.kml</name>
  <StyleMap id="FF0040FF">
    <Pair>
      <key>normal</key>
      <styleUrl>#s_FF0040FF</styleUrl>
    </Pair>
    <Pair>
      <key>highlight</key>
      <styleUrl>#s_FF0040FF_hl</styleUrl>
    </Pair>
  </StyleMap>
  <Style id="s_FF0040FF">
   <IconStyle>
      <scale>1.1</scale>
      <Icon>
        <href>http://maps.google.com/mapfiles/kml/pushpin/agrocad.png</href>
      </Icon>
      <hotSpot x="20" y="2" xunits="pixels" yunits="pixels"/>
    </IconStyle>
    <LineStyle>
      <color>FF0040FF</color>
      <width>1</width>
    </LineStyle>
    <PolyStyle>
      <color>40ffffff</color>
      <fill>1</fill>
    </PolyStyle>
  </Style>
  <Style id="s_FF0040FF_hl">
    <IconStyle>
      <scale>1.3</scale>
      <Icon>
        <href>http://maps.google.com/mapfiles/kml/pushpin/agrocad.png</href>
      </Icon>
      <hotSpot x="20" y="2" xunits="pixels" yunits="pixels"/>
    </IconStyle>
    <LineStyle>
      <color>ff000000</color>
      <width>1</width>
    </LineStyle>
    <PolyStyle>
      <color>40ffffff</color>
      <fill>1</fill>
    </PolyStyle>
  </Style>
  <Placemark>
    <name>AgroCAD: 845F</name>
    <styleUrl>FF0040FF</styleUrl>
    <Polygon>
      <outerBoundaryIs>
        <LinearRing>
          <coordinates>
           -36.35986717968002,-9.77044800181465 -36.35986436419479,-9.77042443513594 -36.35986616911718,-9.77040668281909 -36.35985882647078,-9.77031260798631 -36.35984455875416,-9.77022283831924 -36.35982672447897,-9.77013550051621 -36.35981085431256,-9.77006024075287 -36.35978196265587,-9.76992130292127 -36.35976445851068,-9.76982663396536 -36.35974669672612,-9.76972981398100 -36.35972764452959,-9.76963406056146 -36.35971835936332,-9.76958663600374 -36.35970755419009,-9.76953744880351 -36.35968198728509,-9.76944233614327 -36.35966566712642,-9.76939506655197 -36.35964738318771,-9.76934801507360 -36.35962264009922,-9.76929267415726 -36.35970956339726,-9.76921050838924 -36.35977768370454,-9.76915268441359 -36.35993255182800,-9.76903286533675 -36.36082540121668,-9.76831877464912 -36.36196104412664,-9.76740648097855 -36.36260621753395,-9.76688821703901 -36.36301622846652,-9.76654751979965 -36.36313903325801,-9.76644528951942 -36.36317002634155,-9.76641814251636 -36.36325753693158,-9.76654602491430 -36.36364421993917,-9.76710159064717 -36.36414199919941,-9.76780363942994 -36.36426621929230,-9.76798444367468 -36.36422902161544,-9.76801174814436 -36.36410024150387,-9.76810499877670 -36.36384324848083,-9.76830222628142 -36.36340756105683,-9.76863654141925 -36.36284121716933,-9.76907313247758 -36.36227995364541,-9.76950536235063 -36.36164066999937,-9.76999759044042 -36.36135292755609,-9.77021856792992 -36.36090647398594,-9.77056386833313 -36.36062036120730,-9.77078572677632 -36.36039547656050,-9.77096032793614 -36.36036220598822,-9.77098623302791 -36.36029260075781,-9.77091300269978 -36.36019553866991,-9.77081040356579 -36.36010841157121,-9.77070784095006 -36.36005121207368,-9.77064881272125 -36.35997422990552,-9.77056957027471 -36.35991960709980,-9.77051338561525 -36.35989391932378,-9.77048285410998 -36.35987041211909,-9.77045221655314 -36.35986700264200,-9.77044651993919 -36.35986717968002,-9.77044800181465
          </coordinates>
        </LinearRing>
      </outerBoundaryIs>
    </Polygon>
  </Placemark>
</Document>
</kml>
