<?xml version="1.0" encoding="UTF-8"?>
<kml xmlns="http://www.opengis.net/kml/2.2" xmlns:gx="http://www.google.com/kml/ext/2.2" xmlns:kml="http://www.opengis.net/kml/2.2" xmlns:atom="http://www.w3.org/2005/Atom">
<Document>
  <name>1001.kml</name>
  <StyleMap id="FF0040FF">
    <Pair>
      <key>normal</key>
      <styleUrl>#s_FF0040FF</styleUrl>
    </Pair>
    <Pair>
      <key>highlight</key>
      <styleUrl>#s_FF0040FF_hl</styleUrl>
    </Pair>
  </StyleMap>
  <Style id="s_FF0040FF">
   <IconStyle>
      <scale>1.1</scale>
      <Icon>
        <href>http://maps.google.com/mapfiles/kml/pushpin/agrocad.png</href>
      </Icon>
      <hotSpot x="20" y="2" xunits="pixels" yunits="pixels"/>
    </IconStyle>
    <LineStyle>
      <color>FF0040FF</color>
      <width>1</width>
    </LineStyle>
    <PolyStyle>
      <color>40ffffff</color>
      <fill>1</fill>
    </PolyStyle>
  </Style>
  <Style id="s_FF0040FF_hl">
    <IconStyle>
      <scale>1.3</scale>
      <Icon>
        <href>http://maps.google.com/mapfiles/kml/pushpin/agrocad.png</href>
      </Icon>
      <hotSpot x="20" y="2" xunits="pixels" yunits="pixels"/>
    </IconStyle>
    <LineStyle>
      <color>ff000000</color>
      <width>1</width>
    </LineStyle>
    <PolyStyle>
      <color>40ffffff</color>
      <fill>1</fill>
    </PolyStyle>
  </Style>
  <Placemark>
    <name>AgroCAD: 845A</name>
    <styleUrl>FF0040FF</styleUrl>
    <Polygon>
      <outerBoundaryIs>
        <LinearRing>
          <coordinates>
           -36.36989989368136,-9.77558625658351 -36.36928496137288,-9.77575261652000 -36.36800915068807,-9.77611593563844 -36.36691649278287,-9.77642384040646 -36.36651711624937,-9.77653473083015 -36.36647168376438,-9.77640268426202 -36.36630781616050,-9.77591024680253 -36.36621043931200,-9.77561526512094 -36.36613523076719,-9.77538897238656 -36.36612659542169,-9.77536497428335 -36.36614882483143,-9.77535963962357 -36.36646670856001,-9.77528413381425 -36.36689813795165,-9.77517848778624 -36.36765756879247,-9.77499528904757 -36.36789704901348,-9.77493262872404 -36.36842447850085,-9.77480389673776 -36.36889143234292,-9.77469021002536 -36.36919745163289,-9.77460927447849 -36.36922589231172,-9.77465334004475 -36.36927352056186,-9.77472727134485 -36.36934728658129,-9.77483928897912 -36.36942262175654,-9.77495387118412 -36.36953209763455,-9.77509654022843 -36.36979263425285,-9.77543849489741 -36.36989989368135,-9.77558625658351 -36.36989989368136,-9.77558625658351
          </coordinates>
        </LinearRing>
      </outerBoundaryIs>
    </Polygon>
  </Placemark>
</Document>
</kml>
