<?xml version="1.0" encoding="UTF-8"?>
<kml xmlns="http://www.opengis.net/kml/2.2" xmlns:gx="http://www.google.com/kml/ext/2.2" xmlns:kml="http://www.opengis.net/kml/2.2" xmlns:atom="http://www.w3.org/2005/Atom">
<Document>
	<name>21.kml</name>
	<StyleMap id="m_ylw-pushpin">
		<Pair>
			<key>normal</key>
			<styleUrl>#s_ylw-pushpin</styleUrl>
		</Pair>
		<Pair>
			<key>highlight</key>
			<styleUrl>#s_ylw-pushpin_hl</styleUrl>
		</Pair>
	</StyleMap>
	<Style id="s_ylw-pushpin">
		<IconStyle>
			<scale>1.1</scale>
			<Icon>
				<href>http://maps.google.com/mapfiles/kml/pushpin/ylw-pushpin.png</href>
			</Icon>
			<hotSpot x="20" y="2" xunits="pixels" yunits="pixels"/>
		</IconStyle>
	</Style>
	<Style id="s_ylw-pushpin_hl">
		<IconStyle>
			<scale>1.3</scale>
			<Icon>
				<href>http://maps.google.com/mapfiles/kml/pushpin/ylw-pushpin.png</href>
			</Icon>
			<hotSpot x="20" y="2" xunits="pixels" yunits="pixels"/>
		</IconStyle>
	</Style>
	<Placemark>
		<name>21</name>
		<styleUrl>#m_ylw-pushpin</styleUrl>
		<LineString>
			<tessellate>1</tessellate>
			<coordinates>
				-36.28403929333685,-9.90604966290473,0 -36.28408038855554,-9.906355217589024,0 -36.2846135337343,-9.906370917544816,0 -36.28520368781304,-9.906477128652229,0 -36.2855072325061,-9.906574354145169,0 -36.28581495908081,-9.906754173106727,0 -36.28592855084679,-9.90697176201383,0 -36.28623339851266,-9.907824036947927,0 -36.28632071098622,-9.908199633910147,0 -36.28633750613973,-9.908553601302597,0 -36.28614721348004,-9.909019658696694,0 -36.2866483677119,-9.908995260183065,0 -36.28628125056314,-9.906728758597202,0 -36.28617231666141,-9.905993920348116,0 -36.28565649512127,-9.906001365804476,0 -36.28429662559651,-9.906037593238445,0 -36.28403929333685,-9.90604966290473,0 
			</coordinates>
		</LineString>
		<atom:link rel="app" href="https://www.google.com/earth/about/versions/#earth-pro" title="Google Earth Pro 7.3.7.1155"></atom:link>
	</Placemark>
</Document>
</kml>
