<?xml version="1.0" encoding="UTF-8"?>
<kml xmlns="http://www.opengis.net/kml/2.2" xmlns:gx="http://www.google.com/kml/ext/2.2" xmlns:kml="http://www.opengis.net/kml/2.2" xmlns:atom="http://www.w3.org/2005/Atom">
<Document>
  <name>27.kml</name>
  <StyleMap id="FFFF4000">
    <Pair>
      <key>normal</key>
      <styleUrl>#s_FFFF4000</styleUrl>
    </Pair>
    <Pair>
      <key>highlight</key>
      <styleUrl>#s_FFFF4000_hl</styleUrl>
    </Pair>
  </StyleMap>
  <Style id="s_FFFF4000">
   <IconStyle>
      <scale>1.1</scale>
      <Icon>
        <href>http://maps.google.com/mapfiles/kml/pushpin/agrocad.png</href>
      </Icon>
      <hotSpot x="20" y="2" xunits="pixels" yunits="pixels"/>
    </IconStyle>
    <LineStyle>
      <color>FFFF4000</color>
      <width>1</width>
    </LineStyle>
    <PolyStyle>
      <color>40ffffff</color>
      <fill>1</fill>
    </PolyStyle>
  </Style>
  <Style id="s_FFFF4000_hl">
    <IconStyle>
      <scale>1.3</scale>
      <Icon>
        <href>http://maps.google.com/mapfiles/kml/pushpin/agrocad.png</href>
      </Icon>
      <hotSpot x="20" y="2" xunits="pixels" yunits="pixels"/>
    </IconStyle>
    <LineStyle>
      <color>ff000000</color>
      <width>1</width>
    </LineStyle>
    <PolyStyle>
      <color>40ffffff</color>
      <fill>1</fill>
    </PolyStyle>
  </Style>
  <Placemark>
    <name>AgroCAD: 1DB0A</name>
    <styleUrl>FFFF4000</styleUrl>
    <Polygon>
      <outerBoundaryIs>
        <LinearRing>
          <coordinates>
           -36.45906136373019,-9.65522197010950 -36.45908818582038,-9.65517821657496 -36.45913294518328,-9.65519418410048 -36.45905189217959,-9.65517666592285 -36.45910453053158,-9.65519330400066 -36.45907779226038,-9.65519196289617 -36.45907485859427,-9.65519686630949 -36.45907544532748,-9.65520625404105 -36.45908215085008,-9.65521363011586 -36.45908676089679,-9.65520290127975 -36.45908433014488,-9.65521161845906 -36.45906622523408,-9.65521937171950 -36.45904317500029,-9.65523479442134 -36.45902439953718,-9.65524388878631 -36.45900964738758,-9.65525256405606 -36.45895793104506,-9.65527460846138 -36.45893136041197,-9.65528441528811 -36.45890202375088,-9.65529254573418 -36.45887830296497,-9.65530260401799 -36.45882247948978,-9.65533353324069 -36.45876724274788,-9.65536098397357 -36.45874167794328,-9.65537087461932 -36.45871695132886,-9.65537846024168 -36.45869264380967,-9.65538755460662 -36.45863723942977,-9.65541303559226 -36.45861016588247,-9.65542460261862 -36.45858233796397,-9.65543235587905 -36.45853565076327,-9.65544970641863 -36.45849768074197,-9.65546894288640 -36.45848091693557,-9.65547535504234 -36.45844277927615,-9.65548511995949 -36.45843624139167,-9.65548273111713 -36.45841436462437,-9.65545905224066 -36.45840095357936,-9.65543382271212 -36.45838670434397,-9.65540167811343 -36.45837128164217,-9.65536387573014 -36.45835552366416,-9.65533726318756 -36.45834487864716,-9.65532330731883 -36.45833062941176,-9.65531655988674 -36.45831177012956,-9.65532280440461 -36.45825955087288,-9.65535960095951 -36.45822996275466,-9.65537343109976 -36.45819433966615,-9.65538298646936 -36.45816869104246,-9.65539518213847 -36.45814941266517,-9.65540134283728 -36.45813767800077,-9.65540117519926 -36.45812627861245,-9.65538441139290 -36.45811437630996,-9.65536152879724 -36.45809618758005,-9.65533064148407 -36.45807615483145,-9.65529820351880 -36.45805913956805,-9.65526677138189 -36.45803902300046,-9.65523559070210 -36.45801932552796,-9.65520210499893 -36.45800381900706,-9.65517092431911 -36.45796685481406,-9.65511212526840 -36.45795034246485,-9.65508144750278 -36.45793190227784,-9.65505512832684 -36.45791379736704,-9.65502642030847 -36.45789409989454,-9.65499741892348 -36.45787524061245,-9.65496628015321 -36.45785931499644,-9.65493371645939 -36.45784431138974,-9.65489909919928 -36.45782872104984,-9.65486498485337 -36.45781329834804,-9.65483296598328 -36.45779527725615,-9.65480253967476 -36.45777859726884,-9.65477156854253 -36.45776292310995,-9.65474659047107 -36.45772579127884,-9.65469818498028 -36.45770852455834,-9.65466713002901 -36.45767960699244,-9.65459957188948 -36.45764457063715,-9.65453616279197 -36.45762923175435,-9.65450066543203 -36.45761162975774,-9.65446449751984 -36.45759771579844,-9.65442656940802 -36.45758002998274,-9.65438939566747 -36.45756351763353,-9.65435934654457 -36.45755069332164,-9.65433135098800 -36.45753728227653,-9.65430419362172 -36.45752470942183,-9.65427401877032 -36.45751473495704,-9.65424032351954 -36.45749269055174,-9.65417771070285 -36.45747064614633,-9.65412582672223 -36.45746243188123,-9.65410462050719 -36.45745413379714,-9.65407033852323 -36.45745061339774,-9.65406044787749 -36.45745698364414,-9.65404921612725 -36.45748430864855,-9.65403241041136 -36.45751406440473,-9.65402210067047 -36.45753275604884,-9.65401799353794 -36.45755748266323,-9.65400919253963 -36.45761171357675,-9.65398622612492 -36.45766887815635,-9.65395869157299 -36.45769813099845,-9.65394402324249 -36.45778731444815,-9.65390156890291 -36.45785470494966,-9.65386875375197 -36.45788789728625,-9.65385215758370 -36.45791916178505,-9.65383497468223 -36.45794925281745,-9.65382001298508 -36.45797892475465,-9.65380626666384 -36.45803382622045,-9.65377676236469 -36.45805461334025,-9.65376490197171 -36.45806986840406,-9.65375832217773 -36.45808378236336,-9.65376012428690 -36.45809719340846,-9.65377190086086 -36.45811756143316,-9.65380547038305 -36.45815452562606,-9.65384222502846 -36.45817480983176,-9.65385974320609 -36.45819073544787,-9.65387851866920 -36.45820330830256,-9.65389842568922 -36.45821831190926,-9.65391879371395 -36.45825712012095,-9.65395831438740 -36.45827287809887,-9.65397532965081 -36.45831948148056,-9.65403752337237 -36.45833591001077,-9.65405667602111 -36.45836415702436,-9.65410063910323 -36.45837899299306,-9.65412205486584 -36.45839282313327,-9.65414401545215 -36.45840707236866,-9.65416358719609 -36.45842241125146,-9.65418739180108 -36.45843842068646,-9.65420926856835 -36.45848007874527,-9.65427435404649 -36.45849860275126,-9.65429371624281 -36.45851737821438,-9.65431106678236 -36.45853632131556,-9.65433499711593 -36.45857554862237,-9.65438084612623 -36.45860304126478,-9.65442367765144 -36.45861812869048,-9.65444396185714 -36.45863472485876,-9.65446420415330 -36.45865517670246,-9.65448155469286 -36.45867537708917,-9.65450322191256 -36.45869373345707,-9.65452815807450 -36.45871292801537,-9.65455171122241 -36.45873480478267,-9.65458779531555 -36.45874352196197,-9.65460426575528 -36.45875483753128,-9.65462199348051 -36.45878367127817,-9.65467400318971 -36.45879867488477,-9.65469608950453 -36.45882826300296,-9.65473481389718 -36.45884091967678,-9.65475501428381 -36.45885156469378,-9.65477475366578 -36.45889657551386,-9.65487148082839 -36.45891878755728,-9.65491841948614 -36.45893211478328,-9.65494151162940 -36.45894753748518,-9.65496301121102 -36.45895960742568,-9.65498392405941 -36.45897033626177,-9.65500542364106 -36.45898207092617,-9.65502587548479 -36.45900713281668,-9.65507872338430 -36.45902071149978,-9.65510412055089 -36.45903009923138,-9.65512536867544 -36.45903957078198,-9.65513727097793 -36.45904518665708,-9.65514808363306 -36.45905029961799,-9.65516388352050 -36.45906136373019,-9.65522197010950 -36.45906136373019,-9.65522197010950 -36.45906136373019,-9.65522197010950
          </coordinates>
        </LinearRing>
      </outerBoundaryIs>
    </Polygon>
  </Placemark>
</Document>
</kml>
