<?xml version="1.0" encoding="utf-8" ?>
<kml xmlns="http://www.opengis.net/kml/2.2">
<Document id="root_doc">
<Schema name="GITIRANA_TALHAO_1021_ID_432" id="GITIRANA_TALHAO_1021_ID_432">
	<SimpleField name="TALHAO" type="string"></SimpleField>
	<SimpleField name="FAZENDA" type="string"></SimpleField>
	<SimpleField name="ZONA" type="string"></SimpleField>
	<SimpleField name="ID" type="float"></SimpleField>
	<SimpleField name="AREA_TOTAL" type="float"></SimpleField>
	<SimpleField name="FAZ_NOME" type="string"></SimpleField>
	<SimpleField name="CODE" type="string"></SimpleField>
</Schema>
<Folder><name>GITIRANA_TALHAO_1021_ID_432</name>
  <Placemark id="GITIRANA_TALHAO_1021_ID_432.1">
	<Style><LineStyle><color>ff0000ff</color></LineStyle><PolyStyle><fill>0</fill></PolyStyle></Style>
	<ExtendedData><SchemaData schemaUrl="#GITIRANA_TALHAO_1021_ID_432">
		<SimpleData name="TALHAO">1021</SimpleData>
		<SimpleData name="FAZENDA">2427</SimpleData>
		<SimpleData name="ZONA">1</SimpleData>
		<SimpleData name="ID">432</SimpleData>
		<SimpleData name="AREA_TOTAL">1.80</SimpleData>
		<SimpleData name="FAZ_NOME">GITIRANA</SimpleData>
		<SimpleData name="CODE"></SimpleData>
	</SchemaData></ExtendedData>
      <MultiGeometry><Polygon><outerBoundaryIs><LinearRing><coordinates>-36.1974903814618,-9.8329845155049,0 -36.1955077854637,-9.83245686449527,0 -36.1954580310066,-9.83260106703542,0 -36.195329552778,-9.83298999549561,0 -36.1952794330158,-9.83313538778354,0 -36.1952856553715,-9.83313723141039,0 -36.1953031198146,-9.83314240596367,0 -36.1953205842584,-9.83314758051624,0 -36.1953380487029,-9.83315275506801,0 -36.1953555131482,-9.83315792961903,0 -36.1953729775943,-9.83316310416931,0 -36.1953904420412,-9.83316827871886,0 -36.1954079064889,-9.83317345326764,0 -36.1954253709373,-9.83317862781565,0 -36.1954428353866,-9.83318380236295,0 -36.1954602998365,-9.83318897690944,0 -36.1954777642873,-9.83319415145519,0 -36.1954952287388,-9.83319932600019,0 -36.1955126931911,-9.8332045005444,0 -36.1955301576443,-9.83320967508796,0 -36.1955476220981,-9.83321484963066,0 -36.1955650865528,-9.83322002417265,0 -36.1955825510082,-9.83322519871387,0 -36.1956000154644,-9.83323037325433,0 -36.1956174799214,-9.8332355477941,0 -36.1956349443791,-9.83324072233303,0 -36.1956524088377,-9.83324589687128,0 -36.195669873297,-9.83325107140874,0 -36.195687337757,-9.83325624594544,0 -36.1957048022179,-9.83326142048139,0 -36.1957222666796,-9.83326659501662,0 -36.195739731142,-9.83327176955103,0 -36.1957571956052,-9.83327694408473,0 -36.1957746600691,-9.83328211861765,0 -36.1957921245339,-9.83328729314981,0 -36.1958095889994,-9.8332924676813,0 -36.1958270534657,-9.83329764221195,0 -36.1958445179327,-9.83330281674185,0 -36.1958619824006,-9.83330799127103,0 -36.1958794468692,-9.83331316579942,0 -36.1958969113387,-9.83331834032709,0 -36.1959143758088,-9.83332351485399,0 -36.1959318402798,-9.83332868938015,0 -36.1959493047515,-9.83333386390552,0 -36.195966769224,-9.83333903843018,0 -36.1959842336973,-9.83334421295404,0 -36.1960016981714,-9.83334938747717,0 -36.1960191626462,-9.83335456199959,0 -36.1960366271218,-9.83335973652118,0 -36.1960540915982,-9.83336491104204,0 -36.1960715560754,-9.83337008556221,0 -36.1960890205533,-9.83337526008153,0 -36.196106485032,-9.83338043460013,0 -36.1961239495116,-9.83338560911798,0 -36.1961414141797,-9.83339078369074,0 -36.1961938063269,-9.83340629300112,0 -36.1962112722203,-9.83341146331555,0 -36.1962287381145,-9.83341663362919,0 -36.1962462040095,-9.83342180394204,0 -36.1962636699052,-9.83342697425417,0 -36.1962811358018,-9.83343214456555,0 -36.1962986016991,-9.83343731487617,0 -36.1963160334051,-9.83344247506439,0 -36.1963334831366,-9.8334475815782,0 -36.1963509670927,-9.83345269810656,0 -36.1963684510496,-9.83345781463417,0 -36.1963859350073,-9.83346293116103,0 -36.1964034189657,-9.83346804768711,0 -36.196420902925,-9.83347316421243,0 -36.1964383868849,-9.83347828073698,0 -36.1964558708458,-9.83348339726082,0 -36.1964733548073,-9.83348851378389,0 -36.1964908387871,-9.83349363031131,0 -36.1965083227502,-9.83349874683283,0 -36.196525806714,-9.83350386335364,0 -36.1965432906786,-9.83350897987363,0 -36.1965607746441,-9.83351409639296,0 -36.1965782586102,-9.83351921291144,0 -36.1965957425772,-9.83352432942923,0 -36.1966132265449,-9.8335294459462,0 -36.1966307105134,-9.83353456246246,0 -36.1966481944827,-9.83353967897795,0 -36.1966656784527,-9.83354479549267,0 -36.1966831624235,-9.83354991200663,0 -36.1967006463951,-9.83355502851984,0 -36.1967181303674,-9.8335601450323,0 -36.1967356143405,-9.83356526154397,0 -36.1967530983144,-9.8335703780549,0 -36.1967705822891,-9.83357549456508,0 -36.1967880662646,-9.83358061107451,0 -36.1968055502407,-9.83358572758316,0 -36.1968230342178,-9.83359084409106,0 -36.1968405181955,-9.83359596059823,0 -36.196858002174,-9.83360107710463,0 -36.1968754861533,-9.83360619361025,0 -36.1968929701334,-9.83361131011512,0 -36.1969104541142,-9.83361642661922,0 -36.1969279380959,-9.8336215431226,0 -36.1969454220783,-9.8336266596252,0 -36.1969629060614,-9.83363177612701,0 -36.1969803900453,-9.83363689262812,0 -36.19699787403,-9.83364200912845,0 -36.1970153580155,-9.83364712562802,0 -36.1970328420018,-9.83365224212683,0 -36.1971026656488,-9.83367267524952,0 -36.1971046616215,-9.83366884179173,0 -36.197199757935,-9.83350932655298,0 -36.1973456202551,-9.8332851350529,0 -36.1974379203787,-9.83313821694206,0 -36.1975143838557,-9.83299865047472,0 -36.1974903814618,-9.8329845155049,0</coordinates></LinearRing></outerBoundaryIs></Polygon></MultiGeometry>
  </Placemark>
</Folder>
</Document></kml>
