<?xml version="1.0" encoding="utf-8" ?>
<kml xmlns="http://www.opengis.net/kml/2.2">
<Document id="root_doc">
<Schema name="GITIRANA_TALHAO_1002_ID_436" id="GITIRANA_TALHAO_1002_ID_436">
	<SimpleField name="TALHAO" type="string"></SimpleField>
	<SimpleField name="FAZENDA" type="string"></SimpleField>
	<SimpleField name="ZONA" type="string"></SimpleField>
	<SimpleField name="ID" type="float"></SimpleField>
	<SimpleField name="AREA_TOTAL" type="float"></SimpleField>
	<SimpleField name="FAZ_NOME" type="string"></SimpleField>
	<SimpleField name="CODE" type="string"></SimpleField>
</Schema>
<Folder><name>GITIRANA_TALHAO_1002_ID_436</name>
  <Placemark id="GITIRANA_TALHAO_1002_ID_436.1">
	<Style><LineStyle><color>ff0000ff</color></LineStyle><PolyStyle><fill>0</fill></PolyStyle></Style>
	<ExtendedData><SchemaData schemaUrl="#GITIRANA_TALHAO_1002_ID_436">
		<SimpleData name="TALHAO">1002</SimpleData>
		<SimpleData name="FAZENDA">2427</SimpleData>
		<SimpleData name="ZONA">1</SimpleData>
		<SimpleData name="ID">436</SimpleData>
		<SimpleData name="AREA_TOTAL">4.22</SimpleData>
		<SimpleData name="FAZ_NOME">GITIRANA</SimpleData>
		<SimpleData name="CODE"></SimpleData>
	</SchemaData></ExtendedData>
      <MultiGeometry><Polygon><outerBoundaryIs><LinearRing><coordinates>-36.2040049764748,-9.81102951921508,0 -36.2039658688871,-9.81109099148295,0 -36.2037311964074,-9.81145215843123,0 -36.2037071309539,-9.81149320611543,0 -36.2036816674827,-9.81153506284102,0 -36.2036566511796,-9.81157885061191,0 -36.2036313337075,-9.81162175995894,0 -36.2036070542611,-9.81166147214337,0 -36.2035092637552,-9.81184555154831,0 -36.2032949747974,-9.81222397730351,0 -36.2032760314546,-9.81225579536927,0 -36.2034053651493,-9.81231013671425,0 -36.2035648293182,-9.81236926440761,0 -36.2039319054108,-9.81249131124371,0 -36.2043579349861,-9.81263499680422,0 -36.2047798734407,-9.81277253179272,0 -36.2051714265347,-9.81290931823676,0 -36.2054771239913,-9.81301174226559,0 -36.2056100698363,-9.81305586341239,0 -36.205638908727,-9.81305869229264,0 -36.2056630512025,-9.81305571185512,0 -36.2056618766582,-9.81302142863677,0 -36.2056579961516,-9.81298905469098,0 -36.2056496512392,-9.81273405415707,0 -36.2056123240362,-9.81214112208538,0 -36.2055883073004,-9.81174298976234,0 -36.2055380083406,-9.81147875479293,0 -36.2054447281926,-9.8113766192169,0 -36.2053054701224,-9.81123510169828,0 -36.2050939864175,-9.81102605771858,0 -36.2049416581319,-9.81090956149776,0 -36.2047487575564,-9.81079118712449,0 -36.2047132082471,-9.8107782155278,0 -36.2046612734562,-9.81076130546277,0 -36.2046077724335,-9.81074798463061,0 -36.2045538359185,-9.81074034609816,0 -36.2044991495838,-9.81073821134085,0 -36.2044429624335,-9.81073967734888,0 -36.2043898987465,-9.81074837955613,0 -36.2043339125176,-9.81076076942504,0 -36.2042844780191,-9.81077300809534,0 -36.2042431066024,-9.81078939813788,0 -36.2042043915802,-9.81081317354633,0 -36.2041672495598,-9.81084246563525,0 -36.2041319424934,-9.8108760622036,0 -36.2040991431072,-9.81091221450008,0 -36.2040049764748,-9.81102951921508,0</coordinates></LinearRing></outerBoundaryIs></Polygon></MultiGeometry>
  </Placemark>
</Folder>
</Document></kml>
