<?xml version="1.0" encoding="utf-8" ?>
<kml xmlns="http://www.opengis.net/kml/2.2">
<Document id="root_doc">
<Schema name="GITIRANA_TALHAO_1013_ID_406" id="GITIRANA_TALHAO_1013_ID_406">
	<SimpleField name="TALHAO" type="string"></SimpleField>
	<SimpleField name="FAZENDA" type="string"></SimpleField>
	<SimpleField name="ZONA" type="string"></SimpleField>
	<SimpleField name="ID" type="float"></SimpleField>
	<SimpleField name="AREA_TOTAL" type="float"></SimpleField>
	<SimpleField name="FAZ_NOME" type="string"></SimpleField>
	<SimpleField name="CODE" type="string"></SimpleField>
</Schema>
<Folder><name>GITIRANA_TALHAO_1013_ID_406</name>
  <Placemark id="GITIRANA_TALHAO_1013_ID_406.1">
	<Style><LineStyle><color>ff0000ff</color></LineStyle><PolyStyle><fill>0</fill></PolyStyle></Style>
	<ExtendedData><SchemaData schemaUrl="#GITIRANA_TALHAO_1013_ID_406">
		<SimpleData name="TALHAO">1013</SimpleData>
		<SimpleData name="FAZENDA">2427</SimpleData>
		<SimpleData name="ZONA">1</SimpleData>
		<SimpleData name="ID">406</SimpleData>
		<SimpleData name="AREA_TOTAL">5.26</SimpleData>
		<SimpleData name="FAZ_NOME">GITIRANA</SimpleData>
		<SimpleData name="CODE"></SimpleData>
	</SchemaData></ExtendedData>
      <MultiGeometry><Polygon><outerBoundaryIs><LinearRing><coordinates>-36.1918895576097,-9.82836979579499,0 -36.191873417919,-9.82840156594164,0 -36.1918806375524,-9.82845594494988,0 -36.1944015772214,-9.82892744761692,0 -36.1951513377956,-9.82685551951114,0 -36.1942526978326,-9.82662990643211,0 -36.1925745760155,-9.82756268377424,0 -36.1918885652181,-9.82837174926662,0 -36.1918895576097,-9.82836979579499,0</coordinates></LinearRing></outerBoundaryIs></Polygon></MultiGeometry>
  </Placemark>
</Folder>
</Document></kml>
