<?xml version="1.0" encoding="utf-8" ?>
<kml xmlns="http://www.opengis.net/kml/2.2">
<Document id="root_doc">
<Schema name="GITIRANA_TALHAO_1037_ID_447" id="GITIRANA_TALHAO_1037_ID_447">
	<SimpleField name="TALHAO" type="string"></SimpleField>
	<SimpleField name="FAZENDA" type="string"></SimpleField>
	<SimpleField name="ZONA" type="string"></SimpleField>
	<SimpleField name="ID" type="float"></SimpleField>
	<SimpleField name="AREA_TOTAL" type="float"></SimpleField>
	<SimpleField name="FAZ_NOME" type="string"></SimpleField>
	<SimpleField name="CODE" type="string"></SimpleField>
</Schema>
<Folder><name>GITIRANA_TALHAO_1037_ID_447</name>
  <Placemark id="GITIRANA_TALHAO_1037_ID_447.1">
	<Style><LineStyle><color>ff0000ff</color></LineStyle><PolyStyle><fill>0</fill></PolyStyle></Style>
	<ExtendedData><SchemaData schemaUrl="#GITIRANA_TALHAO_1037_ID_447">
		<SimpleData name="TALHAO">1037</SimpleData>
		<SimpleData name="FAZENDA">2427</SimpleData>
		<SimpleData name="ZONA">1</SimpleData>
		<SimpleData name="ID">447</SimpleData>
		<SimpleData name="AREA_TOTAL">4.31</SimpleData>
		<SimpleData name="FAZ_NOME">GITIRANA</SimpleData>
		<SimpleData name="CODE"></SimpleData>
	</SchemaData></ExtendedData>
      <MultiGeometry><Polygon><outerBoundaryIs><LinearRing><coordinates>-36.1847822969829,-9.85417998644341,106.417010007426 -36.184751780335,-9.85422332452609,106.417010007426 -36.1847104814696,-9.85427156151545,106.417010007426 -36.1844047166362,-9.85467480441394,106.417010007426 -36.1840361594858,-9.85515251373485,106.417010007426 -36.1837423338344,-9.85553761153059,106.417010007426 -36.1836139388962,-9.85570336501677,106.417010007426 -36.1835972895073,-9.85572567873803,106.417010007426 -36.1835710396927,-9.85575948355853,106.417010007426 -36.1835474869173,-9.8557976134669,106.417010007426 -36.1835634219267,-9.85581805416119,106.417010007426 -36.1836035792239,-9.85584090699378,106.417010007426 -36.1836441101627,-9.85586326838219,106.417010007426 -36.1839983326345,-9.85603221152108,106.417010007426 -36.1844860594469,-9.85626906689292,106.417010007426 -36.1849803622507,-9.85651379866291,106.417010007426 -36.185206157632,-9.85662639132279,106.417010007426 -36.185249399684,-9.85664718518468,106.417010007426 -36.1852928516241,-9.85666674745987,106.417010007426 -36.1853374186861,-9.85668493116632,106.417010007426 -36.1853621965776,-9.85666128644655,106.417010007426 -36.1853762333971,-9.85661093893829,106.417010007426 -36.1853872073964,-9.85656915390171,106.417010007426 -36.1853983818491,-9.85652739140257,106.417010007426 -36.1854127466646,-9.85648283807687,106.417010007426 -36.1854293752879,-9.85643872814527,106.417010007426 -36.1854459409007,-9.85639556689372,106.417010007426 -36.185464356898,-9.85635200692586,106.417010007426 -36.1854841045281,-9.85630873055709,106.417010007426 -36.1855055940344,-9.85626532822735,106.417010007426 -36.185526127932,-9.85622215397164,106.417010007426 -36.1855449175788,-9.85617752877665,106.417010007426 -36.1855627344576,-9.85613707438054,106.417010007426 -36.1855832986083,-9.85608432583551,106.417010007426 -36.1855847850006,-9.85607733658548,106.417010007426 -36.1855904625316,-9.85602055895798,106.417010007426 -36.1855874439227,-9.8559841673461,106.417010007426 -36.1855758744355,-9.85592983624079,106.417010007426 -36.1855653795427,-9.85588702834339,106.417010007426 -36.1855537720562,-9.85584339033731,106.417010007426 -36.1855471312839,-9.85579908871318,106.417010007426 -36.1855472994104,-9.85575500134915,106.417010007426 -36.1855544964434,-9.85571111069198,106.417010007426 -36.1855676878958,-9.85566806308247,106.417010007426 -36.1855892055766,-9.85562798199746,106.417010007426 -36.1856198092839,-9.85559372237805,106.417010007426 -36.1856513080906,-9.85556115554581,106.417010007426 -36.1856850032745,-9.85553166841418,106.417010007426 -36.1857202341485,-9.85550529060285,106.417010007426 -36.1857574122648,-9.85547977589212,106.417010007426 -36.1857921864712,-9.85545508743934,106.417010007426 -36.185827378078,-9.85543060414085,106.417010007426 -36.1858625173798,-9.85540626200212,106.417010007426 -36.1858996834519,-9.85538544564652,106.417010007426 -36.185940595442,-9.85536975360892,106.417010007426 -36.1859809889989,-9.85535060591693,106.417010007426 -36.1860215408614,-9.85533305153703,106.417010007426 -36.1860253489912,-9.85532932007644,106.417010007426 -36.1860856552811,-9.85529619360885,106.417010007426 -36.1861679959506,-9.85524592143525,106.417010007426 -36.186252508404,-9.85518840802419,106.417010007426 -36.1862862356622,-9.85515804452661,106.417010007426 -36.1863180992098,-9.85512610777836,106.417010007426 -36.1863483036129,-9.85509351754343,106.417010007426 -36.1863800463196,-9.85505975493405,106.417010007426 -36.186407313835,-9.85502387105112,106.417010007426 -36.1864163664439,-9.8550005011603,106.417010007426 -36.1863819909392,-9.85497642505657,106.417010007426 -36.1863631260565,-9.85496764303179,106.417010007426 -36.1861870144289,-9.85487525457896,106.417010007426 -36.1857270997695,-9.85464759148195,106.417010007426 -36.1852384894106,-9.85440895358853,106.417010007426 -36.1848598612564,-9.85421811520712,106.417010007426 -36.1847822969829,-9.85417998644341,106.417010007426</coordinates></LinearRing></outerBoundaryIs></Polygon></MultiGeometry>
  </Placemark>
</Folder>
</Document></kml>
