<?xml version="1.0" encoding="utf-8" ?>
<kml xmlns="http://www.opengis.net/kml/2.2">
<Document id="root_doc">
<Schema name="GITIRANA_TALHAO_1033_ID_444" id="GITIRANA_TALHAO_1033_ID_444">
	<SimpleField name="TALHAO" type="string"></SimpleField>
	<SimpleField name="FAZENDA" type="string"></SimpleField>
	<SimpleField name="ZONA" type="string"></SimpleField>
	<SimpleField name="ID" type="float"></SimpleField>
	<SimpleField name="AREA_TOTAL" type="float"></SimpleField>
	<SimpleField name="FAZ_NOME" type="string"></SimpleField>
	<SimpleField name="CODE" type="string"></SimpleField>
</Schema>
<Folder><name>GITIRANA_TALHAO_1033_ID_444</name>
  <Placemark id="GITIRANA_TALHAO_1033_ID_444.1">
	<Style><LineStyle><color>ff0000ff</color></LineStyle><PolyStyle><fill>0</fill></PolyStyle></Style>
	<ExtendedData><SchemaData schemaUrl="#GITIRANA_TALHAO_1033_ID_444">
		<SimpleData name="TALHAO">1033</SimpleData>
		<SimpleData name="FAZENDA">2427</SimpleData>
		<SimpleData name="ZONA">1</SimpleData>
		<SimpleData name="ID">444</SimpleData>
		<SimpleData name="AREA_TOTAL">8.45</SimpleData>
		<SimpleData name="FAZ_NOME">GITIRANA</SimpleData>
		<SimpleData name="CODE"></SimpleData>
	</SchemaData></ExtendedData>
      <MultiGeometry><Polygon><outerBoundaryIs><LinearRing><coordinates>-36.1893511847501,-9.84786866879955,107.68906166777 -36.1893349198595,-9.84786404185919,107.68906166777 -36.1893179211887,-9.84789327865697,107.68906166777 -36.1893008715609,-9.84792212598998,107.68906166777 -36.1892902054469,-9.8479406037361,107.68906166777 -36.1890364180207,-9.84835431802161,107.68906166777 -36.1887307019025,-9.84882471932378,107.68906166777 -36.1884261736659,-9.84928024110848,107.68906166777 -36.1882792694864,-9.84950081287774,107.68906166777 -36.1880971496195,-9.84977428954446,107.68906166777 -36.1877958298619,-9.85020502681404,107.68906166777 -36.1875357459341,-9.8505669845306,107.68906166777 -36.1875166310333,-9.85059208179157,107.68906166777 -36.1875066665205,-9.85062181200767,107.68906166777 -36.1875057602612,-9.85065584443146,107.68906166777 -36.1875447942007,-9.85068716384894,107.68906166777 -36.1875742272274,-9.85070536788295,107.68906166777 -36.1876063545466,-9.85072176680448,107.68906166777 -36.187619993331,-9.85073015558286,107.68906166777 -36.1879290892262,-9.85086886672543,107.68906166777 -36.1883068223567,-9.85104972919168,107.68906166777 -36.1883385853125,-9.85106373239779,107.68906166777 -36.1883721225936,-9.85106772628528,107.68906166777 -36.1884071249438,-9.85106582878208,107.68906166777 -36.1884430976506,-9.85107076012091,107.68906166777 -36.1884704096708,-9.85107627275276,107.68906166777 -36.188505513482,-9.8510879721944,107.68906166777 -36.1885268424479,-9.85109735032022,107.68906166777 -36.1885730403531,-9.85112362581358,107.68906166777 -36.1886178990557,-9.85115150513868,107.68906166777 -36.1886614939695,-9.85117971612548,107.68906166777 -36.1887072946289,-9.85121060321543,107.68906166777 -36.1887518318723,-9.85124283329531,107.68906166777 -36.1887941335297,-9.85127295214544,107.68906166777 -36.1888319677832,-9.85129973321113,107.68906166777 -36.1888716167102,-9.85133259560966,107.68906166777 -36.1889139660669,-9.85136918533807,107.68906166777 -36.1889526291115,-9.85140728916449,107.68906166777 -36.1889904787438,-9.8514475848156,107.68906166777 -36.1890270356646,-9.85148584202744,107.68906166777 -36.1890680248444,-9.85153816415875,107.68906166777 -36.1890885353291,-9.85157076846541,107.68906166777 -36.1891124593613,-9.85161523019032,107.68906166777 -36.1891343651331,-9.85167285745009,107.68906166777 -36.1891476118779,-9.8517067569512,107.68906166777 -36.1891654013641,-9.85176374944144,107.68906166777 -36.1891791010952,-9.85181130269322,107.68906166777 -36.1891962429587,-9.85185861451678,107.68906166777 -36.1892146083982,-9.85190379282268,107.68906166777 -36.1892359627632,-9.85194985906875,107.68906166777 -36.1892584462005,-9.85199294791787,107.68906166777 -36.1892895420646,-9.85203332185195,107.68906166777 -36.1893270853087,-9.85206793394599,107.68906166777 -36.1893685249371,-9.8520947609038,107.68906166777 -36.1894121380451,-9.85210978448406,107.68906166777 -36.1894528292581,-9.85212267011942,107.68906166777 -36.1895011785938,-9.85211971966443,107.68906166777 -36.1896123491014,-9.85209792709329,107.68906166777 -36.1896417193047,-9.85208345232026,107.68906166777 -36.1896783779589,-9.85205152552685,107.68906166777 -36.189706389516,-9.85201340666894,107.68906166777 -36.189732298608,-9.85197194570394,107.68906166777 -36.1897551298704,-9.85192691587537,107.68906166777 -36.1897701622102,-9.85187701642425,107.68906166777 -36.1897824800497,-9.85182745186427,107.68906166777 -36.1897902484827,-9.85177580165226,107.68906166777 -36.1897974072941,-9.851724399879,107.68906166777 -36.1898048710652,-9.85167302754957,107.68906166777 -36.1898112782462,-9.85162080860361,107.68906166777 -36.1898165989396,-9.85156768426934,107.68906166777 -36.1898198166915,-9.8515137736286,107.68906166777 -36.1898230010521,-9.85146064617393,107.68906166777 -36.1898252781252,-9.85140723650525,107.68906166777 -36.1898266632341,-9.85135449154871,107.68906166777 -36.1898274243768,-9.85129965021861,107.68906166777 -36.1898292017256,-9.85124600542951,107.68906166777 -36.1898328711629,-9.85119064261144,107.68906166777 -36.1898381984207,-9.85113575690016,107.68906166777 -36.189846870385,-9.85108185288531,107.68906166777 -36.1898558264961,-9.85102753670628,107.68906166777 -36.1898663107795,-9.85097459045845,107.68906166777 -36.1898776402579,-9.85092218459481,107.68906166777 -36.1898910530746,-9.85086934340198,107.68906166777 -36.1899058170782,-9.8508184540722,107.68906166777 -36.1899235867042,-9.85076724577331,107.68906166777 -36.1899399899303,-9.85071792739533,107.68906166777 -36.1899556251582,-9.85066511620746,107.68906166777 -36.189988955773,-9.85054225540931,107.68906166777 -36.1899999088329,-9.85050961860556,107.68906166777 -36.1900140341295,-9.85045622031036,107.68906166777 -36.1900381976211,-9.85035416416856,107.68906166777 -36.1900448444135,-9.85032529852871,107.68906166777 -36.1900584667896,-9.85027056783372,107.68906166777 -36.1900749356412,-9.85021643094297,107.68906166777 -36.1900916206029,-9.85016169199365,107.68906166777 -36.1901096624093,-9.85010937700547,107.68906166777 -36.1901275140519,-9.85005659757488,107.68906166777 -36.1901445724489,-9.85000408931927,107.68906166777 -36.1901645801188,-9.84995277894254,107.68906166777 -36.1901827832027,-9.84990064625042,107.68906166777 -36.1902089987669,-9.84983757430018,107.68906166777 -36.1902318726532,-9.84978700341064,107.68906166777 -36.190255602613,-9.84973727608617,107.68906166777 -36.1902804255313,-9.84968912213651,107.68906166777 -36.1903038960431,-9.84964573832263,107.68906166777 -36.1903348296667,-9.84959912805938,107.68906166777 -36.1903639761482,-9.84955386574447,107.68906166777 -36.1903933046971,-9.8495084563901,107.68906166777 -36.1904218599356,-9.84946191888525,107.68906166777 -36.1904476624015,-9.84941571060541,107.68906166777 -36.1904725398806,-9.84936984040132,107.68906166777 -36.1904991563586,-9.84932527273955,107.68906166777 -36.1905248947589,-9.84927957411782,107.68906166777 -36.1905505908114,-9.84923457134165,107.68906166777 -36.1905717250537,-9.84918778235669,107.68906166777 -36.1905910911148,-9.84913948068637,107.68906166777 -36.1906108002518,-9.84909213760298,107.68906166777 -36.1906303384219,-9.84904536572187,107.68906166777 -36.1906488761296,-9.84899842487555,107.68906166777 -36.1906653565311,-9.84895264636283,107.68906166777 -36.1906980625795,-9.84888889251198,107.68906166777 -36.1907110873225,-9.84884122120302,107.68906166777 -36.1907315082824,-9.84879268489783,107.68906166777 -36.1907490209238,-9.84874537849372,107.68906166777 -36.1907666668531,-9.84869827438662,107.68906166777 -36.1907855242429,-9.84865523114275,107.68906166777 -36.1908032194842,-9.84859993858058,107.68906166777 -36.1908124376946,-9.84855985538835,107.68906166777 -36.1908226932757,-9.8485269700117,107.68906166777 -36.1908324775784,-9.84849326545633,107.68906166777 -36.190840987778,-9.848460785183,107.68906166777 -36.1908450177091,-9.84842662346751,107.68906166777 -36.1908361732667,-9.8483933377533,107.68906166777 -36.190814180015,-9.84836812409276,107.68906166777 -36.1907808134503,-9.84835394292237,107.68906166777 -36.1907567342442,-9.8483452136809,107.68906166777 -36.1905027628315,-9.84826077265426,107.68906166777 -36.1900679658005,-9.8481129127766,107.68906166777 -36.1897013289688,-9.84798540282331,107.68906166777 -36.1894592554042,-9.84790247330331,107.68906166777 -36.1894238348409,-9.84789132120441,107.68906166777 -36.1893830262562,-9.84787896693889,107.68906166777 -36.1893511847501,-9.84786866879955,107.68906166777</coordinates></LinearRing></outerBoundaryIs></Polygon></MultiGeometry>
  </Placemark>
</Folder>
</Document></kml>
