<?xml version="1.0" encoding="utf-8" ?>
<kml xmlns="http://www.opengis.net/kml/2.2">
<Document id="root_doc">
<Schema name="GITIRANA_TALHAO_1012_ID_449" id="GITIRANA_TALHAO_1012_ID_449">
	<SimpleField name="TALHAO" type="string"></SimpleField>
	<SimpleField name="FAZENDA" type="string"></SimpleField>
	<SimpleField name="ZONA" type="string"></SimpleField>
	<SimpleField name="ID" type="float"></SimpleField>
	<SimpleField name="AREA_TOTAL" type="float"></SimpleField>
	<SimpleField name="FAZ_NOME" type="string"></SimpleField>
	<SimpleField name="CODE" type="string"></SimpleField>
</Schema>
<Folder><name>GITIRANA_TALHAO_1012_ID_449</name>
  <Placemark id="GITIRANA_TALHAO_1012_ID_449.1">
	<Style><LineStyle><color>ff0000ff</color></LineStyle><PolyStyle><fill>0</fill></PolyStyle></Style>
	<ExtendedData><SchemaData schemaUrl="#GITIRANA_TALHAO_1012_ID_449">
		<SimpleData name="TALHAO">1012</SimpleData>
		<SimpleData name="FAZENDA">2427</SimpleData>
		<SimpleData name="ZONA">1</SimpleData>
		<SimpleData name="ID">449</SimpleData>
		<SimpleData name="AREA_TOTAL">5.64</SimpleData>
		<SimpleData name="FAZ_NOME">GITIRANA</SimpleData>
		<SimpleData name="CODE"></SimpleData>
	</SchemaData></ExtendedData>
      <MultiGeometry><Polygon><outerBoundaryIs><LinearRing><coordinates>-36.1989184228904,-9.82145978336508,0 -36.19890731619,-9.82149467592249,0 -36.1987779359531,-9.82189617416137,0 -36.1986762609086,-9.82216673585404,0 -36.1985770294327,-9.82244933168194,0 -36.1984627081032,-9.82265651753154,0 -36.1982983700452,-9.82284589715407,0 -36.198113854501,-9.82299251406269,0 -36.1977913655421,-9.82317092774909,0 -36.1975431458692,-9.82330212450637,0 -36.1974025822409,-9.82339335734868,0 -36.1971576278805,-9.82356557441915,0 -36.1970311683881,-9.82363225668325,0 -36.196649803357,-9.82375656062949,0 -36.1963016237782,-9.82386280153028,0 -36.1960682029316,-9.82394538856799,0 -36.1957083790032,-9.82410921325323,0 -36.1954058717712,-9.82425152979188,0 -36.1952188720704,-9.82435606464703,0 -36.1950672749145,-9.8244568005637,0 -36.1950188399657,-9.82449903201949,0 -36.1951553138055,-9.82454286507037,0 -36.1951957998676,-9.82455696455236,0 -36.1956528438673,-9.82471233323301,0 -36.1960917585732,-9.82485845992757,0 -36.1964660864362,-9.82498438262078,0 -36.1968305038913,-9.82510297361171,0 -36.1971902705664,-9.82521847277653,0 -36.1975352296187,-9.82533115308427,0 -36.1978201987944,-9.82542233963274,0 -36.1978511748198,-9.82535575321774,0 -36.198010361967,-9.82488796654885,0 -36.1982327562414,-9.82423422555713,0 -36.1984792580574,-9.82351602690347,0 -36.1986336008153,-9.8230538831213,0 -36.1989975782289,-9.82195706570481,0 -36.1992086358906,-9.82130766933732,0 -36.1990010577101,-9.82140339765786,0 -36.1989184228904,-9.82145978336508,0</coordinates></LinearRing></outerBoundaryIs></Polygon></MultiGeometry>
  </Placemark>
</Folder>
</Document></kml>
