<?xml version="1.0" encoding="utf-8" ?>
<kml xmlns="http://www.opengis.net/kml/2.2">
<Document id="root_doc">
<Schema name="GITIRANA_TALHAO_1037_ID_455" id="GITIRANA_TALHAO_1037_ID_455">
	<SimpleField name="TALHAO" type="string"></SimpleField>
	<SimpleField name="FAZENDA" type="string"></SimpleField>
	<SimpleField name="ZONA" type="string"></SimpleField>
	<SimpleField name="ID" type="float"></SimpleField>
	<SimpleField name="AREA_TOTAL" type="float"></SimpleField>
	<SimpleField name="FAZ_NOME" type="string"></SimpleField>
	<SimpleField name="CODE" type="string"></SimpleField>
</Schema>
<Folder><name>GITIRANA_TALHAO_1037_ID_455</name>
  <Placemark id="GITIRANA_TALHAO_1037_ID_455.1">
	<Style><LineStyle><color>ff0000ff</color></LineStyle><PolyStyle><fill>0</fill></PolyStyle></Style>
	<ExtendedData><SchemaData schemaUrl="#GITIRANA_TALHAO_1037_ID_455">
		<SimpleData name="TALHAO">1037</SimpleData>
		<SimpleData name="FAZENDA">2427</SimpleData>
		<SimpleData name="ZONA">1</SimpleData>
		<SimpleData name="ID">455</SimpleData>
		<SimpleData name="AREA_TOTAL">8.17</SimpleData>
		<SimpleData name="FAZ_NOME">GITIRANA</SimpleData>
		<SimpleData name="CODE"></SimpleData>
	</SchemaData></ExtendedData>
      <MultiGeometry><Polygon><outerBoundaryIs><LinearRing><coordinates>-36.1847343152566,-9.85415766004149,106.469797438942 -36.1846637919092,-9.85412617520582,106.469797438942 -36.1845745416382,-9.85407669841306,106.469797438942 -36.1837063012417,-9.85365274063715,106.469797438942 -36.1826954349963,-9.8531574688134,106.469797438942 -36.1819499856312,-9.85278836110541,106.469797438942 -36.1814836439247,-9.85256329723663,106.469797438942 -36.1814201867152,-9.85252958462621,106.469797438942 -36.1813821171334,-9.85257904050373,106.469797438942 -36.1812773124493,-9.85272171536261,106.469797438942 -36.1812286727318,-9.8528117152582,106.469797438942 -36.1811881328569,-9.85291163731117,106.469797438942 -36.1811626445681,-9.85301600166034,106.469797438942 -36.1811120956418,-9.85342086648816,106.469797438942 -36.1810522282906,-9.85395770688777,106.469797438942 -36.1809963073556,-9.85443194652705,106.469797438942 -36.1809916224883,-9.8544756853502,106.469797438942 -36.1809871216175,-9.85451766668533,106.469797438942 -36.1809816233165,-9.85456006571137,106.469797438942 -36.1809940657136,-9.85458266196764,106.469797438942 -36.1810282954159,-9.85460118421041,106.469797438942 -36.1810646037336,-9.8546199906887,106.469797438942 -36.1811040530929,-9.85463851429643,106.469797438942 -36.1811448158278,-9.85465928688973,106.469797438942 -36.1811639213665,-9.85466541517216,106.469797438942 -36.1816263816225,-9.85488901971985,106.469797438942 -36.1820712816216,-9.85511016284406,106.469797438942 -36.1829086732708,-9.85550687995197,106.469797438942 -36.183134400596,-9.85562721028476,106.469797438942 -36.1833641122131,-9.85572436699036,106.469797438942 -36.1833893249701,-9.85573710165432,106.469797438942 -36.1834299358056,-9.85575522085286,106.469797438942 -36.1834698618451,-9.85577337097724,106.469797438942 -36.1834980089844,-9.8557623644621,106.469797438942 -36.1835263962007,-9.85572528578424,106.469797438942 -36.1835550324504,-9.85568900517719,106.469797438942 -36.1835835801917,-9.85565290050394,106.469797438942 -36.183612556163,-9.85561555962175,106.469797438942 -36.1837025860776,-9.85550361282233,106.469797438942 -36.1839953135003,-9.85511991297392,106.469797438942 -36.1843626366236,-9.85464124329563,106.469797438942 -36.1846815848721,-9.85423231213908,106.469797438942 -36.1847343152566,-9.85415766004149,106.469797438942</coordinates></LinearRing></outerBoundaryIs></Polygon></MultiGeometry>
  </Placemark>
</Folder>
</Document></kml>
