<?xml version="1.0" encoding="utf-8" ?>
<kml xmlns="http://www.opengis.net/kml/2.2">
<Document id="root_doc">
<Schema name="GITIRANA_TALHAO_1036_ID_465" id="GITIRANA_TALHAO_1036_ID_465">
	<SimpleField name="TALHAO" type="string"></SimpleField>
	<SimpleField name="FAZENDA" type="string"></SimpleField>
	<SimpleField name="ZONA" type="string"></SimpleField>
	<SimpleField name="ID" type="float"></SimpleField>
	<SimpleField name="AREA_TOTAL" type="float"></SimpleField>
	<SimpleField name="FAZ_NOME" type="string"></SimpleField>
	<SimpleField name="CODE" type="string"></SimpleField>
</Schema>
<Folder><name>GITIRANA_TALHAO_1036_ID_465</name>
  <Placemark id="GITIRANA_TALHAO_1036_ID_465.1">
	<Style><LineStyle><color>ff0000ff</color></LineStyle><PolyStyle><fill>0</fill></PolyStyle></Style>
	<ExtendedData><SchemaData schemaUrl="#GITIRANA_TALHAO_1036_ID_465">
		<SimpleData name="TALHAO">1036</SimpleData>
		<SimpleData name="FAZENDA">2427</SimpleData>
		<SimpleData name="ZONA">1</SimpleData>
		<SimpleData name="ID">465</SimpleData>
		<SimpleData name="AREA_TOTAL">0.46</SimpleData>
		<SimpleData name="FAZ_NOME">GITIRANA</SimpleData>
		<SimpleData name="CODE"></SimpleData>
	</SchemaData></ExtendedData>
      <MultiGeometry><Polygon><outerBoundaryIs><LinearRing><coordinates>-36.1837185441659,-9.8514344272526,106.460541087203 -36.1836966915456,-9.8514195834939,106.460541087203 -36.1836550383362,-9.85141398902397,106.460541087203 -36.1836129058883,-9.85140889532188,106.460541087203 -36.1835334769576,-9.85140088724741,106.460541087203 -36.1834928021643,-9.85139407624301,106.460541087203 -36.1834488697012,-9.85138605001816,106.460541087203 -36.1834029263306,-9.8513764390829,106.460541087203 -36.1833591149444,-9.85136562559373,106.460541087203 -36.1833136966132,-9.85135221760775,106.460541087203 -36.1832694711453,-9.85134198046056,106.460541087203 -36.183224992564,-9.85133080822503,106.460541087203 -36.1831813394637,-9.85132085532696,106.460541087203 -36.1831372269197,-9.85131000938972,106.460541087203 -36.1830933516593,-9.85129976707247,106.460541087203 -36.1830513231965,-9.85128956526316,106.460541087203 -36.1830094691807,-9.85127736943026,106.460541087203 -36.1829678026022,-9.85126560753658,106.460541087203 -36.1829267826012,-9.85125437913673,106.460541087203 -36.1828850926233,-9.85124628785199,106.460541087203 -36.1828413327316,-9.85123921392942,106.460541087203 -36.1827979990585,-9.85123623297676,106.460541087203 -36.18275360977,-9.85123733760462,106.460541087203 -36.1827087710768,-9.85124257519058,106.460541087203 -36.1826646940015,-9.85125101333801,106.460541087203 -36.1826235382418,-9.85126268026816,106.460541087203 -36.182582286667,-9.85127509913932,106.460541087203 -36.1825316830471,-9.85129748949459,106.460541087203 -36.182502068303,-9.85131318105478,106.460541087203 -36.1824564780407,-9.85134231347909,106.460541087203 -36.1824209871178,-9.8513675906867,106.460541087203 -36.1823859756401,-9.85139371286257,106.460541087203 -36.1823508548719,-9.85141976022635,106.460541087203 -36.1823154593146,-9.85144334848984,106.460541087203 -36.182281515369,-9.85147040437953,106.460541087203 -36.1822492131176,-9.85149851871828,106.460541087203 -36.1822143490155,-9.85152390652151,106.460541087203 -36.1821804626902,-9.85155288240561,106.460541087203 -36.1821454201113,-9.8515790113015,106.460541087203 -36.1821110332339,-9.85160225675194,106.460541087203 -36.1820759759085,-9.85162770017943,106.460541087203 -36.1820445044582,-9.85165882312359,106.460541087203 -36.1820118277081,-9.85169046972464,106.460541087203 -36.1819808152914,-9.85172438392978,106.460541087203 -36.1819489332313,-9.85175912665328,106.460541087203 -36.1819162152216,-9.85179466341311,106.460541087203 -36.1818949118764,-9.85182296220768,106.460541087203 -36.1818767230372,-9.85184876314763,106.460541087203 -36.1816585368093,-9.85209995352399,106.460541087203 -36.1815049340517,-9.8522728756134,106.460541087203 -36.1814805918053,-9.85230429654707,106.460541087203 -36.1814551577645,-9.85234021215065,106.460541087203 -36.1814309901437,-9.85237415174637,106.460541087203 -36.1814164418058,-9.85240516324679,106.460541087203 -36.1814290634929,-9.85242420476076,106.460541087203 -36.1814514795012,-9.85242480722703,106.460541087203 -36.1814795015764,-9.85239897235889,106.460541087203 -36.1814893655295,-9.85238471839868,106.460541087203 -36.1816511647015,-9.85219900585296,106.460541087203 -36.1816836721484,-9.85216768024263,106.460541087203 -36.1817150452191,-9.85213783967308,106.460541087203 -36.1817460408538,-9.85210689337755,106.460541087203 -36.181775445478,-9.85207322814347,106.460541087203 -36.1818046640879,-9.85204104153527,106.460541087203 -36.1818359928019,-9.85201222424693,106.460541087203 -36.181865139279,-9.85197921135219,106.460541087203 -36.1818977178865,-9.85194870794813,106.460541087203 -36.1819286514346,-9.85191733387575,106.460541087203 -36.1819613418124,-9.85188664548427,106.460541087203 -36.1819926716032,-9.85185763720384,106.460541087203 -36.1820241732368,-9.85182737524556,106.460541087203 -36.1820580109025,-9.85179977926592,106.460541087203 -36.1820889071168,-9.85176851160396,106.460541087203 -36.1821222691205,-9.85174117602664,106.460541087203 -36.1821590028177,-9.85171296930622,106.460541087203 -36.1821928561907,-9.85168351485348,106.460541087203 -36.182230020736,-9.85165552275661,106.460541087203 -36.182266360935,-9.85162601158829,106.460541087203 -36.1823030317321,-9.85159822564533,106.460541087203 -36.1823416457688,-9.85157372882334,106.460541087203 -36.182378234163,-9.85154760455868,106.460541087203 -36.1824154796635,-9.8515228431415,106.460541087203 -36.1824553586062,-9.85150104443678,106.460541087203 -36.1824946688191,-9.85148068081189,106.460541087203 -36.1825354078773,-9.8514648190114,106.460541087203 -36.1825883817348,-9.85144856796418,106.460541087203 -36.1826343207993,-9.85143647072021,106.460541087203 -36.1826816837748,-9.85142728650693,106.460541087203 -36.1827338878815,-9.85142835058793,106.460541087203 -36.1827812373556,-9.85143714951596,106.460541087203 -36.1828213471195,-9.85144322663049,106.460541087203 -36.1828253065561,-9.85144576694678,106.460541087203 -36.1828594892289,-9.85145711274459,106.460541087203 -36.1829036130831,-9.85147078522827,106.460541087203 -36.1829498652913,-9.85148393960772,106.460541087203 -36.1829921829034,-9.85150133686177,106.460541087203 -36.1830492753157,-9.8515198257798,106.460541087203 -36.1830812594318,-9.85153018634314,106.460541087203 -36.1831255873846,-9.85154318614057,106.460541087203 -36.1831827430009,-9.85156138222835,106.460541087203 -36.1832254966269,-9.85157292341366,106.460541087203 -36.1832664525637,-9.85158455735837,106.460541087203 -36.1833082097029,-9.85159458059107,106.460541087203 -36.183350855771,-9.85160179932909,106.460541087203 -36.183393829628,-9.85160721014441,106.460541087203 -36.1834373972998,-9.85160688692439,106.460541087203 -36.1834788807641,-9.85160189435936,106.460541087203 -36.1835191834712,-9.85159015821024,106.460541087203 -36.183557181203,-9.85157244836523,106.460541087203 -36.183592386799,-9.85154935888103,106.460541087203 -36.1836258647848,-9.85152385757062,106.460541087203 -36.1836586097877,-9.85149281459646,106.460541087203 -36.1836910564403,-9.85146625231673,106.460541087203 -36.1837185441659,-9.8514344272526,106.460541087203</coordinates></LinearRing></outerBoundaryIs></Polygon></MultiGeometry>
  </Placemark>
</Folder>
</Document></kml>
