<?xml version="1.0" encoding="utf-8" ?>
<kml xmlns="http://www.opengis.net/kml/2.2">
<Document id="root_doc">
<Schema name="GITIRANA_TALHAO_1040_ID_458" id="GITIRANA_TALHAO_1040_ID_458">
	<SimpleField name="TALHAO" type="string"></SimpleField>
	<SimpleField name="FAZENDA" type="string"></SimpleField>
	<SimpleField name="ZONA" type="string"></SimpleField>
	<SimpleField name="ID" type="float"></SimpleField>
	<SimpleField name="AREA_TOTAL" type="float"></SimpleField>
	<SimpleField name="FAZ_NOME" type="string"></SimpleField>
	<SimpleField name="CODE" type="string"></SimpleField>
</Schema>
<Folder><name>GITIRANA_TALHAO_1040_ID_458</name>
  <Placemark id="GITIRANA_TALHAO_1040_ID_458.1">
	<Style><LineStyle><color>ff0000ff</color></LineStyle><PolyStyle><fill>0</fill></PolyStyle></Style>
	<ExtendedData><SchemaData schemaUrl="#GITIRANA_TALHAO_1040_ID_458">
		<SimpleData name="TALHAO">1040</SimpleData>
		<SimpleData name="FAZENDA">2427</SimpleData>
		<SimpleData name="ZONA">1</SimpleData>
		<SimpleData name="ID">458</SimpleData>
		<SimpleData name="AREA_TOTAL">7.02</SimpleData>
		<SimpleData name="FAZ_NOME">GITIRANA</SimpleData>
		<SimpleData name="CODE"></SimpleData>
	</SchemaData></ExtendedData>
      <MultiGeometry><Polygon><outerBoundaryIs><LinearRing><coordinates>-36.1830817608406,-9.86014839844598,105.105310609564 -36.1830713139782,-9.86023005671992,105.105310609564 -36.1830634127366,-9.86030363937825,105.105310609564 -36.1830264784684,-9.86069187068154,105.105310609564 -36.1829702163087,-9.86118830232284,105.105310609564 -36.1829275040464,-9.86159202910225,105.105310609564 -36.1829047755961,-9.86182500965819,105.105310609564 -36.1828995059674,-9.86186673770568,105.105310609564 -36.1828907021111,-9.86190712570521,105.105310609564 -36.1828841385051,-9.86194925255595,105.105310609564 -36.1828746560684,-9.86198892094063,105.105310609564 -36.1828608160616,-9.86202863543337,105.105310609564 -36.1828510102952,-9.86206868530452,105.105310609564 -36.1828406521339,-9.8621115480446,105.105310609564 -36.1828333457299,-9.86215212363631,105.105310609564 -36.1828267459549,-9.86219192607208,105.105310609564 -36.182836165981,-9.86222832010682,105.105310609564 -36.182861445062,-9.86225298371713,105.105310609564 -36.1828953566764,-9.86227161846948,105.105310609564 -36.1829199959416,-9.86228064934977,105.105310609564 -36.1833268601026,-9.86247284797465,105.105310609564 -36.1838022855197,-9.86270787595489,105.105310609564 -36.1843013304167,-9.86294371096604,105.105310609564 -36.1847762120304,-9.86316901624272,105.105310609564 -36.1852208894063,-9.86339578378151,105.105310609564 -36.185279344553,-9.86342093021965,105.105310609564 -36.1853297270167,-9.86343779306395,105.105310609564 -36.1853771630389,-9.86345065242988,105.105310609564 -36.1854241424611,-9.86345691934988,105.105310609564 -36.1854786599678,-9.86344058677588,105.105310609564 -36.1854895882508,-9.86341667811864,105.105310609564 -36.1855204193841,-9.86334335386893,105.105310609564 -36.1855519217766,-9.86321547219733,105.105310609564 -36.1855829436847,-9.8630891812761,105.105310609564 -36.1856005523946,-9.86301739161866,105.105310609564 -36.1856151657221,-9.86292811033896,105.105310609564 -36.1856390838387,-9.86276703579781,105.105310609564 -36.1856609553772,-9.86270487591629,105.105310609564 -36.1856901908442,-9.86264699626759,105.105310609564 -36.1857137282159,-9.86259572958096,105.105310609564 -36.1857341708666,-9.8625416475679,105.105310609564 -36.1857429116865,-9.86248257717247,105.105310609564 -36.1857462186248,-9.86240572412985,105.105310609564 -36.1857366451018,-9.86232546731183,105.105310609564 -36.1857260952523,-9.86227868314538,105.105310609564 -36.1856922621799,-9.86213004520761,105.105310609564 -36.1856677295809,-9.86204233008822,105.105310609564 -36.1856365765734,-9.86195242877418,105.105310609564 -36.1856049250468,-9.86187353661576,105.105310609564 -36.1855630933678,-9.86178864085178,105.105310609564 -36.1855142070442,-9.86170424058022,105.105310609564 -36.1854196461544,-9.86153150524914,105.105310609564 -36.1853963479014,-9.86148992842407,105.105310609564 -36.1853715402365,-9.86144877766701,105.105310609564 -36.1853481599593,-9.86140608571523,105.105310609564 -36.1853229328527,-9.86136293179801,105.105310609564 -36.1853056145423,-9.86132327237786,105.105310609564 -36.1852482290732,-9.86122842955263,105.105310609564 -36.1852171527616,-9.86118492495963,105.105310609564 -36.1851745568796,-9.86115587360774,105.105310609564 -36.1851038283068,-9.86112367869704,105.105310609564 -36.1847622794218,-9.86095773191846,105.105310609564 -36.1842431041626,-9.86070414631337,105.105310609564 -36.1837552116565,-9.86046794906852,105.105310609564 -36.1832312224214,-9.86021751081995,105.105310609564 -36.1831556730685,-9.86017982110619,105.105310609564 -36.1830817608406,-9.86014839844598,105.105310609564</coordinates></LinearRing></outerBoundaryIs></Polygon></MultiGeometry>
  </Placemark>
</Folder>
</Document></kml>
