<?xml version="1.0" encoding="UTF-8"?>
<kml xmlns="http://www.opengis.net/kml/2.2" xmlns:gx="http://www.google.com/kml/ext/2.2" xmlns:kml="http://www.opengis.net/kml/2.2" xmlns:atom="http://www.w3.org/2005/Atom">
<Document>
  <name>1015.kml</name>
  <StyleMap id="FFFF4000">
    <Pair>
      <key>normal</key>
      <styleUrl>#s_FFFF4000</styleUrl>
    </Pair>
    <Pair>
      <key>highlight</key>
      <styleUrl>#s_FFFF4000_hl</styleUrl>
    </Pair>
  </StyleMap>
  <Style id="s_FFFF4000">
   <IconStyle>
      <scale>1.1</scale>
      <Icon>
        <href>http://maps.google.com/mapfiles/kml/pushpin/agrocad.png</href>
      </Icon>
      <hotSpot x="20" y="2" xunits="pixels" yunits="pixels"/>
    </IconStyle>
    <LineStyle>
      <color>FFFF4000</color>
      <width>1</width>
    </LineStyle>
    <PolyStyle>
      <color>40ffffff</color>
      <fill>1</fill>
    </PolyStyle>
  </Style>
  <Style id="s_FFFF4000_hl">
    <IconStyle>
      <scale>1.3</scale>
      <Icon>
        <href>http://maps.google.com/mapfiles/kml/pushpin/agrocad.png</href>
      </Icon>
      <hotSpot x="20" y="2" xunits="pixels" yunits="pixels"/>
    </IconStyle>
    <LineStyle>
      <color>ff000000</color>
      <width>1</width>
    </LineStyle>
    <PolyStyle>
      <color>40ffffff</color>
      <fill>1</fill>
    </PolyStyle>
  </Style>
  <Placemark>
    <name>AgroCAD: 92E8</name>
    <styleUrl>FFFF4000</styleUrl>
    <Polygon>
      <outerBoundaryIs>
        <LinearRing>
          <coordinates>
           -36.30631114944765,-9.78062701859697 -36.30791302057291,-9.77916721630534 -36.31027756830937,-9.77700811407654 -36.31020955190147,-9.77701257940905 -36.30811596900664,-9.77682867212206 -36.30549590891619,-9.77660257939058 -36.30394471156940,-9.77646648914589 -36.30382628171311,-9.77645550990466 -36.30513476833471,-9.78000006944071 -36.30533077145769,-9.78002588797433 -36.30557467069667,-9.78010596381206 -36.30569376648420,-9.78016945874307 -36.30582078916095,-9.78027765751795 -36.30595998625160,-9.78042607053489 -36.30606726331693,-9.78053981124260 -36.30611421162603,-9.78057116914237 -36.30616782808996,-9.78059204774147 -36.30625501700448,-9.78061826048203 -36.30631114944765,-9.78062701859697
          </coordinates>
        </LinearRing>
      </outerBoundaryIs>
    </Polygon>
  </Placemark>
  <Placemark>
    <name>AgroCAD: 92E7</name>
    <styleUrl>FFFF4000</styleUrl>
    <Polygon>
      <outerBoundaryIs>
        <LinearRing>
          <coordinates>
           -36.30378610737468,-9.77645178546499 -36.30509398523979,-9.77999469726867 -36.30500632843936,-9.77998315061956 -36.30454411411339,-9.77992460759239 -36.30447850848300,-9.77990711046115 -36.30443358627554,-9.77988722679722 -36.30438975825192,-9.77985231455199 -36.30436086450178,-9.77980928097469 -36.30434773087597,-9.77975678625805 -36.30434024276759,-9.77968455174618 -36.30429877314721,-9.77931111092908 -36.30427078793795,-9.77925218326846 -36.30421808701482,-9.77920694557555 -36.30415679297247,-9.77917484416713 -36.30409441926465,-9.77916185249101 -36.30396441694061,-9.77918225024625 -36.30389574925527,-9.77920533760098 -36.30381777074842,-9.77925017559643 -36.30357988019476,-9.77947908055426 -36.30352626924686,-9.77953344685448 -36.30347033636143,-9.77957223727477 -36.30338490837590,-9.77961423348855 -36.30330242971947,-9.77963839545480 -36.30320616155886,-9.77964596293422 -36.30297491889979,-9.77963580703697 -36.30282759146121,-9.77961997084990 -36.30272033952447,-9.77959462415116 -36.30239616393356,-9.77948381020019 -36.30216284343252,-9.77940988497562 -36.30209057878908,-9.77939278658723 -36.30170072007214,-9.77930401210205 -36.30145235041024,-9.77923940577210 -36.30135326173019,-9.77919747302663 -36.30130402025907,-9.77916334607760 -36.30125676250798,-9.77910283976701 -36.30122043027532,-9.77902843912356 -36.30119755109639,-9.77897130700123 -36.30118613013885,-9.77885555210407 -36.30115965053180,-9.77858615384410 -36.30114211427382,-9.77850338554475 -36.30105804673194,-9.77826383707276 -36.30098109409899,-9.77805091777699 -36.30094690497974,-9.77796911746591 -36.30083494178089,-9.77773579251744 -36.30080947365544,-9.77768086650355 -36.30079831363222,-9.77763346867642 -36.30078593522010,-9.77755906747587 -36.30078423832852,-9.77748942977181 -36.30079737825122,-9.77728207328647 -36.30083235891869,-9.77700972595372 -36.30084798924440,-9.77684501124019 -36.30084833602844,-9.77646421268851 -36.30085480173523,-9.77619230769244 -36.30164327722698,-9.77626288641343 -36.30347687276425,-9.77642311711496 -36.30378610737468,-9.77645178546499
          </coordinates>
        </LinearRing>
      </outerBoundaryIs>
    </Polygon>
  </Placemark>
</Document>
</kml>
