<?xml version="1.0" encoding="UTF-8"?>
<kml xmlns="http://www.opengis.net/kml/2.2" xmlns:gx="http://www.google.com/kml/ext/2.2" xmlns:kml="http://www.opengis.net/kml/2.2" xmlns:atom="http://www.w3.org/2005/Atom">
<Document>
  <name>1018.kml</name>
  <StyleMap id="FFFF4000">
    <Pair>
      <key>normal</key>
      <styleUrl>#s_FFFF4000</styleUrl>
    </Pair>
    <Pair>
      <key>highlight</key>
      <styleUrl>#s_FFFF4000_hl</styleUrl>
    </Pair>
  </StyleMap>
  <Style id="s_FFFF4000">
   <IconStyle>
      <scale>1.1</scale>
      <Icon>
        <href>http://maps.google.com/mapfiles/kml/pushpin/agrocad.png</href>
      </Icon>
      <hotSpot x="20" y="2" xunits="pixels" yunits="pixels"/>
    </IconStyle>
    <LineStyle>
      <color>FFFF4000</color>
      <width>1</width>
    </LineStyle>
    <PolyStyle>
      <color>40ffffff</color>
      <fill>1</fill>
    </PolyStyle>
  </Style>
  <Style id="s_FFFF4000_hl">
    <IconStyle>
      <scale>1.3</scale>
      <Icon>
        <href>http://maps.google.com/mapfiles/kml/pushpin/agrocad.png</href>
      </Icon>
      <hotSpot x="20" y="2" xunits="pixels" yunits="pixels"/>
    </IconStyle>
    <LineStyle>
      <color>ff000000</color>
      <width>1</width>
    </LineStyle>
    <PolyStyle>
      <color>40ffffff</color>
      <fill>1</fill>
    </PolyStyle>
  </Style>
  <Placemark>
    <name>AgroCAD: 92EF</name>
    <styleUrl>FFFF4000</styleUrl>
    <Polygon>
      <outerBoundaryIs>
        <LinearRing>
          <coordinates>
           -36.31320715007871,-9.77305751852873 -36.31320404545433,-9.77305527798547 -36.31320913890407,-9.77302398685909 -36.31323554144108,-9.77293920814646 -36.31348326838363,-9.77211210746946 -36.31350498410178,-9.77204489208540 -36.31351314902488,-9.77200924549910 -36.31352571996525,-9.77197536043627 -36.31354574316481,-9.77197189990672 -36.31356408268729,-9.77200101708985 -36.31357765421826,-9.77203033520632 -36.31358258297668,-9.77204118097118 -36.31398070440230,-9.77293000768861 -36.31400406404166,-9.77298563928175 -36.31404383774177,-9.77307130363298 -36.31403904473620,-9.77309817676857 -36.31320715007871,-9.77305751852873
          </coordinates>
        </LinearRing>
      </outerBoundaryIs>
    </Polygon>
  </Placemark>
  <Placemark>
    <name>AgroCAD: 92ED</name>
    <styleUrl>FFFF4000</styleUrl>
    <Polygon>
      <outerBoundaryIs>
        <LinearRing>
          <coordinates>
           -36.31109366005412,-9.76636977097848 -36.30783871888836,-9.76980101247982 -36.30789410995181,-9.76994557130133 -36.30844913110963,-9.77143952942470 -36.30885162976879,-9.77255288570123 -36.30892065181111,-9.77274296251520 -36.30893307759225,-9.77278274043698 -36.30894382691852,-9.77281625325141 -36.30895717431871,-9.77284854169204 -36.30895869518270,-9.77284984690322 -36.31306527070591,-9.77305058407694 -36.31306976201742,-9.77304927077661 -36.31307583907638,-9.77303065166477 -36.31308508156458,-9.77299525921213 -36.31310091047993,-9.77294906042635 -36.31311086378349,-9.77291656345484 -36.31336571456249,-9.77201624893044 -36.31336875457471,-9.77200214090372 -36.31337778015882,-9.77196627216344 -36.31339051140876,-9.77190210034759 -36.31340149231430,-9.77185079599685 -36.31341017987790,-9.77181291802767 -36.31341680072663,-9.77177697427946 -36.31342007619544,-9.77174169921982 -36.31342035716112,-9.77170670495838 -36.31341118092309,-9.77167065123393 -36.31339957767619,-9.77163630181943 -36.31337349747584,-9.77158531041385 -36.31332633341684,-9.77148354718459 -36.31252856064126,-9.76966119081577 -36.31173862779195,-9.76785017740528 -36.31109366005412,-9.76636977097848 -36.31109366005412,-9.76636977097848
          </coordinates>
        </LinearRing>
      </outerBoundaryIs>
    </Polygon>
  </Placemark>
</Document>
</kml>
