<?xml version="1.0" encoding="UTF-8"?>
<kml xmlns="http://www.opengis.net/kml/2.2" xmlns:gx="http://www.google.com/kml/ext/2.2" xmlns:kml="http://www.opengis.net/kml/2.2" xmlns:atom="http://www.w3.org/2005/Atom">
<Document>
  <name>1001.kml</name>
  <StyleMap id="FFFF4000">
    <Pair>
      <key>normal</key>
      <styleUrl>#s_FFFF4000</styleUrl>
    </Pair>
    <Pair>
      <key>highlight</key>
      <styleUrl>#s_FFFF4000_hl</styleUrl>
    </Pair>
  </StyleMap>
  <Style id="s_FFFF4000">
   <IconStyle>
      <scale>1.1</scale>
      <Icon>
        <href>http://maps.google.com/mapfiles/kml/pushpin/agrocad.png</href>
      </Icon>
      <hotSpot x="20" y="2" xunits="pixels" yunits="pixels"/>
    </IconStyle>
    <LineStyle>
      <color>FFFF4000</color>
      <width>1</width>
    </LineStyle>
    <PolyStyle>
      <color>40ffffff</color>
      <fill>1</fill>
    </PolyStyle>
  </Style>
  <Style id="s_FFFF4000_hl">
    <IconStyle>
      <scale>1.3</scale>
      <Icon>
        <href>http://maps.google.com/mapfiles/kml/pushpin/agrocad.png</href>
      </Icon>
      <hotSpot x="20" y="2" xunits="pixels" yunits="pixels"/>
    </IconStyle>
    <LineStyle>
      <color>ff000000</color>
      <width>1</width>
    </LineStyle>
    <PolyStyle>
      <color>40ffffff</color>
      <fill>1</fill>
    </PolyStyle>
  </Style>
  <Placemark>
    <name>AgroCAD: 90E6</name>
    <styleUrl>FFFF4000</styleUrl>
    <Polygon>
      <outerBoundaryIs>
        <LinearRing>
          <coordinates>
           -36.27818687100514,-9.79119159996601 -36.27821940810624,-9.79118837750478 -36.27823615123130,-9.79118701864737 -36.27824075826562,-9.79120496545441 -36.27824274808875,-9.79123899827327 -36.27824529029830,-9.79125472109079 -36.27837814309252,-9.79201658783469 -36.27838540869280,-9.79207977343705 -36.27834527341474,-9.79207741197671 -36.27830492350094,-9.79207310915726 -36.27826334320166,-9.79207316743360 -36.27821941326579,-9.79207854560216 -36.27817493472755,-9.79208282474792 -36.27813084114271,-9.79208836827372 -36.27808811199424,-9.79209884000200 -36.27804469739110,-9.79210539734192 -36.27799886793332,-9.79211422232504 -36.27795632942458,-9.79212466911665 -36.27791038922386,-9.79213283317175 -36.27786688103141,-9.79214530121141 -36.27782273417588,-9.79215590389184 -36.27778039555622,-9.79217226547892 -36.27773997752192,-9.79218991303308 -36.27769766645437,-9.79220665528178 -36.27765641784040,-9.79222358002738 -36.27761627917610,-9.79224234895316 -36.27757519627115,-9.79225911129589 -36.27753407091817,-9.79227471784750 -36.27747734843747,-9.79229493474541 -36.27744897275782,-9.79230423953923 -36.27740713368845,-9.79231531057175 -36.27734856645833,-9.79232665049714 -36.27730472997266,-9.79233299799264 -36.27726099767254,-9.79233854420665 -36.27721584885851,-9.79234450344572 -36.27718585443207,-9.79234877214056 -36.27712678475050,-9.79235194343019 -36.27708460549643,-9.79235316112910 -36.27704065431303,-9.79235704913241 -36.27699857495449,-9.79236008252667 -36.27698847382062,-9.79235987871518 -36.27694211405179,-9.79237197795416 -36.27690144337106,-9.79238026778877 -36.27685824945061,-9.79238739377191 -36.27681572293935,-9.79239489789069 -36.27677912089081,-9.79239903996597 -36.27673740060428,-9.79240724916406 -36.27669623030134,-9.79241312793339 -36.27665512014285,-9.79241601226689 -36.27661536568340,-9.79241566969591 -36.27657648050517,-9.79241538738297 -36.27653903315267,-9.79241198034933 -36.27650237428067,-9.79240378171059 -36.27646735146454,-9.79238761469282 -36.27643848478291,-9.79237391026961 -36.27642370242864,-9.79236940025362 -36.27637329130557,-9.79234870263649 -36.27633606266037,-9.79233423185614 -36.27629704829384,-9.79231782706932 -36.27625655026118,-9.79230259832622 -36.27621605611686,-9.79228714121297 -36.27617596882927,-9.79227483080379 -36.27613520366332,-9.79226319025796 -36.27609845701599,-9.79224666238437 -36.27605908463827,-9.79223034155070 -36.27602089315195,-9.79221231336922 -36.27598133624959,-9.79219775710771 -36.27594044421329,-9.79218173955470 -36.27589853714473,-9.79216475400643 -36.27585787317656,-9.79215098193925 -36.27581787060041,-9.79213513716391 -36.27577820533406,-9.79211969210513 -36.27573888628749,-9.79210468962699 -36.27569820113648,-9.79208771520124 -36.27565725680924,-9.79207059628490 -36.27561600418920,-9.79205474670178 -36.27557425007490,-9.79203840252323 -36.27553233568562,-9.79202108658987 -36.27549121276708,-9.79200140189894 -36.27545304662699,-9.79197768038437 -36.27541541146746,-9.79195275106985 -36.27537853426171,-9.79192891344800 -36.27533545023609,-9.79191026398667 -36.27529351762129,-9.79190578184977 -36.27525627762158,-9.79188947031681 -36.27522337163963,-9.79186467869822 -36.27519523535508,-9.79183603679085 -36.27518562448634,-9.79182715532960 -36.27517276892142,-9.79180882106728 -36.27513871508123,-9.79173711724294 -36.27511264076055,-9.79169525576529 -36.27509111745045,-9.79160285297176 -36.27512470228035,-9.79158536512191 -36.27516040904422,-9.79156907296758 -36.27520591786273,-9.79155117237039 -36.27525933251446,-9.79154133188292 -36.27554188960021,-9.79151917979663 -36.27589453638046,-9.79151153997662 -36.27601876688566,-9.79150346575734 -36.27618166204788,-9.79148256059144 -36.27818687100514,-9.79119159996601
          </coordinates>
        </LinearRing>
      </outerBoundaryIs>
    </Polygon>
  </Placemark>
  <Placemark>
    <name>AgroCAD: 90E5</name>
    <styleUrl>FFFF4000</styleUrl>
    <Polygon>
      <outerBoundaryIs>
        <LinearRing>
          <coordinates>
           -36.27826808623805,-9.79119953631477 -36.27826719098186,-9.79119209631318 -36.27864049790020,-9.79113026210214 -36.27884038363708,-9.79108201610947 -36.27888471429711,-9.79106774975084 -36.27893469096154,-9.79104831505188 -36.27898423077475,-9.79102382796731 -36.27903780290173,-9.79099832770606 -36.27908614837364,-9.79097015457747 -36.27912353072282,-9.79094703736590 -36.27917026139865,-9.79091424825888 -36.27921860115508,-9.79087889243758 -36.27927041529918,-9.79083793905837 -36.27931483342520,-9.79079841415922 -36.27936225563104,-9.79075571057085 -36.27939476356523,-9.79072608986291 -36.27942493935399,-9.79069488644389 -36.27951507133792,-9.79059717741634 -36.28024239961112,-9.78966357121923 -36.28120233102537,-9.78844500435187 -36.28121025766369,-9.78844908389044 -36.28122969506834,-9.78845908758059 -36.28125977956651,-9.78848149170146 -36.28127973890936,-9.78850635305159 -36.28130084832668,-9.78854381506428 -36.28130432990715,-9.78858065021067 -36.28130428947347,-9.78863997124381 -36.28131580477423,-9.78871513682291 -36.28134041507351,-9.78880556655257 -36.28136271815983,-9.78889530393113 -36.28137317782080,-9.78900283048034 -36.28136415064000,-9.78909779417182 -36.28134040941235,-9.78918841706738 -36.28131698396062,-9.78925905606384 -36.28128330612794,-9.78933621117975 -36.28123871859008,-9.78943826740391 -36.28119275389856,-9.78954129997582 -36.28115075249560,-9.78962905039349 -36.28111232899561,-9.78969820075102 -36.28107871102768,-9.78976526366792 -36.28104797016353,-9.78982546589835 -36.28101643809335,-9.78988291583095 -36.28097894474893,-9.78993078788293 -36.28092735259986,-9.78997503693817 -36.28087896716069,-9.79001699102215 -36.28083638088911,-9.79007363252704 -36.28079506443618,-9.79014845115917 -36.28074353307305,-9.79023588518475 -36.28069340331093,-9.79031470267976 -36.28062572955022,-9.79042628234653 -36.28059306196814,-9.79049738212830 -36.28056932538962,-9.79057585169116 -36.28056157902376,-9.79060231250844 -36.28054448713037,-9.79067829786090 -36.28053877960314,-9.79071481856363 -36.28053278297762,-9.79075750451248 -36.28053152636473,-9.79080049289743 -36.28053164386315,-9.79084319505667 -36.28053023245261,-9.79088520284021 -36.28052970026472,-9.79092838444932 -36.28052055144763,-9.79096996619275 -36.28050741519678,-9.79101122940204 -36.28049067634922,-9.79105170659118 -36.28047166129662,-9.79109126258405 -36.28045110771362,-9.79112948454104 -36.28042865029795,-9.79116546333544 -36.28040839401182,-9.79120287514621 -36.28038442536033,-9.79123901553202 -36.28036216059043,-9.79127652874738 -36.28034132470226,-9.79131489633355 -36.28032265807265,-9.79135077500278 -36.28030014006410,-9.79138697322539 -36.28028038648912,-9.79142600120372 -36.28025855132918,-9.79146572257952 -36.28024203607960,-9.79150463858281 -36.28022602843625,-9.79154616383888 -36.28020895701246,-9.79160177523813 -36.28019819228523,-9.79164334897149 -36.28018943860272,-9.79168468990626 -36.28018328259900,-9.79172651329755 -36.28017684269025,-9.79176845016994 -36.28017096944482,-9.79180977211629 -36.28016087711559,-9.79185049349640 -36.28014817774796,-9.79189212788575 -36.28013423272396,-9.79193316232043 -36.28011583409187,-9.79197304043181 -36.28009110902374,-9.79201055650337 -36.28006356580769,-9.79204407755176 -36.28003359838930,-9.79207540955036 -36.28000268029537,-9.79210357886811 -36.27996614530481,-9.79212839025352 -36.27992720748828,-9.79215071216986 -36.27988453819975,-9.79216728426138 -36.27984281222344,-9.79217781679948 -36.27979796549052,-9.79218715188723 -36.27975373027612,-9.79219262617060 -36.27970880520513,-9.79219564248747 -36.27966448378829,-9.79219907738338 -36.27961907679170,-9.79220238476886 -36.27957540818777,-9.79220679014227 -36.27952992456717,-9.79221102917495 -36.27949026977667,-9.79221903900178 -36.27944559703164,-9.79223050393715 -36.27940197181480,-9.79223952608907 -36.27936353441257,-9.79224831206597 -36.27932259284693,-9.79225929239529 -36.27927966555753,-9.79226948321823 -36.27923719291804,-9.79227925856611 -36.27919541990843,-9.79228622443426 -36.27915528264291,-9.79229055977450 -36.27911289715971,-9.79229337564633 -36.27906947892755,-9.79229406652946 -36.27902711098207,-9.79229506265794 -36.27898403305052,-9.79229242162369 -36.27894465283239,-9.79228503481315 -36.27890477280477,-9.79227277515420 -36.27886706288161,-9.79225099350394 -36.27883105344333,-9.79222728604589 -36.27878915473777,-9.79221071429057 -36.27874931709378,-9.79219120529798 -36.27870876214267,-9.79217331555155 -36.27866910786634,-9.79215588691557 -36.27862430982098,-9.79213893552768 -36.27857995911994,-9.79212528237240 -36.27853542461668,-9.79211311353198 -36.27849177983200,-9.79210158060280 -36.27842294140385,-9.79207774629231 -36.27826808623805,-9.79119953631477
          </coordinates>
        </LinearRing>
      </outerBoundaryIs>
    </Polygon>
  </Placemark>
  <Placemark>
    <name>AgroCAD: 90E7</name>
    <styleUrl>FFFF4000</styleUrl>
    <Polygon>
      <outerBoundaryIs>
        <LinearRing>
          <coordinates>
           -36.28123072532839,-9.78841195776276 -36.28325457231369,-9.78580567234311 -36.28356540812638,-9.78605698008553 -36.28359944605538,-9.78608676220725 -36.28363525374432,-9.78611407780735 -36.28367071783659,-9.78614380968700 -36.28370394809919,-9.78617472684077 -36.28373859222620,-9.78620494058350 -36.28377111544088,-9.78623561220090 -36.28379662598955,-9.78626148676956 -36.28380649840817,-9.78627060905525 -36.28385559385143,-9.78632397769324 -36.28387954395535,-9.78635908425406 -36.28388072234333,-9.78639599492603 -36.28387867594625,-9.78640625356492 -36.28387191958680,-9.78642061414833 -36.28385178321361,-9.78645255057360 -36.28382431684343,-9.78648412148408 -36.28379693389014,-9.78651869787254 -36.28377072875340,-9.78655367651151 -36.28374562079792,-9.78659038059475 -36.28371998251218,-9.78662595855360 -36.28369454128268,-9.78666273485861 -36.28367038445019,-9.78670112990716 -36.28364963062874,-9.78673948175821 -36.28363263441240,-9.78678117144105 -36.28362383686428,-9.78682344671860 -36.28362563137402,-9.78686542509768 -36.28364189591327,-9.78690401661719 -36.28366847574173,-9.78693905315060 -36.28369963721994,-9.78696906626534 -36.28373689661399,-9.78699262820403 -36.28377551991092,-9.78701122778406 -36.28381480565192,-9.78702797282305 -36.28385662350549,-9.78704079954744 -36.28389927453075,-9.78705389271832 -36.28394011693601,-9.78706840942538 -36.28398169774759,-9.78708517123324 -36.28402067268345,-9.78710733069749 -36.28406610529057,-9.78714538948157 -36.28409383693784,-9.78717838870471 -36.28411203948204,-9.78721726305602 -36.28411934752354,-9.78726019891516 -36.28411877401820,-9.78730423126879 -36.28410471539567,-9.78734452540217 -36.28408269089048,-9.78738239412718 -36.28405825351196,-9.78741818927187 -36.28403165409149,-9.78745323110086 -36.28400355742469,-9.78748901816903 -36.28397485121616,-9.78752453959312 -36.28394671092958,-9.78756118458552 -36.28392010301695,-9.78759631143657 -36.28389334705021,-9.78763157964943 -36.28386621049025,-9.78766226699162 -36.28383756275078,-9.78769484563231 -36.28380424688780,-9.78772227744745 -36.28377102765321,-9.78774953137233 -36.28373682797185,-9.78777563821760 -36.28370013765103,-9.78779737607058 -36.28366017501865,-9.78781424746001 -36.28361562175248,-9.78782673046709 -36.28357299598290,-9.78783457966666 -36.28352822660861,-9.78784113982168 -36.28348640335755,-9.78784590900221 -36.28344301168269,-9.78785042343541 -36.28339945513763,-9.78785487427133 -36.28335539183629,-9.78786040301103 -36.28331188329744,-9.78786687957239 -36.28327014664866,-9.78787442613914 -36.28322876126964,-9.78788372150378 -36.28318587148705,-9.78789476635996 -36.28314397242779,-9.78790946053626 -36.28310195032093,-9.78792474809177 -36.28306082178117,-9.78794257446568 -36.28302056493137,-9.78795978238099 -36.28297876303256,-9.78797849181414 -36.28293777127183,-9.78799328104814 -36.28289459345712,-9.78800660945019 -36.28284988834201,-9.78801666098420 -36.28280724328269,-9.78802335220839 -36.28276435922922,-9.78802168790342 -36.28272075775177,-9.78801526057988 -36.28267977984760,-9.78800503702342 -36.28263937594804,-9.78798917837183 -36.28260290063956,-9.78797238243110 -36.28257009073202,-9.78795536717812 -36.28255695169409,-9.78794668925773 -36.28251226098359,-9.78792277726378 -36.28249351224102,-9.78791577658670 -36.28246039691342,-9.78789820150992 -36.28243673364786,-9.78788392651328 -36.28216140357484,-9.78779257942885 -36.28211441026116,-9.78780041093008 -36.28207220715905,-9.78781354454584 -36.28203094619622,-9.78783073930817 -36.28198952138801,-9.78785169373293 -36.28195158923653,-9.78787688254289 -36.28191524139658,-9.78790708495498 -36.28188061508026,-9.78793968372674 -36.28184878692843,-9.78797340195592 -36.28181593086311,-9.78800633047904 -36.28178242942464,-9.78803897492493 -36.28174893508295,-9.78807126400757 -36.28170737307903,-9.78811473093903 -36.28168785564210,-9.78813733220149 -36.28165931906811,-9.78817038312261 -36.28163271425171,-9.78820502784789 -36.28159176004338,-9.78825094168646 -36.28157063336029,-9.78827232087563 -36.28152884335757,-9.78831570031212 -36.28149951874242,-9.78835438666847 -36.28146866007393,-9.78838969477251 -36.28143365602410,-9.78842173297966 -36.28139254015788,-9.78845105455622 -36.28135185442688,-9.78846867788838 -36.28130996760989,-9.78846909599754 -36.28129917086179,-9.78846770656347 -36.28125128728490,-9.78843374931490 -36.28123072532839,-9.78841195776276
          </coordinates>
        </LinearRing>
      </outerBoundaryIs>
    </Polygon>
  </Placemark>
</Document>
</kml>
