<?xml version="1.0" encoding="UTF-8"?>
<kml xmlns="http://www.opengis.net/kml/2.2" xmlns:gx="http://www.google.com/kml/ext/2.2" xmlns:kml="http://www.opengis.net/kml/2.2" xmlns:atom="http://www.w3.org/2005/Atom">
<Document>
  <name>1004.kml</name>
  <StyleMap id="FFFF4000">
    <Pair>
      <key>normal</key>
      <styleUrl>#s_FFFF4000</styleUrl>
    </Pair>
    <Pair>
      <key>highlight</key>
      <styleUrl>#s_FFFF4000_hl</styleUrl>
    </Pair>
  </StyleMap>
  <Style id="s_FFFF4000">
   <IconStyle>
      <scale>1.1</scale>
      <Icon>
        <href>http://maps.google.com/mapfiles/kml/pushpin/agrocad.png</href>
      </Icon>
      <hotSpot x="20" y="2" xunits="pixels" yunits="pixels"/>
    </IconStyle>
    <LineStyle>
      <color>FFFF4000</color>
      <width>1</width>
    </LineStyle>
    <PolyStyle>
      <color>40ffffff</color>
      <fill>1</fill>
    </PolyStyle>
  </Style>
  <Style id="s_FFFF4000_hl">
    <IconStyle>
      <scale>1.3</scale>
      <Icon>
        <href>http://maps.google.com/mapfiles/kml/pushpin/agrocad.png</href>
      </Icon>
      <hotSpot x="20" y="2" xunits="pixels" yunits="pixels"/>
    </IconStyle>
    <LineStyle>
      <color>ff000000</color>
      <width>1</width>
    </LineStyle>
    <PolyStyle>
      <color>40ffffff</color>
      <fill>1</fill>
    </PolyStyle>
  </Style>
  <Placemark>
    <name>AgroCAD: 8EF8</name>
    <styleUrl>FFFF4000</styleUrl>
    <Polygon>
      <outerBoundaryIs>
        <LinearRing>
          <coordinates>
           -36.28651151273351,-9.78328875696239 -36.28667944900759,-9.78355808659951 -36.28347651796615,-9.78545185878902 -36.28342260334763,-9.78549432412049 -36.28337760953386,-9.78555159781986 -36.28334825676510,-9.78559682833150 -36.28330517948920,-9.78555299615837 -36.28313232196252,-9.78537451013185 -36.28308808066839,-9.78531590288984 -36.28305584824155,-9.78523325548904 -36.28305511811861,-9.78516539148814 -36.28307501799409,-9.78505867964108 -36.28310664235169,-9.78497870888278 -36.28318642866479,-9.78486153579046 -36.28320431913446,-9.78483715792351 -36.28323984226739,-9.78479349701706 -36.28328302169602,-9.78473822456990 -36.28334638773925,-9.78466645491185 -36.28337824879716,-9.78463529157819 -36.28343988023499,-9.78457896910165 -36.28348931881954,-9.78453443682853 -36.28354316369988,-9.78449172471391 -36.28359875208281,-9.78444617313037 -36.28365502997954,-9.78440105550906 -36.28370674140266,-9.78436021899989 -36.28376973369191,-9.78430866062394 -36.28384033742542,-9.78425908367784 -36.28390979397891,-9.78421499948506 -36.28398751677281,-9.78417442968621 -36.28405469035454,-9.78414782590604 -36.28413010827936,-9.78412381123456 -36.28421477998639,-9.78409900058158 -36.28429598330406,-9.78407521254759 -36.28437864230207,-9.78405185531409 -36.28447150613177,-9.78402301281312 -36.28457402104206,-9.78398910687369 -36.28466801323344,-9.78395829794740 -36.28475229856020,-9.78393763030433 -36.28483457210208,-9.78392078282834 -36.28492951195589,-9.78390054633937 -36.28503772361282,-9.78388338733134 -36.28515526884513,-9.78386868718802 -36.28526338296557,-9.78385167617288 -36.28536288051353,-9.78383402801270 -36.28545545340093,-9.78380704955407 -36.28553327053684,-9.78377737658059 -36.28558460071011,-9.78375542030109 -36.28562161639786,-9.78373597114363 -36.28564529669540,-9.78372392323608 -36.28604884518011,-9.78346213368591 -36.28610459839112,-9.78343146705603 -36.28616380557472,-9.78339932506552 -36.28623121765245,-9.78336598073342 -36.28630536635319,-9.78333142850751 -36.28636946892387,-9.78330425187239 -36.28642658040031,-9.78328441657004 -36.28646810989512,-9.78327750781833 -36.28651151273351,-9.78328875696239
          </coordinates>
        </LinearRing>
      </outerBoundaryIs>
    </Polygon>
  </Placemark>
  <Placemark>
    <name>AgroCAD: 8EA6</name>
    <styleUrl>FFFF4000</styleUrl>
    <Polygon>
      <outerBoundaryIs>
        <LinearRing>
          <coordinates>
           -36.29051420168528,-9.77874014649377 -36.29082041283411,-9.78085716514028 -36.29003808381883,-9.78131975122109 -36.29015001697023,-9.78150600468410 -36.28671857382681,-9.78353495320901 -36.28653637132463,-9.78324274400219 -36.28654198075533,-9.78323608086384 -36.28659151966270,-9.78320367611332 -36.28668312226388,-9.78314948880658 -36.28678808284697,-9.78308163054204 -36.28688494624134,-9.78301941049923 -36.28698971867854,-9.78295172727293 -36.28709893486043,-9.78287102933307 -36.28720918264527,-9.78278451406778 -36.28731553675054,-9.78268970780819 -36.28741868572660,-9.78259998101706 -36.28752351189391,-9.78250208507617 -36.28761456168253,-9.78240772617746 -36.28776755682077,-9.78221072375636 -36.28782607471601,-9.78214205959121 -36.28791471093244,-9.78204237994610 -36.28796821953761,-9.78199155883419 -36.28808210918040,-9.78190224432310 -36.28816581806872,-9.78183836046097 -36.28824663631769,-9.78176778253356 -36.28832476078070,-9.78168926116744 -36.28840118433310,-9.78160733453711 -36.28847204073485,-9.78152251377786 -36.28854240453676,-9.78143076974885 -36.28861326459257,-9.78133503276979 -36.28867851481022,-9.78124163235662 -36.28874001249730,-9.78114659094155 -36.28878847719424,-9.78105612068142 -36.28883365587935,-9.78095640625931 -36.28887756990368,-9.78085097782888 -36.28892277888928,-9.78075028218154 -36.28897201361504,-9.78065198233915 -36.28902872383675,-9.78055428254755 -36.28909861083215,-9.78045997119614 -36.28917422028209,-9.78036475977852 -36.28925332545656,-9.78027658205123 -36.28933435337889,-9.78019203305309 -36.28941846112361,-9.78011072567999 -36.28950095193374,-9.78003444919129 -36.28957846034816,-9.77996173380232 -36.28965273099254,-9.77988451736157 -36.28971540551098,-9.77981143819172 -36.28977360084243,-9.77973695225815 -36.28983808660872,-9.77966166877893 -36.28991025612748,-9.77958366013437 -36.28997823503649,-9.77950656221573 -36.29003968026357,-9.77943190906205 -36.29009598967104,-9.77936529492019 -36.29015460977251,-9.77929714145954 -36.29021856249951,-9.77922196804833 -36.29028029163434,-9.77913264334874 -36.29033237461341,-9.77904266037042 -36.29036758835849,-9.77895919961261 -36.29040118912538,-9.77887709364422 -36.29045903900132,-9.77875919423501 -36.29047225262763,-9.77874014679374 -36.29050261111792,-9.77870094953878 -36.29051420168528,-9.77874014649377
          </coordinates>
        </LinearRing>
      </outerBoundaryIs>
    </Polygon>
  </Placemark>
</Document>
</kml>
