<?xml version="1.0" encoding="UTF-8"?>
<kml xmlns="http://www.opengis.net/kml/2.2" xmlns:gx="http://www.google.com/kml/ext/2.2" xmlns:kml="http://www.opengis.net/kml/2.2" xmlns:atom="http://www.w3.org/2005/Atom">
<Document>
  <name>1020.kml</name>
  <StyleMap id="FFFF4000">
    <Pair>
      <key>normal</key>
      <styleUrl>#s_FFFF4000</styleUrl>
    </Pair>
    <Pair>
      <key>highlight</key>
      <styleUrl>#s_FFFF4000_hl</styleUrl>
    </Pair>
  </StyleMap>
  <Style id="s_FFFF4000">
   <IconStyle>
      <scale>1.1</scale>
      <Icon>
        <href>http://maps.google.com/mapfiles/kml/pushpin/agrocad.png</href>
      </Icon>
      <hotSpot x="20" y="2" xunits="pixels" yunits="pixels"/>
    </IconStyle>
    <LineStyle>
      <color>FFFF4000</color>
      <width>1</width>
    </LineStyle>
    <PolyStyle>
      <color>40ffffff</color>
      <fill>1</fill>
    </PolyStyle>
  </Style>
  <Style id="s_FFFF4000_hl">
    <IconStyle>
      <scale>1.3</scale>
      <Icon>
        <href>http://maps.google.com/mapfiles/kml/pushpin/agrocad.png</href>
      </Icon>
      <hotSpot x="20" y="2" xunits="pixels" yunits="pixels"/>
    </IconStyle>
    <LineStyle>
      <color>ff000000</color>
      <width>1</width>
    </LineStyle>
    <PolyStyle>
      <color>40ffffff</color>
      <fill>1</fill>
    </PolyStyle>
  </Style>
  <Placemark>
    <name>AgroCAD: 90DF</name>
    <styleUrl>FFFF4000</styleUrl>
    <Polygon>
      <outerBoundaryIs>
        <LinearRing>
          <coordinates>
           -36.30966141060750,-9.76316032608819 -36.30964273572903,-9.76309488837554 -36.30958844154982,-9.76296681763714 -36.30897817759166,-9.76157113746982 -36.30778175336002,-9.75877676208184 -36.30775142241589,-9.75869872019853 -36.30772670489526,-9.75862931057278 -36.30769171885559,-9.75856318411511 -36.30766789347010,-9.75854033474527 -36.30763670663164,-9.75852761047854 -36.30760600201827,-9.75852050956182 -36.30757139202154,-9.75851954296212 -36.30750297256760,-9.75852145967978 -36.30740790769126,-9.75851938817313 -36.30728108381187,-9.75854282478837 -36.30702808303901,-9.75863164292124 -36.30657882493925,-9.75875285683186 -36.30652042687137,-9.75876989188707 -36.30646866251983,-9.75878903986056 -36.30641382855215,-9.75882035271003 -36.30600290065665,-9.75912154666920 -36.30595068578426,-9.75915883640831 -36.30590229296744,-9.75918742888169 -36.30583458365804,-9.75921269625986 -36.30577901164498,-9.75922380498453 -36.30561413105727,-9.75925292477956 -36.30549078284510,-9.75926735825349 -36.30541535595016,-9.75927751548602 -36.30530116063718,-9.75930929853365 -36.30505300156357,-9.75938305076603 -36.30480503460253,-9.75944215454131 -36.30463032971911,-9.75946473756840 -36.30447766343448,-9.75949195372676 -36.30425151798466,-9.75955776303552 -36.30386694596239,-9.75965687870500 -36.30385161142060,-9.75968554792124 -36.30385959343205,-9.75973045431968 -36.30387166624906,-9.75975930100616 -36.30442335886854,-9.76112785677007 -36.30509911232665,-9.76279581314242 -36.30557134836166,-9.76398496669290 -36.30560558032460,-9.76406810364179 -36.30561178114473,-9.76408426019305 -36.30562224394946,-9.76411694684868 -36.30564220174011,-9.76418437737325 -36.30566549566899,-9.76422176355369 -36.30966141060750,-9.76316032608819
          </coordinates>
        </LinearRing>
      </outerBoundaryIs>
    </Polygon>
  </Placemark>
</Document>
</kml>
