<?xml version="1.0" encoding="UTF-8"?>
<kml xmlns="http://www.opengis.net/kml/2.2" xmlns:gx="http://www.google.com/kml/ext/2.2" xmlns:kml="http://www.opengis.net/kml/2.2" xmlns:atom="http://www.w3.org/2005/Atom">
<Document>
  <name>1021.kml</name>
  <StyleMap id="FFFF4000">
    <Pair>
      <key>normal</key>
      <styleUrl>#s_FFFF4000</styleUrl>
    </Pair>
    <Pair>
      <key>highlight</key>
      <styleUrl>#s_FFFF4000_hl</styleUrl>
    </Pair>
  </StyleMap>
  <Style id="s_FFFF4000">
   <IconStyle>
      <scale>1.1</scale>
      <Icon>
        <href>http://maps.google.com/mapfiles/kml/pushpin/agrocad.png</href>
      </Icon>
      <hotSpot x="20" y="2" xunits="pixels" yunits="pixels"/>
    </IconStyle>
    <LineStyle>
      <color>FFFF4000</color>
      <width>1</width>
    </LineStyle>
    <PolyStyle>
      <color>40ffffff</color>
      <fill>1</fill>
    </PolyStyle>
  </Style>
  <Style id="s_FFFF4000_hl">
    <IconStyle>
      <scale>1.3</scale>
      <Icon>
        <href>http://maps.google.com/mapfiles/kml/pushpin/agrocad.png</href>
      </Icon>
      <hotSpot x="20" y="2" xunits="pixels" yunits="pixels"/>
    </IconStyle>
    <LineStyle>
      <color>ff000000</color>
      <width>1</width>
    </LineStyle>
    <PolyStyle>
      <color>40ffffff</color>
      <fill>1</fill>
    </PolyStyle>
  </Style>
  <Placemark>
    <name>AgroCAD: 8EF5</name>
    <styleUrl>FFFF4000</styleUrl>
    <Polygon>
      <outerBoundaryIs>
        <LinearRing>
          <coordinates>
           -36.30896732391132,-9.76138424274827 -36.30834471859655,-9.75993878267501 -36.30773496534696,-9.75854755458182 -36.30779486567845,-9.75854074763070 -36.30779786228771,-9.75853850275449 -36.30781424931348,-9.75853544437352 -36.30785690622940,-9.75853592588736 -36.30791599848794,-9.75853785855372 -36.30799871123252,-9.75854466090707 -36.30809862022472,-9.75855320223159 -36.30820164940602,-9.75855578446083 -36.30830485351604,-9.75856520340710 -36.30841176992426,-9.75857740450040 -36.30852784303851,-9.75859986059440 -36.30865060944946,-9.75863649355682 -36.30878015671026,-9.75867117859504 -36.30891249345498,-9.75870430358821 -36.30904371584140,-9.75874471207634 -36.30921689544149,-9.75880612966254 -36.30933354046466,-9.75884745975693 -36.30943214607429,-9.75888216453915 -36.30974320412273,-9.75895805553484 -36.30974482270328,-9.75895911938577 -36.30980212402551,-9.75897269297518 -36.30985208367728,-9.75898220315072 -36.30998909944404,-9.75900480414102 -36.31011676274189,-9.75902621088764 -36.31022270491264,-9.75904124405958 -36.31033650582045,-9.75906506344716 -36.31045562573794,-9.75908467739790 -36.31057753822922,-9.75910056728790 -36.31068690226836,-9.75910029292620 -36.31078858739677,-9.75907470510959 -36.31088339465671,-9.75904338874620 -36.31111651972097,-9.75894496342651 -36.31111721401507,-9.75894503572694 -36.31134194912553,-9.75886914715203 -36.31134826180208,-9.75886640590424 -36.31140680392430,-9.75885163389211 -36.31168250537053,-9.75880670616690 -36.31168255380855,-9.75880693310840 -36.31169265669869,-9.75880664907434 -36.31175529405214,-9.75880714016205 -36.31181764013847,-9.75882042986376 -36.31185828255524,-9.75885236547491 -36.31221310834815,-9.75972722632200 -36.30896732391132,-9.76138424274827
          </coordinates>
        </LinearRing>
      </outerBoundaryIs>
    </Polygon>
  </Placemark>
</Document>
</kml>
