<?xml version="1.0" encoding="UTF-8"?>
<kml xmlns="http://www.opengis.net/kml/2.2" xmlns:gx="http://www.google.com/kml/ext/2.2" xmlns:kml="http://www.opengis.net/kml/2.2" xmlns:atom="http://www.w3.org/2005/Atom">
<Document>
  <name>1011.kml</name>
  <StyleMap id="FFFF4000">
    <Pair>
      <key>normal</key>
      <styleUrl>#s_FFFF4000</styleUrl>
    </Pair>
    <Pair>
      <key>highlight</key>
      <styleUrl>#s_FFFF4000_hl</styleUrl>
    </Pair>
  </StyleMap>
  <Style id="s_FFFF4000">
   <IconStyle>
      <scale>1.1</scale>
      <Icon>
        <href>http://maps.google.com/mapfiles/kml/pushpin/agrocad.png</href>
      </Icon>
      <hotSpot x="20" y="2" xunits="pixels" yunits="pixels"/>
    </IconStyle>
    <LineStyle>
      <color>FFFF4000</color>
      <width>1</width>
    </LineStyle>
    <PolyStyle>
      <color>40ffffff</color>
      <fill>1</fill>
    </PolyStyle>
  </Style>
  <Style id="s_FFFF4000_hl">
    <IconStyle>
      <scale>1.3</scale>
      <Icon>
        <href>http://maps.google.com/mapfiles/kml/pushpin/agrocad.png</href>
      </Icon>
      <hotSpot x="20" y="2" xunits="pixels" yunits="pixels"/>
    </IconStyle>
    <LineStyle>
      <color>ff000000</color>
      <width>1</width>
    </LineStyle>
    <PolyStyle>
      <color>40ffffff</color>
      <fill>1</fill>
    </PolyStyle>
  </Style>
  <Placemark>
    <name>AgroCAD: 90DE</name>
    <styleUrl>FFFF4000</styleUrl>
    <Polygon>
      <outerBoundaryIs>
        <LinearRing>
          <coordinates>
           -36.30465961833127,-9.76456377212182 -36.30004995795214,-9.76578815058702 -36.30003806679705,-9.76580666763664 -36.30003293577950,-9.76583780484942 -36.30004012881938,-9.76587425768477 -36.30006039322822,-9.76594046734345 -36.30006631189444,-9.76595909472391 -36.30041548370190,-9.76690461509370 -36.30091573694402,-9.76830214669494 -36.30094932398393,-9.76838771518898 -36.30096769032745,-9.76842562080631 -36.30097852299402,-9.76843784266744 -36.30465961833127,-9.76456377212182
          </coordinates>
        </LinearRing>
      </outerBoundaryIs>
    </Polygon>
  </Placemark>
  <Placemark>
    <name>AgroCAD: 90DD</name>
    <styleUrl>FFFF4000</styleUrl>
    <Polygon>
      <outerBoundaryIs>
        <LinearRing>
          <coordinates>
           -36.29998518204200,-9.76573053007903 -36.29993635428972,-9.76559642369550 -36.29985940962953,-9.76534805038815 -36.29952730581608,-9.76444935266379 -36.29950422716535,-9.76439013533976 -36.29949775708484,-9.76435755223121 -36.29950489517635,-9.76432856788083 -36.29951406185937,-9.76431838024965 -36.29955233133531,-9.76427951336847 -36.29958825655427,-9.76425471836787 -36.29961939876199,-9.76423218455461 -36.29971111984329,-9.76416786331623 -36.29982004423217,-9.76408473864429 -36.30006440220204,-9.76386859677039 -36.30018178654843,-9.76377160953750 -36.30031446277013,-9.76363040652496 -36.30040352103324,-9.76350355101155 -36.30043546057575,-9.76345219646939 -36.30049571775347,-9.76334655722548 -36.30053253309041,-9.76327713412468 -36.30056401246022,-9.76320301228784 -36.30074984030823,-9.76278571100812 -36.30076661662158,-9.76275466712812 -36.30078915172625,-9.76272132276159 -36.30082215769280,-9.76267964090164 -36.30089102558835,-9.76262589986830 -36.30093343670656,-9.76259740004006 -36.30099138248084,-9.76256829486147 -36.30112294724497,-9.76251960913786 -36.30126392871186,-9.76247395824504 -36.30142284099708,-9.76244085389703 -36.30155023596252,-9.76240764595219 -36.30178659585435,-9.76234391919043 -36.30183885407814,-9.76231504981543 -36.30191070626128,-9.76228930609125 -36.30194235636444,-9.76227532109982 -36.30199513244579,-9.76223698801517 -36.30202502754214,-9.76219857137868 -36.30203402888185,-9.76217580384260 -36.30203741398893,-9.76213992031419 -36.30202968796554,-9.76211899877566 -36.30198026992972,-9.76207460863687 -36.30192053264543,-9.76206364293214 -36.30185152052550,-9.76206275474084 -36.30173421454705,-9.76205663181583 -36.30165591087277,-9.76204954943575 -36.30151677946729,-9.76202702604968 -36.30142984391851,-9.76199711957208 -36.30134820070895,-9.76194864218336 -36.30131625529203,-9.76190864571593 -36.30130698337008,-9.76188741709903 -36.30130313262642,-9.76186496908302 -36.30130918831728,-9.76182588588573 -36.30132594956180,-9.76178952073055 -36.30135530300724,-9.76175538887483 -36.30138600259562,-9.76172690953848 -36.30143297883055,-9.76169060951110 -36.30146565401422,-9.76165886389552 -36.30150511449935,-9.76161724091441 -36.30152525352417,-9.76159415669251 -36.30155697581395,-9.76155492451722 -36.30157677149142,-9.76152650870871 -36.30165250668404,-9.76140785457701 -36.30178823135978,-9.76120390239583 -36.30183008925850,-9.76112899740973 -36.30186866881880,-9.76105634673062 -36.30191467022224,-9.76096844164904 -36.30195108330114,-9.76090209860386 -36.30197586403622,-9.76086244112218 -36.30202440377514,-9.76079410302094 -36.30208787865542,-9.76070656396069 -36.30232772639703,-9.76032170619365 -36.30237005452801,-9.76027143582306 -36.30251783527164,-9.76011722964318 -36.30257373019433,-9.76006339507161 -36.30263414496402,-9.76001540862172 -36.30269346711600,-9.75997163115702 -36.30275601263259,-9.75992838522926 -36.30282191435988,-9.75988713870638 -36.30289091449082,-9.75985149424763 -36.30296735321441,-9.75982158663527 -36.30304577677599,-9.75979011766280 -36.30312956289130,-9.75976328982748 -36.30321658839990,-9.75974374126819 -36.30330075847551,-9.75971953668691 -36.30338657137564,-9.75969689635780 -36.30348273029456,-9.75967405253521 -36.30357678289242,-9.75965297409338 -36.30364773130701,-9.75963960680032 -36.30369612624791,-9.75964140415262 -36.30374998285129,-9.75964793869157 -36.30380758997093,-9.75965711887798 -36.30382095018510,-9.75968614054387 -36.30383984470727,-9.75975575300885 -36.30439088846598,-9.76114630338929 -36.30506330563759,-9.76280756197597 -36.30552790706638,-9.76399573172406 -36.30557226162938,-9.76410843856548 -36.30558174027191,-9.76412831216070 -36.30560470262351,-9.76419904283910 -36.30561316419365,-9.76423566401629 -36.29998518204200,-9.76573053007903
          </coordinates>
        </LinearRing>
      </outerBoundaryIs>
    </Polygon>
  </Placemark>
</Document>
</kml>
