<?xml version="1.0" encoding="UTF-8"?>
<kml xmlns="http://www.opengis.net/kml/2.2" xmlns:gx="http://www.google.com/kml/ext/2.2" xmlns:kml="http://www.opengis.net/kml/2.2" xmlns:atom="http://www.w3.org/2005/Atom">
<Document>
  <name>1016.kml</name>
  <StyleMap id="FFFF4000">
    <Pair>
      <key>normal</key>
      <styleUrl>#s_FFFF4000</styleUrl>
    </Pair>
    <Pair>
      <key>highlight</key>
      <styleUrl>#s_FFFF4000_hl</styleUrl>
    </Pair>
  </StyleMap>
  <Style id="s_FFFF4000">
   <IconStyle>
      <scale>1.1</scale>
      <Icon>
        <href>http://maps.google.com/mapfiles/kml/pushpin/agrocad.png</href>
      </Icon>
      <hotSpot x="20" y="2" xunits="pixels" yunits="pixels"/>
    </IconStyle>
    <LineStyle>
      <color>FFFF4000</color>
      <width>1</width>
    </LineStyle>
    <PolyStyle>
      <color>40ffffff</color>
      <fill>1</fill>
    </PolyStyle>
  </Style>
  <Style id="s_FFFF4000_hl">
    <IconStyle>
      <scale>1.3</scale>
      <Icon>
        <href>http://maps.google.com/mapfiles/kml/pushpin/agrocad.png</href>
      </Icon>
      <hotSpot x="20" y="2" xunits="pixels" yunits="pixels"/>
    </IconStyle>
    <LineStyle>
      <color>ff000000</color>
      <width>1</width>
    </LineStyle>
    <PolyStyle>
      <color>40ffffff</color>
      <fill>1</fill>
    </PolyStyle>
  </Style>
  <Placemark>
    <name>AgroCAD: 92EB</name>
    <styleUrl>FFFF4000</styleUrl>
    <Polygon>
      <outerBoundaryIs>
        <LinearRing>
          <coordinates>
           -36.31033553075808,-9.77700430878357 -36.31062486931114,-9.77689824616253 -36.31070576596434,-9.77686552479959 -36.31088175294016,-9.77676764784473 -36.31089801794575,-9.77675210729510 -36.31167123075670,-9.77612540273331 -36.31249669313370,-9.77544526159279 -36.31283097025963,-9.77516301371831 -36.31285937048944,-9.77515422430504 -36.31287819782872,-9.77517416884693 -36.31289826008532,-9.77528266353530 -36.31289641987695,-9.77535659394856 -36.31290370778287,-9.77536624031371 -36.31289154766137,-9.77539457316053 -36.31287650356006,-9.77543052592799 -36.31285386200928,-9.77547747022151 -36.31282729763603,-9.77553382032010 -36.31279813602870,-9.77559654816766 -36.31276841342779,-9.77566748140100 -36.31273958712325,-9.77574419257497 -36.31271673260158,-9.77582473527737 -36.31269429855982,-9.77591487099159 -36.31267463682312,-9.77601059135768 -36.31265139333171,-9.77610795117289 -36.31262325696115,-9.77619752962573 -36.31258911735558,-9.77627315030901 -36.31255728368346,-9.77633712791059 -36.31253254800718,-9.77638641560674 -36.31251092853388,-9.77642924425263 -36.31248990558642,-9.77647406597450 -36.31246694011806,-9.77651888771574 -36.31244473162152,-9.77656416569828 -36.31242873800601,-9.77661225438214 -36.31241690939111,-9.77666182433102 -36.31240494570298,-9.77671235111096 -36.31239350321150,-9.77676219339832 -36.31238170824696,-9.77681103262872 -36.31237061759037,-9.77685986403936 -36.31236328865507,-9.77690693034220 -36.31236328229540,-9.77695536538444 -36.31237422730102,-9.77700910120117 -36.31239022860936,-9.77707286944402 -36.31241163870428,-9.77714176335131 -36.31243184173995,-9.77720265705118 -36.31244842447575,-9.77725600714970 -36.31246027812009,-9.77730260597621 -36.31248583451042,-9.77753373825168 -36.31248198893445,-9.77756362291369 -36.31247803876046,-9.77759732132390 -36.31247370143368,-9.77763661666681 -36.31246846676980,-9.77767813756720 -36.31246415501716,-9.77772076329942 -36.31245842640701,-9.77776640191701 -36.31245330125688,-9.77781140450667 -36.31244922308771,-9.77785224022853 -36.31244493502080,-9.77789419105211 -36.31243912472381,-9.77793618334688 -36.31243145488021,-9.77797562081220 -36.31241495476797,-9.77800928380394 -36.31239171112007,-9.77803854004400 -36.31236334638616,-9.77806683369192 -36.31233451518280,-9.77808982773144 -36.31230744676075,-9.77810949366713 -36.31227872270226,-9.77812590452554 -36.31224947019997,-9.77814139495102 -36.31222748583292,-9.77814903988168 -36.31220116164511,-9.77815453331724 -36.31217486335381,-9.77815741371107 -36.31214769845310,-9.77815815347119 -36.31212146905997,-9.77815598664291 -36.31209437678661,-9.77814972587639 -36.31206599731614,-9.77813960744262 -36.31206298250880,-9.77813829055627 -36.31203642502680,-9.77812526059122 -36.31201000667213,-9.77811045831342 -36.31198259577274,-9.77809684700865 -36.31195607140048,-9.77808466361688 -36.31187251610004,-9.77804241241361 -36.31185678794089,-9.77803576204573 -36.31182668947537,-9.77802643822191 -36.31180025330586,-9.77801788498071 -36.31178357279789,-9.77800977138995 -36.31176388044822,-9.77799702507171 -36.31174164791337,-9.77797987073131 -36.31172283343297,-9.77797276165384 -36.31168659793003,-9.77796448784491 -36.31165987161319,-9.77795784675062 -36.31163472440010,-9.77794730695612 -36.31161019412559,-9.77793486285108 -36.31158528889377,-9.77792272343453 -36.31136376445877,-9.77782629702506 -36.31112193345719,-9.77776819958073 -36.31108650228001,-9.77776820144706 -36.31105968823248,-9.77776549947969 -36.31103347370164,-9.77776543550456 -36.31100656342886,-9.77776733055366 -36.31097768012734,-9.77776694650190 -36.31094594942612,-9.77776708352731 -36.31091617558012,-9.77776943424684 -36.31085326480836,-9.77776815659963 -36.31082256295147,-9.77776640176941 -36.31079105547131,-9.77776716852476 -36.31076115277616,-9.77776930561533 -36.31073282445362,-9.77777539972225 -36.31070531530844,-9.77778519275617 -36.31065128723268,-9.77780801907520 -36.31062683284154,-9.77782297794679 -36.31060494418747,-9.77784009621175 -36.31054190489444,-9.77789861505510 -36.31052014819354,-9.77791809275556 -36.31048273291597,-9.77795534212867 -36.31044099056150,-9.77799613385694 -36.31040574199769,-9.77803300108513 -36.31037644141793,-9.77806460942685 -36.31034380293161,-9.77810516735597 -36.31030976674794,-9.77815467385706 -36.31027487913806,-9.77820834050225 -36.31023942045151,-9.77826533260801 -36.31020578319047,-9.77832499745136 -36.31017149089986,-9.77838394261358 -36.31014247131589,-9.77844508160973 -36.31011930788697,-9.77851018454930 -36.31009721451056,-9.77857644364547 -36.31007531697274,-9.77864149287103 -36.31005125574604,-9.77869986629728 -36.31002862010923,-9.77875425239535 -36.31000815606728,-9.77880374234790 -36.30998440514633,-9.77884947934630 -36.30995859307340,-9.77889236560305 -36.30992891502304,-9.77892597072586 -36.30989865941375,-9.77894935057987 -36.30986605973472,-9.77896699467407 -36.30983402938674,-9.77898187690337 -36.30980016775378,-9.77899319321211 -36.30976836443502,-9.77900072505988 -36.30973531159103,-9.77900749146969 -36.30970533154927,-9.77901169689442 -36.30968166908993,-9.77901241460687 -36.30965234841512,-9.77901640999990 -36.30962578671199,-9.77901611576810 -36.30959506184672,-9.77901567394633 -36.30956273478679,-9.77901423009916 -36.30953017063055,-9.77901150251800 -36.30949463291313,-9.77900902963150 -36.30945815481722,-9.77900576848229 -36.30941913456849,-9.77900327120043 -36.30938173663009,-9.77900009750315 -36.30934623851057,-9.77899722976508 -36.30931179138450,-9.77899423798326 -36.30927770779327,-9.77899269064876 -36.30924563937532,-9.77899005927266 -36.30921292626029,-9.77898934981199 -36.30917780145736,-9.77898828956652 -36.30913762242383,-9.77898633901065 -36.30909660768300,-9.77898347414395 -36.30905204736261,-9.77898087794079 -36.30900540019048,-9.77897973205539 -36.30896057170203,-9.77898069025281 -36.30891622625473,-9.77898154496473 -36.30887226267106,-9.77898418297544 -36.30882523223462,-9.77899063958128 -36.30877248965943,-9.77899953823608 -36.30871628063563,-9.77900931894162 -36.30866540086608,-9.77902230299313 -36.30861894937370,-9.77903415892478 -36.30857538349832,-9.77904642793342 -36.30853583876941,-9.77905649818048 -36.30849774908202,-9.77906726191882 -36.30845978360393,-9.77907851142862 -36.30842227188340,-9.77909146768863 -36.30838855530644,-9.77910474011777 -36.30835343455461,-9.77911611587118 -36.30831457986488,-9.77912755879049 -36.30828501538055,-9.77913801181619 -36.30825238311284,-9.77914935159537 -36.30821568745990,-9.77916251903821 -36.30817865305731,-9.77918172412728 -36.30813538469610,-9.77920519885562 -36.30808564679652,-9.77923395562315 -36.30803706984553,-9.77926590037884 -36.30799365251877,-9.77929632350876 -36.30795532358063,-9.77932335074973 -36.30792449049701,-9.77934290892216 -36.30788965463451,-9.77930411032063 -36.30794634987227,-9.77918587361529 -36.31033553075808,-9.77700430878357
          </coordinates>
        </LinearRing>
      </outerBoundaryIs>
    </Polygon>
  </Placemark>
  <Placemark>
    <name>AgroCAD: 92E5</name>
    <styleUrl>FFFF4000</styleUrl>
    <Polygon>
      <outerBoundaryIs>
        <LinearRing>
          <coordinates>
           -36.30635561619199,-9.78063395655413 -36.30646152794546,-9.78064715923710 -36.30648852317909,-9.78065073581957 -36.30651731663316,-9.78065130039257 -36.30654606691355,-9.78065022994055 -36.30657533405492,-9.78064832065558 -36.30660300006327,-9.78064510749659 -36.30663247460795,-9.78064322332200 -36.30666245823823,-9.78064036537776 -36.30669344379886,-9.78063618834641 -36.30672484390975,-9.78063201995489 -36.30675395781083,-9.78062638560810 -36.30678398054226,-9.78061786070970 -36.30681296598553,-9.78061065696251 -36.30684301035515,-9.78060261565194 -36.30687242029196,-9.78059613103552 -36.30690031122589,-9.78059053729509 -36.30692827551115,-9.78058464294180 -36.30695378078839,-9.78057788747266 -36.30697532324589,-9.78057200702821 -36.30708608287178,-9.78055837170487 -36.30710021778781,-9.78055869730170 -36.30713208433681,-9.78056168520954 -36.30716999967456,-9.78056866668048 -36.30720566788120,-9.78058492608227 -36.30724344266989,-9.78060846558607 -36.30727753492916,-9.78063600549516 -36.30731463417568,-9.78066758459966 -36.30734923786339,-9.78069690367090 -36.30739018533176,-9.78071489791199 -36.30743605439717,-9.78071192987152 -36.30747909217034,-9.78069888424692 -36.30752471633601,-9.78068155804291 -36.30757335735204,-9.78066029999410 -36.30761916893053,-9.78063377246878 -36.30765842649287,-9.78060548408218 -36.30769272786122,-9.78057327396584 -36.30771944131230,-9.78053506012108 -36.30773736039702,-9.78049156849737 -36.30774495686011,-9.78044340730567 -36.30774496295005,-9.78038496746824 -36.30773867664498,-9.78031579567812 -36.30773298597951,-9.78024371004555 -36.30772402697405,-9.78017120809775 -36.30771290432038,-9.78009894276730 -36.30770336515921,-9.78002605839471 -36.30769765698723,-9.77995236938532 -36.30769589113639,-9.77988196918149 -36.30769718255925,-9.77981189420435 -36.30770784833924,-9.77974375261439 -36.30772664079338,-9.77966877158032 -36.30775168617813,-9.77959155827924 -36.30777507138020,-9.77952662052299 -36.30779621984687,-9.77947249653191 -36.30780814285758,-9.77944307115374 -36.30780620670007,-9.77941141729779 -36.30774430773686,-9.77936984646388 -36.30635561619199,-9.78063395655413
          </coordinates>
        </LinearRing>
      </outerBoundaryIs>
    </Polygon>
  </Placemark>
</Document>
</kml>
