<?xml version="1.0" encoding="UTF-8"?>
<kml xmlns="http://www.opengis.net/kml/2.2" xmlns:gx="http://www.google.com/kml/ext/2.2" xmlns:kml="http://www.opengis.net/kml/2.2" xmlns:atom="http://www.w3.org/2005/Atom">
<Document>
  <name>19.kml</name>
  <StyleMap id="FFFF4000">
    <Pair>
      <key>normal</key>
      <styleUrl>#s_FFFF4000</styleUrl>
    </Pair>
    <Pair>
      <key>highlight</key>
      <styleUrl>#s_FFFF4000_hl</styleUrl>
    </Pair>
  </StyleMap>
  <Style id="s_FFFF4000">
   <IconStyle>
      <scale>1.1</scale>
      <Icon>
        <href>http://maps.google.com/mapfiles/kml/pushpin/agrocad.png</href>
      </Icon>
      <hotSpot x="20" y="2" xunits="pixels" yunits="pixels"/>
    </IconStyle>
    <LineStyle>
      <color>FFFF4000</color>
      <width>1</width>
    </LineStyle>
    <PolyStyle>
      <color>40ffffff</color>
      <fill>1</fill>
    </PolyStyle>
  </Style>
  <Style id="s_FFFF4000_hl">
    <IconStyle>
      <scale>1.3</scale>
      <Icon>
        <href>http://maps.google.com/mapfiles/kml/pushpin/agrocad.png</href>
      </Icon>
      <hotSpot x="20" y="2" xunits="pixels" yunits="pixels"/>
    </IconStyle>
    <LineStyle>
      <color>ff000000</color>
      <width>1</width>
    </LineStyle>
    <PolyStyle>
      <color>40ffffff</color>
      <fill>1</fill>
    </PolyStyle>
  </Style>
  <Placemark>
    <name>AgroCAD: 15F74</name>
    <styleUrl>FFFF4000</styleUrl>
    <Polygon>
      <outerBoundaryIs>
        <LinearRing>
          <coordinates>
           -36.40361390523452,-9.75145637550458 -36.40373115743811,-9.75154073989500 -36.40392848431730,-9.75156361837372 -36.40440178284653,-9.75147496426862 -36.40578164109617,-9.75120042252370 -36.40624993495807,-9.75111319832347 -36.40650946270138,-9.75106386660371 -36.40666818214779,-9.75048261025298 -36.40700706961430,-9.74911633610027 -36.40714219562941,-9.74861229461539 -36.40719581706391,-9.74828627629321 -36.40721083106561,-9.74799028597441 -36.40718080306220,-9.74774791709015 -36.40699420046991,-9.74739401562203 -36.40681617730719,-9.74703153472439 -36.40663600928699,-9.74652749323947 -36.40646871041118,-9.74607707318908 -36.40631642553698,-9.74563523256825 -36.40553140773486,-9.74358903862518 -36.40363535380829,-9.74442553300434 -36.40366967152651,-9.74492742963190 -36.40372114810361,-9.74568456428798 -36.40376404525130,-9.74663688096586 -36.40385198440402,-9.74810825313030 -36.40384983954662,-9.74841711259343 -36.40379621811209,-9.74894260265218 -36.40373616210532,-9.74968257844919 -36.40369540981500,-9.74993352676294 -36.40364393323792,-9.75053837654490 -36.40360532580501,-9.75115395061369 -36.40361390523452,-9.75145637550458 -36.40361390523452,-9.75145637550458 -36.40361390523452,-9.75145637550458
          </coordinates>
        </LinearRing>
      </outerBoundaryIs>
    </Polygon>
  </Placemark>
</Document>
</kml>
