<?xml version="1.0" encoding="UTF-8"?>
<kml xmlns="http://www.opengis.net/kml/2.2" xmlns:gx="http://www.google.com/kml/ext/2.2" xmlns:kml="http://www.opengis.net/kml/2.2" xmlns:atom="http://www.w3.org/2005/Atom">
<Document>
  <name>26.kml</name>
  <StyleMap id="FFFF4000">
    <Pair>
      <key>normal</key>
      <styleUrl>#s_FFFF4000</styleUrl>
    </Pair>
    <Pair>
      <key>highlight</key>
      <styleUrl>#s_FFFF4000_hl</styleUrl>
    </Pair>
  </StyleMap>
  <Style id="s_FFFF4000">
   <IconStyle>
      <scale>1.1</scale>
      <Icon>
        <href>http://maps.google.com/mapfiles/kml/pushpin/agrocad.png</href>
      </Icon>
      <hotSpot x="20" y="2" xunits="pixels" yunits="pixels"/>
    </IconStyle>
    <LineStyle>
      <color>FFFF4000</color>
      <width>1</width>
    </LineStyle>
    <PolyStyle>
      <color>40ffffff</color>
      <fill>1</fill>
    </PolyStyle>
  </Style>
  <Style id="s_FFFF4000_hl">
    <IconStyle>
      <scale>1.3</scale>
      <Icon>
        <href>http://maps.google.com/mapfiles/kml/pushpin/agrocad.png</href>
      </Icon>
      <hotSpot x="20" y="2" xunits="pixels" yunits="pixels"/>
    </IconStyle>
    <LineStyle>
      <color>ff000000</color>
      <width>1</width>
    </LineStyle>
    <PolyStyle>
      <color>40ffffff</color>
      <fill>1</fill>
    </PolyStyle>
  </Style>
  <Placemark>
    <name>AgroCAD: 15F75</name>
    <styleUrl>FFFF4000</styleUrl>
    <Polygon>
      <outerBoundaryIs>
        <LinearRing>
          <coordinates>
           -36.40510082761515,-9.75719011550280 -36.40573624161487,-9.75704051170037 -36.40588262813127,-9.75692951533086 -36.40592284420717,-9.75685230046506 -36.40593732199447,-9.75677830288538 -36.40594214792367,-9.75657561386269 -36.40594214792367,-9.75618793089079 -36.40594536520968,-9.75556860332155 -36.40594053928057,-9.75517448577752 -36.40595019113887,-9.75484632259792 -36.40597914671347,-9.75452781127663 -36.40602740600457,-9.75412404187438 -36.40606601343749,-9.75372992433031 -36.40612714187287,-9.75323446227487 -36.40620596538167,-9.75263443842215 -36.40627191974628,-9.75200224170857 -36.40637487290058,-9.75155664758736 -36.40648908655629,-9.75110301025093 -36.40539842657706,-9.75130087334440 -36.40499948310384,-9.75138130549630 -36.40492548552415,-9.75140221785575 -36.40501556953424,-9.75148265000765 -36.40508152389875,-9.75161134145056 -36.40509761032915,-9.75180598725800 -36.40507187204054,-9.75294490652823 -36.40505417696715,-9.75341945622412 -36.40502843867854,-9.75378622683653 -36.40498178803044,-9.75413530237556 -36.40494318059754,-9.75457124463858 -36.40496409295705,-9.75523239692676 -36.40496891888614,-9.75551069217218 -36.40503165596455,-9.75594985172123 -36.40507187204054,-9.75632788283498 -36.40509117575695,-9.75708877099148 -36.40510082761515,-9.75719011550280 -36.40510082761515,-9.75719011550280 -36.40510082761515,-9.75719011550280
          </coordinates>
        </LinearRing>
      </outerBoundaryIs>
    </Polygon>
  </Placemark>
</Document>
</kml>
