<?xml version="1.0" encoding="UTF-8"?>
<kml xmlns="http://www.opengis.net/kml/2.2" xmlns:gx="http://www.google.com/kml/ext/2.2" xmlns:kml="http://www.opengis.net/kml/2.2" xmlns:atom="http://www.w3.org/2005/Atom">
<Document>
  <name>44.kml</name>
  <StyleMap id="FFFF4000">
    <Pair>
      <key>normal</key>
      <styleUrl>#s_FFFF4000</styleUrl>
    </Pair>
    <Pair>
      <key>highlight</key>
      <styleUrl>#s_FFFF4000_hl</styleUrl>
    </Pair>
  </StyleMap>
  <Style id="s_FFFF4000">
   <IconStyle>
      <scale>1.1</scale>
      <Icon>
        <href>http://maps.google.com/mapfiles/kml/pushpin/agrocad.png</href>
      </Icon>
      <hotSpot x="20" y="2" xunits="pixels" yunits="pixels"/>
    </IconStyle>
    <LineStyle>
      <color>FFFF4000</color>
      <width>1</width>
    </LineStyle>
    <PolyStyle>
      <color>40ffffff</color>
      <fill>1</fill>
    </PolyStyle>
  </Style>
  <Style id="s_FFFF4000_hl">
    <IconStyle>
      <scale>1.3</scale>
      <Icon>
        <href>http://maps.google.com/mapfiles/kml/pushpin/agrocad.png</href>
      </Icon>
      <hotSpot x="20" y="2" xunits="pixels" yunits="pixels"/>
    </IconStyle>
    <LineStyle>
      <color>ff000000</color>
      <width>1</width>
    </LineStyle>
    <PolyStyle>
      <color>40ffffff</color>
      <fill>1</fill>
    </PolyStyle>
  </Style>
  <Placemark>
    <name>AgroCAD: 15F7A</name>
    <styleUrl>FFFF4000</styleUrl>
    <Polygon>
      <outerBoundaryIs>
        <LinearRing>
          <coordinates>
           -36.40205306157767,-9.76987637382010 -36.40270823427999,-9.76985944591299 -36.40416654213253,-9.76975411671303 -36.40413143239912,-9.76956477493686 -36.40411763928963,-9.76938922627018 -36.40408503739433,-9.76886884986549 -36.40405995901343,-9.76867825417024 -36.40404115022772,-9.76861931997499 -36.40400478657534,-9.76860051118929 -36.40384177709913,-9.76860176510835 -36.40346309354671,-9.76860678078452 -36.40256027183238,-9.76861054254165 -36.40190447217046,-9.76862684348924 -36.40188315554666,-9.76864189051783 -36.40186246588236,-9.76866696889875 -36.40186936243716,-9.76873593444636 -36.40197092987996,-9.76959424203439 -36.40200102393718,-9.76982496313916 -36.40201293616807,-9.76986132679151 -36.40205306157767,-9.76987637382010 -36.40205306157767,-9.76987637382010 -36.40205306157767,-9.76987637382010
          </coordinates>
        </LinearRing>
      </outerBoundaryIs>
    </Polygon>
  </Placemark>
</Document>
</kml>
