<?xml version="1.0" encoding="UTF-8"?>
<kml xmlns="http://www.opengis.net/kml/2.2" xmlns:gx="http://www.google.com/kml/ext/2.2" xmlns:kml="http://www.opengis.net/kml/2.2" xmlns:atom="http://www.w3.org/2005/Atom">
<Document>
  <name>51.kml</name>
  <StyleMap id="FFFF4000">
    <Pair>
      <key>normal</key>
      <styleUrl>#s_FFFF4000</styleUrl>
    </Pair>
    <Pair>
      <key>highlight</key>
      <styleUrl>#s_FFFF4000_hl</styleUrl>
    </Pair>
  </StyleMap>
  <Style id="s_FFFF4000">
   <IconStyle>
      <scale>1.1</scale>
      <Icon>
        <href>http://maps.google.com/mapfiles/kml/pushpin/agrocad.png</href>
      </Icon>
      <hotSpot x="20" y="2" xunits="pixels" yunits="pixels"/>
    </IconStyle>
    <LineStyle>
      <color>FFFF4000</color>
      <width>1</width>
    </LineStyle>
    <PolyStyle>
      <color>40ffffff</color>
      <fill>1</fill>
    </PolyStyle>
  </Style>
  <Style id="s_FFFF4000_hl">
    <IconStyle>
      <scale>1.3</scale>
      <Icon>
        <href>http://maps.google.com/mapfiles/kml/pushpin/agrocad.png</href>
      </Icon>
      <hotSpot x="20" y="2" xunits="pixels" yunits="pixels"/>
    </IconStyle>
    <LineStyle>
      <color>ff000000</color>
      <width>1</width>
    </LineStyle>
    <PolyStyle>
      <color>40ffffff</color>
      <fill>1</fill>
    </PolyStyle>
  </Style>
  <Placemark>
    <name>AgroCAD: 15F7D</name>
    <styleUrl>FFFF4000</styleUrl>
    <Polygon>
      <outerBoundaryIs>
        <LinearRing>
          <coordinates>
           -36.40511812954247,-9.76988526880846 -36.40537085790616,-9.77116398704406 -36.40559700416567,-9.77219196065508 -36.40567556023477,-9.77252760931392 -36.40578030166018,-9.77295133598957 -36.40583029188597,-9.77313860096230 -36.40588901056388,-9.77337744315211 -36.40594296826787,-9.77358851299428 -36.40597034386779,-9.77360200242031 -36.40603501376297,-9.77360438290722 -36.40617506574478,-9.77359367071600 -36.40625163807478,-9.77357065934223 -36.40631353073518,-9.77356510487269 -36.40635995023060,-9.77358454551608 -36.40639248355219,-9.77364643817656 -36.40642263638679,-9.77381465925380 -36.40651944285570,-9.77422886398166 -36.40662577127250,-9.77466846057022 -36.40676860048901,-9.77520327663650 -36.40689238581001,-9.77569683092913 -36.40706060688721,-9.77638399815963 -36.40720661008642,-9.77699975078192 -36.40732246045092,-9.77754884976982 -36.40743354984152,-9.77813127557492 -36.40752083436272,-9.77880257289253 -36.40756368312772,-9.77913425407309 -36.40777951394375,-9.77898031591755 -36.40799851874244,-9.77884859564007 -36.40854047626955,-9.77852961038992 -36.40853174781746,-9.77842804294704 -36.40843176736585,-9.77798685936715 -36.40829846009714,-9.77741871648371 -36.40805565042903,-9.77629988762107 -36.40750020347582,-9.77361628534197 -36.40720026212111,-9.77222766795928 -36.40669083791550,-9.76977100543534 -36.40511812954247,-9.76988526880846 -36.40511812954247,-9.76988526880846 -36.40511812954247,-9.76988526880846
          </coordinates>
        </LinearRing>
      </outerBoundaryIs>
    </Polygon>
  </Placemark>
</Document>
</kml>
