<?xml version="1.0" encoding="UTF-8"?>
<kml xmlns="http://www.opengis.net/kml/2.2" xmlns:gx="http://www.google.com/kml/ext/2.2" xmlns:kml="http://www.opengis.net/kml/2.2" xmlns:atom="http://www.w3.org/2005/Atom">
<Document>
  <name>53.kml</name>
  <StyleMap id="FFFF4000">
    <Pair>
      <key>normal</key>
      <styleUrl>#s_FFFF4000</styleUrl>
    </Pair>
    <Pair>
      <key>highlight</key>
      <styleUrl>#s_FFFF4000_hl</styleUrl>
    </Pair>
  </StyleMap>
  <Style id="s_FFFF4000">
   <IconStyle>
      <scale>1.1</scale>
      <Icon>
        <href>http://maps.google.com/mapfiles/kml/pushpin/agrocad.png</href>
      </Icon>
      <hotSpot x="20" y="2" xunits="pixels" yunits="pixels"/>
    </IconStyle>
    <LineStyle>
      <color>FFFF4000</color>
      <width>1</width>
    </LineStyle>
    <PolyStyle>
      <color>40ffffff</color>
      <fill>1</fill>
    </PolyStyle>
  </Style>
  <Style id="s_FFFF4000_hl">
    <IconStyle>
      <scale>1.3</scale>
      <Icon>
        <href>http://maps.google.com/mapfiles/kml/pushpin/agrocad.png</href>
      </Icon>
      <hotSpot x="20" y="2" xunits="pixels" yunits="pixels"/>
    </IconStyle>
    <LineStyle>
      <color>ff000000</color>
      <width>1</width>
    </LineStyle>
    <PolyStyle>
      <color>40ffffff</color>
      <fill>1</fill>
    </PolyStyle>
  </Style>
  <Placemark>
    <name>AgroCAD: 15F9D</name>
    <styleUrl>FFFF4000</styleUrl>
    <Polygon>
      <outerBoundaryIs>
        <LinearRing>
          <coordinates>
           -36.39941466800598,-9.77182860032486 -36.39939374206799,-9.77171142059266 -36.39934944873629,-9.77147481004855 -36.39932667485429,-9.77137284622432 -36.39930388249560,-9.77122283703905 -36.39927081015269,-9.77105621218360 -36.39922901657189,-9.77082667741291 -36.39919863791298,-9.77065848754129 -36.39918381050289,-9.77052430178709 -36.40203783568197,-9.77031641231283 -36.40299917631519,-9.77490883535065 -36.40299679094590,-9.77491089562972 -36.40292760623669,-9.77492987568659 -36.40277043477909,-9.77495480043793 -36.40260313995599,-9.77498303298974 -36.40244061360008,-9.77500928910208 -36.40227829274787,-9.77503385930621 -36.40210917618786,-9.77505819708376 -36.40193556814917,-9.77507834747652 -36.40176907608335,-9.77509960007108 -36.40162376869474,-9.77510841889057 -36.40147027821415,-9.77512513553869 -36.40132798629025,-9.77514552651554 -36.40117444375105,-9.77516228065409 -36.40099080783214,-9.77518622939734 -36.40084425660213,-9.77520411884855 -36.40068127426683,-9.77521484866454 -36.40050514690903,-9.77525283529018 -36.40034822370362,-9.77527570838900 -36.40020669537622,-9.77530325155616 -36.40009346922412,-9.77531110206325 -36.40007071336060,-9.77530973762499 -36.40007031329881,-9.77530902353438 -36.40007013215571,-9.77530825733810 -36.40006223667372,-9.77527001818735 -36.40003913048811,-9.77516611645065 -36.40000709626751,-9.77500973475376 -36.39996965375991,-9.77482630839989 -36.39993431855061,-9.77463671248397 -36.39989938519320,-9.77445674396813 -36.39987164224231,-9.77431341348841 -36.39984741799230,-9.77418152711491 -36.39982711061121,-9.77406715509189 -36.39980528408590,-9.77396350721758 -36.39978610661851,-9.77386440639008 -36.39977042199141,-9.77377592336444 -36.39975472547851,-9.77370163651667 -36.39972753417881,-9.77356074300411 -36.39969112288621,-9.77336617720104 -36.39968178208209,-9.77331080866737 -36.39967256167780,-9.77325615381203 -36.39964807808051,-9.77312656748796 -36.39962172598990,-9.77298337374274 -36.39959644207360,-9.77284320377250 -36.39957257437799,-9.77271724128256 -36.39954316166319,-9.77255860149394 -36.39950885096530,-9.77240434274034 -36.39949155329689,-9.77230710343545 -36.39947835678890,-9.77219339234498 -36.39945820001198,-9.77207384465217 -36.39944073717860,-9.77196586048384 -36.39941466800598,-9.77182860032486 -36.39941466800598,-9.77182860032486 -36.39941466800598,-9.77182860032486
          </coordinates>
        </LinearRing>
      </outerBoundaryIs>
    </Polygon>
  </Placemark>
</Document>
</kml>
