<?xml version="1.0" encoding="UTF-8"?>
<kml xmlns="http://www.opengis.net/kml/2.2" xmlns:gx="http://www.google.com/kml/ext/2.2" xmlns:kml="http://www.opengis.net/kml/2.2" xmlns:atom="http://www.w3.org/2005/Atom">
<Document>
  <name>08.kml</name>
  <StyleMap id="FFFF0000">
    <Pair>
      <key>normal</key>
      <styleUrl>#s_FFFF0000</styleUrl>
    </Pair>
    <Pair>
      <key>highlight</key>
      <styleUrl>#s_FFFF0000_hl</styleUrl>
    </Pair>
  </StyleMap>
  <Style id="s_FFFF0000">
   <IconStyle>
      <scale>1.1</scale>
      <Icon>
        <href>http://maps.google.com/mapfiles/kml/pushpin/agrocad.png</href>
      </Icon>
      <hotSpot x="20" y="2" xunits="pixels" yunits="pixels"/>
    </IconStyle>
    <LineStyle>
      <color>FFFF0000</color>
      <width>1</width>
    </LineStyle>
    <PolyStyle>
      <color>40ffffff</color>
      <fill>1</fill>
    </PolyStyle>
  </Style>
  <Style id="s_FFFF0000_hl">
    <IconStyle>
      <scale>1.3</scale>
      <Icon>
        <href>http://maps.google.com/mapfiles/kml/pushpin/agrocad.png</href>
      </Icon>
      <hotSpot x="20" y="2" xunits="pixels" yunits="pixels"/>
    </IconStyle>
    <LineStyle>
      <color>ff000000</color>
      <width>1</width>
    </LineStyle>
    <PolyStyle>
      <color>40ffffff</color>
      <fill>1</fill>
    </PolyStyle>
  </Style>
  <Placemark>
    <name>AgroCAD: D95F</name>
    <styleUrl>FFFF0000</styleUrl>
    <Polygon>
      <outerBoundaryIs>
        <LinearRing>
          <coordinates>
           -36.34558559304686,-9.75209067463132 -36.34572211709656,-9.75190326145052 -36.34589471809687,-9.75168780515921 -36.34647261691699,-9.75102394386950 -36.34669917743290,-9.75075067882528 -36.34694692895341,-9.75044796158815 -36.34709424580581,-9.75023507851761 -36.34718666109961,-9.75005507967341 -36.34732068123401,-9.74975484390136 -36.34745131149092,-9.74947249945685 -36.34750410782612,-9.74930530760190 -36.34751514715383,-9.74922522512623 -36.34763553009753,-9.74948331072657 -36.34768750393103,-9.74953293210667 -36.34776987429273,-9.74961357627756 -36.34814899111505,-9.74983654365429 -36.34826436444074,-9.74990375440432 -36.34839768072676,-9.75006206868262 -36.34853123656375,-9.75020053770160 -36.34864416174636,-9.75031056378974 -36.34866407974116,-9.75036377411788 -36.34864835015936,-9.75071825208449 -36.34866203853805,-9.75081888697120 -36.34868549835676,-9.75088733340732 -36.34881463118306,-9.75110651108386 -36.34900375778238,-9.75146547451845 -36.34918620373407,-9.75173771145054 -36.34926162710508,-9.75192531581472 -36.34931137613079,-9.75210221224030 -36.34934686519928,-9.75230590540583 -36.34939195148228,-9.75258335578370 -36.34944192351988,-9.75284471193412 -36.34945908326248,-9.75290925085596 -36.34945702660000,-9.75296534863424 -36.34928450265648,-9.75319737094390 -36.34910851274378,-9.75343072078344 -36.34901019388337,-9.75358532663189 -36.34894795213288,-9.75371188908267 -36.34889500296767,-9.75384595355454 -36.34879084573146,-9.75406126615011 -36.34862311351187,-9.75436493472599 -36.34848729098475,-9.75459711838009 -36.34835909558835,-9.75490618403513 -36.34824690153566,-9.75513563668942 -36.34809145310335,-9.75545040128914 -36.34802243683534,-9.75557797798165 -36.34796358962184,-9.75565188033026 -36.34755966465473,-9.75586034604335 -36.34732941218472,-9.75605047896192 -36.34717225570231,-9.75620944948744 -36.34656852695130,-9.75585760423696 -36.34598653497388,-9.75552271628349 -36.34531547593636,-9.75512476099729 -36.34504393427396,-9.75496329667880 -36.34493234176455,-9.75489147549328 -36.34485451238155,-9.75481567537706 -36.34489739292544,-9.75476896049191 -36.34492244809376,-9.75471669527752 -36.34494388372605,-9.75464421961691 -36.34495570918774,-9.75457911265347 -36.34504283382386,-9.75403768117361 -36.34507305779275,-9.75385069329042 -36.34510031270995,-9.75367722151765 -36.34513579270445,-9.75345872174485 -36.34516543588894,-9.75328933919355 -36.34521470264715,-9.75304896508404 -36.34530011856986,-9.75282029058717 -36.34547835476118,-9.75235536397472 -36.34558559304686,-9.75209067463132 -36.34558559304686,-9.75209067463132
          </coordinates>
        </LinearRing>
      </outerBoundaryIs>
    </Polygon>
  </Placemark>
</Document>
</kml>
