<?xml version="1.0" encoding="UTF-8"?>
<kml xmlns="http://www.opengis.net/kml/2.2" xmlns:gx="http://www.google.com/kml/ext/2.2" xmlns:kml="http://www.opengis.net/kml/2.2" xmlns:atom="http://www.w3.org/2005/Atom">
<Document>
  <name>10.kml</name>
  <StyleMap id="FFFF0000">
    <Pair>
      <key>normal</key>
      <styleUrl>#s_FFFF0000</styleUrl>
    </Pair>
    <Pair>
      <key>highlight</key>
      <styleUrl>#s_FFFF0000_hl</styleUrl>
    </Pair>
  </StyleMap>
  <Style id="s_FFFF0000">
   <IconStyle>
      <scale>1.1</scale>
      <Icon>
        <href>http://maps.google.com/mapfiles/kml/pushpin/agrocad.png</href>
      </Icon>
      <hotSpot x="20" y="2" xunits="pixels" yunits="pixels"/>
    </IconStyle>
    <LineStyle>
      <color>FFFF0000</color>
      <width>1</width>
    </LineStyle>
    <PolyStyle>
      <color>40ffffff</color>
      <fill>1</fill>
    </PolyStyle>
  </Style>
  <Style id="s_FFFF0000_hl">
    <IconStyle>
      <scale>1.3</scale>
      <Icon>
        <href>http://maps.google.com/mapfiles/kml/pushpin/agrocad.png</href>
      </Icon>
      <hotSpot x="20" y="2" xunits="pixels" yunits="pixels"/>
    </IconStyle>
    <LineStyle>
      <color>ff000000</color>
      <width>1</width>
    </LineStyle>
    <PolyStyle>
      <color>40ffffff</color>
      <fill>1</fill>
    </PolyStyle>
  </Style>
  <Placemark>
    <name>AgroCAD: D95D</name>
    <styleUrl>FFFF0000</styleUrl>
    <Polygon>
      <outerBoundaryIs>
        <LinearRing>
          <coordinates>
           -36.33964422246077,-9.75393700304705 -36.33977921661098,-9.75368529170209 -36.33981983335738,-9.75349728801856 -36.33983626839209,-9.75326788048574 -36.33986660864899,-9.75306959095744 -36.33993300481718,-9.75290637884847 -36.33998334308449,-9.75285154049499 -36.34022795378140,-9.75253383834093 -36.34048523366890,-9.75222106040294 -36.34054291489171,-9.75222652046494 -36.34146773257143,-9.75248914692633 -36.34253024348747,-9.75276480424152 -36.34365052387361,-9.75306455247040 -36.34460104312384,-9.75333332890418 -36.34512760765586,-9.75346139634324 -36.34501274105144,-9.75416763034340 -36.34493974419164,-9.75459471004745 -36.34491093239613,-9.75467952585818 -36.34482798254384,-9.75476108023455 -36.34458385446233,-9.75485904374188 -36.34437587520333,-9.75497160417481 -36.34418392517652,-9.75513224690601 -36.34409857484731,-9.75525827652093 -36.34403750587752,-9.75536611562009 -36.34398307041372,-9.75554163657514 -36.34381869829781,-9.75607927412744 -36.34380219388809,-9.75621181996650 -36.34382252778030,-9.75646892233669 -36.34390071442641,-9.75676875279475 -36.34371606319530,-9.75673637433247 -36.34295265879249,-9.75655235904923 -36.34166948101365,-9.75624774185629 -36.34068794205301,-9.75600209616422 -36.33965944255257,-9.75576317800724 -36.33922062538307,-9.75565334212556 -36.33927014105017,-9.75526874468253 -36.33928861512977,-9.75503766766434 -36.33933453710657,-9.75491163235211 -36.33936585094367,-9.75472274813552 -36.33937225802186,-9.75457807131530 -36.33934856107936,-9.75431692571357 -36.33938118056667,-9.75425109714073 -36.33964422246077,-9.75393700304705 -36.33964422246077,-9.75393700304705
          </coordinates>
        </LinearRing>
      </outerBoundaryIs>
    </Polygon>
  </Placemark>
</Document>
</kml>
