<?xml version="1.0" encoding="UTF-8"?>
<kml xmlns="http://www.opengis.net/kml/2.2" xmlns:gx="http://www.google.com/kml/ext/2.2" xmlns:kml="http://www.opengis.net/kml/2.2" xmlns:atom="http://www.w3.org/2005/Atom">
<Document>
  <name>14.kml</name>
  <StyleMap id="FFFF0000">
    <Pair>
      <key>normal</key>
      <styleUrl>#s_FFFF0000</styleUrl>
    </Pair>
    <Pair>
      <key>highlight</key>
      <styleUrl>#s_FFFF0000_hl</styleUrl>
    </Pair>
  </StyleMap>
  <Style id="s_FFFF0000">
   <IconStyle>
      <scale>1.1</scale>
      <Icon>
        <href>http://maps.google.com/mapfiles/kml/pushpin/agrocad.png</href>
      </Icon>
      <hotSpot x="20" y="2" xunits="pixels" yunits="pixels"/>
    </IconStyle>
    <LineStyle>
      <color>FFFF0000</color>
      <width>1</width>
    </LineStyle>
    <PolyStyle>
      <color>40ffffff</color>
      <fill>1</fill>
    </PolyStyle>
  </Style>
  <Style id="s_FFFF0000_hl">
    <IconStyle>
      <scale>1.3</scale>
      <Icon>
        <href>http://maps.google.com/mapfiles/kml/pushpin/agrocad.png</href>
      </Icon>
      <hotSpot x="20" y="2" xunits="pixels" yunits="pixels"/>
    </IconStyle>
    <LineStyle>
      <color>ff000000</color>
      <width>1</width>
    </LineStyle>
    <PolyStyle>
      <color>40ffffff</color>
      <fill>1</fill>
    </PolyStyle>
  </Style>
  <Placemark>
    <name>AgroCAD: D968</name>
    <styleUrl>FFFF0000</styleUrl>
    <Polygon>
      <outerBoundaryIs>
        <LinearRing>
          <coordinates>
           -36.34205981330319,-9.76006042380977 -36.34160069730100,-9.76064020880390 -36.34253050370889,-9.76192390855830 -36.34337659310820,-9.76307606234138 -36.34349047001125,-9.76312834926294 -36.34359516489668,-9.76316148038772 -36.34366560435467,-9.76317958789571 -36.34380169016138,-9.76320295272660 -36.34380965916435,-9.76320247453467 -36.34391829216429,-9.76321303507027 -36.34400188597153,-9.76320670511973 -36.34400711778785,-9.76320507741544 -36.34403701871319,-9.76319277284500 -36.34406792430880,-9.76317515289829 -36.34407182793797,-9.76317360485562 -36.34410208659911,-9.76314551339951 -36.34413467802826,-9.76311202683663 -36.34414634223629,-9.76308505116959 -36.34415437962862,-9.76304252769378 -36.34413528749345,-9.76299243569386 -36.34413371668343,-9.76298858861349 -36.34408576246676,-9.76292446316514 -36.34375716438524,-9.76246070919760 -36.34205981330319,-9.76006042380977 -36.34205981330319,-9.76006042380977 -36.34205981330319,-9.76006042380977
          </coordinates>
        </LinearRing>
      </outerBoundaryIs>
    </Polygon>
  </Placemark>
</Document>
</kml>
