<?xml version="1.0" encoding="UTF-8"?>
<kml xmlns="http://www.opengis.net/kml/2.2" xmlns:gx="http://www.google.com/kml/ext/2.2" xmlns:kml="http://www.opengis.net/kml/2.2" xmlns:atom="http://www.w3.org/2005/Atom">
<Document>
  <name>1039.kml</name>
  <StyleMap id="FFFF4000">
    <Pair>
      <key>normal</key>
      <styleUrl>#s_FFFF4000</styleUrl>
    </Pair>
    <Pair>
      <key>highlight</key>
      <styleUrl>#s_FFFF4000_hl</styleUrl>
    </Pair>
  </StyleMap>
  <Style id="s_FFFF4000">
   <IconStyle>
      <scale>1.1</scale>
      <Icon>
        <href>http://maps.google.com/mapfiles/kml/pushpin/agrocad.png</href>
      </Icon>
      <hotSpot x="20" y="2" xunits="pixels" yunits="pixels"/>
    </IconStyle>
    <LineStyle>
      <color>FFFF4000</color>
      <width>1</width>
    </LineStyle>
    <PolyStyle>
      <color>40ffffff</color>
      <fill>1</fill>
    </PolyStyle>
  </Style>
  <Style id="s_FFFF4000_hl">
    <IconStyle>
      <scale>1.3</scale>
      <Icon>
        <href>http://maps.google.com/mapfiles/kml/pushpin/agrocad.png</href>
      </Icon>
      <hotSpot x="20" y="2" xunits="pixels" yunits="pixels"/>
    </IconStyle>
    <LineStyle>
      <color>ff000000</color>
      <width>1</width>
    </LineStyle>
    <PolyStyle>
      <color>40ffffff</color>
      <fill>1</fill>
    </PolyStyle>
  </Style>
  <Placemark>
    <name>AgroCAD: 9374</name>
    <styleUrl>FFFF4000</styleUrl>
    <Polygon>
      <outerBoundaryIs>
        <LinearRing>
          <coordinates>
           -36.24367989898368,-9.77938114047519 -36.24618854062454,-9.77659084279822 -36.24634630609826,-9.77671126550519 -36.24611585183704,-9.77707358643828 -36.24605921684558,-9.77718114252872 -36.24599815771261,-9.77731985005735 -36.24595551544952,-9.77743655941314 -36.24590660352892,-9.77759544774216 -36.24587014545820,-9.77771954706626 -36.24581132182547,-9.77790046248017 -36.24571974382132,-9.77806719815034 -36.24561836304935,-9.77816984629839 -36.24551427193465,-9.77825537729723 -36.24539112713041,-9.77836401123572 -36.24531721374040,-9.77846240239597 -36.24522334570124,-9.77860562546246 -36.24512620644963,-9.77876004140952 -36.24495264883434,-9.77912569915983 -36.24494019152451,-9.77916415427698 -36.24476288572714,-9.77959854627569 -36.24476052205650,-9.77960719568519 -36.24472374792374,-9.77972030087217 -36.24468867195008,-9.77983629819756 -36.24466209807312,-9.77993919723464 -36.24466282133688,-9.78002384686470 -36.24469656913081,-9.78014665739062 -36.24367989898368,-9.77938114047519
          </coordinates>
        </LinearRing>
      </outerBoundaryIs>
    </Polygon>
  </Placemark>
</Document>
</kml>
