<?xml version="1.0" encoding="UTF-8"?>
<kml xmlns="http://www.opengis.net/kml/2.2" xmlns:gx="http://www.google.com/kml/ext/2.2" xmlns:kml="http://www.opengis.net/kml/2.2" xmlns:atom="http://www.w3.org/2005/Atom">
<Document>
  <name>1038.kml</name>
  <StyleMap id="FFFF4000">
    <Pair>
      <key>normal</key>
      <styleUrl>#s_FFFF4000</styleUrl>
    </Pair>
    <Pair>
      <key>highlight</key>
      <styleUrl>#s_FFFF4000_hl</styleUrl>
    </Pair>
  </StyleMap>
  <Style id="s_FFFF4000">
   <IconStyle>
      <scale>1.1</scale>
      <Icon>
        <href>http://maps.google.com/mapfiles/kml/pushpin/agrocad.png</href>
      </Icon>
      <hotSpot x="20" y="2" xunits="pixels" yunits="pixels"/>
    </IconStyle>
    <LineStyle>
      <color>FFFF4000</color>
      <width>1</width>
    </LineStyle>
    <PolyStyle>
      <color>40ffffff</color>
      <fill>1</fill>
    </PolyStyle>
  </Style>
  <Style id="s_FFFF4000_hl">
    <IconStyle>
      <scale>1.3</scale>
      <Icon>
        <href>http://maps.google.com/mapfiles/kml/pushpin/agrocad.png</href>
      </Icon>
      <hotSpot x="20" y="2" xunits="pixels" yunits="pixels"/>
    </IconStyle>
    <LineStyle>
      <color>ff000000</color>
      <width>1</width>
    </LineStyle>
    <PolyStyle>
      <color>40ffffff</color>
      <fill>1</fill>
    </PolyStyle>
  </Style>
  <Placemark>
    <name>AgroCAD: 9373</name>
    <styleUrl>FFFF4000</styleUrl>
    <Polygon>
      <outerBoundaryIs>
        <LinearRing>
          <coordinates>
           -36.24365557461999,-9.77940819545571 -36.24471501468188,-9.78020591658359 -36.24475985251829,-9.78032582391042 -36.24476296569696,-9.78034171206200 -36.24476816809918,-9.78042523778664 -36.24476401052235,-9.78058105818361 -36.24475482036744,-9.78069463979074 -36.24474158943085,-9.78080531898360 -36.24473336361282,-9.78094972449822 -36.24473042680791,-9.78109693942914 -36.24473144667218,-9.78121635697805 -36.24474027905971,-9.78160430884969 -36.24474145964702,-9.78176166274549 -36.24470009159632,-9.78202896688215 -36.24469877411718,-9.78204799628727 -36.24468077005539,-9.78215204680576 -36.24465541407606,-9.78224507059049 -36.24461561627909,-9.78237221453201 -36.24445304683290,-9.78283616062192 -36.24442373769721,-9.78290252652716 -36.24436641529468,-9.78298841490031 -36.24432651699061,-9.78303564459239 -36.24198668028777,-9.78126441973735 -36.24365557461999,-9.77940819545571
          </coordinates>
        </LinearRing>
      </outerBoundaryIs>
    </Polygon>
  </Placemark>
</Document>
</kml>
