<?xml version="1.0" encoding="UTF-8"?>
<kml xmlns="http://www.opengis.net/kml/2.2" xmlns:gx="http://www.google.com/kml/ext/2.2" xmlns:kml="http://www.opengis.net/kml/2.2" xmlns:atom="http://www.w3.org/2005/Atom">
<Document>
  <name>1005.kml</name>
  <StyleMap id="FFFF4000">
    <Pair>
      <key>normal</key>
      <styleUrl>#s_FFFF4000</styleUrl>
    </Pair>
    <Pair>
      <key>highlight</key>
      <styleUrl>#s_FFFF4000_hl</styleUrl>
    </Pair>
  </StyleMap>
  <Style id="s_FFFF4000">
   <IconStyle>
      <scale>1.1</scale>
      <Icon>
        <href>http://maps.google.com/mapfiles/kml/pushpin/agrocad.png</href>
      </Icon>
      <hotSpot x="20" y="2" xunits="pixels" yunits="pixels"/>
    </IconStyle>
    <LineStyle>
      <color>FFFF4000</color>
      <width>1</width>
    </LineStyle>
    <PolyStyle>
      <color>40ffffff</color>
      <fill>1</fill>
    </PolyStyle>
  </Style>
  <Style id="s_FFFF4000_hl">
    <IconStyle>
      <scale>1.3</scale>
      <Icon>
        <href>http://maps.google.com/mapfiles/kml/pushpin/agrocad.png</href>
      </Icon>
      <hotSpot x="20" y="2" xunits="pixels" yunits="pixels"/>
    </IconStyle>
    <LineStyle>
      <color>ff000000</color>
      <width>1</width>
    </LineStyle>
    <PolyStyle>
      <color>40ffffff</color>
      <fill>1</fill>
    </PolyStyle>
  </Style>
  <Placemark>
    <name>AgroCAD: 92F8</name>
    <styleUrl>FFFF4000</styleUrl>
    <Polygon>
      <outerBoundaryIs>
        <LinearRing>
          <coordinates>
           -36.21551761500168,-9.80060603187740 -36.21766463160834,-9.79213037162155 -36.21768291807373,-9.79213455625132 -36.21769528373096,-9.79213785928744 -36.21772765765047,-9.79214593248805 -36.21995868471316,-9.79267733625645 -36.21996685387439,-9.79267944387202 -36.22000627958890,-9.79268846841560 -36.22003237477797,-9.79269538343165 -36.22005743162011,-9.79270206635399 -36.22009980574299,-9.79270641754346 -36.22009985506532,-9.79271442106841 -36.22009678149685,-9.79272671438655 -36.22009116756979,-9.79275121554802 -36.22008206406305,-9.79278822672519 -36.22007172260720,-9.79283370813419 -36.21963449040781,-9.79456521635162 -36.21831996569028,-9.79975688161290 -36.21785532508694,-9.80159365674798 -36.21784922036809,-9.80162059878636 -36.21784383275879,-9.80164284155798 -36.21783837100448,-9.80166387361900 -36.21783732562168,-9.80167066732527 -36.21780286117988,-9.80171862947925 -36.21777031454217,-9.80174011695462 -36.21772859362974,-9.80175734125607 -36.21769784099551,-9.80176954320339 -36.21715240474960,-9.80196860244707 -36.21707829034877,-9.80200102882718 -36.21707686839882,-9.80200188465627 -36.21705951287418,-9.80200865137988 -36.21704894634929,-9.80201251535351 -36.21703874980884,-9.80201634394599 -36.21701775975934,-9.80202271252446 -36.21700984947446,-9.80201446587690 -36.21698004045779,-9.80198576336238 -36.21694097983891,-9.80194690372323 -36.21691182703612,-9.80191725334497 -36.21688217196092,-9.80188760677576 -36.21684828951825,-9.80185539101958 -36.21555990568513,-9.80064947504939 -36.21553465061883,-9.80062406103816 -36.21551928298788,-9.80060864734961 -36.21551734771821,-9.80060687383547 -36.21551761500168,-9.80060603187740
          </coordinates>
        </LinearRing>
      </outerBoundaryIs>
    </Polygon>
  </Placemark>
</Document>
</kml>
