<?xml version="1.0" encoding="UTF-8"?>
<kml xmlns="http://www.opengis.net/kml/2.2" xmlns:gx="http://www.google.com/kml/ext/2.2" xmlns:kml="http://www.opengis.net/kml/2.2" xmlns:atom="http://www.w3.org/2005/Atom">
<Document>
  <name>1025.kml</name>
  <StyleMap id="FFFF4000">
    <Pair>
      <key>normal</key>
      <styleUrl>#s_FFFF4000</styleUrl>
    </Pair>
    <Pair>
      <key>highlight</key>
      <styleUrl>#s_FFFF4000_hl</styleUrl>
    </Pair>
  </StyleMap>
  <Style id="s_FFFF4000">
   <IconStyle>
      <scale>1.1</scale>
      <Icon>
        <href>http://maps.google.com/mapfiles/kml/pushpin/agrocad.png</href>
      </Icon>
      <hotSpot x="20" y="2" xunits="pixels" yunits="pixels"/>
    </IconStyle>
    <LineStyle>
      <color>FFFF4000</color>
      <width>1</width>
    </LineStyle>
    <PolyStyle>
      <color>40ffffff</color>
      <fill>1</fill>
    </PolyStyle>
  </Style>
  <Style id="s_FFFF4000_hl">
    <IconStyle>
      <scale>1.3</scale>
      <Icon>
        <href>http://maps.google.com/mapfiles/kml/pushpin/agrocad.png</href>
      </Icon>
      <hotSpot x="20" y="2" xunits="pixels" yunits="pixels"/>
    </IconStyle>
    <LineStyle>
      <color>ff000000</color>
      <width>1</width>
    </LineStyle>
    <PolyStyle>
      <color>40ffffff</color>
      <fill>1</fill>
    </PolyStyle>
  </Style>
  <Placemark>
    <name>AgroCAD: 8EFA</name>
    <styleUrl>FFFF4000</styleUrl>
    <Polygon>
      <outerBoundaryIs>
        <LinearRing>
          <coordinates>
           -36.21010262354414,-9.78908022183813 -36.21011719922571,-9.78903557650223 -36.21013122750254,-9.78898937369893 -36.21014516176177,-9.78893286688855 -36.21015578414180,-9.78889752561865 -36.21017292370164,-9.78884043606622 -36.21018760932708,-9.78879565289179 -36.21020307863985,-9.78875242151857 -36.21022220557029,-9.78871011276546 -36.21024282500299,-9.78866754511628 -36.21026289804332,-9.78862283276016 -36.21027805338401,-9.78857845469554 -36.21042966592320,-9.78824817213052 -36.21044966460582,-9.78819977558484 -36.21047105192767,-9.78815576196148 -36.21049105118626,-9.78811103214801 -36.21051372322925,-9.78806750850296 -36.21053502026678,-9.78802510766426 -36.21055707533576,-9.78798317020440 -36.21057757171100,-9.78793884077543 -36.21059174755321,-9.78790026828717 -36.21069333961672,-9.78769219230044 -36.21071422918120,-9.78765002157274 -36.21073578429836,-9.78760846790689 -36.21075572208559,-9.78756443078922 -36.21077658532901,-9.78751971104615 -36.21079545246269,-9.78747717588979 -36.21081298365304,-9.78743277831337 -36.21083097609459,-9.78738950702758 -36.21085100458135,-9.78734574746840 -36.21086933438428,-9.78730119622035 -36.21089315647181,-9.78724400183129 -36.21091113000642,-9.78719971813776 -36.21092809204049,-9.78715432557538 -36.21094335247562,-9.78711006501228 -36.21095799934388,-9.78706620671836 -36.21097474482485,-9.78701976848979 -36.21099187210415,-9.78697360771165 -36.21100961767580,-9.78692712856483 -36.21102925525237,-9.78688090880236 -36.21104714920303,-9.78683497989092 -36.21106169481432,-9.78679181897692 -36.21107746350436,-9.78674432386439 -36.21109519069353,-9.78669874228989 -36.21111259535237,-9.78665792236087 -36.21113998108012,-9.78662966493021 -36.21117851495888,-9.78662279361626 -36.21121697381348,-9.78663136423016 -36.21125784582453,-9.78664430499816 -36.21130289056998,-9.78665597126431 -36.21134989843960,-9.78666754790987 -36.21139078925465,-9.78667964228506 -36.21141797782215,-9.78669117624906 -36.21180487159576,-9.78678564296400 -36.21184910328504,-9.78679727731089 -36.21189587102676,-9.78681037962634 -36.21194090245262,-9.78682046992936 -36.21200022791253,-9.78683514821805 -36.21204607320313,-9.78684674915464 -36.21209179195125,-9.78686040968294 -36.21213812567685,-9.78687386214770 -36.21218144378683,-9.78688846897813 -36.21221800820213,-9.78690523352477 -36.21225397160241,-9.78692590308452 -36.21225659098423,-9.78695218273405 -36.21223943447982,-9.78698845762300 -36.21221800776705,-9.78702402632731 -36.21220843112328,-9.78704608742012 -36.21211602183055,-9.78719219301154 -36.21209355125249,-9.78723456648076 -36.21207075806072,-9.78727754590557 -36.21204498657051,-9.78731950876303 -36.21202004503391,-9.78736322683421 -36.21199561980730,-9.78740591738442 -36.21197279375086,-9.78745153842496 -36.21194786931315,-9.78749676024891 -36.21192290534444,-9.78754095083175 -36.21189296248825,-9.78759275720828 -36.21186568058828,-9.78763693984883 -36.21185176589659,-9.78766368899884 -36.21172144068926,-9.78786787109470 -36.21169463133359,-9.78790611401396 -36.21166617740966,-9.78794666089120 -36.21163483911871,-9.78798577873572 -36.21160433066928,-9.78802655460657 -36.21157502591021,-9.78806730950288 -36.21156064264286,-9.78809574870386 -36.21151754938814,-9.78818325250763 -36.21150236978462,-9.78822832666891 -36.21148049450456,-9.78827162457502 -36.21146546213863,-9.78831613135382 -36.21145023720263,-9.78836416544736 -36.21143518429241,-9.78841220037057 -36.21142156319537,-9.78845955854361 -36.21140846651896,-9.78850459079553 -36.21139640700052,-9.78855223080065 -36.21138486054350,-9.78860176116012 -36.21137885617758,-9.78865159076577 -36.21137637400042,-9.78870175591865 -36.21136764653448,-9.78875148170059 -36.21136386082830,-9.78879937343983 -36.21136145352517,-9.78884819818166 -36.21136471401427,-9.78889372886703 -36.21136236603575,-9.78896808762473 -36.21136882455829,-9.78901368275085 -36.21137757006570,-9.78905949527859 -36.21138254311718,-9.78910240118468 -36.21138718471122,-9.78914268809150 -36.21138703099346,-9.78918736970274 -36.21138320785521,-9.78923517664317 -36.21137144981180,-9.78928323918183 -36.21135574263635,-9.78933027553713 -36.21133346965729,-9.78937300396196 -36.21130665575550,-9.78941527924521 -36.21128113631730,-9.78945633708179 -36.21125367030696,-9.78949841013404 -36.21122469536200,-9.78953651521654 -36.21120160575268,-9.78957408490945 -36.21116044062054,-9.78962160168428 -36.21113720103343,-9.78965456900453 -36.21111101984608,-9.78969075809428 -36.21108850256053,-9.78973043651269 -36.21106977438503,-9.78977144847717 -36.21105202835786,-9.78981266885087 -36.21103856640981,-9.78984410624975 -36.21103564402799,-9.78988379928678 -36.21102894821806,-9.78992519328399 -36.21102373389053,-9.78997126829348 -36.21101888614337,-9.78999944355008 -36.21101008858995,-9.79008605274291 -36.21098313566147,-9.79027717156066 -36.21096881900060,-9.79031184725667 -36.21094970432069,-9.79039853443059 -36.21093281304797,-9.79047096672567 -36.21087617357749,-9.79046161577870 -36.21073253154484,-9.79043093303309 -36.21046019720473,-9.79036668560367 -36.21027726262715,-9.79032817585661 -36.21016262042711,-9.79030267927297 -36.21006962135561,-9.79027740060035 -36.20997702066436,-9.79023890780771 -36.20996017051592,-9.79023021128966 -36.20993638195024,-9.79021434665661 -36.20992220377384,-9.79019378039009 -36.20992273954745,-9.79016155091726 -36.20992763121885,-9.79012403724869 -36.20993858998493,-9.79005543406311 -36.20994155541306,-9.79002205202230 -36.20994833524433,-9.78997955178723 -36.20995356858200,-9.78993504580920 -36.20996110174598,-9.78989041255873 -36.20996585350708,-9.78983266057665 -36.20997163351956,-9.78979202689916 -36.21001452486371,-9.78948868072133 -36.21002371571955,-9.78944418189755 -36.21004794832838,-9.78930847400992 -36.21005909314399,-9.78926482312397 -36.21006904950833,-9.78922081265333 -36.21008054366278,-9.78917281186682 -36.21009183569867,-9.78912627741994 -36.21010262354414,-9.78908022183813
          </coordinates>
        </LinearRing>
      </outerBoundaryIs>
    </Polygon>
  </Placemark>
</Document>
</kml>
