<?xml version="1.0" encoding="UTF-8"?>
<kml xmlns="http://www.opengis.net/kml/2.2" xmlns:gx="http://www.google.com/kml/ext/2.2" xmlns:kml="http://www.opengis.net/kml/2.2" xmlns:atom="http://www.w3.org/2005/Atom">
<Document>
  <name>1036.kml</name>
  <StyleMap id="FFFF4000">
    <Pair>
      <key>normal</key>
      <styleUrl>#s_FFFF4000</styleUrl>
    </Pair>
    <Pair>
      <key>highlight</key>
      <styleUrl>#s_FFFF4000_hl</styleUrl>
    </Pair>
  </StyleMap>
  <Style id="s_FFFF4000">
   <IconStyle>
      <scale>1.1</scale>
      <Icon>
        <href>http://maps.google.com/mapfiles/kml/pushpin/agrocad.png</href>
      </Icon>
      <hotSpot x="20" y="2" xunits="pixels" yunits="pixels"/>
    </IconStyle>
    <LineStyle>
      <color>FFFF4000</color>
      <width>1</width>
    </LineStyle>
    <PolyStyle>
      <color>40ffffff</color>
      <fill>1</fill>
    </PolyStyle>
  </Style>
  <Style id="s_FFFF4000_hl">
    <IconStyle>
      <scale>1.3</scale>
      <Icon>
        <href>http://maps.google.com/mapfiles/kml/pushpin/agrocad.png</href>
      </Icon>
      <hotSpot x="20" y="2" xunits="pixels" yunits="pixels"/>
    </IconStyle>
    <LineStyle>
      <color>ff000000</color>
      <width>1</width>
    </LineStyle>
    <PolyStyle>
      <color>40ffffff</color>
      <fill>1</fill>
    </PolyStyle>
  </Style>
  <Placemark>
    <name>AgroCAD: 90E9</name>
    <styleUrl>FFFF4000</styleUrl>
    <Polygon>
      <outerBoundaryIs>
        <LinearRing>
          <coordinates>
           -36.24077916324219,-9.78999090290859 -36.24073072592433,-9.78994480546530 -36.24070974250154,-9.78992484463063 -36.24066307442072,-9.78988578631131 -36.24062984320422,-9.78985941284909 -36.23974293903100,-9.78914723875046 -36.23972394635933,-9.78913130652013 -36.23692284181478,-9.78690668794073 -36.23556521241890,-9.78840298936640 -36.23406067434806,-9.79005157821149 -36.23307089452416,-9.79113889831552 -36.23305832280200,-9.79116105352091 -36.23309467189772,-9.79119609154532 -36.23404833346468,-9.79195983566978 -36.23531661881414,-9.79296253909662 -36.23652237773683,-9.79390369648368 -36.23653150380422,-9.79391006339756 -36.23658058070554,-9.79395077124148 -36.23664296419519,-9.79401257805535 -36.23670688658584,-9.79408959171406 -36.23675050434972,-9.79415231946184 -36.23679127019845,-9.79419546374402 -36.23684545318084,-9.79420884762670 -36.23691322888162,-9.79419301259894 -36.23698663944579,-9.79414913036493 -36.23705058631874,-9.79410070983963 -36.23730261973609,-9.79390917589256 -36.23731205849368,-9.79390256265171 -36.23734354776737,-9.79388228558349 -36.23741194851969,-9.79384186779884 -36.23754694850945,-9.79379160883453 -36.23766179746354,-9.79375250659603 -36.23778144990174,-9.79371195495397 -36.23790172988234,-9.79366444815494 -36.23819480035821,-9.79349549392683 -36.23819824575689,-9.79349338151430 -36.23822701564921,-9.79347384360453 -36.23828592597386,-9.79342478577993 -36.23834940713489,-9.79335902654527 -36.23840444489334,-9.79328545106743 -36.23844316062186,-9.79321773694788 -36.23847188291293,-9.79314808761256 -36.23849917006049,-9.79305283092473 -36.23857409517105,-9.79260093474131 -36.23861288206459,-9.79246731516008 -36.23862827804067,-9.79241532043626 -36.23864108746688,-9.79237558773249 -36.23867716755015,-9.79228102524743 -36.23872503278061,-9.79219637754215 -36.23879175490952,-9.79210729122985 -36.23886416390361,-9.79201732217520 -36.23891646568359,-9.79194790779786 -36.23898180048608,-9.79185466597718 -36.23912605297437,-9.79164901135661 -36.23923071432269,-9.79151880767353 -36.23929730271220,-9.79148322866594 -36.23933889734466,-9.79145904194045 -36.23938232235315,-9.79143683043909 -36.23941866235179,-9.79141593708603 -36.23950817032892,-9.79135715109907 -36.23966507330903,-9.79121505599202 -36.23970344073821,-9.79118033968307 -36.23973641598169,-9.79114127488209 -36.23977923428834,-9.79108857096816 -36.23983088822026,-9.79102395709594 -36.23986821449065,-9.79096719722361 -36.23989441712101,-9.79092897442994 -36.23993608574882,-9.79087721304846 -36.24003057563320,-9.79075810173964 -36.24008334807712,-9.79068825265842 -36.24015425258330,-9.79059147707329 -36.24023149682690,-9.79049444103442 -36.24031440771773,-9.79039931820882 -36.24040277323977,-9.79030568088006 -36.24042807014977,-9.79028253967670 -36.24057190402792,-9.79018369410104 -36.24061373680011,-9.79015095833438 -36.24072143536312,-9.79004272755002 -36.24077916324219,-9.78999090290859
          </coordinates>
        </LinearRing>
      </outerBoundaryIs>
    </Polygon>
  </Placemark>
</Document>
</kml>
