<?xml version="1.0" encoding="UTF-8"?>
<kml xmlns="http://www.opengis.net/kml/2.2" xmlns:gx="http://www.google.com/kml/ext/2.2" xmlns:kml="http://www.opengis.net/kml/2.2" xmlns:atom="http://www.w3.org/2005/Atom">
<Document>
  <name>1008.kml</name>
  <StyleMap id="FF0040FF">
    <Pair>
      <key>normal</key>
      <styleUrl>#s_FF0040FF</styleUrl>
    </Pair>
    <Pair>
      <key>highlight</key>
      <styleUrl>#s_FF0040FF_hl</styleUrl>
    </Pair>
  </StyleMap>
  <Style id="s_FF0040FF">
   <IconStyle>
      <scale>1.1</scale>
      <Icon>
        <href>http://maps.google.com/mapfiles/kml/pushpin/agrocad.png</href>
      </Icon>
      <hotSpot x="20" y="2" xunits="pixels" yunits="pixels"/>
    </IconStyle>
    <LineStyle>
      <color>FF0040FF</color>
      <width>1</width>
    </LineStyle>
    <PolyStyle>
      <color>40ffffff</color>
      <fill>1</fill>
    </PolyStyle>
  </Style>
  <Style id="s_FF0040FF_hl">
    <IconStyle>
      <scale>1.3</scale>
      <Icon>
        <href>http://maps.google.com/mapfiles/kml/pushpin/agrocad.png</href>
      </Icon>
      <hotSpot x="20" y="2" xunits="pixels" yunits="pixels"/>
    </IconStyle>
    <LineStyle>
      <color>ff000000</color>
      <width>1</width>
    </LineStyle>
    <PolyStyle>
      <color>40ffffff</color>
      <fill>1</fill>
    </PolyStyle>
  </Style>
  <Placemark>
    <name>AgroCAD: 7FEA</name>
    <styleUrl>FF0040FF</styleUrl>
    <Polygon>
      <outerBoundaryIs>
        <LinearRing>
          <coordinates>
           -36.22440753118630,-9.79712361303496 -36.22450877201958,-9.79672163192384 -36.22452202785288,-9.79666899970163 -36.22513711757465,-9.79422672831277 -36.22521542174125,-9.79390959886834 -36.22527588035231,-9.79392471331278 -36.22594106646286,-9.79407491692392 -36.22679928562878,-9.79428947220174 -36.22769007423913,-9.79449663247958 -36.22768043423914,-9.79453559386846 -36.22720839979503,-9.79642372886843 -36.22700889368406,-9.79719553525731 -36.22699529535075,-9.79724814164620 -36.22681880562865,-9.79793090220174 -36.22643241507343,-9.79834862053505 -36.22611768007369,-9.79856156942393 -36.22573628535179,-9.79874914331279 -36.22438649868628,-9.79924192247940 -36.22382680840896,-9.79945392720159 -36.22391411063113,-9.79905438692381 -36.22440753118630,-9.79712361303496
          </coordinates>
        </LinearRing>
      </outerBoundaryIs>
    </Polygon>
  </Placemark>
</Document>
</kml>
