<?xml version="1.0" encoding="UTF-8"?>
<kml xmlns="http://www.opengis.net/kml/2.2" xmlns:gx="http://www.google.com/kml/ext/2.2" xmlns:kml="http://www.opengis.net/kml/2.2" xmlns:atom="http://www.w3.org/2005/Atom">
<Document>
  <name>28.kml</name>
  <StyleMap id="FFFF4000">
    <Pair>
      <key>normal</key>
      <styleUrl>#s_FFFF4000</styleUrl>
    </Pair>
    <Pair>
      <key>highlight</key>
      <styleUrl>#s_FFFF4000_hl</styleUrl>
    </Pair>
  </StyleMap>
  <Style id="s_FFFF4000">
   <IconStyle>
      <scale>1.1</scale>
      <Icon>
        <href>http://maps.google.com/mapfiles/kml/pushpin/agrocad.png</href>
      </Icon>
      <hotSpot x="20" y="2" xunits="pixels" yunits="pixels"/>
    </IconStyle>
    <LineStyle>
      <color>FFFF4000</color>
      <width>1</width>
    </LineStyle>
    <PolyStyle>
      <color>40ffffff</color>
      <fill>1</fill>
    </PolyStyle>
  </Style>
  <Style id="s_FFFF4000_hl">
    <IconStyle>
      <scale>1.3</scale>
      <Icon>
        <href>http://maps.google.com/mapfiles/kml/pushpin/agrocad.png</href>
      </Icon>
      <hotSpot x="20" y="2" xunits="pixels" yunits="pixels"/>
    </IconStyle>
    <LineStyle>
      <color>ff000000</color>
      <width>1</width>
    </LineStyle>
    <PolyStyle>
      <color>40ffffff</color>
      <fill>1</fill>
    </PolyStyle>
  </Style>
  <Placemark>
    <name>AgroCAD: 1E8CD</name>
    <styleUrl>FFFF4000</styleUrl>
    <Polygon>
      <outerBoundaryIs>
        <LinearRing>
          <coordinates>
           -36.45331500003086,-9.63949833300971 -36.45329500003087,-9.63949333300973 -36.45332666669754,-9.63950499967639 -36.45336333336419,-9.63952166634307 -36.45344000003085,-9.63956166634306 -36.45348000003086,-9.63958499967639 -36.45352166669752,-9.63960666634306 -36.45356333336418,-9.63963166634306 -36.45360666669751,-9.63965999967640 -36.45365333336417,-9.63968666634306 -36.45370000003084,-9.63971666634306 -36.45375166669751,-9.63974666634307 -36.45380166669749,-9.63977833300973 -36.45385333336417,-9.63980999967640 -36.45390833336415,-9.63983999967640 -36.45396500003083,-9.63987166634306 -36.45402333336416,-9.63990666634306 -36.45408500003081,-9.63993999967640 -36.45414333336415,-9.63997499967640 -36.45419666669748,-9.64000999967641 -36.45424666669747,-9.64004499967641 -36.45430000003080,-9.64007833300975 -36.45435333336413,-9.64011499967641 -36.45446000003079,-9.64017833300974 -36.45451666669746,-9.64020999967641 -36.45457166669745,-9.64024166634308 -36.45463500003078,-9.64026999967641 -36.45469833336411,-9.64030999967640 -36.45476000003077,-9.64034999967641 -36.45482500003077,-9.64038999967642 -36.45489166669744,-9.64042999967641 -36.45495833336408,-9.64047166634308 -36.45502333336408,-9.64050999967640 -36.45509000003076,-9.64055166634308 -36.45516500003075,-9.64059333300975 -36.45524000003074,-9.64063833300975 -36.45531666669740,-9.64068333300975 -36.45539166669740,-9.64072833300975 -36.45562166669739,-9.64086833300975 -36.45569500003071,-9.64091833300976 -36.45576833336404,-9.64095833300975 -36.45583833336404,-9.64099833300977 -36.45591000003069,-9.64103666634310 -36.45597833336403,-9.64107666634310 -36.45603833336402,-9.64111333300975 -36.45612666669735,-9.64116499967643 -36.45616000003068,-9.64118499967643 -36.45618166669735,-9.64120166634310 -36.45619166669735,-9.64121333300976 -36.45619000003068,-9.64122666634310 -36.45616833336403,-9.64126166634309 -36.45615000003068,-9.64130499967642 -36.45614000003068,-9.64132666634309 -36.45612000003069,-9.64136166634308 -36.45609666669735,-9.64142333300976 -36.45608500003068,-9.64144333300976 -36.45607666669736,-9.64146499967642 -36.45605833336402,-9.64150333300975 -36.45604166669736,-9.64155333300975 -36.45603166669737,-9.64157499967640 -36.45601833336402,-9.64159499967642 -36.45600000003069,-9.64163666634308 -36.45599166669736,-9.64165166634308 -36.45597666669735,-9.64168499967641 -36.45596666669737,-9.64170166634307 -36.45596166669736,-9.64171499967641 -36.45595500003069,-9.64172499967640 -36.45592666669736,-9.64178666634307 -36.45591833336403,-9.64180999967640 -36.45591166669735,-9.64183166634307 -36.45588333336404,-9.64189499967639 -36.45587000003069,-9.64191833300973 -36.45585833336403,-9.64194499967639 -36.45585166669737,-9.64196666634306 -36.45584333336405,-9.64198499967639 -36.45583833336404,-9.64200166634306 -36.45582833336404,-9.64201999967639 -36.45581333336404,-9.64204333300973 -36.45580166669736,-9.64206833300972 -36.45576666669736,-9.64213333300972 -36.45575666669737,-9.64215333300971 -36.45574500003072,-9.64217166634305 -36.45573333336404,-9.64218666634305 -36.45572500003070,-9.64220666634306 -36.45571500003072,-9.64220999967638 -36.45570666669737,-9.64220999967638 -36.45567166669738,-9.64218666634305 -36.45565166669737,-9.64217499967638 -36.45563000003071,-9.64216666634305 -36.45561166669737,-9.64215833300971 -36.45559333336404,-9.64214833300972 -36.45554666669738,-9.64212666634304 -36.45552000003072,-9.64211499967638 -36.45549500003072,-9.64210666634304 -36.45547166669738,-9.64209499967638 -36.45544500003073,-9.64207833300972 -36.45539500003072,-9.64204166634304 -36.45536666669740,-9.64202166634304 -36.45533833336406,-9.64200333300970 -36.45530833336406,-9.64198166634305 -36.45527666669740,-9.64195999967638 -36.45524166669741,-9.64193499967638 -36.45520500003074,-9.64191166634304 -36.45516666669740,-9.64188499967637 -36.45508500003074,-9.64182999967637 -36.45504333336409,-9.64180333300971 -36.45500000003075,-9.64177499967636 -36.45495333336408,-9.64174999967637 -36.45490500003076,-9.64172166634304 -36.45485833336409,-9.64169333300971 -36.45481666669744,-9.64166499967637 -36.45477666669743,-9.64163499967638 -36.45473500003078,-9.64160666634303 -36.45469166669744,-9.64158333300970 -36.45465166669744,-9.64155833300971 -36.45457166669744,-9.64150499967637 -36.45449833336412,-9.64145666634302 -36.45446166669746,-9.64143499967636 -36.45438833336412,-9.64138666634304 -36.45435166669747,-9.64135999967636 -36.45431000003080,-9.64133666634303 -36.45426833336414,-9.64131166634302 -36.45418166669747,-9.64125166634303 -36.45409500003081,-9.64119666634303 -36.45405500003081,-9.64116999967635 -36.45401166669748,-9.64114333300969 -36.45392500003081,-9.64109333300970 -36.45388333336416,-9.64106999967637 -36.45384666669750,-9.64104333300969 -36.45376500003084,-9.64099666634302 -36.45372500003083,-9.64097333300969 -36.45368666669750,-9.64094833300968 -36.45364500003084,-9.64092333300969 -36.45360333336416,-9.64089499967634 -36.45355833336418,-9.64086333300969 -36.45345833336418,-9.64080333300968 -36.45341000003085,-9.64077333300968 -36.45336333336419,-9.64074333300969 -36.45331833336419,-9.64071499967635 -36.45322000003087,-9.64065499967635 -36.45316833336420,-9.64062166634303 -36.45311166669755,-9.64058999967635 -36.45305500003087,-9.64055999967635 -36.45299833336421,-9.64052833300967 -36.45294000003088,-9.64049333300968 -36.45288333336422,-9.64045666634301 -36.45282500003089,-9.64041999967635 -36.45276500003090,-9.64038333300968 -36.45270500003090,-9.64034833300969 -36.45265000003091,-9.64031166634301 -36.45260500003091,-9.64028666634301 -36.45257333336424,-9.64027166634301 -36.45255166669758,-9.64025333300967 -36.45253500003091,-9.64024166634302 -36.45252833336424,-9.64022999967634 -36.45252666669758,-9.64021333300968 -36.45253166669757,-9.64019499967635 -36.45254500003092,-9.64017499967634 -36.45256166669757,-9.64015499967634 -36.45257500003091,-9.64014166634301 -36.45258000003091,-9.64014333300968 -36.45257500003091,-9.64014666634301 -36.45331500003086,-9.63949833300971 -36.45331500003086,-9.63949833300971 -36.45331500003086,-9.63949833300971
          </coordinates>
        </LinearRing>
      </outerBoundaryIs>
    </Polygon>
  </Placemark>
</Document>
</kml>
