<?xml version="1.0" encoding="UTF-8"?>
<kml xmlns="http://www.opengis.net/kml/2.2" xmlns:gx="http://www.google.com/kml/ext/2.2" xmlns:kml="http://www.opengis.net/kml/2.2" xmlns:atom="http://www.w3.org/2005/Atom">
<Document>
  <name>1003.kml</name>
  <StyleMap id="FFFF4000">
    <Pair>
      <key>normal</key>
      <styleUrl>#s_FFFF4000</styleUrl>
    </Pair>
    <Pair>
      <key>highlight</key>
      <styleUrl>#s_FFFF4000_hl</styleUrl>
    </Pair>
  </StyleMap>
  <Style id="s_FFFF4000">
   <IconStyle>
      <scale>1.1</scale>
      <Icon>
        <href>http://maps.google.com/mapfiles/kml/pushpin/agrocad.png</href>
      </Icon>
      <hotSpot x="20" y="2" xunits="pixels" yunits="pixels"/>
    </IconStyle>
    <LineStyle>
      <color>FFFF4000</color>
      <width>1</width>
    </LineStyle>
    <PolyStyle>
      <color>40ffffff</color>
      <fill>1</fill>
    </PolyStyle>
  </Style>
  <Style id="s_FFFF4000_hl">
    <IconStyle>
      <scale>1.3</scale>
      <Icon>
        <href>http://maps.google.com/mapfiles/kml/pushpin/agrocad.png</href>
      </Icon>
      <hotSpot x="20" y="2" xunits="pixels" yunits="pixels"/>
    </IconStyle>
    <LineStyle>
      <color>ff000000</color>
      <width>1</width>
    </LineStyle>
    <PolyStyle>
      <color>40ffffff</color>
      <fill>1</fill>
    </PolyStyle>
  </Style>
  <Placemark>
    <name>AgroCAD: 94EE</name>
    <styleUrl>FFFF4000</styleUrl>
    <Polygon>
      <outerBoundaryIs>
        <LinearRing>
          <coordinates>
           -36.32815962552813,-9.78305564090584 -36.32834810191293,-9.78288596617901 -36.32840748024426,-9.78279811895514 -36.32870619078881,-9.78231559811339 -36.32873966439877,-9.78226425172357 -36.32877211161993,-9.78221823172269 -36.32886871495089,-9.78212198894248 -36.32900655717041,-9.78200988866138 -36.32904287189230,-9.78200480421617 -36.32940883272641,-9.78210200254264 -36.32946064106014,-9.78212965920839 -36.32953412272755,-9.78217848892938 -36.32964563384039,-9.78228268892765 -36.32974848550926,-9.78240659809287 -36.32990666162357,-9.78258835725728 -36.33005232301535,-9.78275249086627 -36.33028680774251,-9.78303417336294 -36.33025225440955,-9.78304564669703 -36.33018268885470,-9.78306874558744 -36.33014790607723,-9.78308029503265 -36.33007834052240,-9.78310339392305 -36.33004355774505,-9.78311494336827 -36.32997399219019,-9.78313804225868 -36.32993920969055,-9.78314959170386 -36.32986964413570,-9.78317269031647 -36.32983486135833,-9.78318423976169 -36.32976529580349,-9.78320733865208 -36.32973051302601,-9.78321888809729 -36.32966094747118,-9.78324198670994 -36.32962616469382,-9.78325353615515 -36.32955659913898,-9.78327663504552 -36.32952181636151,-9.78328818421294 -36.32945225080668,-9.78331128310336 -36.32941746802921,-9.78332283254854 -36.32934790247447,-9.78334593116115 -36.32931311969700,-9.78335748060639 -36.32924355414218,-9.78338057921901 -36.32920877136470,-9.78339212838641 -36.32913920553217,-9.78341522727685 -36.32910442275470,-9.78342677644424 -36.32903485719987,-9.78344987505688 -36.32900007442251,-9.78346142450208 -36.32893050886757,-9.78348452311469 -36.32889572609019,-9.78349607228214 -36.32882616053537,-9.78351917089476 -36.32879137748020,-9.78353072033995 -36.32872181192535,-9.78355381867481 -36.32868702914789,-9.78356536812002 -36.32861746359306,-9.78358846645487 -36.32858268081569,-9.78360001590007 -36.32851311498305,-9.78362311423491 -36.32847833220559,-9.78363466368010 -36.32840876665075,-9.78365776201495 -36.32837398359557,-9.78366931146017 -36.32830441804074,-9.78369240979503 -36.32826963526337,-9.78370395896244 -36.32820006943074,-9.78372705729728 -36.32816528665328,-9.78373860674247 -36.32809572109844,-9.78376170507734 -36.32806093832106,-9.78377325424476 -36.32799137248843,-9.78379635257958 -36.32795658971097,-9.78380790174704 -36.32788702387833,-9.78383100008189 -36.32785224110096,-9.78384254924930 -36.32778267526833,-9.78386564758415 -36.32774789249096,-9.78387719675157 -36.32767832693613,-9.78390029508643 -36.32764354388085,-9.78391184425383 -36.32757397832602,-9.78393494258869 -36.32753919527085,-9.78394649175611 -36.32746962971602,-9.78396959009098 -36.32743484666085,-9.78398113898059 -36.32736528110600,-9.78400423731546 -36.32733049805074,-9.78401578648289 -36.32726093221811,-9.78403888453994 -36.32722614944074,-9.78405043370738 -36.32715658360810,-9.78407353176446 -36.32712180083073,-9.78408508093189 -36.32705223499810,-9.78410817926672 -36.32701745222063,-9.78411972815635 -36.32694788638801,-9.78414282621344 -36.32691310333282,-9.78415437538086 -36.32684353777800,-9.78417747343794 -36.32680875472282,-9.78418902260533 -36.32673918889018,-9.78421212066242 -36.32670440611281,-9.78422366955207 -36.32663484028018,-9.78424676760910 -36.32660005722491,-9.78425831677657 -36.32653049139237,-9.78428141483365 -36.32649570861492,-9.78429296372326 -36.32642614278227,-9.78431606178035 -36.32639135972711,-9.78432761067002 -36.32632179389446,-9.78435070872707 -36.32628701111710,-9.78436225761669 -36.32624631806189,-9.78437576900649 -36.32614959695005,-9.78432192956372 -36.32607188528154,-9.78421921012034 -36.32605721722490,-9.78416138345368 -36.32608385361265,-9.78411473900846 -36.32615040277733,-9.78402437567334 -36.32611644694195,-9.78392435372908 -36.32612287610699,-9.78384428706186 -36.32614893138410,-9.78381405317230 -36.32627380666022,-9.78375436789173 -36.32655017804546,-9.78362708344107 -36.32674263470951,-9.78353375982565 -36.32691490192979,-9.78346783037738 -36.32719791914925,-9.78337650564904 -36.32725153387094,-9.78336444203676 -36.32749616164755,-9.78334828897622 -36.32755932331372,-9.78333100953041 -36.32772893997854,-9.78327130452671 -36.32794135914294,-9.78319730952204 -36.32815962552813,-9.78305564090584 -36.32815962552813,-9.78305564090584
          </coordinates>
        </LinearRing>
      </outerBoundaryIs>
    </Polygon>
  </Placemark>
</Document>
</kml>
