<?xml version="1.0" encoding="UTF-8"?>
<kml xmlns="http://www.opengis.net/kml/2.2" xmlns:gx="http://www.google.com/kml/ext/2.2" xmlns:kml="http://www.opengis.net/kml/2.2" xmlns:atom="http://www.w3.org/2005/Atom">
<Document>
  <name>1003.kml</name>
  <StyleMap id="FF0040FF">
    <Pair>
      <key>normal</key>
      <styleUrl>#s_FF0040FF</styleUrl>
    </Pair>
    <Pair>
      <key>highlight</key>
      <styleUrl>#s_FF0040FF_hl</styleUrl>
    </Pair>
  </StyleMap>
  <Style id="s_FF0040FF">
   <IconStyle>
      <scale>1.1</scale>
      <Icon>
        <href>http://maps.google.com/mapfiles/kml/pushpin/agrocad.png</href>
      </Icon>
      <hotSpot x="20" y="2" xunits="pixels" yunits="pixels"/>
    </IconStyle>
    <LineStyle>
      <color>FF0040FF</color>
      <width>1</width>
    </LineStyle>
    <PolyStyle>
      <color>40ffffff</color>
      <fill>1</fill>
    </PolyStyle>
  </Style>
  <Style id="s_FF0040FF_hl">
    <IconStyle>
      <scale>1.3</scale>
      <Icon>
        <href>http://maps.google.com/mapfiles/kml/pushpin/agrocad.png</href>
      </Icon>
      <hotSpot x="20" y="2" xunits="pixels" yunits="pixels"/>
    </IconStyle>
    <LineStyle>
      <color>ff000000</color>
      <width>1</width>
    </LineStyle>
    <PolyStyle>
      <color>40ffffff</color>
      <fill>1</fill>
    </PolyStyle>
  </Style>
  <Placemark>
    <name>AgroCAD: 8196</name>
    <styleUrl>FF0040FF</styleUrl>
    <Polygon>
      <outerBoundaryIs>
        <LinearRing>
          <coordinates>
           -36.21305536388180,-9.80374325469284 -36.21405632354476,-9.80514616083506 -36.21580392782034,-9.80759843719144 -36.21580638897766,-9.80760152317475 -36.21579225789826,-9.80761921836000 -36.21575419128581,-9.80765396332639 -36.21569586931533,-9.80768157406163 -36.21563094687785,-9.80770315552936 -36.21556733878178,-9.80771782036304 -36.21551932396438,-9.80772372843231 -36.21547976327200,-9.80772167286759 -36.21543321313685,-9.80770554202364 -36.21537450830007,-9.80767436945312 -36.21532704695629,-9.80764235867007 -36.21527908628195,-9.80760768466925 -36.21523336317641,-9.80757179870345 -36.21518814209609,-9.80753153346881 -36.21515011883537,-9.80748816421318 -36.21512109873015,-9.80744880069537 -36.21509143424459,-9.80740168507565 -36.21506833869053,-9.80735785089606 -36.21503508000511,-9.80730867204561 -36.21500192348513,-9.80727950864753 -36.21496999049197,-9.80725861620217 -36.21492903674242,-9.80727210362330 -36.21489452932170,-9.80730527346962 -36.21486197499994,-9.80734161033933 -36.21482956709752,-9.80738974211035 -36.21481271075545,-9.80743827287591 -36.21480025122985,-9.80750730277836 -36.21479522500307,-9.80756576370901 -36.21479758890260,-9.80763231576093 -36.21480031456929,-9.80768869222492 -36.21479591260244,-9.80774495319632 -36.21477604381468,-9.80780811748668 -36.21472805804934,-9.80785619724924 -36.21467366386730,-9.80789281790816 -36.21460747449550,-9.80791718334142 -36.21454872145829,-9.80792698974551 -36.21448174620919,-9.80793839950047 -36.21441823409315,-9.80795630973055 -36.21436883738873,-9.80797842091816 -36.21432178982125,-9.80800659479283 -36.21427045336852,-9.80804438577723 -36.21422044075929,-9.80808967110542 -36.21417298178531,-9.80812815164835 -36.21413485774510,-9.80815971744616 -36.21409446780485,-9.80818753304012 -36.21404525756561,-9.80822487782301 -36.21399444901216,-9.80826157961987 -36.21394346063283,-9.80829585028591 -36.21388876703595,-9.80832639667722 -36.21384344744202,-9.80834776198140 -36.21379035941902,-9.80836929649861 -36.21374681201486,-9.80838695927590 -36.21369705244870,-9.80841545577066 -36.21366547841820,-9.80844968422229 -36.21363603822413,-9.80849453250344 -36.21360670916222,-9.80853359804092 -36.21357636904843,-9.80857185888316 -36.21354576852809,-9.80861075950109 -36.21350633804700,-9.80865778208122 -36.21347180723583,-9.80869368800836 -36.21343292807543,-9.80872613399160 -36.21339095012439,-9.80875483560951 -36.21333709495346,-9.80877966835258 -36.21329207925358,-9.80879188137231 -36.21324658419869,-9.80879424013442 -36.21321144278911,-9.80879033146429 -36.21321136421956,-9.80878956770710 -36.21321148961634,-9.80878968743634 -36.21317866471862,-9.80877999724603 -36.21316976278350,-9.80877585155611 -36.21306995131163,-9.80871689575915 -36.21286125736015,-9.80857852226823 -36.21157010310191,-9.80769210510147 -36.21134485196759,-9.80753542499405 -36.21116542697699,-9.80740350360619 -36.21108929111135,-9.80729963702406 -36.21108079016253,-9.80725118460156 -36.21109060453887,-9.80720657302861 -36.21110670302759,-9.80718081956660 -36.21214494383542,-9.80610243392055 -36.21271259957815,-9.80552020559081 -36.21324512349830,-9.80491587014339 -36.21320465997678,-9.80484608341008 -36.21317739107129,-9.80479786402479 -36.21307352898360,-9.80465772109416 -36.21290001973442,-9.80443180300432 -36.21268756722095,-9.80415254499511 -36.21262305711967,-9.80407525549252 -36.21251362655367,-9.80396026136426 -36.21237970125578,-9.80379165957629 -36.21230931400144,-9.80370666015288 -36.21240570077365,-9.80365492260915 -36.21249690988160,-9.80361343118774 -36.21264239675870,-9.80354863005606 -36.21268540893947,-9.80353065887388 -36.21274342332445,-9.80350595485900 -36.21283720801498,-9.80346928481738 -36.21284417309108,-9.80347124511812 -36.21292899763466,-9.80358370349999 -36.21296169201954,-9.80362690539348 -36.21297761563323,-9.80364680434029 -36.21305536388180,-9.80374325469284 -36.21305536388180,-9.80374325469284
          </coordinates>
        </LinearRing>
      </outerBoundaryIs>
    </Polygon>
  </Placemark>
</Document>
</kml>
