<?xml version="1.0" encoding="UTF-8"?>
<kml xmlns="http://www.opengis.net/kml/2.2" xmlns:gx="http://www.google.com/kml/ext/2.2" xmlns:kml="http://www.opengis.net/kml/2.2" xmlns:atom="http://www.w3.org/2005/Atom">
<Document>
  <name>1006.kml</name>
  <StyleMap id="FF0040FF">
    <Pair>
      <key>normal</key>
      <styleUrl>#s_FF0040FF</styleUrl>
    </Pair>
    <Pair>
      <key>highlight</key>
      <styleUrl>#s_FF0040FF_hl</styleUrl>
    </Pair>
  </StyleMap>
  <Style id="s_FF0040FF">
   <IconStyle>
      <scale>1.1</scale>
      <Icon>
        <href>http://maps.google.com/mapfiles/kml/pushpin/agrocad.png</href>
      </Icon>
      <hotSpot x="20" y="2" xunits="pixels" yunits="pixels"/>
    </IconStyle>
    <LineStyle>
      <color>FF0040FF</color>
      <width>1</width>
    </LineStyle>
    <PolyStyle>
      <color>40ffffff</color>
      <fill>1</fill>
    </PolyStyle>
  </Style>
  <Style id="s_FF0040FF_hl">
    <IconStyle>
      <scale>1.3</scale>
      <Icon>
        <href>http://maps.google.com/mapfiles/kml/pushpin/agrocad.png</href>
      </Icon>
      <hotSpot x="20" y="2" xunits="pixels" yunits="pixels"/>
    </IconStyle>
    <LineStyle>
      <color>ff000000</color>
      <width>1</width>
    </LineStyle>
    <PolyStyle>
      <color>40ffffff</color>
      <fill>1</fill>
    </PolyStyle>
  </Style>
  <Placemark>
    <name>AgroCAD: 8197</name>
    <styleUrl>FF0040FF</styleUrl>
    <Polygon>
      <outerBoundaryIs>
        <LinearRing>
          <coordinates>
           -36.20341199260127,-9.80193046930148 -36.20340646059223,-9.80189699484117 -36.20340043540505,-9.80186484618780 -36.20339527098100,-9.80183495912447 -36.20339036779944,-9.80180498367278 -36.20338802333451,-9.80177564268621 -36.20338069847583,-9.80174664245610 -36.20337677620569,-9.80172805871815 -36.20337249831203,-9.80169168551073 -36.20336891647489,-9.80165968447986 -36.20336854424873,-9.80162959218259 -36.20337582157483,-9.80160133642395 -36.20339362804732,-9.80157978257435 -36.20342023301328,-9.80156317821434 -36.20344613524582,-9.80154891125295 -36.20345326391109,-9.80154574167664 -36.20422608955774,-9.80101243940102 -36.20563241362170,-9.80003254323209 -36.20652040944069,-9.79942904794055 -36.20659394533305,-9.79938543524078 -36.20846679721429,-9.80202973980317 -36.20843180050084,-9.80205500856104 -36.20541097167276,-9.80416240134931 -36.20538964550452,-9.80417861681489 -36.20537084836830,-9.80419144781798 -36.20535249389851,-9.80420699038482 -36.20532671223030,-9.80422741741598 -36.20531025493681,-9.80423886467591 -36.20529869926222,-9.80424349127450 -36.20528784792933,-9.80425094467006 -36.20521471182079,-9.80429033849866 -36.20517454872526,-9.80429085159970 -36.20512018667721,-9.80428762713756 -36.20504844361033,-9.80428138923363 -36.20497266715597,-9.80427269810471 -36.20488706610311,-9.80425934728885 -36.20480825728151,-9.80424262853873 -36.20474949513917,-9.80421940448885 -36.20470166401930,-9.80418540018003 -36.20467837666556,-9.80416551424666 -36.20462716567183,-9.80413154280077 -36.20457214592979,-9.80408780109690 -36.20450400498228,-9.80403565152215 -36.20444848541217,-9.80399447130922 -36.20443032592045,-9.80398145859848 -36.20421096721727,-9.80382016595823 -36.20419304920379,-9.80380259721962 -36.20415780772497,-9.80376937320004 -36.20412479393861,-9.80372985656813 -36.20409807433222,-9.80369410634596 -36.20406991415219,-9.80365525477654 -36.20404627916438,-9.80361670958412 -36.20402252537533,-9.80358108128081 -36.20400204857954,-9.80354689058379 -36.20398114555064,-9.80350772936069 -36.20396356259540,-9.80347387493822 -36.20394126250376,-9.80342528546769 -36.20390709974500,-9.80334700729788 -36.20389492782777,-9.80332070476205 -36.20388213929956,-9.80329087460438 -36.20386912525944,-9.80326209962952 -36.20386452060210,-9.80324717700761 -36.20378004419058,-9.80308247295860 -36.20376360403358,-9.80305292206771 -36.20374668221482,-9.80302269985524 -36.20373068824017,-9.80299285899725 -36.20371403828400,-9.80296269326924 -36.20369783900604,-9.80293151483690 -36.20368281075573,-9.80290047486962 -36.20366889928719,-9.80287002381978 -36.20365495682473,-9.80283853507032 -36.20364126201240,-9.80280836396849 -36.20362740619952,-9.80277776418188 -36.20361428802536,-9.80274670078745 -36.20360106150028,-9.80271570833943 -36.20358934232809,-9.80268393507749 -36.20357743194911,-9.80265117171446 -36.20356573497732,-9.80261982010840 -36.20355546098605,-9.80258684227275 -36.20354425552534,-9.80255318788232 -36.20353386497920,-9.80251931314736 -36.20352364737512,-9.80248642330325 -36.20351988465080,-9.80247063913642 -36.20349766356500,-9.80239657725995 -36.20349108330203,-9.80236361649464 -36.20348266921982,-9.80232936773147 -36.20347299480677,-9.80229687617821 -36.20346626761732,-9.80226264329824 -36.20345566706959,-9.80221803896631 -36.20344902124368,-9.80218291044937 -36.20344290228530,-9.80214422568308 -36.20344265630900,-9.80212386320357 -36.20343608117055,-9.80209467820213 -36.20342988391985,-9.80206388933520 -36.20342357672907,-9.80203042355540 -36.20341943343722,-9.80199665289270 -36.20341708494501,-9.80196354615229 -36.20341199260127,-9.80193046930148
          </coordinates>
        </LinearRing>
      </outerBoundaryIs>
    </Polygon>
  </Placemark>
</Document>
</kml>
