<?xml version="1.0" encoding="UTF-8"?>
<kml xmlns="http://www.opengis.net/kml/2.2" xmlns:gx="http://www.google.com/kml/ext/2.2" xmlns:kml="http://www.opengis.net/kml/2.2" xmlns:atom="http://www.w3.org/2005/Atom">
<Document>
  <name>1004.kml</name>
  <StyleMap id="FF0040FF">
    <Pair>
      <key>normal</key>
      <styleUrl>#s_FF0040FF</styleUrl>
    </Pair>
    <Pair>
      <key>highlight</key>
      <styleUrl>#s_FF0040FF_hl</styleUrl>
    </Pair>
  </StyleMap>
  <Style id="s_FF0040FF">
   <IconStyle>
      <scale>1.1</scale>
      <Icon>
        <href>http://maps.google.com/mapfiles/kml/pushpin/agrocad.png</href>
      </Icon>
      <hotSpot x="20" y="2" xunits="pixels" yunits="pixels"/>
    </IconStyle>
    <LineStyle>
      <color>FF0040FF</color>
      <width>1</width>
    </LineStyle>
    <PolyStyle>
      <color>40ffffff</color>
      <fill>1</fill>
    </PolyStyle>
  </Style>
  <Style id="s_FF0040FF_hl">
    <IconStyle>
      <scale>1.3</scale>
      <Icon>
        <href>http://maps.google.com/mapfiles/kml/pushpin/agrocad.png</href>
      </Icon>
      <hotSpot x="20" y="2" xunits="pixels" yunits="pixels"/>
    </IconStyle>
    <LineStyle>
      <color>ff000000</color>
      <width>1</width>
    </LineStyle>
    <PolyStyle>
      <color>40ffffff</color>
      <fill>1</fill>
    </PolyStyle>
  </Style>
  <Placemark>
    <name>AgroCAD: 819A</name>
    <styleUrl>FF0040FF</styleUrl>
    <Polygon>
      <outerBoundaryIs>
        <LinearRing>
          <coordinates>
           -36.21030362240105,-9.80462313869854 -36.20849313241792,-9.80206692254168 -36.20847217960708,-9.80207958924577 -36.20841859518738,-9.80211061858919 -36.20544422755588,-9.80419982741869 -36.20542948433983,-9.80420993911354 -36.20539706221457,-9.80423430751116 -36.20538081418351,-9.80424602393670 -36.20536735040836,-9.80425650660290 -36.20536135484864,-9.80426439913985 -36.20535827442913,-9.80428387713132 -36.20535964811000,-9.80429331679510 -36.20536750803142,-9.80431048292417 -36.20537456016058,-9.80431851354275 -36.20539289276007,-9.80432938717659 -36.20540221337060,-9.80433418988279 -36.20542356956168,-9.80434265553891 -36.20543469264440,-9.80434625896618 -36.20546645280498,-9.80435609419160 -36.20561110330914,-9.80439762069603 -36.20572045247222,-9.80442300553558 -36.20582850859066,-9.80444540530878 -36.20590025026390,-9.80446093621920 -36.20595446151229,-9.80448018720050 -36.20601237744594,-9.80450441568480 -36.20607278906766,-9.80453604256835 -36.20612582470045,-9.80457232756164 -36.20618652419604,-9.80461820222145 -36.20624620340230,-9.80466175501712 -36.20631926462211,-9.80470648013764 -36.20639422793774,-9.80475001270696 -36.20647045704631,-9.80479101457508 -36.20655183023004,-9.80484287947440 -36.20662237225252,-9.80489433898181 -36.20668552087347,-9.80494040719906 -36.20673933320157,-9.80497629098505 -36.20679937745067,-9.80501807063017 -36.20685619754266,-9.80505621276112 -36.20691010342137,-9.80509428635789 -36.20694823944837,-9.80511914722802 -36.20698359480524,-9.80514476392449 -36.20703710352194,-9.80518425407527 -36.20709997949233,-9.80522898902689 -36.20714849427075,-9.80526349549902 -36.20718272002636,-9.80528800483631 -36.20723597762980,-9.80532493074943 -36.20730365480194,-9.80537162983870 -36.20736229840454,-9.80541438997408 -36.20741600993777,-9.80545120555401 -36.20745923038987,-9.80548076482434 -36.20749875170441,-9.80550281656295 -36.20753774618527,-9.80551791749719 -36.20757190174912,-9.80552595584626 -36.20764519736596,-9.80553716970551 -36.20766626835282,-9.80553584185880 -36.20770013396480,-9.80553676648190 -36.20774978316298,-9.80553457250812 -36.20778005778383,-9.80553363928961 -36.20780715198986,-9.80554328754545 -36.20783139695632,-9.80555975354897 -36.20785074216882,-9.80557260070932 -36.20786855758701,-9.80558669087653 -36.20797020460412,-9.80573798197488 -36.20807043374403,-9.80587926246266 -36.20807467365389,-9.80588357612094 -36.20808794475419,-9.80589677015735 -36.20810368677207,-9.80591168846047 -36.20811904536506,-9.80592396931427 -36.20814491769856,-9.80594256522617 -36.20816192565516,-9.80595473269039 -36.20817979793343,-9.80596501467555 -36.20819605731359,-9.80597337303430 -36.20820592553768,-9.80598091124100 -36.20823476910660,-9.80599734301814 -36.20826348581545,-9.80601230429500 -36.20828885433877,-9.80602214986465 -36.20831723669527,-9.80603479134299 -36.20834512725378,-9.80604330552018 -36.20837382658268,-9.80604776140330 -36.20840206327480,-9.80605040983069 -36.20843356863810,-9.80604901449787 -36.20846289895437,-9.80604184301169 -36.20849137090033,-9.80603109898085 -36.20861797747342,-9.80593499563107 -36.20879255220032,-9.80581639480622 -36.20893860570739,-9.80571338220974 -36.20903835840980,-9.80563735555453 -36.20911327376671,-9.80558335584531 -36.20922912355323,-9.80550936044832 -36.20927586466095,-9.80547825567268 -36.20933428636742,-9.80544100398297 -36.20941423337178,-9.80538369110053 -36.20946002800052,-9.80534970236208 -36.20948843191755,-9.80532750199209 -36.20953715949671,-9.80529155587080 -36.20958014254667,-9.80525887960834 -36.20961372593491,-9.80523392812281 -36.20964761896786,-9.80520730630956 -36.20968504823387,-9.80518000210726 -36.20972372562191,-9.80515309221315 -36.20975545175222,-9.80513327028374 -36.20979637172275,-9.80510871469059 -36.20984603195690,-9.80507802315928 -36.20987773347034,-9.80505610323971 -36.20989707741532,-9.80504228161492 -36.20992812703964,-9.80501956608676 -36.20995881814270,-9.80499771346241 -36.21000016673651,-9.80496847407526 -36.21003875647033,-9.80494142202983 -36.21007301247007,-9.80491645082924 -36.21009945704753,-9.80489676263755 -36.21015759373493,-9.80485488825903 -36.21018325522285,-9.80483370780103 -36.21021030590589,-9.80480994055629 -36.21023654989231,-9.80478653030776 -36.21026202925438,-9.80476338832364 -36.21028500881242,-9.80474081938742 -36.21030223936457,-9.80471397312210 -36.21031159126383,-9.80468287236315 -36.21031534670219,-9.80465280345710 -36.21030362240105,-9.80462313869854
          </coordinates>
        </LinearRing>
      </outerBoundaryIs>
    </Polygon>
  </Placemark>
</Document>
</kml>
