<?xml version="1.0" encoding="utf-8" ?>
<kml xmlns="http://www.opengis.net/kml/2.2">
<Document id="root_doc">
<Schema name="ARVORE_COMPRIDA_TALHAO_1007_ID_146" id="ARVORE_COMPRIDA_TALHAO_1007_ID_146">
	<SimpleField name="ID" type="float"></SimpleField>
	<SimpleField name="AREA_TOTAL" type="float"></SimpleField>
	<SimpleField name="FAZENDA" type="float"></SimpleField>
	<SimpleField name="FAZ_NOME" type="string"></SimpleField>
	<SimpleField name="TALHAO" type="float"></SimpleField>
	<SimpleField name="ZONA" type="float"></SimpleField>
	<SimpleField name="ACIONISTA" type="string"></SimpleField>
	<SimpleField name="CODE" type="string"></SimpleField>
</Schema>
<Folder><name>ARVORE_COMPRIDA_TALHAO_1007_ID_146</name>
  <Placemark id="ARVORE_COMPRIDA_TALHAO_1007_ID_146.1">
	<Style><LineStyle><color>ff0000ff</color></LineStyle><PolyStyle><fill>0</fill></PolyStyle></Style>
	<ExtendedData><SchemaData schemaUrl="#ARVORE_COMPRIDA_TALHAO_1007_ID_146">
		<SimpleData name="ID">146</SimpleData>
		<SimpleData name="AREA_TOTAL">25.32</SimpleData>
		<SimpleData name="FAZENDA">2775</SimpleData>
		<SimpleData name="FAZ_NOME">ARVORE COMPRIDA</SimpleData>
		<SimpleData name="TALHAO">1007</SimpleData>
		<SimpleData name="ZONA">1</SimpleData>
		<SimpleData name="ACIONISTA">ISABEL TENÓRIO</SimpleData>
		<SimpleData name="CODE"></SimpleData>
	</SchemaData></ExtendedData>
      <MultiGeometry><Polygon><outerBoundaryIs><LinearRing><coordinates>-36.3751585084999,-9.74923755264185,0 -36.3750489246584,-9.75298824356089,0 -36.3750746750146,-9.75300028528614,0 -36.3751166605179,-9.75301427480091,0 -36.3755461303789,-9.75321767073803,0 -36.3756446857438,-9.75321574556388,0 -36.3760290645672,-9.75344637071903,0 -36.3763358119536,-9.75365615964784,0 -36.376536534655,-9.75381542215639,0 -36.3766530632572,-9.75407922228298,0 -36.3767857453793,-9.75419923298137,0 -36.3769178728981,-9.75437594077698,0 -36.3770442410279,-9.75445143059821,0 -36.3771805175538,-9.75444324410555,0 -36.37742187027,-9.75432441370942,0 -36.3775373394914,-9.75424527285043,0 -36.3776338982965,-9.75412533606891,0 -36.3776929767442,-9.75398755882432,0 -36.3779342400382,-9.75385748186028,0 -36.3780628338956,-9.75396663781878,0 -36.3780781941288,-9.7542235579212,0 -36.3780117612345,-9.75450930937037,0 -36.3779417747722,-9.75466787079944,0 -36.3777874572605,-9.75483398413038,0 -36.3778343254397,-9.75488763241113,0 -36.3779752497135,-9.75488754115901,0 -36.3781614696477,-9.75499640628215,0 -36.3784767141268,-9.75513240782629,0 -36.3786269328307,-9.75525224999259,0 -36.379110567957,-9.75566254601421,0 -36.3796400271519,-9.75646949085709,0 -36.3798350759913,-9.75679831760376,0 -36.3798181713253,-9.75697711553606,0 -36.3800909513102,-9.75720848252668,0 -36.3802160626094,-9.75727870414949,0 -36.3801830604367,-9.75704576444692,0 -36.3800203440641,-9.75628285329639,0 -36.3799150635756,-9.75572176483265,0 -36.3797179308117,-9.75484416409861,0 -36.3797035633347,-9.75478020251883,0 -36.3796000853891,-9.75431953589267,0 -36.3791745855853,-9.75242417601484,0 -36.3788005809868,-9.75074775315091,0 -36.37849746321,-9.74941837058301,0 -36.3784829543313,-9.74933311485443,0 -36.3751585084999,-9.74923755264185,0</coordinates></LinearRing></outerBoundaryIs></Polygon></MultiGeometry>
  </Placemark>
</Folder>
</Document></kml>
