<?xml version="1.0" encoding="utf-8" ?>
<kml xmlns="http://www.opengis.net/kml/2.2">
<Document id="root_doc">
<Schema name="ARVORE_COMPRIDA_TALHAO_1008_ID_153" id="ARVORE_COMPRIDA_TALHAO_1008_ID_153">
	<SimpleField name="ID" type="float"></SimpleField>
	<SimpleField name="AREA_TOTAL" type="float"></SimpleField>
	<SimpleField name="FAZENDA" type="float"></SimpleField>
	<SimpleField name="FAZ_NOME" type="string"></SimpleField>
	<SimpleField name="TALHAO" type="float"></SimpleField>
	<SimpleField name="ZONA" type="float"></SimpleField>
	<SimpleField name="ACIONISTA" type="string"></SimpleField>
	<SimpleField name="CODE" type="string"></SimpleField>
</Schema>
<Folder><name>ARVORE_COMPRIDA_TALHAO_1008_ID_153</name>
  <Placemark id="ARVORE_COMPRIDA_TALHAO_1008_ID_153.1">
	<Style><LineStyle><color>ff0000ff</color></LineStyle><PolyStyle><fill>0</fill></PolyStyle></Style>
	<ExtendedData><SchemaData schemaUrl="#ARVORE_COMPRIDA_TALHAO_1008_ID_153">
		<SimpleData name="ID">153</SimpleData>
		<SimpleData name="AREA_TOTAL">13.49</SimpleData>
		<SimpleData name="FAZENDA">2775</SimpleData>
		<SimpleData name="FAZ_NOME">ARVORE COMPRIDA</SimpleData>
		<SimpleData name="TALHAO">1008</SimpleData>
		<SimpleData name="ZONA">1</SimpleData>
		<SimpleData name="ACIONISTA">ISABEL TENÓRIO</SimpleData>
		<SimpleData name="CODE"></SimpleData>
	</SchemaData></ExtendedData>
      <MultiGeometry><Polygon><outerBoundaryIs><LinearRing><coordinates>-36.371631908687,-9.75050710250119,0 -36.3715803267071,-9.75098932121317,0 -36.371576474638,-9.751025332495,0 -36.3715030183492,-9.75171203933551,0 -36.3714903136649,-9.75192579077267,0 -36.3714775693173,-9.75213439869977,0 -36.3714700538362,-9.75223681036623,0 -36.3717457673782,-9.75212051195654,0 -36.3721203797092,-9.75210311323108,0 -36.3723599125932,-9.75213347654131,0 -36.3727116476569,-9.75226655624305,0 -36.3729535339922,-9.75231290175958,0 -36.373196546329,-9.75233216829465,0 -36.373275215686,-9.75232643487384,0 -36.3734479617934,-9.75235708252025,0 -36.3734589331916,-9.75235784847315,0 -36.3734678482384,-9.75235602357663,0 -36.3734828977419,-9.75233810496858,0 -36.3735258050539,-9.75234036044795,0 -36.373750547699,-9.75241652445123,0 -36.3739908558474,-9.75256476745562,0 -36.3740954334028,-9.75265972891717,0 -36.3741216657387,-9.75268330439074,0 -36.3741343362454,-9.75269083989538,0 -36.3741360038812,-9.75269122139882,0 -36.3741437037748,-9.75268675246962,0 -36.3741723765422,-9.75266509847263,0 -36.3741974359813,-9.75264483208944,0 -36.3742372545756,-9.75263673506621,0 -36.3742811157436,-9.75265182239408,0 -36.3743202936583,-9.75268339271882,0 -36.3743387877825,-9.752697922604,0 -36.3743573934875,-9.75270974439529,0 -36.3743759645932,-9.75271800945064,0 -36.3743996359881,-9.752724882377,0 -36.3744340209327,-9.7527429961428,0 -36.3744342654757,-9.75274292048941,0 -36.3744596177921,-9.75272619002861,0 -36.3744983089916,-9.75273264444761,0 -36.3745291569351,-9.75274251043492,0 -36.37455877776,-9.75275987372403,0 -36.3745785642307,-9.75278008757941,0 -36.3745976144564,-9.75279632902032,0 -36.374618755368,-9.75281423630634,0 -36.3746383743425,-9.75283044827467,0 -36.3746475788502,-9.75283697474942,0 -36.3747074554031,-9.7528318117395,0 -36.3747395811054,-9.75284358400253,0 -36.3749949888341,-9.75296302136268,0 -36.3751038822055,-9.74923598212275,0 -36.3717794470825,-9.7491403874113,0 -36.3717757252831,-9.74919628515015,0 -36.371631908687,-9.75050710250119,0</coordinates></LinearRing></outerBoundaryIs></Polygon></MultiGeometry>
  </Placemark>
</Folder>
</Document></kml>
