<?xml version="1.0" encoding="UTF-8"?>
<kml xmlns="http://www.opengis.net/kml/2.2" xmlns:gx="http://www.google.com/kml/ext/2.2" xmlns:kml="http://www.opengis.net/kml/2.2" xmlns:atom="http://www.w3.org/2005/Atom">
<Document>
  <name>08.kml</name>
  <StyleMap id="FFFF4000">
    <Pair>
      <key>normal</key>
      <styleUrl>#s_FFFF4000</styleUrl>
    </Pair>
    <Pair>
      <key>highlight</key>
      <styleUrl>#s_FFFF4000_hl</styleUrl>
    </Pair>
  </StyleMap>
  <Style id="s_FFFF4000">
   <IconStyle>
      <scale>1.1</scale>
      <Icon>
        <href>http://maps.google.com/mapfiles/kml/pushpin/agrocad.png</href>
      </Icon>
      <hotSpot x="20" y="2" xunits="pixels" yunits="pixels"/>
    </IconStyle>
    <LineStyle>
      <color>FFFF4000</color>
      <width>1</width>
    </LineStyle>
    <PolyStyle>
      <color>40ffffff</color>
      <fill>1</fill>
    </PolyStyle>
  </Style>
  <Style id="s_FFFF4000_hl">
    <IconStyle>
      <scale>1.3</scale>
      <Icon>
        <href>http://maps.google.com/mapfiles/kml/pushpin/agrocad.png</href>
      </Icon>
      <hotSpot x="20" y="2" xunits="pixels" yunits="pixels"/>
    </IconStyle>
    <LineStyle>
      <color>ff000000</color>
      <width>1</width>
    </LineStyle>
    <PolyStyle>
      <color>40ffffff</color>
      <fill>1</fill>
    </PolyStyle>
  </Style>
  <Placemark>
    <name>AgroCAD: 1E54E</name>
    <styleUrl>FFFF4000</styleUrl>
    <Polygon>
      <outerBoundaryIs>
        <LinearRing>
          <coordinates>
           -36.34080217408803,-9.77911587316909 -36.34085790287683,-9.77906986784181 -36.34243796977698,-9.77773204217210 -36.34253014960838,-9.77765506352446 -36.34259546973583,-9.77763006490563 -36.34263766498805,-9.77767425251274 -36.34271330144470,-9.77775653751646 -36.34277049356582,-9.77782698019274 -36.34281265381026,-9.77787540365062 -36.34303637186289,-9.77812362322965 -36.34324220940610,-9.77834759897897 -36.34342633955421,-9.77853335062836 -36.34363629337852,-9.77872901033270 -36.34409981814923,-9.77917747310698 -36.34465059908214,-9.77973137619401 -36.34488433485306,-9.77995667648897 -36.34516803842496,-9.78023241367390 -36.34522601154086,-9.78029507960319 -36.34529314270368,-9.78039264708839 -36.34504487344065,-9.78059486708533 -36.34493200762385,-9.78065960260915 -36.34483996943725,-9.78072145330595 -36.34469619181226,-9.78079464982114 -36.34448946346674,-9.78090582150254 -36.34381355432912,-9.78146943275851 -36.34374570442192,-9.78150376013582 -36.34368440444652,-9.78155619909281 -36.34340316596881,-9.78131658031606 -36.34250066183798,-9.78055654223988 -36.34124522750654,-9.77952457068666 -36.34109195242898,-9.77939133322047 -36.34077427084958,-9.77914338238275 -36.34080217408803,-9.77911587316909 -36.34080217408803,-9.77911587316909
          </coordinates>
        </LinearRing>
      </outerBoundaryIs>
    </Polygon>
  </Placemark>
  <Placemark>
    <name>AgroCAD: 1E54D</name>
    <styleUrl>FFFF4000</styleUrl>
    <Polygon>
      <outerBoundaryIs>
        <LinearRing>
          <coordinates>
           -36.33814776994775,-9.77705437714018 -36.33819151391560,-9.77691213148913 -36.33821897397044,-9.77681300190449 -36.33823657833838,-9.77679395753027 -36.33833122190933,-9.77674686505164 -36.33843549042977,-9.77669788721492 -36.33858232280211,-9.77665607339615 -36.33867815111211,-9.77662034762181 -36.33875685922863,-9.77658632197308 -36.33882969496293,-9.77652330981005 -36.33887510735410,-9.77649073115255 -36.33890518522565,-9.77643348314406 -36.33894722219967,-9.77634887907902 -36.33902023076546,-9.77620574190133 -36.33906767307184,-9.77609890775213 -36.33910892725026,-9.77601536369907 -36.33914044275412,-9.77594341719856 -36.33915807172819,-9.77588920699679 -36.33919512107165,-9.77582239075535 -36.33920615045323,-9.77580655663315 -36.33923705784853,-9.77578242092312 -36.33926360747252,-9.77576332902041 -36.33931313118937,-9.77573033067275 -36.33933881751717,-9.77571555998312 -36.33939041890496,-9.77568016541792 -36.33944563077053,-9.77565923774120 -36.33951242802767,-9.77564533091072 -36.33953215657743,-9.77563635047386 -36.33958650200486,-9.77560525111167 -36.33964283217134,-9.77557542319740 -36.33970013389507,-9.77556087278030 -36.33977127971869,-9.77555567395103 -36.33982158213008,-9.77555417917426 -36.33989110540915,-9.77555141622880 -36.33991888537698,-9.77555400089426 -36.33994001718702,-9.77554954009896 -36.33996357072298,-9.77553721933997 -36.33999069993450,-9.77552312850307 -36.34002070261299,-9.77550737051810 -36.34005549438267,-9.77549532743014 -36.34012273119537,-9.77546508780922 -36.34007943029740,-9.77540857561477 -36.34011461469608,-9.77537283509365 -36.34020736138590,-9.77543643557632 -36.34023863715369,-9.77547014973931 -36.34028448106668,-9.77551822816862 -36.34036438093768,-9.77559399974603 -36.34045327954999,-9.77567399929410 -36.34054621242541,-9.77575886294590 -36.34067616318743,-9.77587349392010 -36.34072758054976,-9.77591296192766 -36.34081854947659,-9.77598349816429 -36.34098360359003,-9.77609841946118 -36.34108014765088,-9.77617451710984 -36.34118144625429,-9.77625479558303 -36.34127494117703,-9.77632678878994 -36.34130169122020,-9.77634571768220 -36.34132943156982,-9.77636826018217 -36.34135724337855,-9.77639419686353 -36.34141393129034,-9.77644146497435 -36.34147742929285,-9.77649282364034 -36.34157354798996,-9.77657593914783 -36.34163222428620,-9.77663108612875 -36.34173014370696,-9.77672362604416 -36.34174905290485,-9.77673936515517 -36.34182699920147,-9.77681948563201 -36.34194114072512,-9.77693326901150 -36.34205047088496,-9.77705551268990 -36.34219334048616,-9.77721381887077 -36.34231168436445,-9.77734016259425 -36.34256711871702,-9.77760037521441 -36.34258192448842,-9.77761588008238 -36.34252074842572,-9.77763929272870 -36.34242618955601,-9.77771825809281 -36.34084616195240,-9.77905605048203 -36.34078990223810,-9.77910249409944 -36.34075984721816,-9.77913212470837 -36.34075857826989,-9.77913113429154 -36.34035672022596,-9.77880795006599 -36.33933888515107,-9.77804250257310 -36.33903079075066,-9.77782415796180 -36.33808647667018,-9.77725231438983 -36.33810882966884,-9.77717904129577 -36.33814776994775,-9.77705437714018 -36.33814776994775,-9.77705437714018
          </coordinates>
        </LinearRing>
      </outerBoundaryIs>
    </Polygon>
  </Placemark>
</Document>
</kml>
