<?xml version="1.0" encoding="UTF-8"?>
<kml xmlns="http://www.opengis.net/kml/2.2" xmlns:gx="http://www.google.com/kml/ext/2.2" xmlns:kml="http://www.opengis.net/kml/2.2" xmlns:atom="http://www.w3.org/2005/Atom">
<Document>
  <name>1014.kml</name>
  <StyleMap id="FFFF4000">
    <Pair>
      <key>normal</key>
      <styleUrl>#s_FFFF4000</styleUrl>
    </Pair>
    <Pair>
      <key>highlight</key>
      <styleUrl>#s_FFFF4000_hl</styleUrl>
    </Pair>
  </StyleMap>
  <Style id="s_FFFF4000">
   <IconStyle>
      <scale>1.1</scale>
      <Icon>
        <href>http://maps.google.com/mapfiles/kml/pushpin/agrocad.png</href>
      </Icon>
      <hotSpot x="20" y="2" xunits="pixels" yunits="pixels"/>
    </IconStyle>
    <LineStyle>
      <color>FFFF4000</color>
      <width>1</width>
    </LineStyle>
    <PolyStyle>
      <color>40ffffff</color>
      <fill>1</fill>
    </PolyStyle>
  </Style>
  <Style id="s_FFFF4000_hl">
    <IconStyle>
      <scale>1.3</scale>
      <Icon>
        <href>http://maps.google.com/mapfiles/kml/pushpin/agrocad.png</href>
      </Icon>
      <hotSpot x="20" y="2" xunits="pixels" yunits="pixels"/>
    </IconStyle>
    <LineStyle>
      <color>ff000000</color>
      <width>1</width>
    </LineStyle>
    <PolyStyle>
      <color>40ffffff</color>
      <fill>1</fill>
    </PolyStyle>
  </Style>
  <Placemark>
    <name>AgroCAD: 95B5</name>
    <styleUrl>FFFF4000</styleUrl>
    <Polygon>
      <outerBoundaryIs>
        <LinearRing>
          <coordinates>
           -36.36995137900101,-9.80768534896153 -36.36623822186123,-9.81196751518403 -36.36608286249499,-9.81185916526530 -36.36566977097128,-9.81156160183236 -36.36555872229146,-9.81148362305978 -36.36530261693176,-9.81126445767016 -36.36500754475330,-9.81103757607781 -36.36498484331352,-9.81101358000173 -36.36497507739790,-9.81098554676697 -36.36511622201132,-9.81090384174534 -36.36537517475416,-9.81071827391355 -36.36552373070367,-9.81063493759072 -36.36565427793062,-9.81058874273383 -36.36573841096053,-9.81053261939626 -36.36594534555469,-9.81037337756728 -36.36626204030852,-9.81009035397062 -36.36650982998310,-9.81024205957287 -36.36656610577940,-9.81012960505797 -36.36668969836710,-9.80970099816819 -36.36686976296848,-9.80915523398972 -36.36708605919384,-9.80837277700052 -36.36717603294659,-9.80806520813193 -36.36731569930857,-9.80758904976166 -36.36754173114807,-9.80685455053129 -36.36760847953765,-9.80669987045321 -36.36763563042411,-9.80667532366065 -36.36766920210186,-9.80666004137704 -36.36769732545863,-9.80666633615403 -36.36776116487735,-9.80668557195736 -36.36783833038672,-9.80671224739671 -36.36823862129240,-9.80686450885338 -36.36851067192721,-9.80696190475615 -36.36860427018247,-9.80700579826859 -36.36869730130559,-9.80704005183777 -36.36894642463236,-9.80711007022994 -36.36904287646752,-9.80713684340816 -36.36910553316907,-9.80717332527631 -36.36929731601611,-9.80728213010808 -36.36933644880432,-9.80726211573371 -36.36965870930377,-9.80710977990533 -36.36970300642581,-9.80717592672409 -36.36980559676285,-9.80732223858551 -36.36993132161337,-9.80751433981948 -36.36998580101487,-9.80761091416963 -36.36998063844563,-9.80763676824976 -36.36995137900101,-9.80768534896153
          </coordinates>
        </LinearRing>
      </outerBoundaryIs>
    </Polygon>
  </Placemark>
  <Placemark>
    <name>AgroCAD: 95BD</name>
    <styleUrl>FFFF4000</styleUrl>
    <Polygon>
      <outerBoundaryIs>
        <LinearRing>
          <coordinates>
           -36.36696928033420,-9.80798172306392 -36.36695890519748,-9.80811960105975 -36.36693608512458,-9.80821989035343 -36.36689900379599,-9.80831495384956 -36.36681313199265,-9.80839778856473 -36.36670266303364,-9.80865352880136 -36.36671491138871,-9.80867362698633 -36.36674594734316,-9.80872160291808 -36.36685765749712,-9.80878856653083 -36.36692003709270,-9.80881026260712 -36.36706004488559,-9.80836187325481 -36.36714941375544,-9.80805253891527 -36.36728910533820,-9.80758370755552 -36.36751856783179,-9.80683688508909 -36.36756091848677,-9.80671542549925 -36.36758513186234,-9.80667067240767 -36.36761035633585,-9.80663701131068 -36.36764831344652,-9.80662087818811 -36.36769230487831,-9.80662837282067 -36.36777272459110,-9.80665531234821 -36.36784850824553,-9.80668546771806 -36.36825431405593,-9.80683670060384 -36.36852357789516,-9.80692976885619 -36.36860772587741,-9.80696722017888 -36.36865971110328,-9.80683109386618 -36.36883543217630,-9.80663349129929 -36.36893693534940,-9.80653181504678 -36.36905414030173,-9.80640932243186 -36.36873889920739,-9.80602417387800 -36.36841286269102,-9.80563863668816 -36.36828055617927,-9.80550195743076 -36.36804243745683,-9.80528840452014 -36.36794463304962,-9.80525187181611 -36.36785502377184,-9.80525068059571 -36.36765003016834,-9.80537682709773 -36.36756315810523,-9.80544983977872 -36.36739211056586,-9.80557811475349 -36.36717841697107,-9.80583369404397 -36.36711211589023,-9.80595141861266 -36.36707658864291,-9.80609138227215 -36.36706481228671,-9.80620159880327 -36.36703890110380,-9.80657638061986 -36.36705266914467,-9.80658732255665 -36.36705742406912,-9.80663472259996 -36.36703563653207,-9.80667976284225 -36.36701389516794,-9.80672578829241 -36.36698652429340,-9.80691217241068 -36.36697849718710,-9.80707915542611 -36.36702586043127,-9.80746896219373 -36.36704138414512,-9.80755969735620 -36.36695590973764,-9.80760805842856 -36.36693739157537,-9.80777569375211 -36.36696928033420,-9.80798172306392
          </coordinates>
        </LinearRing>
      </outerBoundaryIs>
    </Polygon>
  </Placemark>
  <StyleMap id="FF0040FF">
    <Pair>
      <key>normal</key>
      <styleUrl>#s_FF0040FF</styleUrl>
    </Pair>
    <Pair>
      <key>highlight</key>
      <styleUrl>#s_FF0040FF_hl</styleUrl>
    </Pair>
  </StyleMap>
  <Style id="s_FF0040FF">
   <IconStyle>
      <scale>1.1</scale>
      <Icon>
        <href>http://maps.google.com/mapfiles/kml/pushpin/agrocad.png</href>
      </Icon>
      <hotSpot x="20" y="2" xunits="pixels" yunits="pixels"/>
    </IconStyle>
    <LineStyle>
      <color>FF0040FF</color>
      <width>1</width>
    </LineStyle>
    <PolyStyle>
      <color>40ffffff</color>
      <fill>1</fill>
    </PolyStyle>
  </Style>
  <Style id="s_FF0040FF_hl">
    <IconStyle>
      <scale>1.3</scale>
      <Icon>
        <href>http://maps.google.com/mapfiles/kml/pushpin/agrocad.png</href>
      </Icon>
      <hotSpot x="20" y="2" xunits="pixels" yunits="pixels"/>
    </IconStyle>
    <LineStyle>
      <color>ff000000</color>
      <width>1</width>
    </LineStyle>
    <PolyStyle>
      <color>40ffffff</color>
      <fill>1</fill>
    </PolyStyle>
  </Style>
  <Placemark>
    <name>AgroCAD: 8484</name>
    <styleUrl>FF0040FF</styleUrl>
    <Polygon>
      <outerBoundaryIs>
        <LinearRing>
          <coordinates>
           -36.36826304139888,-9.80519113569396 -36.36828312915845,-9.80518816374314 -36.36831643079004,-9.80517876422782 -36.36834196189302,-9.80518053979233 -36.36836213306442,-9.80517769103359 -36.36838933970389,-9.80517372228708 -36.36842434825669,-9.80517509472874 -36.36845971534619,-9.80517411257154 -36.36849509380056,-9.80517381955500 -36.36853166856720,-9.80518067132083 -36.36856809300090,-9.80519350833831 -36.36860757661008,-9.80520490408637 -36.36864534481549,-9.80521735859174 -36.36868318190418,-9.80523401068059 -36.36872384900343,-9.80523418097793 -36.36876139980861,-9.80523120396474 -36.36877586505012,-9.80522883396724 -36.36883750819328,-9.80534673254084 -36.36883770364164,-9.80535136704606 -36.36884275748565,-9.80538454774324 -36.36885491688815,-9.80541930747994 -36.36887100749319,-9.80545473830924 -36.36889158732185,-9.80548846704008 -36.36893655065160,-9.80554903400675 -36.36902137465505,-9.80567379925389 -36.36911992783918,-9.80586838080365 -36.36924910935503,-9.80611541667621 -36.36928899758050,-9.80619352479416 -36.36938041298928,-9.80636568633972 -36.36943521444737,-9.80647097989128 -36.36948768736006,-9.80656730124385 -36.36953013911203,-9.80665328556536 -36.36956451185938,-9.80673369502610 -36.36957805305451,-9.80677979497792 -36.36958751909938,-9.80681812588678 -36.36959673355125,-9.80686663257183 -36.36953076001280,-9.80678384723151 -36.36935292821361,-9.80655925051663 -36.36913052321324,-9.80627785311294 -36.36888243863281,-9.80596283349145 -36.36862071962489,-9.80563245580295 -36.36848811741847,-9.80546474601215 -36.36836138315108,-9.80530614449929 -36.36826304139888,-9.80519113569396 -36.36826304139888,-9.80519113569396
          </coordinates>
        </LinearRing>
      </outerBoundaryIs>
    </Polygon>
  </Placemark>
</Document>
</kml>
