<?xml version="1.0" encoding="UTF-8"?>
<kml xmlns="http://www.opengis.net/kml/2.2" xmlns:gx="http://www.google.com/kml/ext/2.2" xmlns:kml="http://www.opengis.net/kml/2.2" xmlns:atom="http://www.w3.org/2005/Atom">
<Document>
  <name>1016.kml</name>
  <StyleMap id="FF0040FF">
    <Pair>
      <key>normal</key>
      <styleUrl>#s_FF0040FF</styleUrl>
    </Pair>
    <Pair>
      <key>highlight</key>
      <styleUrl>#s_FF0040FF_hl</styleUrl>
    </Pair>
  </StyleMap>
  <Style id="s_FF0040FF">
   <IconStyle>
      <scale>1.1</scale>
      <Icon>
        <href>http://maps.google.com/mapfiles/kml/pushpin/agrocad.png</href>
      </Icon>
      <hotSpot x="20" y="2" xunits="pixels" yunits="pixels"/>
    </IconStyle>
    <LineStyle>
      <color>FF0040FF</color>
      <width>1</width>
    </LineStyle>
    <PolyStyle>
      <color>40ffffff</color>
      <fill>1</fill>
    </PolyStyle>
  </Style>
  <Style id="s_FF0040FF_hl">
    <IconStyle>
      <scale>1.3</scale>
      <Icon>
        <href>http://maps.google.com/mapfiles/kml/pushpin/agrocad.png</href>
      </Icon>
      <hotSpot x="20" y="2" xunits="pixels" yunits="pixels"/>
    </IconStyle>
    <LineStyle>
      <color>ff000000</color>
      <width>1</width>
    </LineStyle>
    <PolyStyle>
      <color>40ffffff</color>
      <fill>1</fill>
    </PolyStyle>
  </Style>
  <Placemark>
    <name>AgroCAD: 8480</name>
    <styleUrl>FF0040FF</styleUrl>
    <Polygon>
      <outerBoundaryIs>
        <LinearRing>
          <coordinates>
           -36.36965006275036,-9.81505825390827 -36.36946629534549,-9.81488080966016 -36.36916127051662,-9.81457606254275 -36.36889577515768,-9.81431344157797 -36.36805739097100,-9.81350942863191 -36.36802703714257,-9.81347963656603 -36.37118570178332,-9.80983693187698 -36.37231097907327,-9.81198957470708 -36.37228681882503,-9.81201743772731 -36.37226027084421,-9.81204805441247 -36.37223613920556,-9.81207588442235 -36.37218787591641,-9.81213154443288 -36.37216374426516,-9.81215937443431 -36.37211548095083,-9.81221503442796 -36.37209134928700,-9.81224286442096 -36.37204308594750,-9.81229852439772 -36.37201895427106,-9.81232635438228 -36.37197069090638,-9.81238201434216 -36.37194655921736,-9.81240984431827 -36.37189829582748,-9.81246550426127 -36.37187416412587,-9.81249333422894 -36.37182590071082,-9.81254899415506 -36.37180176899662,-9.81257682411428 -36.37175350555639,-9.81263248402351 -36.37172937382960,-9.81266031397430 -36.37168111036417,-9.81271597386665 -36.37165697862478,-9.81274380380900 -36.37160871513419,-9.81279946368446 -36.37158458338222,-9.81282729361836 -36.37153631986643,-9.81288295347694 -36.37151218810185,-9.81291078340241 -36.37146392456090,-9.81296644324410 -36.37143979278373,-9.81299427316112 -36.37139152921758,-9.81304993298593 -36.37136739742782,-9.81307776289450 -36.37131913383649,-9.81313342270243 -36.37129500203415,-9.81316125260256 -36.37124673841763,-9.81321691239360 -36.37122260660270,-9.81324474228529 -36.37117434296098,-9.81330040205944 -36.37115021113345,-9.81332823194269 -36.37110194746656,-9.81338389169996 -36.37107781562646,-9.81341172157476 -36.37102955193437,-9.81346738131514 -36.37100542008166,-9.81349521118150 -36.37095715636440,-9.81355087090500 -36.37093302449909,-9.81357870076291 -36.37088476075664,-9.81363436046952 -36.37086062887875,-9.81366219031900 -36.37081236511111,-9.81371785000871 -36.37078823322062,-9.81374567984975 -36.37073996942781,-9.81380133952258 -36.37071583752471,-9.81382916935517 -36.37066757370674,-9.81388482901111 -36.37064344179105,-9.81391265883525 -36.37059517794785,-9.81396831847431 -36.37057104601959,-9.81399614829001 -36.37052278215121,-9.81405180791218 -36.37049865021035,-9.81407963771943 -36.37045038631678,-9.81413529732471 -36.37042625436331,-9.81416312712353 -36.37037799044457,-9.81421878671191 -36.37035385847851,-9.81424661650228 -36.37030559453457,-9.81430227607378 -36.37028146255592,-9.81433010585570 -36.37023319858681,-9.81438576541032 -36.37020906659556,-9.81441359518379 -36.37016080260126,-9.81446925472152 -36.37013667059741,-9.81449708448655 -36.37008840657792,-9.81455274400738 -36.37006427456150,-9.81458057376397 -36.37001601051680,-9.81463623326791 -36.36999187848778,-9.81466406301605 -36.36994361441790,-9.81471972250311 -36.36991948237628,-9.81474755224280 -36.36987121828121,-9.81480321171297 -36.36984708622700,-9.81483104144422 -36.36979882210675,-9.81488670089749 -36.36976764185575,-9.81492265876695 -36.36973827870923,-9.81495652109302 -36.36970985221022,-9.81498930324256 -36.36965006275036,-9.81505825390827
          </coordinates>
        </LinearRing>
      </outerBoundaryIs>
    </Polygon>
  </Placemark>
</Document>
</kml>
