<?xml version="1.0" encoding="UTF-8"?>
<kml xmlns="http://www.opengis.net/kml/2.2" xmlns:gx="http://www.google.com/kml/ext/2.2" xmlns:kml="http://www.opengis.net/kml/2.2" xmlns:atom="http://www.w3.org/2005/Atom">
<Document>
  <name>1021.kml</name>
  <StyleMap id="FF0040FF">
    <Pair>
      <key>normal</key>
      <styleUrl>#s_FF0040FF</styleUrl>
    </Pair>
    <Pair>
      <key>highlight</key>
      <styleUrl>#s_FF0040FF_hl</styleUrl>
    </Pair>
  </StyleMap>
  <Style id="s_FF0040FF">
   <IconStyle>
      <scale>1.1</scale>
      <Icon>
        <href>http://maps.google.com/mapfiles/kml/pushpin/agrocad.png</href>
      </Icon>
      <hotSpot x="20" y="2" xunits="pixels" yunits="pixels"/>
    </IconStyle>
    <LineStyle>
      <color>FF0040FF</color>
      <width>1</width>
    </LineStyle>
    <PolyStyle>
      <color>40ffffff</color>
      <fill>1</fill>
    </PolyStyle>
  </Style>
  <Style id="s_FF0040FF_hl">
    <IconStyle>
      <scale>1.3</scale>
      <Icon>
        <href>http://maps.google.com/mapfiles/kml/pushpin/agrocad.png</href>
      </Icon>
      <hotSpot x="20" y="2" xunits="pixels" yunits="pixels"/>
    </IconStyle>
    <LineStyle>
      <color>ff000000</color>
      <width>1</width>
    </LineStyle>
    <PolyStyle>
      <color>40ffffff</color>
      <fill>1</fill>
    </PolyStyle>
  </Style>
  <Placemark>
    <name>AgroCAD: 8468</name>
    <styleUrl>FF0040FF</styleUrl>
    <Polygon>
      <outerBoundaryIs>
        <LinearRing>
          <coordinates>
           -36.37158448849070,-9.80423872835229 -36.37151197117928,-9.80407150079518 -36.37143705280301,-9.80387523095566 -36.37136029023349,-9.80367140453986 -36.37121740248570,-9.80329233106270 -36.37108880545375,-9.80295195790731 -36.37095994732850,-9.80260744464708 -36.37084513992641,-9.80229585276675 -36.37074202321691,-9.80202705475730 -36.37066714346375,-9.80181891447890 -36.37061362884321,-9.80167977733090 -36.37059397848189,-9.80162575018238 -36.37056085519066,-9.80163660504882 -36.37042939290714,-9.80169045285188 -36.37024505690980,-9.80176457013360 -36.37005233264282,-9.80184119672331 -36.36969142792891,-9.80198500310417 -36.36937380080291,-9.80211419557216 -36.36926382058779,-9.80215906902268 -36.36933494988959,-9.80231462341969 -36.36944143341866,-9.80254928959776 -36.36954170464945,-9.80277564736411 -36.36975049175922,-9.80323516798419 -36.36996342475458,-9.80370206645404 -36.37001275685314,-9.80381197514212 -36.37006138406521,-9.80392164794069 -36.37015709120524,-9.80414470621959 -36.37020473404283,-9.80425354354190 -36.37025312454014,-9.80436477537983 -36.37034428151362,-9.80457603846737 -36.37039379881901,-9.80468329911636 -36.37040609264902,-9.80471262109629 -36.37067344127023,-9.80460476815425 -36.37102597007802,-9.80446306799079 -36.37140738396553,-9.80430797476343 -36.37154366406328,-9.80425397786007 -36.37158448849070,-9.80423872835229 -36.37158448849070,-9.80423872835229
          </coordinates>
        </LinearRing>
      </outerBoundaryIs>
    </Polygon>
  </Placemark>
  <Placemark>
    <name>AgroCAD: 8467</name>
    <styleUrl>FF0040FF</styleUrl>
    <Polygon>
      <outerBoundaryIs>
        <LinearRing>
          <coordinates>
           -36.37132789774554,-9.80674326398563 -36.37118398404730,-9.80641094988603 -36.37105027957271,-9.80610833994492 -36.37093293341293,-9.80585062733219 -36.37088928136920,-9.80575853553260 -36.37085364145888,-9.80569807097377 -36.37079521397776,-9.80558872605921 -36.37068403384769,-9.80534864345531 -36.37059504217920,-9.80515048764245 -36.37052392111701,-9.80498560393338 -36.37047228483048,-9.80486719218185 -36.37043477477714,-9.80478103074618 -36.37042008455568,-9.80474599314963 -36.37068714863636,-9.80463825500247 -36.37103972428020,-9.80449653602169 -36.37142105429934,-9.80434147690699 -36.37155684557143,-9.80428767368957 -36.37159890109254,-9.80427196432143 -36.37161794840582,-9.80431588809140 -36.37166331865053,-9.80444172990568 -36.37178524403064,-9.80476859047763 -36.37190900868250,-9.80509947016352 -36.37207085136515,-9.80548222459474 -36.37218449964784,-9.80572952406926 -36.37223751983885,-9.80586276882593 -36.37228642561915,-9.80600709791473 -36.37234377022917,-9.80616048459552 -36.37237948325149,-9.80629799503742 -36.37240197657026,-9.80636262869402 -36.37237650035816,-9.80636571962551 -36.37229445879231,-9.80638324131368 -36.37214620528862,-9.80642994551654 -36.37204613731351,-9.80646737172552 -36.37184596351225,-9.80654369945491 -36.37174533855752,-9.80658279609138 -36.37156312282409,-9.80665524039094 -36.37141990613816,-9.80671088280435 -36.37132789774554,-9.80674326398563 -36.37132789774554,-9.80674326398563
          </coordinates>
        </LinearRing>
      </outerBoundaryIs>
    </Polygon>
  </Placemark>
</Document>
</kml>
