<?xml version="1.0" encoding="UTF-8"?>
<kml xmlns="http://www.opengis.net/kml/2.2" xmlns:gx="http://www.google.com/kml/ext/2.2" xmlns:kml="http://www.opengis.net/kml/2.2" xmlns:atom="http://www.w3.org/2005/Atom">
<Document>
  <name>1007.kml</name>
  <StyleMap id="FF0040FF">
    <Pair>
      <key>normal</key>
      <styleUrl>#s_FF0040FF</styleUrl>
    </Pair>
    <Pair>
      <key>highlight</key>
      <styleUrl>#s_FF0040FF_hl</styleUrl>
    </Pair>
  </StyleMap>
  <Style id="s_FF0040FF">
   <IconStyle>
      <scale>1.1</scale>
      <Icon>
        <href>http://maps.google.com/mapfiles/kml/pushpin/agrocad.png</href>
      </Icon>
      <hotSpot x="20" y="2" xunits="pixels" yunits="pixels"/>
    </IconStyle>
    <LineStyle>
      <color>FF0040FF</color>
      <width>1</width>
    </LineStyle>
    <PolyStyle>
      <color>40ffffff</color>
      <fill>1</fill>
    </PolyStyle>
  </Style>
  <Style id="s_FF0040FF_hl">
    <IconStyle>
      <scale>1.3</scale>
      <Icon>
        <href>http://maps.google.com/mapfiles/kml/pushpin/agrocad.png</href>
      </Icon>
      <hotSpot x="20" y="2" xunits="pixels" yunits="pixels"/>
    </IconStyle>
    <LineStyle>
      <color>ff000000</color>
      <width>1</width>
    </LineStyle>
    <PolyStyle>
      <color>40ffffff</color>
      <fill>1</fill>
    </PolyStyle>
  </Style>
  <Placemark>
    <name>AgroCAD: 846F</name>
    <styleUrl>FF0040FF</styleUrl>
    <Polygon>
      <outerBoundaryIs>
        <LinearRing>
          <coordinates>
           -36.36551600124509,-9.80189922896387 -36.36554151033764,-9.80188407452073 -36.36565252769136,-9.80181524463400 -36.36579885888620,-9.80172454313765 -36.36594956550700,-9.80163227391203 -36.36619375622756,-9.80148199346104 -36.36640822930583,-9.80135072229351 -36.36652591554336,-9.80127690666397 -36.36662400190547,-9.80121085800031 -36.36667249287235,-9.80115459957599 -36.36667940573335,-9.80116836243538 -36.36675637220683,-9.80131793244519 -36.36683505260810,-9.80147015770859 -36.36691553442441,-9.80162760463289 -36.36700298660740,-9.80179588399732 -36.36709476368519,-9.80197275438346 -36.36719102579338,-9.80215278258369 -36.36728621526986,-9.80232997554105 -36.36737735515521,-9.80250342754277 -36.36743038574337,-9.80260024982473 -36.36718510993072,-9.80274498013375 -36.36691451024594,-9.80290375102148 -36.36667358810570,-9.80304605277941 -36.36658018871361,-9.80309895414917 -36.36654034417875,-9.80312302889135 -36.36650255575356,-9.80307899275767 -36.36635018496389,-9.80289078086677 -36.36614608769916,-9.80264498069120 -36.36599766267225,-9.80247166298198 -36.36587448223320,-9.80233051841709 -36.36573097890097,-9.80215808824281 -36.36561576903086,-9.80201704170576 -36.36551600124501,-9.80189922896375 -36.36551600124509,-9.80189922896387
          </coordinates>
        </LinearRing>
      </outerBoundaryIs>
    </Polygon>
  </Placemark>
  <Placemark>
    <name>AgroCAD: 8469</name>
    <styleUrl>FF0040FF</styleUrl>
    <Polygon>
      <outerBoundaryIs>
        <LinearRing>
          <coordinates>
           -36.36744779309989,-9.80263203184887 -36.36746594955696,-9.80266518156127 -36.36754155625459,-9.80280261739442 -36.36761373713259,-9.80293604945189 -36.36768020503767,-9.80306576951558 -36.36773648431618,-9.80317111481349 -36.36778823608580,-9.80326653836795 -36.36781962189772,-9.80331819180577 -36.36785954058358,-9.80338101726693 -36.36790280241681,-9.80344839604657 -36.36794010694570,-9.80350728800673 -36.36796619566917,-9.80355281226733 -36.36798421516009,-9.80358803526162 -36.36800245458646,-9.80362760896274 -36.36802466354530,-9.80367874618733 -36.36804712324344,-9.80372741668884 -36.36806785936169,-9.80377290506426 -36.36808115416541,-9.80380934098828 -36.36808890870924,-9.80384320953154 -36.36809003042833,-9.80385329484722 -36.36807437655724,-9.80391839563876 -36.36807232630123,-9.80392825376645 -36.36806814419796,-9.80396841629473 -36.36807247995083,-9.80401417875058 -36.36807444638677,-9.80405300817755 -36.36806910266615,-9.80409639486806 -36.36806032544456,-9.80413650909083 -36.36804520031285,-9.80418605812000 -36.36800453528650,-9.80427198897554 -36.36794400950077,-9.80437339095670 -36.36781844062330,-9.80443795994604 -36.36778722193114,-9.80445052102700 -36.36776371360365,-9.80444649834553 -36.36772745242777,-9.80442964543548 -36.36768599243208,-9.80440433998264 -36.36763349794004,-9.80436548575458 -36.36760947105557,-9.80434290889259 -36.36756246776630,-9.80429508877741 -36.36749436390972,-9.80422213032757 -36.36740068285199,-9.80412680885326 -36.36733890110634,-9.80405388141334 -36.36725989236631,-9.80395674024018 -36.36718932545685,-9.80387730216172 -36.36711968581801,-9.80380157588459 -36.36702729534451,-9.80369628001978 -36.36693456447027,-9.80358679800631 -36.36683842218595,-9.80347440712235 -36.36676553524330,-9.80338999946430 -36.36669313252971,-9.80330311076446 -36.36661930618367,-9.80321884940213 -36.36657245066103,-9.80316273566995 -36.36656363642264,-9.80315127477194 -36.36659870579737,-9.80313008526237 -36.36669194641794,-9.80307727382203 -36.36693310846818,-9.80293483036390 -36.36720370133867,-9.80277606347827 -36.36744779309989,-9.80263203184887 -36.36744779309989,-9.80263203184887
          </coordinates>
        </LinearRing>
      </outerBoundaryIs>
    </Polygon>
  </Placemark>
</Document>
</kml>
