<?xml version="1.0" encoding="UTF-8"?>
<kml xmlns="http://www.opengis.net/kml/2.2" xmlns:gx="http://www.google.com/kml/ext/2.2" xmlns:kml="http://www.opengis.net/kml/2.2" xmlns:atom="http://www.w3.org/2005/Atom">
<Document>
  <name>1009.kml</name>
  <StyleMap id="FFFF4000">
    <Pair>
      <key>normal</key>
      <styleUrl>#s_FFFF4000</styleUrl>
    </Pair>
    <Pair>
      <key>highlight</key>
      <styleUrl>#s_FFFF4000_hl</styleUrl>
    </Pair>
  </StyleMap>
  <Style id="s_FFFF4000">
   <IconStyle>
      <scale>1.1</scale>
      <Icon>
        <href>http://maps.google.com/mapfiles/kml/pushpin/agrocad.png</href>
      </Icon>
      <hotSpot x="20" y="2" xunits="pixels" yunits="pixels"/>
    </IconStyle>
    <LineStyle>
      <color>FFFF4000</color>
      <width>1</width>
    </LineStyle>
    <PolyStyle>
      <color>40ffffff</color>
      <fill>1</fill>
    </PolyStyle>
  </Style>
  <Style id="s_FFFF4000_hl">
    <IconStyle>
      <scale>1.3</scale>
      <Icon>
        <href>http://maps.google.com/mapfiles/kml/pushpin/agrocad.png</href>
      </Icon>
      <hotSpot x="20" y="2" xunits="pixels" yunits="pixels"/>
    </IconStyle>
    <LineStyle>
      <color>ff000000</color>
      <width>1</width>
    </LineStyle>
    <PolyStyle>
      <color>40ffffff</color>
      <fill>1</fill>
    </PolyStyle>
  </Style>
  <Placemark>
    <name>AgroCAD: 95B7</name>
    <styleUrl>FFFF4000</styleUrl>
    <Polygon>
      <outerBoundaryIs>
        <LinearRing>
          <coordinates>
           -36.36265559079376,-9.80621106457400 -36.36267027380110,-9.80620211864626 -36.36273457857948,-9.80616293960714 -36.36276673096376,-9.80614335008149 -36.36283103572248,-9.80610417101799 -36.36286318809693,-9.80608458148014 -36.36292749283599,-9.80604540239225 -36.36295964520061,-9.80602581284221 -36.36302394991999,-9.80598663372994 -36.36305610227477,-9.80596704416771 -36.36312040697450,-9.80592786503105 -36.36315255931946,-9.80590827545663 -36.36321686399951,-9.80586909629559 -36.36324901633462,-9.80584950670898 -36.36331332099503,-9.80581032752355 -36.36334547332031,-9.80579073792474 -36.36340977796104,-9.80575155871494 -36.36344193027649,-9.80573196910394 -36.36350623489756,-9.80569278986975 -36.36353838720316,-9.80567320024657 -36.36360269180457,-9.80563402098800 -36.36363484410035,-9.80561443135261 -36.36369914868209,-9.80557525206966 -36.36373130096805,-9.80555566242209 -36.36379560553012,-9.80551648311476 -36.36382775780623,-9.80549689345499 -36.36389206234864,-9.80545771412328 -36.36392421461492,-9.80543812445133 -36.36398851913766,-9.80539894509523 -36.36402067139413,-9.80537935541109 -36.36408497589719,-9.80534017603061 -36.36411712814381,-9.80532058633428 -36.36418143262723,-9.80528140692942 -36.36421358486402,-9.80526181722090 -36.36427788932777,-9.80522263779166 -36.36431004155472,-9.80520304807095 -36.36437434599880,-9.80516386861734 -36.36440649821593,-9.80514427888443 -36.36447080264046,-9.80510509940635 -36.36450295484772,-9.80508550966128 -36.36453212317905,-9.80506773793135 -36.36455877976332,-9.80505149655853 -36.36398620630608,-9.80424259431449 -36.36347182643911,-9.80351923196325 -36.36289626147485,-9.80272551527889 -36.36258092828128,-9.80228126135698 -36.36234496804631,-9.80195729082776 -36.36004906569114,-9.80335612740967 -36.36014377697101,-9.80345863236456 -36.36183462886791,-9.80532757765265 -36.36265559079376,-9.80621106457400
          </coordinates>
        </LinearRing>
      </outerBoundaryIs>
    </Polygon>
  </Placemark>
</Document>
</kml>
