<?xml version="1.0" encoding="UTF-8"?>
<kml xmlns="http://www.opengis.net/kml/2.2" xmlns:gx="http://www.google.com/kml/ext/2.2" xmlns:kml="http://www.opengis.net/kml/2.2" xmlns:atom="http://www.w3.org/2005/Atom">
<Document>
  <name>1017.kml</name>
  <StyleMap id="FFFF4000">
    <Pair>
      <key>normal</key>
      <styleUrl>#s_FFFF4000</styleUrl>
    </Pair>
    <Pair>
      <key>highlight</key>
      <styleUrl>#s_FFFF4000_hl</styleUrl>
    </Pair>
  </StyleMap>
  <Style id="s_FFFF4000">
   <IconStyle>
      <scale>1.1</scale>
      <Icon>
        <href>http://maps.google.com/mapfiles/kml/pushpin/agrocad.png</href>
      </Icon>
      <hotSpot x="20" y="2" xunits="pixels" yunits="pixels"/>
    </IconStyle>
    <LineStyle>
      <color>FFFF4000</color>
      <width>1</width>
    </LineStyle>
    <PolyStyle>
      <color>40ffffff</color>
      <fill>1</fill>
    </PolyStyle>
  </Style>
  <Style id="s_FFFF4000_hl">
    <IconStyle>
      <scale>1.3</scale>
      <Icon>
        <href>http://maps.google.com/mapfiles/kml/pushpin/agrocad.png</href>
      </Icon>
      <hotSpot x="20" y="2" xunits="pixels" yunits="pixels"/>
    </IconStyle>
    <LineStyle>
      <color>ff000000</color>
      <width>1</width>
    </LineStyle>
    <PolyStyle>
      <color>40ffffff</color>
      <fill>1</fill>
    </PolyStyle>
  </Style>
  <Placemark>
    <name>AgroCAD: 95BB</name>
    <styleUrl>FFFF4000</styleUrl>
    <Polygon>
      <outerBoundaryIs>
        <LinearRing>
          <coordinates>
           -36.36967889896040,-9.81508735477820 -36.36970154907996,-9.81511281504113 -36.37024923684287,-9.81567677674104 -36.37131938508990,-9.81671559567282 -36.37157310551601,-9.81698551628185 -36.37256263839887,-9.81587305729823 -36.37308502872556,-9.81524017056831 -36.37322649023090,-9.81496439244393 -36.37331271250115,-9.81459774348225 -36.37329299265999,-9.81420272112263 -36.37301592875959,-9.81348012133968 -36.37230416386493,-9.81205979077206 -36.37229135206335,-9.81207456609122 -36.37226722042417,-9.81210239610347 -36.37221895713406,-9.81215805611870 -36.37219482548229,-9.81218588612250 -36.37214656216699,-9.81224154612084 -36.37212243050264,-9.81226937611621 -36.37207416716216,-9.81232503609767 -36.37205003548520,-9.81235286608459 -36.37200177211955,-9.81240852604917 -36.37197764043002,-9.81243635602765 -36.37192937703917,-9.81249201597534 -36.37190524533703,-9.81251984594539 -36.37185698192101,-9.81257550587620 -36.37183285020629,-9.81260333583779 -36.37178458676508,-9.81265899575173 -36.37176045503776,-9.81268682570488 -36.37171219157138,-9.81274248560192 -36.37168805983147,-9.81277031554664 -36.37163979633990,-9.81282597542679 -36.37161566458740,-9.81285380536307 -36.37156740107064,-9.81290946522634 -36.37154326930555,-9.81293729515417 -36.37149500576362,-9.81299295500057 -36.37147087398594,-9.81302078491995 -36.37142261041880,-9.81307644474945 -36.37139847862854,-9.81310427466041 -36.37135021503623,-9.81315993447302 -36.37132608323336,-9.81318776437552 -36.37127781961587,-9.81324342417126 -36.37125368780041,-9.81327125406532 -36.37120542415773,-9.81332691384416 -36.37118129232968,-9.81335474372978 -36.37113302866183,-9.81341040349175 -36.37110889682118,-9.81343823336892 -36.37106063312813,-9.81349389311400 -36.37103650127490,-9.81352172298273 -36.37098823755666,-9.81357738271092 -36.37096410569083,-9.81360521257120 -36.37091584194742,-9.81366087228250 -36.37089171006900,-9.81368870213435 -36.37084344630041,-9.81374436182877 -36.37081931440939,-9.81377219167217 -36.37077105061560,-9.81382785134969 -36.37074691871199,-9.81385568118465 -36.37069865489301,-9.81391134084529 -36.37067452297681,-9.81393917067180 -36.37062625913265,-9.81399483031556 -36.37060212720386,-9.81402266013363 -36.37055386333451,-9.81407831976049 -36.37052973139312,-9.81410614957012 -36.37048146749858,-9.81416180918009 -36.37045733554460,-9.81418963898127 -36.37040907162488,-9.81424529857435 -36.37038493965831,-9.81427312836709 -36.37033667571340,-9.81432878794329 -36.37031254373423,-9.81435661772759 -36.37026427976413,-9.81441227728689 -36.37024014777237,-9.81444010706274 -36.37019188377708,-9.81449576660516 -36.37016775177273,-9.81452359637256 -36.37011948775226,-9.81457925589809 -36.37009535573530,-9.81460708565705 -36.37004709168964,-9.81466274516569 -36.37002295966009,-9.81469057491620 -36.36997469558924,-9.81474623440795 -36.36995056354711,-9.81477406415001 -36.36990229945106,-9.81482972362487 -36.36987816739632,-9.81485755335850 -36.36982990327510,-9.81491321281646 -36.36979872302344,-9.81494917068897 -36.36976935987632,-9.81498303301791 -36.36974093337673,-9.81501581517022 -36.36967889896040,-9.81508735477820
          </coordinates>
        </LinearRing>
      </outerBoundaryIs>
    </Polygon>
  </Placemark>
</Document>
</kml>
