<?xml version="1.0" encoding="UTF-8"?>
<kml xmlns="http://www.opengis.net/kml/2.2" xmlns:gx="http://www.google.com/kml/ext/2.2" xmlns:kml="http://www.opengis.net/kml/2.2" xmlns:atom="http://www.w3.org/2005/Atom">
<Document>
  <name>1008.kml</name>
  <StyleMap id="FF0040FF">
    <Pair>
      <key>normal</key>
      <styleUrl>#s_FF0040FF</styleUrl>
    </Pair>
    <Pair>
      <key>highlight</key>
      <styleUrl>#s_FF0040FF_hl</styleUrl>
    </Pair>
  </StyleMap>
  <Style id="s_FF0040FF">
   <IconStyle>
      <scale>1.1</scale>
      <Icon>
        <href>http://maps.google.com/mapfiles/kml/pushpin/agrocad.png</href>
      </Icon>
      <hotSpot x="20" y="2" xunits="pixels" yunits="pixels"/>
    </IconStyle>
    <LineStyle>
      <color>FF0040FF</color>
      <width>1</width>
    </LineStyle>
    <PolyStyle>
      <color>40ffffff</color>
      <fill>1</fill>
    </PolyStyle>
  </Style>
  <Style id="s_FF0040FF_hl">
    <IconStyle>
      <scale>1.3</scale>
      <Icon>
        <href>http://maps.google.com/mapfiles/kml/pushpin/agrocad.png</href>
      </Icon>
      <hotSpot x="20" y="2" xunits="pixels" yunits="pixels"/>
    </IconStyle>
    <LineStyle>
      <color>ff000000</color>
      <width>1</width>
    </LineStyle>
    <PolyStyle>
      <color>40ffffff</color>
      <fill>1</fill>
    </PolyStyle>
  </Style>
  <Placemark>
    <name>AgroCAD: 7FD4</name>
    <styleUrl>FF0040FF</styleUrl>
    <Polygon>
      <outerBoundaryIs>
        <LinearRing>
          <coordinates>
           -36.14400557332800,-9.65644642943196 -36.14403232447580,-9.65639015580942 -36.14406670659376,-9.65625570530598 -36.14409236414254,-9.65614120046291 -36.14412038268267,-9.65605720610469 -36.14416734607634,-9.65596919760857 -36.14423428196793,-9.65587723121401 -36.14437137570722,-9.65572375045921 -36.14448646393320,-9.65559022755170 -36.14461162065259,-9.65543744807103 -36.14474873654097,-9.65527441724839 -36.14488812657345,-9.65509247086609 -36.14501645077520,-9.65492685667647 -36.14511140639681,-9.65479691803291 -36.14528981464014,-9.65454991047595 -36.14538690098727,-9.65440332281857 -36.14547474840048,-9.65426044111959 -36.14555746586598,-9.65410522791057 -36.14563691949223,-9.65392959240988 -36.14571067351083,-9.65374928957584 -36.14575741546841,-9.65366493479518 -36.14582027127174,-9.65358780627016 -36.14591028317991,-9.65349619779584 -36.14611534685535,-9.65329210434544 -36.14621301434932,-9.65318374189212 -36.14631396450909,-9.65306625420522 -36.14639141481290,-9.65296824119241 -36.14647268303356,-9.65286245006861 -36.14664142792102,-9.65261978931603 -36.14670129468843,-9.65252034304892 -36.14671240547397,-9.65248757393414 -36.14671757361835,-9.65249170489737 -36.14674247348777,-9.65252383444796 -36.14676703486432,-9.65256024325882 -36.14678953530829,-9.65259862648472 -36.14680741438650,-9.65263971632976 -36.14683736872631,-9.65272092328174 -36.14685413994234,-9.65276093333495 -36.14685733430098,-9.65276719457693 -36.14678471142296,-9.65280875917714 -36.14671092146569,-9.65285133154819 -36.14665481672425,-9.65291024858199 -36.14661039951040,-9.65298024092350 -36.14658105053600,-9.65300597671880 -36.14654810254106,-9.65303321524323 -36.14648345878765,-9.65308651405647 -36.14642256941890,-9.65314930311154 -36.14636222743575,-9.65319452752627 -36.14633752591656,-9.65322717474221 -36.14628532702309,-9.65328142521405 -36.14625776026263,-9.65330534389532 -36.14613533274143,-9.65342915288015 -36.14610464131922,-9.65350732005261 -36.14604187052729,-9.65361332436285 -36.14599720397343,-9.65373164620312 -36.14598251405614,-9.65376597826405 -36.14595301621533,-9.65384155858808 -36.14591447404207,-9.65396298983030 -36.14589158983299,-9.65404838393313 -36.14586157840980,-9.65422570552413 -36.14582487203997,-9.65434794392771 -36.14580592481805,-9.65442739702463 -36.14579175034792,-9.65446595522051 -36.14575880910848,-9.65454688011594 -36.14571335613412,-9.65461864456615 -36.14565667311827,-9.65468870353442 -36.14562783597436,-9.65472304287262 -36.14556445057413,-9.65478608237883 -36.14548892121832,-9.65483791853188 -36.14544735094636,-9.65485921791877 -36.14536419095315,-9.65491729991011 -36.14532909941696,-9.65494801713065 -36.14529538067640,-9.65497928347966 -36.14523225807803,-9.65504027232087 -36.14520153673131,-9.65506787544786 -36.14510269587033,-9.65516730401930 -36.14504479630096,-9.65523139069924 -36.14495976787064,-9.65534073130470 -36.14490642318171,-9.65540431825445 -36.14483745948056,-9.65546213955002 -36.14480577022074,-9.65548888078011 -36.14473483697650,-9.65552257103445 -36.14465673786231,-9.65556628544349 -36.14454758139807,-9.65564328081229 -36.14448886390793,-9.65568232348388 -36.14442497974809,-9.65573097683657 -36.14439765935659,-9.65576244869434 -36.14434395088661,-9.65581927026953 -36.14427294798329,-9.65590840440151 -36.14422710253704,-9.65597854909829 -36.14419221840062,-9.65605445074147 -36.14416125120825,-9.65613825150402 -36.14412211051191,-9.65626478435981 -36.14409782635126,-9.65635516287764 -36.14406821056684,-9.65647998194293 -36.14405608571994,-9.65651600402934 -36.14405091768054,-9.65649748859992 -36.14400557332801,-9.65644642943196 -36.14400557332800,-9.65644642943196
          </coordinates>
        </LinearRing>
      </outerBoundaryIs>
    </Polygon>
  </Placemark>
  <Placemark>
    <name>AgroCAD: 7FD3</name>
    <styleUrl>FF0040FF</styleUrl>
    <Polygon>
      <outerBoundaryIs>
        <LinearRing>
          <coordinates>
           -36.14442055829576,-9.65414821355357 -36.14442173643811,-9.65414942551642 -36.14445600984094,-9.65417871692567 -36.14457001625534,-9.65427391382609 -36.14467634455755,-9.65437756099663 -36.14480185450759,-9.65450892663452 -36.14489594831413,-9.65461850246142 -36.14497931900685,-9.65474495078524 -36.14503472079756,-9.65484030120957 -36.14508186651592,-9.65477578631341 -36.14525978704767,-9.65452945401758 -36.14535613282085,-9.65438398454394 -36.14544307929182,-9.65424256822195 -36.14552472501617,-9.65408936607783 -36.14560342645326,-9.65391539335352 -36.14567773462856,-9.65373373583581 -36.14572706472998,-9.65364471026732 -36.14579301809728,-9.65356378081725 -36.14588435148951,-9.65347082742301 -36.14608886155745,-9.65326728496798 -36.14618558347054,-9.65315997164498 -36.14628576912038,-9.65304337371542 -36.14636260479479,-9.65294613851967 -36.14644319990425,-9.65284122362789 -36.14661077765495,-9.65260024127839 -36.14666802714068,-9.65250514265905 -36.14668136761036,-9.65246579752979 -36.14666173178461,-9.65245821995150 -36.14661278617307,-9.65244992909254 -36.14659912492860,-9.65244990150991 -36.14648952949476,-9.65247501768329 -36.14642910757042,-9.65252560880653 -36.14639381092624,-9.65257509982824 -36.14633870644350,-9.65273164429532 -36.14627775545064,-9.65286014023330 -36.14619569480421,-9.65295866804541 -36.14607997803118,-9.65305370682362 -36.14595634882360,-9.65313312901080 -36.14580393263022,-9.65321067956709 -36.14563609528636,-9.65328789137419 -36.14548174915505,-9.65337060713762 -36.14535791552606,-9.65349288580484 -36.14516154917259,-9.65382916947226 -36.14505349183977,-9.65394975809992 -36.14491031785934,-9.65405181209990 -36.14473187175148,-9.65409414649670 -36.14455892943519,-9.65411357546956 -36.14442108471362,-9.65414804964612 -36.14442055829576,-9.65414821355357 -36.14442055829576,-9.65414821355357
          </coordinates>
        </LinearRing>
      </outerBoundaryIs>
    </Polygon>
  </Placemark>
  <Placemark>
    <name>AgroCAD: 7FCF</name>
    <styleUrl>FF0040FF</styleUrl>
    <Polygon>
      <outerBoundaryIs>
        <LinearRing>
          <coordinates>
           -36.14438194927347,-9.65416054495908 -36.14422974681168,-9.65422705234616 -36.14406503695131,-9.65431842744677 -36.14390658446318,-9.65441446411536 -36.14376411065447,-9.65451768948313 -36.14365052855309,-9.65463666018214 -36.14357119252193,-9.65471017070863 -36.14346200107227,-9.65473437738942 -36.14328897967173,-9.65473525614028 -36.14309633250287,-9.65473046530342 -36.14298580122819,-9.65471641560212 -36.14281844131846,-9.65466827747971 -36.14274392647510,-9.65464956797491 -36.14266454387705,-9.65463395669189 -36.14258347149402,-9.65462255792440 -36.14251459929918,-9.65461526170014 -36.14249402741390,-9.65467429548744 -36.14254393928850,-9.65474602796305 -36.14261222933361,-9.65490048894120 -36.14267239228587,-9.65508119830246 -36.14273608251676,-9.65525817961828 -36.14280849026019,-9.65544862521337 -36.14288769761419,-9.65565025705584 -36.14295455969779,-9.65584999156151 -36.14301436211607,-9.65601919049277 -36.14306360784339,-9.65614983571075 -36.14311781640545,-9.65626570294601 -36.14323289097812,-9.65650072796632 -36.14329453908334,-9.65662465027793 -36.14334880255901,-9.65677324580362 -36.14340674195906,-9.65692401807042 -36.14344801432286,-9.65703480830398 -36.14345979521952,-9.65702072172068 -36.14352974346607,-9.65693321339855 -36.14363604585192,-9.65681985525035 -36.14375141235574,-9.65670655317843 -36.14385673578290,-9.65659413741003 -36.14394510415819,-9.65648893283220 -36.14399789089382,-9.65637789088544 -36.14403127627346,-9.65624733815220 -36.14405721533223,-9.65613157703195 -36.14408677107808,-9.65604297444137 -36.14413634552073,-9.65595007290312 -36.14420582447325,-9.65585461248456 -36.14434391046450,-9.65570002088105 -36.14445849366972,-9.65556708389499 -36.14458351145876,-9.65541447401620 -36.14472024751967,-9.65525189481841 -36.14485919676750,-9.65507052380652 -36.14498727017573,-9.65490523330094 -36.14501043294228,-9.65487353705372 -36.14501130429547,-9.65487234468190 -36.14494828381728,-9.65476388193709 -36.14486673625908,-9.65464019874023 -36.14477476303141,-9.65453309239353 -36.14465036310616,-9.65440288855265 -36.14454549682510,-9.65430066652583 -36.14443240336381,-9.65420623194331 -36.14439669596449,-9.65417571498045 -36.14438194927347,-9.65416054495908 -36.14438194927347,-9.65416054495908
          </coordinates>
        </LinearRing>
      </outerBoundaryIs>
    </Polygon>
  </Placemark>
</Document>
</kml>
