<?xml version="1.0" encoding="UTF-8"?>
<kml xmlns="http://www.opengis.net/kml/2.2" xmlns:gx="http://www.google.com/kml/ext/2.2" xmlns:kml="http://www.opengis.net/kml/2.2" xmlns:atom="http://www.w3.org/2005/Atom">
<Document>
  <name>1016.kml</name>
  <StyleMap id="FF0040FF">
    <Pair>
      <key>normal</key>
      <styleUrl>#s_FF0040FF</styleUrl>
    </Pair>
    <Pair>
      <key>highlight</key>
      <styleUrl>#s_FF0040FF_hl</styleUrl>
    </Pair>
  </StyleMap>
  <Style id="s_FF0040FF">
   <IconStyle>
      <scale>1.1</scale>
      <Icon>
        <href>http://maps.google.com/mapfiles/kml/pushpin/agrocad.png</href>
      </Icon>
      <hotSpot x="20" y="2" xunits="pixels" yunits="pixels"/>
    </IconStyle>
    <LineStyle>
      <color>FF0040FF</color>
      <width>1</width>
    </LineStyle>
    <PolyStyle>
      <color>40ffffff</color>
      <fill>1</fill>
    </PolyStyle>
  </Style>
  <Style id="s_FF0040FF_hl">
    <IconStyle>
      <scale>1.3</scale>
      <Icon>
        <href>http://maps.google.com/mapfiles/kml/pushpin/agrocad.png</href>
      </Icon>
      <hotSpot x="20" y="2" xunits="pixels" yunits="pixels"/>
    </IconStyle>
    <LineStyle>
      <color>ff000000</color>
      <width>1</width>
    </LineStyle>
    <PolyStyle>
      <color>40ffffff</color>
      <fill>1</fill>
    </PolyStyle>
  </Style>
  <Placemark>
    <name>AgroCAD: 7FC5</name>
    <styleUrl>FF0040FF</styleUrl>
    <Polygon>
      <outerBoundaryIs>
        <LinearRing>
          <coordinates>
           -36.13975437873800,-9.65396489781181 -36.14003050012200,-9.65368299805186 -36.14012254604686,-9.65358518397418 -36.14028432146808,-9.65343378363471 -36.14041138221231,-9.65330534769571 -36.14061323810974,-9.65310796972975 -36.14065256851829,-9.65314301900492 -36.14080921392500,-9.65326709972955 -36.14097575472317,-9.65339998073653 -36.14114351310514,-9.65353745685810 -36.14150039649393,-9.65384392538943 -36.14167666543997,-9.65400885276864 -36.14190366456437,-9.65420318087775 -36.14222888274876,-9.65447879264057 -36.14235268298750,-9.65458280159863 -36.14245889783239,-9.65468740654570 -36.14251199202056,-9.65476371260157 -36.14255655642776,-9.65486451008038 -36.14252629554125,-9.65485764994469 -36.14245068053201,-9.65484492531777 -36.14235727771153,-9.65484157333010 -36.14225209221285,-9.65485090066559 -36.14215442010508,-9.65486054185894 -36.14212077738077,-9.65486236289034 -36.14212077738077,-9.65486236289034 -36.14191614855283,-9.65486711448909 -36.14189131530353,-9.65486780998630 -36.14186868922451,-9.65481052262152 -36.14178502525970,-9.65472076663123 -36.14172785974628,-9.65465422712861 -36.14157097066030,-9.65457140133247 -36.14145673974401,-9.65449036242487 -36.14122785446566,-9.65441121234799 -36.14096804569493,-9.65429578559585 -36.14081438574114,-9.65424044000539 -36.14072407706738,-9.65422233330322 -36.14059726444218,-9.65419055181358 -36.14047254052080,-9.65413380002889 -36.14034015351278,-9.65409277277138 -36.14017698461087,-9.65406501976134 -36.14009007405377,-9.65404493430665 -36.13987347497432,-9.65398466013034 -36.13975437873801,-9.65396489781181 -36.13975437873800,-9.65396489781181
          </coordinates>
        </LinearRing>
      </outerBoundaryIs>
    </Polygon>
  </Placemark>
  <Placemark>
    <name>AgroCAD: 7FBD</name>
    <styleUrl>FF0040FF</styleUrl>
    <Polygon>
      <outerBoundaryIs>
        <LinearRing>
          <coordinates>
           -36.13806017411631,-9.65164471932133 -36.13807019924745,-9.65163284598578 -36.13812073462352,-9.65155105979581 -36.13817471908050,-9.65146954130102 -36.13823176857526,-9.65139024844488 -36.13832066440323,-9.65127157873568 -36.13838189709300,-9.65119468301791 -36.13844631796271,-9.65111934352561 -36.13851003659704,-9.65104815831546 -36.13860954733766,-9.65094677909124 -36.13871102722459,-9.65083909276792 -36.13881578369092,-9.65074981217168 -36.13896043679210,-9.65062109638778 -36.13899422421219,-9.65058807162490 -36.13904779251646,-9.65065737298598 -36.13914550366106,-9.65079654487180 -36.13933031198950,-9.65105859203722 -36.13943522972386,-9.65119152233773 -36.13955109209469,-9.65133312641588 -36.13966752121060,-9.65147796421314 -36.13977868188646,-9.65163145801024 -36.13987478233124,-9.65177954233668 -36.13995600677068,-9.65192609619873 -36.14002292826081,-9.65207978589367 -36.14015882858849,-9.65243291795841 -36.14022359319245,-9.65260063719728 -36.14030817660476,-9.65275965363829 -36.14041437147442,-9.65289941263955 -36.14051829497264,-9.65302336115754 -36.14058609420712,-9.65308378044796 -36.14038560729835,-9.65327981978722 -36.14025882602942,-9.65340797322239 -36.14009671947150,-9.65355968345745 -36.14000413299164,-9.65365807196116 -36.13971069631798,-9.65395764932800 -36.13970402199826,-9.65395654181793 -36.13961929599137,-9.65395206396570 -36.13954497427555,-9.65392338256604 -36.13941902565279,-9.65388925328021 -36.13938700329651,-9.65387616548863 -36.13920330773687,-9.65376651394936 -36.13910114501133,-9.65369208117447 -36.13900327946904,-9.65361548982602 -36.13894834777941,-9.65356013119740 -36.13887173494716,-9.65347135983352 -36.13883552958340,-9.65341340316187 -36.13881963164142,-9.65338021421334 -36.13878727868748,-9.65330511764951 -36.13874720354793,-9.65318299471574 -36.13870031073994,-9.65298821071557 -36.13865907372924,-9.65281917551246 -36.13861400539346,-9.65274614094376 -36.13857448437644,-9.65267395595982 -36.13855170464336,-9.65264448219478 -36.13853086592514,-9.65253939951006 -36.13846343358865,-9.65246043935709 -36.13838301845149,-9.65236406933445 -36.13834417086707,-9.65229962651720 -36.13829567555541,-9.65223962196135 -36.13826230312335,-9.65216139885774 -36.13822447282947,-9.65207937234045 -36.13818614036279,-9.65201059559351 -36.13813689578532,-9.65190566125059 -36.13810498495678,-9.65178659063261 -36.13808411470615,-9.65170667614066 -36.13806017411631,-9.65164471932133 -36.13806017411631,-9.65164471932133
          </coordinates>
        </LinearRing>
      </outerBoundaryIs>
    </Polygon>
  </Placemark>
  <Placemark>
    <name>AgroCAD: 7FCC</name>
    <styleUrl>FF0040FF</styleUrl>
    <Polygon>
      <outerBoundaryIs>
        <LinearRing>
          <coordinates>
           -36.13631191895795,-9.64997663226564 -36.13630220988098,-9.64997081253202 -36.13623508205599,-9.64995076756466 -36.13613972952203,-9.64994390325311 -36.13606442500085,-9.64992293198316 -36.13600132867398,-9.64989553972457 -36.13598141482299,-9.64986361036903 -36.13594467655997,-9.64977352448565 -36.13589690117257,-9.64958684528552 -36.13587793856319,-9.64947252449389 -36.13587855493876,-9.64932418187724 -36.13589341249832,-9.64917877638241 -36.13591762299224,-9.64909117614096 -36.13594419499130,-9.64903331749289 -36.13595335455777,-9.64902189791125 -36.13598011016143,-9.64899125702254 -36.13606291077020,-9.64901816664100 -36.13620003386780,-9.64906585471634 -36.13631264450968,-9.64910694424300 -36.13645267011467,-9.64915490621021 -36.13655169585301,-9.64920575386867 -36.13655169585301,-9.64920575386867 -36.13680999419547,-9.64933084187902 -36.13696498216455,-9.64940427244452 -36.13727348956410,-9.64955232778617 -36.13757639894006,-9.64968767989585 -36.13789446749587,-9.64982181730625 -36.13814215553287,-9.64993622101992 -36.13843146026012,-9.65006596709565 -36.13857274510972,-9.65015054426038 -36.13870540767479,-9.65026516615908 -36.13882861246189,-9.65038528802006 -36.13893928464148,-9.65051699622572 -36.13897189133210,-9.65055917955042 -36.13893549037541,-9.65059475885628 -36.13879176216283,-9.65072265164993 -36.13868578989140,-9.65081296843631 -36.13858320265171,-9.65092182983393 -36.13848336645752,-9.65102354061874 -36.13841881803663,-9.65109565284691 -36.13835371922495,-9.65117178518068 -36.13829175954062,-9.65124959384965 -36.13820233465542,-9.65136896980429 -36.13814467310846,-9.65144911334253 -36.13808998867403,-9.65153168882071 -36.13804457099688,-9.65160519254825 -36.13799185828854,-9.65149771088834 -36.13797084677717,-9.65145599755968 -36.13792427970361,-9.65130810072433 -36.13789311533980,-9.65120966312799 -36.13784752640306,-9.65111683938732 -36.13782531894054,-9.65107290080828 -36.13778713172583,-9.65098351119275 -36.13776163958281,-9.65093760150674 -36.13770132351887,-9.65085735271136 -36.13764513760763,-9.65077873973618 -36.13757544594152,-9.65071314375524 -36.13753938815455,-9.65068239112652 -36.13743174262962,-9.65058321378313 -36.13735233609663,-9.65052323655542 -36.13725790092954,-9.65047122245513 -36.13717897183925,-9.65041938324847 -36.13708171005762,-9.65036547231487 -36.13698117872711,-9.65028978101017 -36.13690269618917,-9.65025008741165 -36.13687164321880,-9.65023794709894 -36.13676246870298,-9.65016501098007 -36.13667681810869,-9.65011820895661 -36.13658190009842,-9.65008700099805 -36.13646049011199,-9.65002371301364 -36.13637120024981,-9.64998994624209 -36.13631901655877,-9.64997688349781 -36.13631191895795,-9.64997663226564 -36.13631191895795,-9.64997663226564
          </coordinates>
        </LinearRing>
      </outerBoundaryIs>
    </Polygon>
  </Placemark>
</Document>
</kml>
