<?xml version="1.0" encoding="UTF-8"?>
<kml xmlns="http://www.opengis.net/kml/2.2" xmlns:gx="http://www.google.com/kml/ext/2.2" xmlns:kml="http://www.opengis.net/kml/2.2" xmlns:atom="http://www.w3.org/2005/Atom">
<Document>
  <name>1019.kml</name>
  <StyleMap id="FF0040FF">
    <Pair>
      <key>normal</key>
      <styleUrl>#s_FF0040FF</styleUrl>
    </Pair>
    <Pair>
      <key>highlight</key>
      <styleUrl>#s_FF0040FF_hl</styleUrl>
    </Pair>
  </StyleMap>
  <Style id="s_FF0040FF">
   <IconStyle>
      <scale>1.1</scale>
      <Icon>
        <href>http://maps.google.com/mapfiles/kml/pushpin/agrocad.png</href>
      </Icon>
      <hotSpot x="20" y="2" xunits="pixels" yunits="pixels"/>
    </IconStyle>
    <LineStyle>
      <color>FF0040FF</color>
      <width>1</width>
    </LineStyle>
    <PolyStyle>
      <color>40ffffff</color>
      <fill>1</fill>
    </PolyStyle>
  </Style>
  <Style id="s_FF0040FF_hl">
    <IconStyle>
      <scale>1.3</scale>
      <Icon>
        <href>http://maps.google.com/mapfiles/kml/pushpin/agrocad.png</href>
      </Icon>
      <hotSpot x="20" y="2" xunits="pixels" yunits="pixels"/>
    </IconStyle>
    <LineStyle>
      <color>ff000000</color>
      <width>1</width>
    </LineStyle>
    <PolyStyle>
      <color>40ffffff</color>
      <fill>1</fill>
    </PolyStyle>
  </Style>
  <Placemark>
    <name>AgroCAD: 7FCB</name>
    <styleUrl>FF0040FF</styleUrl>
    <Polygon>
      <outerBoundaryIs>
        <LinearRing>
          <coordinates>
           -36.13623318925654,-9.65790689304429 -36.13621700043430,-9.65784862232685 -36.13615880662980,-9.65764697786650 -36.13609563444498,-9.65744296236427 -36.13603806205855,-9.65727032924897 -36.13594848330255,-9.65698118938243 -36.13590465131802,-9.65682361683195 -36.13592145109150,-9.65681567677209 -36.13615369496149,-9.65673804656730 -36.13649930138347,-9.65664727788589 -36.13691175172179,-9.65653823744800 -36.13781367607030,-9.65629755145034 -36.13838262737564,-9.65614467857878 -36.13886155555336,-9.65601893992433 -36.13927365821994,-9.65590763959384 -36.13938646956637,-9.65588734171386 -36.13942664512720,-9.65588168939133 -36.13943086026113,-9.65589330984637 -36.13948081822708,-9.65599773963418 -36.13953377434292,-9.65610306626509 -36.13957809869900,-9.65620162116579 -36.13959663468602,-9.65624921659328 -36.13960977937135,-9.65628296860323 -36.13963960756358,-9.65635955934717 -36.13970852910962,-9.65647711525563 -36.13976643371604,-9.65656892401711 -36.13988804904968,-9.65681787739355 -36.13998727412255,-9.65700995122536 -36.14012727110509,-9.65723634558722 -36.14012108326220,-9.65723951823543 -36.13961253951631,-9.65750768341816 -36.13894423416368,-9.65782941128196 -36.13815211223554,-9.65819881731870 -36.13760330722667,-9.65848840694431 -36.13716597044507,-9.65871504767295 -36.13673073362827,-9.65892669116569 -36.13654959732190,-9.65901426277504 -36.13653267336974,-9.65895807804603 -36.13649779702145,-9.65884353728557 -36.13644776107336,-9.65866925177920 -36.13639828602708,-9.65848779596440 -36.13633879107569,-9.65827401602551 -36.13627385212149,-9.65805325660264 -36.13624304353164,-9.65794236292564 -36.13623318925654,-9.65790689304429
          </coordinates>
        </LinearRing>
      </outerBoundaryIs>
    </Polygon>
  </Placemark>
</Document>
</kml>
