<?xml version="1.0" encoding="UTF-8"?>
<kml xmlns="http://www.opengis.net/kml/2.2" xmlns:gx="http://www.google.com/kml/ext/2.2" xmlns:kml="http://www.opengis.net/kml/2.2" xmlns:atom="http://www.w3.org/2005/Atom">
<Document>
  <name>1013.kml</name>
  <StyleMap id="FF0040FF">
    <Pair>
      <key>normal</key>
      <styleUrl>#s_FF0040FF</styleUrl>
    </Pair>
    <Pair>
      <key>highlight</key>
      <styleUrl>#s_FF0040FF_hl</styleUrl>
    </Pair>
  </StyleMap>
  <Style id="s_FF0040FF">
   <IconStyle>
      <scale>1.1</scale>
      <Icon>
        <href>http://maps.google.com/mapfiles/kml/pushpin/agrocad.png</href>
      </Icon>
      <hotSpot x="20" y="2" xunits="pixels" yunits="pixels"/>
    </IconStyle>
    <LineStyle>
      <color>FF0040FF</color>
      <width>1</width>
    </LineStyle>
    <PolyStyle>
      <color>40ffffff</color>
      <fill>1</fill>
    </PolyStyle>
  </Style>
  <Style id="s_FF0040FF_hl">
    <IconStyle>
      <scale>1.3</scale>
      <Icon>
        <href>http://maps.google.com/mapfiles/kml/pushpin/agrocad.png</href>
      </Icon>
      <hotSpot x="20" y="2" xunits="pixels" yunits="pixels"/>
    </IconStyle>
    <LineStyle>
      <color>ff000000</color>
      <width>1</width>
    </LineStyle>
    <PolyStyle>
      <color>40ffffff</color>
      <fill>1</fill>
    </PolyStyle>
  </Style>
  <Placemark>
    <name>AgroCAD: 7FCD</name>
    <styleUrl>FF0040FF</styleUrl>
    <Polygon>
      <outerBoundaryIs>
        <LinearRing>
          <coordinates>
           -36.14204439410431,-9.65051032029770 -36.14201762521290,-9.65054664804104 -36.14194472077489,-9.65063087818512 -36.14185852538249,-9.65072570717631 -36.14175147347626,-9.65084135612800 -36.14165558192644,-9.65094795656105 -36.14156213058996,-9.65104890898475 -36.14135051961318,-9.65128008050167 -36.14124744927055,-9.65140097404116 -36.14114636318699,-9.65152132377593 -36.14104437357184,-9.65164086459791 -36.14093462064444,-9.65174799953855 -36.14080966508128,-9.65185274221822 -36.14069901011896,-9.65195281063421 -36.14060975953005,-9.65203361493422 -36.14052033326544,-9.65211403596701 -36.14042414751533,-9.65219183872999 -36.14031806458398,-9.65227522309897 -36.14022617256198,-9.65234683315394 -36.14021160495337,-9.65235840542337 -36.14021084286701,-9.65229005828415 -36.14018083701433,-9.65199993830979 -36.14017844803826,-9.65187193694927 -36.14017526615057,-9.65176963330317 -36.14017452107268,-9.65175565293647 -36.14020901264164,-9.65172478046606 -36.14025570357041,-9.65167921857777 -36.14032472853784,-9.65161808274929 -36.14054385464496,-9.65140249363323 -36.14066840173089,-9.65126710454287 -36.14082797629468,-9.65109596235376 -36.14094635266007,-9.65095167420220 -36.14109939261538,-9.65074484813261 -36.14116358978356,-9.65065712756721 -36.14123782934039,-9.65055782006170 -36.14138434891242,-9.65036630777137 -36.14152430505740,-9.65019142518942 -36.14166206076063,-9.65001566443826 -36.14178614466079,-9.64985062547626 -36.14189814513057,-9.64970492092102 -36.14204957050358,-9.64951155281949 -36.14214669809815,-9.64938098746664 -36.14223895688378,-9.64925376657005 -36.14228343272903,-9.64919062198584 -36.14239938289973,-9.64907854152890 -36.14245847260555,-9.64902859364898 -36.14252104168553,-9.64897999814360 -36.14260279959699,-9.64888421992542 -36.14261379534508,-9.64886313808591 -36.14259751046880,-9.64885440781454 -36.14260563433334,-9.64884432998726 -36.14262874514629,-9.64882649885889 -36.14263715191731,-9.64882015417429 -36.14267763366282,-9.64879414713836 -36.14270848999075,-9.64878303841564 -36.14274358511752,-9.64878100798838 -36.14277336371428,-9.64878974721629 -36.14285279167370,-9.64888323170088 -36.14290007152960,-9.64895530957967 -36.14292671050118,-9.64901681789712 -36.14292948500131,-9.64904300362106 -36.14292077224921,-9.64907109955695 -36.14290759828687,-9.64909166017452 -36.14286211066531,-9.64921088023380 -36.14283605771333,-9.64927748452502 -36.14276683027645,-9.64935314687020 -36.14265782678488,-9.64942111931710 -36.14250371626223,-9.64953730996089 -36.14232964147262,-9.64968359889104 -36.14222109916673,-9.64979842412274 -36.14218716050322,-9.64989535312102 -36.14211934810042,-9.65009897395639 -36.14208160892474,-9.65035621293762 -36.14205829217028,-9.65042651217152 -36.14204823919315,-9.65047101183235 -36.14204439410431,-9.65051032029770 -36.14204439410431,-9.65051032029770
          </coordinates>
        </LinearRing>
      </outerBoundaryIs>
    </Polygon>
  </Placemark>
</Document>
</kml>
