<?xml version="1.0" encoding="UTF-8"?>
<kml xmlns="http://www.opengis.net/kml/2.2" xmlns:gx="http://www.google.com/kml/ext/2.2" xmlns:kml="http://www.opengis.net/kml/2.2" xmlns:atom="http://www.w3.org/2005/Atom">
<Document>
  <name>1021.kml</name>
  <StyleMap id="FF0040FF">
    <Pair>
      <key>normal</key>
      <styleUrl>#s_FF0040FF</styleUrl>
    </Pair>
    <Pair>
      <key>highlight</key>
      <styleUrl>#s_FF0040FF_hl</styleUrl>
    </Pair>
  </StyleMap>
  <Style id="s_FF0040FF">
   <IconStyle>
      <scale>1.1</scale>
      <Icon>
        <href>http://maps.google.com/mapfiles/kml/pushpin/agrocad.png</href>
      </Icon>
      <hotSpot x="20" y="2" xunits="pixels" yunits="pixels"/>
    </IconStyle>
    <LineStyle>
      <color>FF0040FF</color>
      <width>1</width>
    </LineStyle>
    <PolyStyle>
      <color>40ffffff</color>
      <fill>1</fill>
    </PolyStyle>
  </Style>
  <Style id="s_FF0040FF_hl">
    <IconStyle>
      <scale>1.3</scale>
      <Icon>
        <href>http://maps.google.com/mapfiles/kml/pushpin/agrocad.png</href>
      </Icon>
      <hotSpot x="20" y="2" xunits="pixels" yunits="pixels"/>
    </IconStyle>
    <LineStyle>
      <color>ff000000</color>
      <width>1</width>
    </LineStyle>
    <PolyStyle>
      <color>40ffffff</color>
      <fill>1</fill>
    </PolyStyle>
  </Style>
  <Placemark>
    <name>AgroCAD: 7FC3</name>
    <styleUrl>FF0040FF</styleUrl>
    <Polygon>
      <outerBoundaryIs>
        <LinearRing>
          <coordinates>
           -36.13389821356837,-9.65084683199588 -36.13390356791074,-9.65086200036025 -36.13393391605767,-9.65098736311604 -36.13396811726076,-9.65108547109344 -36.13400359509070,-9.65118867829493 -36.13406352398499,-9.65135859554911 -36.13413106989243,-9.65154004540049 -36.13417011959756,-9.65164224398962 -36.13423734986748,-9.65181573598178 -36.13428064619717,-9.65193780910861 -36.13431783737140,-9.65202903272663 -36.13437276031739,-9.65217169646779 -36.13446688063156,-9.65241859017878 -36.13450635476072,-9.65252796114597 -36.13454404880009,-9.65263772606622 -36.13457641900947,-9.65273031897697 -36.13460925548056,-9.65281398245264 -36.13467131469533,-9.65297386895315 -36.13472189080598,-9.65315497216923 -36.13476200060829,-9.65331863890261 -36.13480631398874,-9.65348723451700 -36.13487170583404,-9.65369995561043 -36.13490184612802,-9.65384194808724 -36.13493649997560,-9.65399309554552 -36.13503588240364,-9.65432756619251 -36.13507709749992,-9.65447604478378 -36.13511337954631,-9.65459981164751 -36.13515660621113,-9.65473377807224 -36.13518191399136,-9.65481660464255 -36.13519840849408,-9.65468619879005 -36.13523038051738,-9.65449089346477 -36.13528252317709,-9.65428443515777 -36.13531204620028,-9.65414110852144 -36.13529515783602,-9.65404260552899 -36.13526123227792,-9.65390506028091 -36.13522635929588,-9.65373110679681 -36.13518633315859,-9.65354947641676 -36.13514280414547,-9.65336993452268 -36.13509279741339,-9.65320830080471 -36.13504550570192,-9.65306639145659 -36.13497342285986,-9.65289080480142 -36.13484216278968,-9.65254104446085 -36.13478256367464,-9.65237261066873 -36.13469353549852,-9.65212458907379 -36.13464884013366,-9.65200360670386 -36.13454147561491,-9.65170783436552 -36.13448762369023,-9.65156495570802 -36.13438531983808,-9.65129759261470 -36.13434474932957,-9.65118857937997 -36.13424984392165,-9.65094559239910 -36.13420097514544,-9.65084605321414 -36.13413616801885,-9.65079482312713 -36.13406027840747,-9.65079175589189 -36.13397887257809,-9.65081994881209 -36.13390224626839,-9.65084538809992 -36.13389821356839,-9.65084683199588 -36.13389821356837,-9.65084683199588
          </coordinates>
        </LinearRing>
      </outerBoundaryIs>
    </Polygon>
  </Placemark>
</Document>
</kml>
