<?xml version="1.0" encoding="UTF-8"?>
<kml xmlns="http://www.opengis.net/kml/2.2" xmlns:gx="http://www.google.com/kml/ext/2.2" xmlns:kml="http://www.opengis.net/kml/2.2" xmlns:atom="http://www.w3.org/2005/Atom">
<Document>
  <name>27.kml</name>
  <StyleMap id="FFFF4000">
    <Pair>
      <key>normal</key>
      <styleUrl>#s_FFFF4000</styleUrl>
    </Pair>
    <Pair>
      <key>highlight</key>
      <styleUrl>#s_FFFF4000_hl</styleUrl>
    </Pair>
  </StyleMap>
  <Style id="s_FFFF4000">
   <IconStyle>
      <scale>1.1</scale>
      <Icon>
        <href>http://maps.google.com/mapfiles/kml/pushpin/agrocad.png</href>
      </Icon>
      <hotSpot x="20" y="2" xunits="pixels" yunits="pixels"/>
    </IconStyle>
    <LineStyle>
      <color>FFFF4000</color>
      <width>1</width>
    </LineStyle>
    <PolyStyle>
      <color>40ffffff</color>
      <fill>1</fill>
    </PolyStyle>
  </Style>
  <Style id="s_FFFF4000_hl">
    <IconStyle>
      <scale>1.3</scale>
      <Icon>
        <href>http://maps.google.com/mapfiles/kml/pushpin/agrocad.png</href>
      </Icon>
      <hotSpot x="20" y="2" xunits="pixels" yunits="pixels"/>
    </IconStyle>
    <LineStyle>
      <color>ff000000</color>
      <width>1</width>
    </LineStyle>
    <PolyStyle>
      <color>40ffffff</color>
      <fill>1</fill>
    </PolyStyle>
  </Style>
  <Placemark>
    <name>AgroCAD: 19857</name>
    <styleUrl>FFFF4000</styleUrl>
    <Polygon>
      <outerBoundaryIs>
        <LinearRing>
          <coordinates>
           -36.29661247242404,-9.72364775065747 -36.29928844490865,-9.72277918745881 -36.29951364571654,-9.72270663607682 -36.29957289883894,-9.72359559758296 -36.29967361860645,-9.72515779069638 -36.29970423987504,-9.72563264430756 -36.29967597027365,-9.72563147520749 -36.29963951389255,-9.72563604512759 -36.29962126393085,-9.72565263315300 -36.29961371670645,-9.72567528872273 -36.29961337179465,-9.72569813509542 -36.29960616413546,-9.72571932393440 -36.29960600676436,-9.72574028111939 -36.29960528423266,-9.72575966345748 -36.29960801201765,-9.72578311967489 -36.29960941308065,-9.72580420166039 -36.29961413920695,-9.72582464792160 -36.29961113567695,-9.72584171787088 -36.29959374681986,-9.72584821945934 -36.29957255993234,-9.72585154789628 -36.29952336679095,-9.72587103661948 -36.29950282621106,-9.72587696603687 -36.29948243244135,-9.72588274188393 -36.29946209047024,-9.72588848471568 -36.29944331733744,-9.72589481784153 -36.29942124327154,-9.72590084438064 -36.29939749183624,-9.72590484087988 -36.29937355834824,-9.72590669826163 -36.29935669644204,-9.72591106243737 -36.29933668571775,-9.72591747044850 -36.29931442282193,-9.72592038538764 -36.29929129681354,-9.72592509469782 -36.29926915496624,-9.72592878383894 -36.29924859897244,-9.72593166039968 -36.29922817406733,-9.72593670908959 -36.29920664515463,-9.72594188565364 -36.29918463795103,-9.72594550903072 -36.29916223069153,-9.72594914077208 -36.29914317173342,-9.72595478967019 -36.29910175212764,-9.72596341964463 -36.29907788005482,-9.72597081859337 -36.29905554290023,-9.72597362927328 -36.29903323107113,-9.72597631756605 -36.29900975827442,-9.72598035278334 -36.29898630451214,-9.72598384025707 -36.29896403408792,-9.72598724775183 -36.29893899827282,-9.72598797567706 -36.29891825801163,-9.72599509546060 -36.29889962022004,-9.72600135419284 -36.29888409804532,-9.72601322859514 -36.29886663086572,-9.72602023057790 -36.29884786184002,-9.72603324004071 -36.29881719422233,-9.72604316062795 -36.29879672469281,-9.72604803621381 -36.29878477564272,-9.72605116333081 -36.29876399500882,-9.72605614260188 -36.29873058816611,-9.72606249793079 -36.29869336948761,-9.72607299003287 -36.29867284083701,-9.72607175158535 -36.29863602435641,-9.72607443582020 -36.29860603830162,-9.72608110462651 -36.29858561558862,-9.72608328299845 -36.29856409118040,-9.72608887257345 -36.29854225470281,-9.72609303036808 -36.29852040518202,-9.72609466144554 -36.29849879694332,-9.72609852913701 -36.29847470492420,-9.72610266549235 -36.29845253301161,-9.72610777835978 -36.29843075024461,-9.72611173067899 -36.29840798040940,-9.72611661309665 -36.29838576498600,-9.72611971196515 -36.29836431615880,-9.72612524660878 -36.29834340287631,-9.72612905153685 -36.29831840688340,-9.72613340713032 -36.29829540826020,-9.72613768707833 -36.29827201682451,-9.72614100302596 -36.29823551434980,-9.72614500668752 -36.29819297883230,-9.72615180177311 -36.29816973540610,-9.72615631445229 -36.29814953307380,-9.72615959141121 -36.29813088987420,-9.72616319123508 -36.29811073539450,-9.72616592984031 -36.29808890337829,-9.72616956454550 -36.29806734766609,-9.72617220605423 -36.29804790746309,-9.72617764162279 -36.29802852455149,-9.72618072726489 -36.29801075963059,-9.72618412888746 -36.29799015774428,-9.72618764806404 -36.29796806204749,-9.72619372664241 -36.29794534053619,-9.72620067366539 -36.29792181517908,-9.72620364805614 -36.29790125184119,-9.72620515138545 -36.29788030865789,-9.72620930371908 -36.29785920299800,-9.72621253123351 -36.29783886592208,-9.72622171583722 -36.29781677850989,-9.72622427212562 -36.29777922968378,-9.72623195014695 -36.29774994418308,-9.72624204460286 -36.29772138149828,-9.72624693897494 -36.29770073511208,-9.72625199162811 -36.29768922775789,-9.72625418480220 -36.29766960934538,-9.72626108425205 -36.29764264349748,-9.72626200538990 -36.29763033983789,-9.72624863979647 -36.29762341990138,-9.72623338974800 -36.29760423133177,-9.72619890544772 -36.29759394723027,-9.72618437321561 -36.29757513571428,-9.72615753706195 -36.29755565964798,-9.72613699638549 -36.29754039685658,-9.72612209306786 -36.29752841675808,-9.72610418507705 -36.29751598435917,-9.72608946349142 -36.29751399348847,-9.72608445129421 -36.29749014477027,-9.72605099835526 -36.29748327278317,-9.72603085876980 -36.29747553534758,-9.72599888028694 -36.29747462360757,-9.72597190570619 -36.29746667474667,-9.72592645963561 -36.29745589638908,-9.72588508917802 -36.29745614663687,-9.72586328165603 -36.29745074378167,-9.72584456915075 -36.29744464006358,-9.72579916102118 -36.29744429094377,-9.72577880464300 -36.29743747266267,-9.72574489748454 -36.29742264443628,-9.72573104568253 -36.29740277347629,-9.72573585608178 -36.29738473388417,-9.72574021965779 -36.29735244388937,-9.72574423528475 -36.29732178007906,-9.72575203985170 -36.29730022490217,-9.72575913068041 -36.29727737483177,-9.72576283402133 -36.29725568595177,-9.72576747785939 -36.29723282331318,-9.72576994872884 -36.29721235979768,-9.72577519709937 -36.29719420127567,-9.72577722286400 -36.29717170791567,-9.72578499356848 -36.29715084556397,-9.72578828211136 -36.29712950966648,-9.72579732099269 -36.29710866214276,-9.72580371276938 -36.29708604240187,-9.72581523313294 -36.29674109428185,-9.72488253349856 -36.29630849813173,-9.72376000989167 -36.29634122887714,-9.72373002184886 -36.29661247242404,-9.72364775065747 -36.29661247242404,-9.72364775065747 -36.29661247242404,-9.72364775065747
          </coordinates>
        </LinearRing>
      </outerBoundaryIs>
    </Polygon>
  </Placemark>
</Document>
</kml>
