<?xml version="1.0" encoding="UTF-8"?>
<kml xmlns="http://www.opengis.net/kml/2.2" xmlns:gx="http://www.google.com/kml/ext/2.2" xmlns:kml="http://www.opengis.net/kml/2.2" xmlns:atom="http://www.w3.org/2005/Atom">
<Document>
  <name>24.kml</name>
  <StyleMap id="FFFF4000">
    <Pair>
      <key>normal</key>
      <styleUrl>#s_FFFF4000</styleUrl>
    </Pair>
    <Pair>
      <key>highlight</key>
      <styleUrl>#s_FFFF4000_hl</styleUrl>
    </Pair>
  </StyleMap>
  <Style id="s_FFFF4000">
   <IconStyle>
      <scale>1.1</scale>
      <Icon>
        <href>http://maps.google.com/mapfiles/kml/pushpin/agrocad.png</href>
      </Icon>
      <hotSpot x="20" y="2" xunits="pixels" yunits="pixels"/>
    </IconStyle>
    <LineStyle>
      <color>FFFF4000</color>
      <width>1</width>
    </LineStyle>
    <PolyStyle>
      <color>40ffffff</color>
      <fill>1</fill>
    </PolyStyle>
  </Style>
  <Style id="s_FFFF4000_hl">
    <IconStyle>
      <scale>1.3</scale>
      <Icon>
        <href>http://maps.google.com/mapfiles/kml/pushpin/agrocad.png</href>
      </Icon>
      <hotSpot x="20" y="2" xunits="pixels" yunits="pixels"/>
    </IconStyle>
    <LineStyle>
      <color>ff000000</color>
      <width>1</width>
    </LineStyle>
    <PolyStyle>
      <color>40ffffff</color>
      <fill>1</fill>
    </PolyStyle>
  </Style>
  <Placemark>
    <name>AgroCAD: 1985A</name>
    <styleUrl>FFFF4000</styleUrl>
    <Polygon>
      <outerBoundaryIs>
        <LinearRing>
          <coordinates>
           -36.29641992396833,-9.71690984771088 -36.29628508413882,-9.71546102947611 -36.29627792382204,-9.71540313069796 -36.29776944877588,-9.71505653938756 -36.29851860005870,-9.71486743798521 -36.29881852396312,-9.71478675222077 -36.29887844436062,-9.71477589900089 -36.29893044875873,-9.71476649982206 -36.29898380719701,-9.71478918978625 -36.29898991265132,-9.71479993134560 -36.29913391688312,-9.71698202019973 -36.29918752469603,-9.71778401494213 -36.29920568121183,-9.71821089875050 -36.29780622651138,-9.71865106237185 -36.29692481677626,-9.71893126958490 -36.29664856808734,-9.71901679616726 -36.29664582510234,-9.71899878124850 -36.29657675268374,-9.71845875044259 -36.29641992396833,-9.71690984771088 -36.29641992396833,-9.71690984771088 -36.29641992396833,-9.71690984771088
          </coordinates>
        </LinearRing>
      </outerBoundaryIs>
    </Polygon>
  </Placemark>
</Document>
</kml>
