<?xml version="1.0" encoding="UTF-8"?>
<kml xmlns="http://www.opengis.net/kml/2.2" xmlns:gx="http://www.google.com/kml/ext/2.2" xmlns:kml="http://www.opengis.net/kml/2.2" xmlns:atom="http://www.w3.org/2005/Atom">
<Document>
  <name>1011.kml</name>
  <StyleMap id="FFFF4000">
    <Pair>
      <key>normal</key>
      <styleUrl>#s_FFFF4000</styleUrl>
    </Pair>
    <Pair>
      <key>highlight</key>
      <styleUrl>#s_FFFF4000_hl</styleUrl>
    </Pair>
  </StyleMap>
  <Style id="s_FFFF4000">
   <IconStyle>
      <scale>1.1</scale>
      <Icon>
        <href>http://maps.google.com/mapfiles/kml/pushpin/agrocad.png</href>
      </Icon>
      <hotSpot x="20" y="2" xunits="pixels" yunits="pixels"/>
    </IconStyle>
    <LineStyle>
      <color>FFFF4000</color>
      <width>1</width>
    </LineStyle>
    <PolyStyle>
      <color>40ffffff</color>
      <fill>1</fill>
    </PolyStyle>
  </Style>
  <Style id="s_FFFF4000_hl">
    <IconStyle>
      <scale>1.3</scale>
      <Icon>
        <href>http://maps.google.com/mapfiles/kml/pushpin/agrocad.png</href>
      </Icon>
      <hotSpot x="20" y="2" xunits="pixels" yunits="pixels"/>
    </IconStyle>
    <LineStyle>
      <color>ff000000</color>
      <width>1</width>
    </LineStyle>
    <PolyStyle>
      <color>40ffffff</color>
      <fill>1</fill>
    </PolyStyle>
  </Style>
  <Placemark>
    <name>AgroCAD: 8F4D</name>
    <styleUrl>FFFF4000</styleUrl>
    <Polygon>
      <outerBoundaryIs>
        <LinearRing>
          <coordinates>
           -36.25702937876223,-9.79131149151129 -36.25731670979456,-9.79176616479294 -36.25730100276706,-9.79176679881225 -36.25725706790764,-9.79176946700699 -36.25721341617835,-9.79177161743184 -36.25716917346473,-9.79177511333313 -36.25712852281051,-9.79178249309938 -36.25708572383901,-9.79178819480197 -36.25704293208932,-9.79179483849355 -36.25700024624909,-9.79180527825137 -36.25695786468516,-9.79181825801261 -36.25691652876171,-9.79183182188869 -36.25687566474913,-9.79184676046063 -36.25683556213241,-9.79186364866033 -36.25679625783465,-9.79187994985138 -36.25675562863805,-9.79189615015750 -36.25671581528610,-9.79191585572469 -36.25667564884620,-9.79193868255170 -36.25664209570334,-9.79196769509041 -36.25660753046390,-9.79199448033669 -36.25654267391603,-9.79205195373512 -36.25651153044803,-9.79208350803482 -36.25647923060358,-9.79211388624649 -36.25642025408076,-9.79218023307829 -36.25639054937201,-9.79221326404501 -36.25633561568395,-9.79228110292855 -36.25624726839912,-9.79237827452247 -36.25619195503006,-9.79244795352998 -36.25616480547588,-9.79248144244292 -36.25610902854508,-9.79255132557986 -36.25608045702168,-9.79258434764206 -36.25605159994878,-9.79261466801775 -36.25602073267325,-9.79263543421138 -36.25598424435871,-9.79264054278211 -36.25594663928679,-9.79263411114250 -36.25590992258326,-9.79262233312912 -36.25587913817234,-9.79260028047046 -36.25585054594019,-9.79257302451023 -36.25582295689561,-9.79254071974836 -36.25579287928723,-9.79250790674617 -36.25576337140544,-9.79247607845548 -36.25570682723998,-9.79240666865914 -36.25567746330693,-9.79237337683530 -36.25561805307744,-9.79230856496405 -36.25558801195872,-9.79227756050870 -36.25555525693203,-9.79224495977949 -36.25554180707005,-9.79223217937494 -36.25702937876223,-9.79131149151129
          </coordinates>
        </LinearRing>
      </outerBoundaryIs>
    </Polygon>
  </Placemark>
  <Placemark>
    <name>AgroCAD: 8F4C</name>
    <styleUrl>FFFF4000</styleUrl>
    <Polygon>
      <outerBoundaryIs>
        <LinearRing>
          <coordinates>
           -36.25551836815995,-9.79220941424378 -36.25549201483638,-9.79218161218768 -36.25545911233654,-9.79215135520651 -36.25542719805590,-9.79212158622915 -36.25539657047975,-9.79209039264133 -36.25536697796700,-9.79205960091505 -36.25533600743401,-9.79202819998671 -36.25530103471726,-9.79199858228944 -36.25525871277055,-9.79197645926804 -36.25521434575957,-9.79196396477579 -36.25517098393917,-9.79195741078495 -36.25512684912976,-9.79195498884181 -36.25508345117455,-9.79195172277401 -36.25503870194602,-9.79195035202978 -36.25499481104534,-9.79195214872353 -36.25495316343197,-9.79195016560574 -36.25490911681109,-9.79194891055023 -36.25486580489122,-9.79194575928750 -36.25482317365406,-9.79193996767539 -36.25477970917592,-9.79193299007379 -36.25473795353586,-9.79192714668853 -36.25469621016451,-9.79192088935117 -36.25465445151331,-9.79191147197343 -36.25461109381840,-9.79190393107502 -36.25452177623003,-9.79189312256223 -36.25447830913370,-9.79188687078558 -36.25443545299886,-9.79188201683700 -36.25435059656362,-9.79186310446914 -36.25430500230122,-9.79185648265268 -36.25426190026301,-9.79185330410067 -36.25421948497498,-9.79184466279743 -36.25412879220439,-9.79183208181093 -36.25408497794439,-9.79182768823813 -36.25404309019277,-9.79182098512997 -36.25400645854114,-9.79181741050258 -36.25397623029832,-9.79181716412557 -36.25395160687468,-9.79181901813309 -36.25388929749172,-9.79183337905696 -36.25387448091287,-9.79183769946520 -36.25378898933674,-9.79184005690798 -36.25374197804588,-9.79184242315376 -36.25369081865437,-9.79184817542279 -36.25360530479273,-9.79186643831773 -36.25351467819123,-9.79188721372395 -36.25346857494607,-9.79189947914078 -36.25343129465960,-9.79191113211592 -36.25340890587941,-9.79191252705206 -36.25338146034103,-9.79191803605934 -36.25330255110704,-9.79179107460036 -36.25328959942907,-9.79177267150901 -36.25312227983151,-9.79150789768462 -36.25312039582865,-9.79150477465791 -36.25311825324043,-9.79150152582674 -36.25304794622925,-9.79139026883098 -36.25594576151043,-9.78959676305900 -36.25701244716838,-9.79128469888369 -36.25551836815995,-9.79220941424378
          </coordinates>
        </LinearRing>
      </outerBoundaryIs>
    </Polygon>
  </Placemark>
  <Placemark>
    <name>AgroCAD: 8F4B</name>
    <styleUrl>FFFF4000</styleUrl>
    <Polygon>
      <outerBoundaryIs>
        <LinearRing>
          <coordinates>
           -36.25511370482033,-9.78828009617611 -36.25592883006753,-9.78956997042233 -36.25303101500821,-9.79136347609072 -36.25261906143906,-9.79071158068660 -36.25257210007344,-9.79063601775049 -36.25246422543798,-9.79046656005990 -36.25240810959851,-9.79037775932596 -36.25226313329239,-9.79014147178645 -36.25221877090189,-9.79007182030620 -36.25511370482033,-9.78828009617611
          </coordinates>
        </LinearRing>
      </outerBoundaryIs>
    </Polygon>
  </Placemark>
  <Placemark>
    <name>AgroCAD: 8F4A</name>
    <styleUrl>FFFF4000</styleUrl>
    <Polygon>
      <outerBoundaryIs>
        <LinearRing>
          <coordinates>
           -36.25220174388813,-9.79004508691765 -36.25214941210137,-9.78996292298561 -36.25203674730676,-9.78979009451455 -36.25187053113745,-9.78952706399142 -36.25476833098969,-9.78773356542200 -36.25509677349331,-9.78825330353251 -36.25220174388813,-9.79004508691765
          </coordinates>
        </LinearRing>
      </outerBoundaryIs>
    </Polygon>
  </Placemark>
  <Placemark>
    <name>AgroCAD: 8F39</name>
    <styleUrl>FFFF4000</styleUrl>
    <Polygon>
      <outerBoundaryIs>
        <LinearRing>
          <coordinates>
           -36.25930146019684,-9.78990522937910 -36.25931644296420,-9.78991323378539 -36.25951593063046,-9.79002186103280 -36.25965456661167,-9.79009746150543 -36.25988587337854,-9.79021504854349 -36.26011126321321,-9.79034381901485 -36.26031518370500,-9.79044894604679 -36.26043960048884,-9.79051415968962 -36.26067572063443,-9.79064220741790 -36.26087546477157,-9.79080513906087 -36.26066433296842,-9.79095342005039 -36.26044109288115,-9.79109414847951 -36.26020034819507,-9.79124137311478 -36.25991346499044,-9.79142034460660 -36.25972450541245,-9.79153508960499 -36.25957844658487,-9.79162872527048 -36.25944552868893,-9.79172102098030 -36.25932561857322,-9.79179749882242 -36.25918607915195,-9.79187188095921 -36.25918542113244,-9.79185065944122 -36.25917934645116,-9.79183679582059 -36.25916810167393,-9.79180930820503 -36.25916026316628,-9.79179729445122 -36.25913434157708,-9.79176992053580 -36.25909613320169,-9.79174896995598 -36.25905275787245,-9.79174579985514 -36.25901187157683,-9.79175116766686 -36.25897194851170,-9.79175903624544 -36.25893171423382,-9.79176686348279 -36.25889274397609,-9.79177724917036 -36.25886321840150,-9.79179081972094 -36.25881902416312,-9.79180199075702 -36.25878044859651,-9.79181468730571 -36.25874212204204,-9.79182982404715 -36.25870432643866,-9.79184367204679 -36.25866410891600,-9.79185557831425 -36.25862429699116,-9.79187028228309 -36.25858623214511,-9.79188685316778 -36.25855062158624,-9.79190161454198 -36.25851490062895,-9.79191617126102 -36.25847647100655,-9.79192692536698 -36.25843728820588,-9.79193332853141 -36.25839683351764,-9.79193350189582 -36.25835709534942,-9.79193159776020 -36.25831703118759,-9.79192398525311 -36.25827620159447,-9.79191834959147 -36.25819562850253,-9.79189869673036 -36.25815626370506,-9.79188800245480 -36.25811759663172,-9.79187474060873 -36.25807707810929,-9.79186309125063 -36.25803589191300,-9.79185115218406 -36.25799556436327,-9.79184060235231 -36.25791436350171,-9.79181550617503 -36.25787322623716,-9.79180713275427 -36.25779021461668,-9.79179101213616 -36.25774989752134,-9.79178393856737 -36.25770840805234,-9.79177839166827 -36.25766897708917,-9.79176749351672 -36.25762584443882,-9.79176238570511 -36.25758441192698,-9.79176153401416 -36.25754547169643,-9.79176066436737 -36.25751019455840,-9.79176098175459 -36.25746900219742,-9.79176405386531 -36.25742747093983,-9.79176188881011 -36.25738552301486,-9.79176266067709 -36.25735847963760,-9.79176421829039 -36.25706028879790,-9.79129236053205 -36.25930146019684,-9.78990522937910
          </coordinates>
        </LinearRing>
      </outerBoundaryIs>
    </Polygon>
  </Placemark>
  <Placemark>
    <name>AgroCAD: 8F37</name>
    <styleUrl>FFFF4000</styleUrl>
    <Polygon>
      <outerBoundaryIs>
        <LinearRing>
          <coordinates>
           -36.25704335720168,-9.79126556790555 -36.25597667139468,-9.78957763215048 -36.25722199564800,-9.78880686475432 -36.25730150434647,-9.78884895588176 -36.25753118622628,-9.78896975869069 -36.25781745993605,-9.78912525659644 -36.25807039399079,-9.78926071550854 -36.25833232997962,-9.78940748104159 -36.25856410639026,-9.78952480074152 -36.25883720702607,-9.78966653486934 -36.25905648798268,-9.78977435508553 -36.25926913888058,-9.78988796200865 -36.25704335720168,-9.79126556790555
          </coordinates>
        </LinearRing>
      </outerBoundaryIs>
    </Polygon>
  </Placemark>
  <Placemark>
    <name>AgroCAD: 8F38</name>
    <styleUrl>FFFF4000</styleUrl>
    <Polygon>
      <outerBoundaryIs>
        <LinearRing>
          <coordinates>
           -36.25984780678150,-9.78956707382476 -36.25990468105805,-9.78966214077809 -36.25997923780683,-9.78977859505210 -36.26011580834222,-9.79000577675302 -36.26025020029078,-9.79021343399967 -36.26036501959282,-9.79038993675644 -36.26038957995835,-9.79043141019938 -36.26013380298182,-9.79030192357851 -36.25991498457843,-9.79018104748485 -36.25963822679181,-9.79003563081229 -36.25955957821197,-9.78998870642872 -36.25935322192633,-9.78987319206968 -36.25984780678150,-9.78956707382476
          </coordinates>
        </LinearRing>
      </outerBoundaryIs>
    </Polygon>
  </Placemark>
  <Placemark>
    <name>AgroCAD: 8F34</name>
    <styleUrl>FFFF4000</styleUrl>
    <Polygon>
      <outerBoundaryIs>
        <LinearRing>
          <coordinates>
           -36.25931996758994,-9.78985650218522 -36.25909300670952,-9.78974491446302 -36.25886179420285,-9.78963580732182 -36.25860299374674,-9.78949654068998 -36.25837217462488,-9.78937209826419 -36.25810286561361,-9.78923300430944 -36.25786156391785,-9.78909470221074 -36.25757060143702,-9.78894580241313 -36.25733973831567,-9.78881978808495 -36.25726458912033,-9.78878050225188 -36.25876599941180,-9.78785122306786 -36.25880076526041,-9.78791125347727 -36.25891703139814,-9.78810154668579 -36.25905944442506,-9.78832798508804 -36.25919888923607,-9.78853442648270 -36.25933575710555,-9.78875663181000 -36.25945367284801,-9.78894865650197 -36.25959076154814,-9.78915985534081 -36.25970752447067,-9.78934053854329 -36.25983140022409,-9.78953995619777 -36.25931996758994,-9.78985650218522
          </coordinates>
        </LinearRing>
      </outerBoundaryIs>
    </Polygon>
  </Placemark>
  <Placemark>
    <name>AgroCAD: 8F56</name>
    <styleUrl>FFFF4000</styleUrl>
    <Polygon>
      <outerBoundaryIs>
        <LinearRing>
          <coordinates>
           -36.25718953782099,-9.78878968189068 -36.25595973994941,-9.78955083951492 -36.25479924070941,-9.78771443459032 -36.25495690152830,-9.78761685410891 -36.25520416689728,-9.78774372616837 -36.25542475343223,-9.78785817728038 -36.25570147009162,-9.78800627244415 -36.25582027442951,-9.78806931958684 -36.25595107918464,-9.78813958558251 -36.25610113841489,-9.78821696204555 -36.25627400443885,-9.78830367439689 -36.25651161503659,-9.78843276113835 -36.25679306610093,-9.78858134412288 -36.25702388527466,-9.78870198694757 -36.25718953782099,-9.78878968189068
          </coordinates>
        </LinearRing>
      </outerBoundaryIs>
    </Polygon>
  </Placemark>
  <Placemark>
    <name>AgroCAD: 8F35</name>
    <styleUrl>FFFF4000</styleUrl>
    <Polygon>
      <outerBoundaryIs>
        <LinearRing>
          <coordinates>
           -36.25875010945737,-9.78782378577748 -36.25866612036797,-9.78767876119197 -36.25854149298103,-9.78749964679434 -36.25839698094735,-9.78726011438081 -36.25827155745859,-9.78706119264433 -36.25813728425455,-9.78683808960105 -36.25796988597411,-9.78658361225739 -36.25782119132700,-9.78635692900005 -36.25767723323673,-9.78613060996400 -36.25760883319185,-9.78602993900254 -36.25758151322619,-9.78599239020551 -36.25500534038030,-9.78758687398303 -36.25523366710086,-9.78771007780500 -36.25545736966712,-9.78783139795767 -36.25573367982606,-9.78797755186474 -36.25584536785242,-9.78803999546727 -36.25597196716365,-9.78810647455328 -36.25613235990924,-9.78818848176852 -36.25630559584004,-9.78827694783445 -36.25654828357273,-9.78840545047549 -36.25683081241183,-9.78855503328948 -36.25705262606734,-9.78866969395437 -36.25723194312135,-9.78876343585752 -36.25875010945737,-9.78782378577748
          </coordinates>
        </LinearRing>
      </outerBoundaryIs>
    </Polygon>
  </Placemark>
</Document>
</kml>
