<?xml version="1.0" encoding="UTF-8"?>
<kml xmlns="http://www.opengis.net/kml/2.2" xmlns:gx="http://www.google.com/kml/ext/2.2" xmlns:kml="http://www.opengis.net/kml/2.2" xmlns:atom="http://www.w3.org/2005/Atom">
<Document>
  <name>1003.kml</name>
  <StyleMap id="FFFF4000">
    <Pair>
      <key>normal</key>
      <styleUrl>#s_FFFF4000</styleUrl>
    </Pair>
    <Pair>
      <key>highlight</key>
      <styleUrl>#s_FFFF4000_hl</styleUrl>
    </Pair>
  </StyleMap>
  <Style id="s_FFFF4000">
   <IconStyle>
      <scale>1.1</scale>
      <Icon>
        <href>http://maps.google.com/mapfiles/kml/pushpin/agrocad.png</href>
      </Icon>
      <hotSpot x="20" y="2" xunits="pixels" yunits="pixels"/>
    </IconStyle>
    <LineStyle>
      <color>FFFF4000</color>
      <width>1</width>
    </LineStyle>
    <PolyStyle>
      <color>40ffffff</color>
      <fill>1</fill>
    </PolyStyle>
  </Style>
  <Style id="s_FFFF4000_hl">
    <IconStyle>
      <scale>1.3</scale>
      <Icon>
        <href>http://maps.google.com/mapfiles/kml/pushpin/agrocad.png</href>
      </Icon>
      <hotSpot x="20" y="2" xunits="pixels" yunits="pixels"/>
    </IconStyle>
    <LineStyle>
      <color>ff000000</color>
      <width>1</width>
    </LineStyle>
    <PolyStyle>
      <color>40ffffff</color>
      <fill>1</fill>
    </PolyStyle>
  </Style>
  <Placemark>
    <name>AgroCAD: 95DB</name>
    <styleUrl>FFFF4000</styleUrl>
    <Polygon>
      <outerBoundaryIs>
        <LinearRing>
          <coordinates>
           -36.26142425093876,-9.77506176503868 -36.26149566069867,-9.77497823692235 -36.26157737274932,-9.77490549515448 -36.26166078139350,-9.77484697401998 -36.26175826483182,-9.77478383137169 -36.26186055822181,-9.77471933085064 -36.26195943093573,-9.77465599788950 -36.26205755999615,-9.77459059365394 -36.26215691744594,-9.77452303504220 -36.26225275513948,-9.77445368803105 -36.26231595631456,-9.77440948411037 -36.26275296346157,-9.77511617451707 -36.25989329426169,-9.77688369177791 -36.25987197033281,-9.77684921709146 -36.25975570066933,-9.77666066258823 -36.25963345985254,-9.77645742246241 -36.25953512351941,-9.77629051225765 -36.25934645818924,-9.77597901320337 -36.25921622634900,-9.77575723075053 -36.25914456266938,-9.77563487637038 -36.25910104456135,-9.77556777621372 -36.25906356120780,-9.77549934568392 -36.25911830147686,-9.77549053028807 -36.25924617428521,-9.77546815884620 -36.25939367318534,-9.77544480343378 -36.25952783123548,-9.77540732449400 -36.25961751278536,-9.77537285404283 -36.25968437579985,-9.77534504597644 -36.25980450611043,-9.77530813643155 -36.25990548983530,-9.77528225773973 -36.25999908298849,-9.77526257433632 -36.26009537459995,-9.77525297612719 -36.26019411954395,-9.77525582234095 -36.26028950928346,-9.77526018035151 -36.26038573570756,-9.77525725652839 -36.26048776942186,-9.77525290381373 -36.26058768837469,-9.77526585031017 -36.26066641903849,-9.77529312679665 -36.26073316788702,-9.77532789118459 -36.26081073931800,-9.77537271278120 -36.26088948168356,-9.77540259899183 -36.26106201216059,-9.77541568009110 -36.26113924839084,-9.77540561430263 -36.26121967920361,-9.77537532955913 -36.26128622558124,-9.77531250018389 -36.26132931386364,-9.77523112193066 -36.26137202193127,-9.77514520904373 -36.26142425093876,-9.77506176503868
          </coordinates>
        </LinearRing>
      </outerBoundaryIs>
    </Polygon>
  </Placemark>
  <Placemark>
    <name>AgroCAD: 95DA</name>
    <styleUrl>FFFF4000</styleUrl>
    <Polygon>
      <outerBoundaryIs>
        <LinearRing>
          <coordinates>
           -36.26277201326583,-9.77514698016315 -36.26375727702884,-9.77674025404582 -36.26353688895808,-9.77687368916796 -36.26310625563605,-9.77713964558668 -36.26266500024379,-9.77741370340979 -36.26236125965180,-9.77760212370922 -36.26201522994132,-9.77781605604799 -36.26167703902829,-9.77802774045247 -36.26132932016681,-9.77824323045176 -36.26090950611651,-9.77849855578060 -36.26086476760923,-9.77844511239035 -36.26079708125611,-9.77833425411916 -36.26072443677771,-9.77823666944510 -36.26059367908767,-9.77800345010355 -36.26048955091492,-9.77784737517061 -36.26037995040029,-9.77764962202425 -36.26027581202202,-9.77748618489189 -36.26012708100514,-9.77725116069458 -36.25999118175486,-9.77704194774108 -36.25991234743557,-9.77691449529846 -36.26277201326583,-9.77514698016315
          </coordinates>
        </LinearRing>
      </outerBoundaryIs>
    </Polygon>
  </Placemark>
  <Placemark>
    <name>AgroCAD: 95DD</name>
    <styleUrl>FFFF4000</styleUrl>
    <Polygon>
      <outerBoundaryIs>
        <LinearRing>
          <coordinates>
           -36.26611287293953,-9.77409922058476 -36.26618919106486,-9.77421809631353 -36.26638255978842,-9.77451890745249 -36.26661760216578,-9.77489974208646 -36.26664277445305,-9.77495093704065 -36.26614867971991,-9.77526122145082 -36.26581951504819,-9.77546448022097 -36.26547054563305,-9.77567433982206 -36.26518073141458,-9.77586031570932 -36.26477959816586,-9.77610603374084 -36.26447587673895,-9.77629401699656 -36.26418732784958,-9.77646801808301 -36.26385085321911,-9.77668359776114 -36.26378837441983,-9.77672142594329 -36.26325802869731,-9.77586380363961 -36.26611287293953,-9.77409922058476
          </coordinates>
        </LinearRing>
      </outerBoundaryIs>
    </Polygon>
  </Placemark>
  <Placemark>
    <name>AgroCAD: 95DC</name>
    <styleUrl>FFFF4000</styleUrl>
    <Polygon>
      <outerBoundaryIs>
        <LinearRing>
          <coordinates>
           -36.26292778492305,-9.77405282975361 -36.26301309642201,-9.77399971076438 -36.26309227196641,-9.77394048040349 -36.26316674185716,-9.77387009189086 -36.26323852981606,-9.77378852796106 -36.26329602613301,-9.77369457636637 -36.26333758599422,-9.77358075499217 -36.26337535321123,-9.77346622559055 -36.26340609511692,-9.77336627152244 -36.26343785166051,-9.77327998466873 -36.26347750168133,-9.77319425958354 -36.26353369420655,-9.77311373423534 -36.26360957323697,-9.77303565861837 -36.26369593606508,-9.77296167818681 -36.26378807727976,-9.77289028352152 -36.26397601779242,-9.77276447629746 -36.26407367199599,-9.77270076100622 -36.26429308053499,-9.77256057614233 -36.26438823697293,-9.77249866578461 -36.26456619671750,-9.77238357430062 -36.26473981356711,-9.77224639379989 -36.26486146791935,-9.77215391669408 -36.26497624758332,-9.77232566267807 -36.26511717771105,-9.77253946569357 -36.26532238035654,-9.77286046892217 -36.26549674745261,-9.77313233760437 -36.26563208944574,-9.77334721021408 -36.26580798738157,-9.77362620545261 -36.26600524364509,-9.77393157337477 -36.26609330235281,-9.77406873675550 -36.26323897881808,-9.77583299799861 -36.26234579218510,-9.77438861641212 -36.26234648342978,-9.77438813294414 -36.26243167105834,-9.77433449811760 -36.26252293076733,-9.77428301443064 -36.26262798747735,-9.77422485792450 -36.26273780785079,-9.77416392110161 -36.26283433241930,-9.77410883611493 -36.26292778492305,-9.77405282975361
          </coordinates>
        </LinearRing>
      </outerBoundaryIs>
    </Polygon>
  </Placemark>
</Document>
</kml>
