<?xml version="1.0" encoding="UTF-8"?>
<kml xmlns="http://www.opengis.net/kml/2.2" xmlns:gx="http://www.google.com/kml/ext/2.2" xmlns:kml="http://www.opengis.net/kml/2.2" xmlns:atom="http://www.w3.org/2005/Atom">
<Document>
  <name>1010.kml</name>
  <StyleMap id="FFFF4000">
    <Pair>
      <key>normal</key>
      <styleUrl>#s_FFFF4000</styleUrl>
    </Pair>
    <Pair>
      <key>highlight</key>
      <styleUrl>#s_FFFF4000_hl</styleUrl>
    </Pair>
  </StyleMap>
  <Style id="s_FFFF4000">
   <IconStyle>
      <scale>1.1</scale>
      <Icon>
        <href>http://maps.google.com/mapfiles/kml/pushpin/agrocad.png</href>
      </Icon>
      <hotSpot x="20" y="2" xunits="pixels" yunits="pixels"/>
    </IconStyle>
    <LineStyle>
      <color>FFFF4000</color>
      <width>1</width>
    </LineStyle>
    <PolyStyle>
      <color>40ffffff</color>
      <fill>1</fill>
    </PolyStyle>
  </Style>
  <Style id="s_FFFF4000_hl">
    <IconStyle>
      <scale>1.3</scale>
      <Icon>
        <href>http://maps.google.com/mapfiles/kml/pushpin/agrocad.png</href>
      </Icon>
      <hotSpot x="20" y="2" xunits="pixels" yunits="pixels"/>
    </IconStyle>
    <LineStyle>
      <color>ff000000</color>
      <width>1</width>
    </LineStyle>
    <PolyStyle>
      <color>40ffffff</color>
      <fill>1</fill>
    </PolyStyle>
  </Style>
  <Placemark>
    <name>AgroCAD: 8F49</name>
    <styleUrl>FFFF4000</styleUrl>
    <Polygon>
      <outerBoundaryIs>
        <LinearRing>
          <coordinates>
           -36.25184308336745,-9.78954405165244 -36.25195533544022,-9.78972214042237 -36.25212323222816,-9.78997795229532 -36.25223164497345,-9.79015960701897 -36.25239182180516,-9.79041279365536 -36.25254176359380,-9.79065479751623 -36.25267667454445,-9.79087257608425 -36.25281693997493,-9.79110694311426 -36.25295077694410,-9.79130810787835 -36.25299838542364,-9.79138367079479 -36.25151196743984,-9.79230361972105 -36.25145763259089,-9.79225854249815 -36.25139125732121,-9.79219934824855 -36.25135882807216,-9.79216852862955 -36.25132660297801,-9.79213680118782 -36.25126228580922,-9.79207332151288 -36.25123147753626,-9.79204268047247 -36.25119945153696,-9.79201194357459 -36.25116509078516,-9.79198216571633 -36.25113068492768,-9.79195215981662 -36.25109522192909,-9.79192436410442 -36.25106733268483,-9.79190312078990 -36.25104032057639,-9.79187931902850 -36.25100449637499,-9.79185421335605 -36.25096988104043,-9.79182849424817 -36.25093571767561,-9.79180072350021 -36.25089979816460,-9.79177351075482 -36.25086477308208,-9.79174762999559 -36.25082857467285,-9.79172135780974 -36.25079306906643,-9.79169544223636 -36.25075849127505,-9.79166836805438 -36.25072523680387,-9.79164011139145 -36.25065012907360,-9.79159305096784 -36.25058029459862,-9.79154235043399 -36.25054370178992,-9.79151701048004 -36.25050643611451,-9.79149358440223 -36.25046899522092,-9.79146832599674 -36.25043173665984,-9.79144201619033 -36.25039432124459,-9.79141645560827 -36.25035667150681,-9.79139254606307 -36.25031853488380,-9.79136879659142 -36.25027947971780,-9.79134734454538 -36.25024028104402,-9.79132614699295 -36.25019902451182,-9.79130731001327 -36.25015825570776,-9.79128834890771 -36.25011834214976,-9.79127183538244 -36.25003771466444,-9.79124036140790 -36.24999635976204,-9.79122553454294 -36.24995599205999,-9.79121101558651 -36.24987301414756,-9.79118533594492 -36.24983224842373,-9.79117081326326 -36.24979086855528,-9.79115702642215 -36.24974950553823,-9.79114418103897 -36.24970828767423,-9.79113132894722 -36.24966642983646,-9.79112117019647 -36.24962374983288,-9.79110963469028 -36.24957900303961,-9.79110051231009 -36.24953546391938,-9.79108863889197 -36.24949270765967,-9.79107768780216 -36.24945128656154,-9.79106355756856 -36.24942330881134,-9.79105116195667 -36.24941512516457,-9.79104671807407 -36.25184308336745,-9.78954405165244
          </coordinates>
        </LinearRing>
      </outerBoundaryIs>
    </Polygon>
  </Placemark>
  <Placemark>
    <name>AgroCAD: 8F48</name>
    <styleUrl>FFFF4000</styleUrl>
    <Polygon>
      <outerBoundaryIs>
        <LinearRing>
          <coordinates>
           -36.25301528036413,-9.79141048598896 -36.25308744231531,-9.79152501944942 -36.25320656078835,-9.79171115564668 -36.25327221038801,-9.79181415272005 -36.25333482202079,-9.79193103689644 -36.25332654433574,-9.79193368354671 -36.25328755563540,-9.79194844979927 -36.25324777342284,-9.79196736880907 -36.25321038078157,-9.79198645839676 -36.25316904528722,-9.79200487135548 -36.25313095291135,-9.79202715328599 -36.25309298229143,-9.79204841500126 -36.25305603510018,-9.79207167542854 -36.25302072843456,-9.79209377703815 -36.25298614410934,-9.79211221755290 -36.25296995393358,-9.79212458676749 -36.25293349400619,-9.79214560210300 -36.25289879589817,-9.79217165331033 -36.25286767256817,-9.79219585034406 -36.25283448104815,-9.79221883890665 -36.25279964143205,-9.79224452575484 -36.25276469529686,-9.79226962142099 -36.25272916861845,-9.79229187647118 -36.25269092772872,-9.79231229048534 -36.25265223868868,-9.79233390275725 -36.25261524559018,-9.79234998207524 -36.25257535717779,-9.79235922130791 -36.25253166418486,-9.79236774207153 -36.25248775906427,-9.79237282720776 -36.25244216610212,-9.79237548169243 -36.25239704386688,-9.79237980016981 -36.25235063681806,-9.79238580919772 -36.25230426613939,-9.79239285673130 -36.25226207129930,-9.79240534778668 -36.25221866984301,-9.79241736269551 -36.25217548005952,-9.79243112199924 -36.25213202844576,-9.79244443857827 -36.25208812428687,-9.79245808661816 -36.25204458131637,-9.79247111595414 -36.25200143817225,-9.79248038145976 -36.25195826345135,-9.79248558689843 -36.25191468702397,-9.79248536362920 -36.25187234725541,-9.79248125142539 -36.25183157112668,-9.79247097416133 -36.25178816765803,-9.79245651803736 -36.25174574016063,-9.79244497641980 -36.25170669756553,-9.79242860163966 -36.25166750594312,-9.79240752933451 -36.25163069279906,-9.79239033900802 -36.25159780288323,-9.79236936423532 -36.25156077086993,-9.79234275326483 -36.25153833032981,-9.79232457519471 -36.25301528036413,-9.79141048598896
          </coordinates>
        </LinearRing>
      </outerBoundaryIs>
    </Polygon>
  </Placemark>
</Document>
</kml>
