<?xml version="1.0" encoding="UTF-8"?>
<kml xmlns="http://www.opengis.net/kml/2.2" xmlns:gx="http://www.google.com/kml/ext/2.2" xmlns:kml="http://www.opengis.net/kml/2.2" xmlns:atom="http://www.w3.org/2005/Atom">
<Document>
  <name>1017.kml</name>
  <StyleMap id="FFFF4000">
    <Pair>
      <key>normal</key>
      <styleUrl>#s_FFFF4000</styleUrl>
    </Pair>
    <Pair>
      <key>highlight</key>
      <styleUrl>#s_FFFF4000_hl</styleUrl>
    </Pair>
  </StyleMap>
  <Style id="s_FFFF4000">
   <IconStyle>
      <scale>1.1</scale>
      <Icon>
        <href>http://maps.google.com/mapfiles/kml/pushpin/agrocad.png</href>
      </Icon>
      <hotSpot x="20" y="2" xunits="pixels" yunits="pixels"/>
    </IconStyle>
    <LineStyle>
      <color>FFFF4000</color>
      <width>1</width>
    </LineStyle>
    <PolyStyle>
      <color>40ffffff</color>
      <fill>1</fill>
    </PolyStyle>
  </Style>
  <Style id="s_FFFF4000_hl">
    <IconStyle>
      <scale>1.3</scale>
      <Icon>
        <href>http://maps.google.com/mapfiles/kml/pushpin/agrocad.png</href>
      </Icon>
      <hotSpot x="20" y="2" xunits="pixels" yunits="pixels"/>
    </IconStyle>
    <LineStyle>
      <color>ff000000</color>
      <width>1</width>
    </LineStyle>
    <PolyStyle>
      <color>40ffffff</color>
      <fill>1</fill>
    </PolyStyle>
  </Style>
  <Placemark>
    <name>AgroCAD: 8F4F</name>
    <styleUrl>FFFF4000</styleUrl>
    <Polygon>
      <outerBoundaryIs>
        <LinearRing>
          <coordinates>
           -36.25960830956247,-9.79166331532735 -36.25974106731461,-9.79157915292865 -36.25994107333048,-9.79145381967161 -36.26020739531727,-9.79128773431162 -36.26047620736475,-9.79112705947035 -36.26068167433752,-9.79100264876006 -36.26100630539029,-9.79081566805436 -36.26115429093863,-9.79088886759518 -36.26129962201610,-9.79096296247693 -36.26153841445568,-9.79108439912627 -36.26176560027469,-9.79120923721927 -36.26198098584198,-9.79132606038408 -36.26224100968777,-9.79146214093591 -36.26249582455693,-9.79160032778678 -36.26298930638820,-9.79186110007067 -36.26318409023412,-9.79195570665565 -36.26341850427852,-9.79208041882333 -36.26369801418932,-9.79222857773828 -36.26390168804010,-9.79234393010258 -36.26409106934683,-9.79243770993574 -36.26426222572198,-9.79253134574555 -36.26436504478520,-9.79258354485767 -36.26444768571684,-9.79263268617791 -36.26444134703954,-9.79263764898673 -36.26436869113202,-9.79269524315902 -36.26428448969168,-9.79274966104172 -36.26418959102632,-9.79279794212688 -36.26410312575105,-9.79283548381966 -36.26402765725766,-9.79287189626393 -36.26394264275241,-9.79291401987165 -36.26374148016669,-9.79301281202858 -36.26366091773997,-9.79306056700704 -36.26358215428201,-9.79310552850363 -36.26350831422879,-9.79314227094345 -36.26343615491187,-9.79316684143905 -36.26336936376268,-9.79318195753004 -36.26329650115639,-9.79318510033244 -36.26322202994037,-9.79317574374750 -36.26315906593503,-9.79315386862480 -36.26309493139260,-9.79311990241624 -36.26302977602889,-9.79307778184599 -36.26297231568524,-9.79302867422167 -36.26291907158717,-9.79297064842088 -36.26286806264945,-9.79290627943500 -36.26282421832731,-9.79284077126936 -36.26278695806758,-9.79277860777438 -36.26274656870180,-9.79270662857010 -36.26270357341764,-9.79263484818587 -36.26265460608655,-9.79257347344231 -36.26258195612032,-9.79252266279799 -36.26251142363017,-9.79248681622394 -36.26244774493295,-9.79245662243043 -36.26238815197986,-9.79242492380269 -36.26231884734386,-9.79238570983367 -36.26224392178413,-9.79234494990028 -36.26217823548151,-9.79231365985414 -36.26209827450912,-9.79227617277560 -36.26206481579618,-9.79226294448567 -36.26200582578590,-9.79225812564285 -36.26196830415441,-9.79226092324017 -36.26192821233288,-9.79227420726160 -36.26185185828799,-9.79229714663397 -36.26176170260853,-9.79231956870130 -36.26167910576903,-9.79233143039173 -36.26159262159459,-9.79234216032811 -36.26149640189034,-9.79236031795312 -36.26140620634145,-9.79238130357838 -36.26132875407967,-9.79239267495579 -36.26125062788588,-9.79239789509896 -36.26116636886621,-9.79240081544881 -36.26108213500167,-9.79239962911521 -36.26099511977199,-9.79240355547997 -36.26090415804818,-9.79240953537216 -36.26082460992158,-9.79242844932730 -36.26073469470839,-9.79246394565767 -36.26054798730528,-9.79254566955841 -36.26046974793268,-9.79258106040532 -36.26039155274664,-9.79262376027623 -36.26029686696937,-9.79267878237805 -36.26020561004357,-9.79273966985398 -36.26011180306029,-9.79279657397643 -36.25999369024988,-9.79286520335213 -36.25986328618146,-9.79294347711192 -36.25921137729737,-9.79191191224895 -36.25935028337370,-9.79182458663507 -36.25945917114633,-9.79175446164948 -36.25960830956247,-9.79166331532735
          </coordinates>
        </LinearRing>
      </outerBoundaryIs>
    </Polygon>
  </Placemark>
  <Placemark>
    <name>AgroCAD: 8F4E</name>
    <styleUrl>FFFF4000</styleUrl>
    <Polygon>
      <outerBoundaryIs>
        <LinearRing>
          <coordinates>
           -36.25867737581384,-9.79290063611418 -36.25870122804973,-9.79280657779572 -36.25872577513541,-9.79272374033707 -36.25874834379533,-9.79264858197663 -36.25877257980316,-9.79257102686390 -36.25879708760037,-9.79248528820104 -36.25884517454327,-9.79230175630433 -36.25888101218220,-9.79222723451006 -36.25891674087916,-9.79217440157057 -36.25904555146838,-9.79204215891686 -36.25910978078145,-9.79198844066827 -36.25912202628970,-9.79197543456262 -36.25913628613601,-9.79195911950704 -36.25918060335197,-9.79193125878544 -36.25983221374174,-9.79296235150495 -36.25969891915072,-9.79304384543283 -36.25954544363582,-9.79313641860390 -36.25939578232979,-9.79322806664713 -36.25924934666536,-9.79331760856974 -36.25914866184341,-9.79337542644159 -36.25908478627602,-9.79340518976207 -36.25900797489074,-9.79343603662565 -36.25892570552374,-9.79346131978633 -36.25885648521315,-9.79347667418724 -36.25877946323760,-9.79348870254083 -36.25870599725276,-9.79348659451619 -36.25864434854420,-9.79346817151841 -36.25859554583968,-9.79342778493841 -36.25857406186220,-9.79336256542087 -36.25857522735576,-9.79329143308778 -36.25858926773258,-9.79322111503764 -36.25860695671026,-9.79314978580030 -36.25862832184367,-9.79307466437236 -36.25865162541445,-9.79299063428845 -36.25867737581384,-9.79290063611418
          </coordinates>
        </LinearRing>
      </outerBoundaryIs>
    </Polygon>
  </Placemark>
</Document>
</kml>
