<?xml version="1.0" encoding="UTF-8"?>
<kml xmlns="http://www.opengis.net/kml/2.2" xmlns:gx="http://www.google.com/kml/ext/2.2" xmlns:kml="http://www.opengis.net/kml/2.2" xmlns:atom="http://www.w3.org/2005/Atom">
<Document>
  <name>1006.kml</name>
  <StyleMap id="FFFF4000">
    <Pair>
      <key>normal</key>
      <styleUrl>#s_FFFF4000</styleUrl>
    </Pair>
    <Pair>
      <key>highlight</key>
      <styleUrl>#s_FFFF4000_hl</styleUrl>
    </Pair>
  </StyleMap>
  <Style id="s_FFFF4000">
   <IconStyle>
      <scale>1.1</scale>
      <Icon>
        <href>http://maps.google.com/mapfiles/kml/pushpin/agrocad.png</href>
      </Icon>
      <hotSpot x="20" y="2" xunits="pixels" yunits="pixels"/>
    </IconStyle>
    <LineStyle>
      <color>FFFF4000</color>
      <width>1</width>
    </LineStyle>
    <PolyStyle>
      <color>40ffffff</color>
      <fill>1</fill>
    </PolyStyle>
  </Style>
  <Style id="s_FFFF4000_hl">
    <IconStyle>
      <scale>1.3</scale>
      <Icon>
        <href>http://maps.google.com/mapfiles/kml/pushpin/agrocad.png</href>
      </Icon>
      <hotSpot x="20" y="2" xunits="pixels" yunits="pixels"/>
    </IconStyle>
    <LineStyle>
      <color>ff000000</color>
      <width>1</width>
    </LineStyle>
    <PolyStyle>
      <color>40ffffff</color>
      <fill>1</fill>
    </PolyStyle>
  </Style>
  <Placemark>
    <name>AgroCAD: 95EF</name>
    <styleUrl>FFFF4000</styleUrl>
    <Polygon>
      <outerBoundaryIs>
        <LinearRing>
          <coordinates>
           -36.26746883983899,-9.77981095083078 -36.26766315403115,-9.77968983280011 -36.26787609233665,-9.77956201476246 -36.26804589743180,-9.77945821210464 -36.26822038562834,-9.77934093759848 -36.26839391091063,-9.77922944285901 -36.26854607078258,-9.77913734310264 -36.26885103721373,-9.77894823208289 -36.26906727800348,-9.77881079917903 -36.26885859524187,-9.77846834252076 -36.26871145966854,-9.77822811029408 -36.26868787547883,-9.77819079392578 -36.26580217139137,-9.77997790225307 -36.26591367592868,-9.78015821266467 -36.26597362590695,-9.78025515631543 -36.26624872670835,-9.78008478935150 -36.26622155712311,-9.78004192512224 -36.26722085362982,-9.77941931245957 -36.26746883983899,-9.77981095083078
          </coordinates>
        </LinearRing>
      </outerBoundaryIs>
    </Polygon>
  </Placemark>
  <Placemark>
    <name>AgroCAD: 95E0</name>
    <styleUrl>FFFF4000</styleUrl>
    <Polygon>
      <outerBoundaryIs>
        <LinearRing>
          <coordinates>
           -36.26794449657868,-9.77700964239120 -36.26813055774516,-9.77730545218159 -36.26825752716207,-9.77752509707717 -36.26845369019399,-9.77782090295970 -36.26858364752563,-9.77802587790127 -36.26866852386787,-9.77816017460064 -36.26578312098450,-9.77994709643366 -36.26506815972219,-9.77879095119840 -36.26794449657868,-9.77700964239120
          </coordinates>
        </LinearRing>
      </outerBoundaryIs>
    </Polygon>
  </Placemark>
  <Placemark>
    <name>AgroCAD: 95DF</name>
    <styleUrl>FFFF4000</styleUrl>
    <Polygon>
      <outerBoundaryIs>
        <LinearRing>
          <coordinates>
           -36.26764628117934,-9.77654602490764 -36.26773564344791,-9.77668767567207 -36.26792031614872,-9.77697119904222 -36.26792521149664,-9.77697898193046 -36.26504910943189,-9.77876014537275 -36.26477827097224,-9.77832217762277 -36.26764628117934,-9.77654602490764
          </coordinates>
        </LinearRing>
      </outerBoundaryIs>
    </Polygon>
  </Placemark>
  <Placemark>
    <name>AgroCAD: 95DE</name>
    <styleUrl>FFFF4000</styleUrl>
    <Polygon>
      <outerBoundaryIs>
        <LinearRing>
          <coordinates>
           -36.26382474395773,-9.77678023899573 -36.26388970399631,-9.77674206799415 -36.26422026903343,-9.77652825016033 -36.26450091587247,-9.77635307342452 -36.26482084892713,-9.77615304520209 -36.26520747748009,-9.77591770684299 -36.26551763576483,-9.77571979322257 -36.26584128237046,-9.77552277577735 -36.26618781066845,-9.77531170827792 -36.26666643094916,-9.77501577917717 -36.26671693540894,-9.77508081295688 -36.26708596396648,-9.77567343009832 -36.26732106834535,-9.77603318693106 -36.26750667920134,-9.77632473748339 -36.26762695478576,-9.77651539005761 -36.26475922072797,-9.77829137179465 -36.26382474395773,-9.77678023899573
          </coordinates>
        </LinearRing>
      </outerBoundaryIs>
    </Polygon>
  </Placemark>
  <Placemark>
    <name>AgroCAD: 95D9</name>
    <styleUrl>FFFF4000</styleUrl>
    <Polygon>
      <outerBoundaryIs>
        <LinearRing>
          <coordinates>
           -36.26239760366448,-9.77765505681314 -36.26270508668380,-9.77746579547824 -36.26313534879639,-9.77719762501854 -36.26356513486773,-9.77693278698763 -36.26379339480330,-9.77679865998335 -36.26472831556269,-9.77831051103206 -36.26188692263239,-9.78007013085269 -36.26184362043559,-9.78000011100583 -36.26171150806916,-9.77979120778238 -36.26152705335071,-9.77948549370625 -36.26133428154351,-9.77918296564051 -36.26114414204852,-9.77886945668974 -36.26094854860140,-9.77856990330446 -36.26136192497691,-9.77829568856206 -36.26168778425286,-9.77809272874660 -36.26204985139414,-9.77787578534426 -36.26239760366448,-9.77765505681314
          </coordinates>
        </LinearRing>
      </outerBoundaryIs>
    </Polygon>
  </Placemark>
  <Placemark>
    <name>AgroCAD: 95D8</name>
    <styleUrl>FFFF4000</styleUrl>
    <Polygon>
      <outerBoundaryIs>
        <LinearRing>
          <coordinates>
           -36.26474736580423,-9.77834131686138 -36.26501820422509,-9.77877928462882 -36.26217587069414,-9.78053948628776 -36.26210589109025,-9.78042551113127 -36.26201364947481,-9.78027504857648 -36.26190597353070,-9.78010093623260 -36.26342932898643,-9.77915755760277 -36.26474736580423,-9.77834131686138
          </coordinates>
        </LinearRing>
      </outerBoundaryIs>
    </Polygon>
  </Placemark>
  <Placemark>
    <name>AgroCAD: 95D7</name>
    <styleUrl>FFFF4000</styleUrl>
    <Polygon>
      <outerBoundaryIs>
        <LinearRing>
          <coordinates>
           -36.26503725451267,-9.77881009045568 -36.26575221567261,-9.77996623573698 -36.26291221751539,-9.78172498952205 -36.26282178250009,-9.78158358404561 -36.26265808457387,-9.78132541542504 -36.26246695195485,-9.78102044886409 -36.26229388434480,-9.78073169391155 -36.26219482256491,-9.78057035301872 -36.26503725451267,-9.77881009045568
          </coordinates>
        </LinearRing>
      </outerBoundaryIs>
    </Polygon>
  </Placemark>
  <Placemark>
    <name>AgroCAD: 95D6</name>
    <styleUrl>FFFF4000</styleUrl>
    <Polygon>
      <outerBoundaryIs>
        <LinearRing>
          <coordinates>
           -36.26577126607674,-9.77999704155758 -36.26615993544097,-9.78062554568727 -36.26615256231354,-9.78063015749996 -36.26590739131365,-9.78078650046427 -36.26572589331042,-9.78089015563245 -36.26552428294296,-9.78101773318254 -36.26524076722800,-9.78118700259875 -36.26502630509838,-9.78132148641007 -36.26481973495835,-9.78145451115731 -36.26462407305301,-9.78157034086386 -36.26436741878544,-9.78172281862460 -36.26408168529337,-9.78189645054628 -36.26378355795814,-9.78207823926367 -36.26352560608432,-9.78223692072534 -36.26330970133450,-9.78236586591141 -36.26303205639634,-9.78191237113378 -36.26293173441640,-9.78175550641186 -36.26362879923292,-9.78132383264476 -36.26577126607674,-9.77999704155758
          </coordinates>
        </LinearRing>
      </outerBoundaryIs>
    </Polygon>
  </Placemark>
</Document>
</kml>
