<?xml version="1.0" encoding="UTF-8"?>
<kml xmlns="http://www.opengis.net/kml/2.2" xmlns:gx="http://www.google.com/kml/ext/2.2" xmlns:kml="http://www.opengis.net/kml/2.2" xmlns:atom="http://www.w3.org/2005/Atom">
<Document>
  <name>1008.kml</name>
  <StyleMap id="FFFF4000">
    <Pair>
      <key>normal</key>
      <styleUrl>#s_FFFF4000</styleUrl>
    </Pair>
    <Pair>
      <key>highlight</key>
      <styleUrl>#s_FFFF4000_hl</styleUrl>
    </Pair>
  </StyleMap>
  <Style id="s_FFFF4000">
   <IconStyle>
      <scale>1.1</scale>
      <Icon>
        <href>http://maps.google.com/mapfiles/kml/pushpin/agrocad.png</href>
      </Icon>
      <hotSpot x="20" y="2" xunits="pixels" yunits="pixels"/>
    </IconStyle>
    <LineStyle>
      <color>FFFF4000</color>
      <width>1</width>
    </LineStyle>
    <PolyStyle>
      <color>40ffffff</color>
      <fill>1</fill>
    </PolyStyle>
  </Style>
  <Style id="s_FFFF4000_hl">
    <IconStyle>
      <scale>1.3</scale>
      <Icon>
        <href>http://maps.google.com/mapfiles/kml/pushpin/agrocad.png</href>
      </Icon>
      <hotSpot x="20" y="2" xunits="pixels" yunits="pixels"/>
    </IconStyle>
    <LineStyle>
      <color>ff000000</color>
      <width>1</width>
    </LineStyle>
    <PolyStyle>
      <color>40ffffff</color>
      <fill>1</fill>
    </PolyStyle>
  </Style>
  <Placemark>
    <name>AgroCAD: 95EC</name>
    <styleUrl>FFFF4000</styleUrl>
    <Polygon>
      <outerBoundaryIs>
        <LinearRing>
          <coordinates>
           -36.25099249663437,-9.78813866008407 -36.25083618396967,-9.78788735268302 -36.25070567597574,-9.78768486558511 -36.25178214525082,-9.78701830870627 -36.25288933199501,-9.78880884948936 -36.25276925730811,-9.78888296436644 -36.25247267258368,-9.78906393839257 -36.25220662314673,-9.78923038048595 -36.25194628834890,-9.78938850114846 -36.25183659644712,-9.78947261230697 -36.25182767329655,-9.78945826805201 -36.25170595825405,-9.78925538417356 -36.25157289577154,-9.78904570937464 -36.25141877414602,-9.78880034746365 -36.25129311800346,-9.78860639210641 -36.25114016998054,-9.78835823312084 -36.25099249663437,-9.78813866008407
          </coordinates>
        </LinearRing>
      </outerBoundaryIs>
    </Polygon>
  </Placemark>
  <Placemark>
    <name>AgroCAD: 95EB</name>
    <styleUrl>FFFF4000</styleUrl>
    <Polygon>
      <outerBoundaryIs>
        <LinearRing>
          <coordinates>
           -36.25181305177647,-9.78699917107943 -36.25272385221585,-9.78643519186325 -36.25291787614589,-9.78653869785364 -36.25319966813530,-9.78668925069605 -36.25343095864744,-9.78680928800534 -36.25362943217411,-9.78691662668617 -36.25387663690545,-9.78704662400793 -36.25413446645133,-9.78718332350233 -36.25440743852754,-9.78733095156915 -36.25468592505129,-9.78746767205278 -36.25489072658553,-9.78758289965105 -36.25483508086396,-9.78761537234460 -36.25459224234116,-9.78776617127648 -36.25433976107770,-9.78791974492718 -36.25409963352188,-9.78806821800355 -36.25384628690185,-9.78822180813504 -36.25356470910484,-9.78839271650879 -36.25331058039701,-9.78854994336467 -36.25303556952131,-9.78871858575028 -36.25292026591158,-9.78878975583064 -36.25181305177647,-9.78699917107943
          </coordinates>
        </LinearRing>
      </outerBoundaryIs>
    </Polygon>
  </Placemark>
  <Placemark>
    <name>AgroCAD: 95CA</name>
    <styleUrl>FFFF4000</styleUrl>
    <Polygon>
      <outerBoundaryIs>
        <LinearRing>
          <coordinates>
           -36.25438325204195,-9.78540765764969 -36.25641819923432,-9.78414755440195 -36.25651101812888,-9.78429379618895 -36.25667030773885,-9.78454167234246 -36.25682859180688,-9.78479649918105 -36.25705080125307,-9.78515541159828 -36.25721069426272,-9.78541435088099 -36.25735561493966,-9.78565434877013 -36.25754361485336,-9.78594950112694 -36.25733320015900,-9.78608010586212 -36.25702944838725,-9.78626846859235 -36.25675157876163,-9.78643825817354 -36.25647100447769,-9.78660968207165 -36.25620271572799,-9.78677588032691 -36.25602061580020,-9.78688639362088 -36.25585629415498,-9.78699013273414 -36.25557218781797,-9.78716383901246 -36.25549766935514,-9.78720986384499 -36.25438325204195,-9.78540765764969
          </coordinates>
        </LinearRing>
      </outerBoundaryIs>
    </Polygon>
  </Placemark>
  <Placemark>
    <name>AgroCAD: 95C9</name>
    <styleUrl>FFFF4000</styleUrl>
    <Polygon>
      <outerBoundaryIs>
        <LinearRing>
          <coordinates>
           -36.25312942304548,-9.78337997789780 -36.25317074668817,-9.78335502553976 -36.25349979917902,-9.78315199688963 -36.25364549684570,-9.78306796626092 -36.25380853910917,-9.78296141086466 -36.25400928322952,-9.78283827083540 -36.25418019836990,-9.78273940324193 -36.25434684422521,-9.78263091824532 -36.25462346085650,-9.78247323145534 -36.25486898699460,-9.78231355385214 -36.25516314852437,-9.78212811129900 -36.25554078457888,-9.78273427110872 -36.25566517063329,-9.78294125523391 -36.25582403421354,-9.78319906140366 -36.25593728664293,-9.78336893736164 -36.25609533080702,-9.78362539108651 -36.25619179972707,-9.78377344823493 -36.25632640919270,-9.78400293352133 -36.25639878863965,-9.78411697182044 -36.25436420269561,-9.78537685140041 -36.25312942304548,-9.78337997789780
          </coordinates>
        </LinearRing>
      </outerBoundaryIs>
    </Polygon>
  </Placemark>
  <Placemark>
    <name>AgroCAD: 95C7</name>
    <styleUrl>FFFF4000</styleUrl>
    <Polygon>
      <outerBoundaryIs>
        <LinearRing>
          <coordinates>
           -36.25032049181814,-9.78511816001754 -36.25052261123073,-9.78499031926134 -36.25081838281893,-9.78480679369037 -36.25117513550145,-9.78458685323882 -36.25152054035126,-9.78437115824293 -36.25183283146733,-9.78417777710564 -36.25219232337518,-9.78395863988149 -36.25250908112818,-9.78376031512167 -36.25285437007366,-9.78354606223348 -36.25309830267691,-9.78339876923019 -36.25433329642791,-9.78539598934244 -36.25273233494589,-9.78638733734963 -36.25267665159881,-9.78635810879946 -36.25243081848851,-9.78622996220045 -36.25215153961736,-9.78608945791468 -36.25189707432397,-9.78595139539033 -36.25177275444388,-9.78588176628285 -36.25163619192714,-9.78581221596034 -36.25150972062225,-9.78574632934604 -36.25134747812943,-9.78565929188933 -36.25112412699534,-9.78553911683569 -36.25086978761363,-9.78541157363568 -36.25063951024933,-9.78528816358553 -36.25043836741681,-9.78518223314564 -36.25032049181814,-9.78511816001754
          </coordinates>
        </LinearRing>
      </outerBoundaryIs>
    </Polygon>
  </Placemark>
  <Placemark>
    <name>AgroCAD: 95C6</name>
    <styleUrl>FFFF4000</styleUrl>
    <Polygon>
      <outerBoundaryIs>
        <LinearRing>
          <coordinates>
           -36.24968358206850,-9.78606129024307 -36.24944007568551,-9.78565518641926 -36.24957559936947,-9.78557346824540 -36.24983769778138,-9.78541028894643 -36.25010980106637,-9.78524652443367 -36.25026463755894,-9.78515030431255 -36.25041597924415,-9.78522361777086 -36.25061462973891,-9.78533047333854 -36.25084660548572,-9.78545144254771 -36.25110082005145,-9.78558064434939 -36.25132247494356,-9.78570053940473 -36.25148761609672,-9.78578750942644 -36.25161435282516,-9.78585399798851 -36.25174826694010,-9.78592303243352 -36.25187403081403,-9.78598990062982 -36.25213058167123,-9.78612780865970 -36.25240628715718,-9.78627298450964 -36.25265305877841,-9.78639742563344 -36.25268689343528,-9.78641547543656 -36.25068605053957,-9.78765441610830 -36.25064496467166,-9.78759067008537 -36.25045795625289,-9.78729056394556 -36.25030507548804,-9.78704714521552 -36.25013054703777,-9.78676119569233 -36.24998326477256,-9.78652924232253 -36.24981176990198,-9.78627263977399 -36.24968358206850,-9.78606129024307
          </coordinates>
        </LinearRing>
      </outerBoundaryIs>
    </Polygon>
  </Placemark>
  <Placemark>
    <name>AgroCAD: 95C5</name>
    <styleUrl>FFFF4000</styleUrl>
    <Polygon>
      <outerBoundaryIs>
        <LinearRing>
          <coordinates>
           -36.25435234577152,-9.78542679559291 -36.25546674086982,-9.78722896619332 -36.25529478844161,-9.78733516900054 -36.25505712295164,-9.78747905334384 -36.25493877408921,-9.78755238621801 -36.25470937706708,-9.78742874827127 -36.25443548536290,-9.78728574064725 -36.25415749250893,-9.78714026980910 -36.25390308675894,-9.78700364092121 -36.25365330241461,-9.78687342803956 -36.25345329644764,-9.78676675830445 -36.25322315665170,-9.78664760751111 -36.25294378601759,-9.78649832927432 -36.25276957038031,-9.78640688246373 -36.25435234577152,-9.78542679559291
          </coordinates>
        </LinearRing>
      </outerBoundaryIs>
    </Polygon>
  </Placemark>
</Document>
</kml>
