<?xml version="1.0" encoding="UTF-8"?>
<kml xmlns="http://www.opengis.net/kml/2.2" xmlns:gx="http://www.google.com/kml/ext/2.2" xmlns:kml="http://www.opengis.net/kml/2.2" xmlns:atom="http://www.w3.org/2005/Atom">
<Document>
  <name>1006.kml</name>
  <StyleMap id="FFFF4000">
    <Pair>
      <key>normal</key>
      <styleUrl>#s_FFFF4000</styleUrl>
    </Pair>
    <Pair>
      <key>highlight</key>
      <styleUrl>#s_FFFF4000_hl</styleUrl>
    </Pair>
  </StyleMap>
  <Style id="s_FFFF4000">
   <IconStyle>
      <scale>1.1</scale>
      <Icon>
        <href>http://maps.google.com/mapfiles/kml/pushpin/agrocad.png</href>
      </Icon>
      <hotSpot x="20" y="2" xunits="pixels" yunits="pixels"/>
    </IconStyle>
    <LineStyle>
      <color>FFFF4000</color>
      <width>1</width>
    </LineStyle>
    <PolyStyle>
      <color>40ffffff</color>
      <fill>1</fill>
    </PolyStyle>
  </Style>
  <Style id="s_FFFF4000_hl">
    <IconStyle>
      <scale>1.3</scale>
      <Icon>
        <href>http://maps.google.com/mapfiles/kml/pushpin/agrocad.png</href>
      </Icon>
      <hotSpot x="20" y="2" xunits="pixels" yunits="pixels"/>
    </IconStyle>
    <LineStyle>
      <color>ff000000</color>
      <width>1</width>
    </LineStyle>
    <PolyStyle>
      <color>40ffffff</color>
      <fill>1</fill>
    </PolyStyle>
  </Style>
  <Placemark>
    <name>AgroCAD: 9189</name>
    <styleUrl>FFFF4000</styleUrl>
    <Polygon>
      <outerBoundaryIs>
        <LinearRing>
          <coordinates>
           -36.28231750043627,-9.77857244657236 -36.28293811056443,-9.77907206732667 -36.28195022353813,-9.77968227247431 -36.28132939550388,-9.77918278529320 -36.28231750043627,-9.77857244657236
          </coordinates>
        </LinearRing>
      </outerBoundaryIs>
    </Polygon>
  </Placemark>
  <Placemark>
    <name>AgroCAD: 9179</name>
    <styleUrl>FFFF4000</styleUrl>
    <Polygon>
      <outerBoundaryIs>
        <LinearRing>
          <coordinates>
           -36.28129946157533,-9.77915870189537 -36.28069641372527,-9.77867351752453 -36.28168394583106,-9.77806240259968 -36.28228757701432,-9.77854835673416 -36.28129946157533,-9.77915870189537
          </coordinates>
        </LinearRing>
      </outerBoundaryIs>
    </Polygon>
  </Placemark>
  <Placemark>
    <name>AgroCAD: 919B</name>
    <styleUrl>FFFF4000</styleUrl>
    <Polygon>
      <outerBoundaryIs>
        <LinearRing>
          <coordinates>
           -36.28171663361661,-9.77804217430361 -36.28400799394575,-9.77662418796633 -36.28424061749486,-9.77679858943351 -36.28444033702603,-9.77695660903083 -36.28462891003057,-9.77710212472351 -36.28232029110055,-9.77852814959884 -36.28171663361661,-9.77804217430361
          </coordinates>
        </LinearRing>
      </outerBoundaryIs>
    </Polygon>
  </Placemark>
  <Placemark>
    <name>AgroCAD: 918D</name>
    <styleUrl>FFFF4000</styleUrl>
    <Polygon>
      <outerBoundaryIs>
        <LinearRing>
          <coordinates>
           -36.28235021486109,-9.77855223922626 -36.28465955268007,-9.77712577017570 -36.28467483480060,-9.77713756288296 -36.28478804065561,-9.77722566152910 -36.28491257125846,-9.77732550786310 -36.28507542268196,-9.77745497409398 -36.28527136161523,-9.77760433594683 -36.28529024693517,-9.77761915949634 -36.28297082497461,-9.77905185995575 -36.28235021486109,-9.77855223922626
          </coordinates>
        </LinearRing>
      </outerBoundaryIs>
    </Polygon>
  </Placemark>
  <Placemark>
    <name>AgroCAD: 918E</name>
    <styleUrl>FFFF4000</styleUrl>
    <Polygon>
      <outerBoundaryIs>
        <LinearRing>
          <coordinates>
           -36.28670163212744,-9.77869508313821 -36.28433983071177,-9.78015396696771 -36.28300074849511,-9.77907594976013 -36.28532059964238,-9.77764298407440 -36.28547583147204,-9.77776482923126 -36.28570641833353,-9.77794679612138 -36.28592564954688,-9.77811432488171 -36.28614499696669,-9.77828563568592 -36.28635548492909,-9.77843654613762 -36.28653476957439,-9.77857201364026 -36.28670163212744,-9.77869508313821
          </coordinates>
        </LinearRing>
      </outerBoundaryIs>
    </Polygon>
  </Placemark>
  <Placemark>
    <name>AgroCAD: 918A</name>
    <styleUrl>FFFF4000</styleUrl>
    <Polygon>
      <outerBoundaryIs>
        <LinearRing>
          <coordinates>
           -36.28331970998714,-9.78078408489080 -36.28198015756597,-9.77970635583946 -36.28296803408563,-9.77909615713222 -36.28430711633394,-9.78017417439344 -36.28331970998714,-9.78078408489080
          </coordinates>
        </LinearRing>
      </outerBoundaryIs>
    </Polygon>
  </Placemark>
  <Placemark>
    <name>AgroCAD: 918C</name>
    <styleUrl>FFFF4000</styleUrl>
    <Polygon>
      <outerBoundaryIs>
        <LinearRing>
          <coordinates>
           -36.28436975444114,-9.78017805670334 -36.28673304589435,-9.77871825234960 -36.28676204325071,-9.77873963933369 -36.28694312041147,-9.77884308819265 -36.28713712896407,-9.77891005875284 -36.28731357283147,-9.77895900523257 -36.28747972665653,-9.77901274515266 -36.28762599525126,-9.77904871966914 -36.28775380147215,-9.77909631773260 -36.28778909654283,-9.77913263181213 -36.28780488545136,-9.77916770132945 -36.28778682940956,-9.77920954917568 -36.28772350443977,-9.77932930300804 -36.28767112103088,-9.77941517484267 -36.28760350508247,-9.77952908130826 -36.28755688912278,-9.77960091542797 -36.28747504072914,-9.77970906381838 -36.28740316340158,-9.77979247824495 -36.28732081286809,-9.77988672006891 -36.28725638702581,-9.77996053789608 -36.28714672628855,-9.78006087708165 -36.28710526453821,-9.78009529163290 -36.28691916208602,-9.78022967397375 -36.28690030043138,-9.78024488192831 -36.28687141508930,-9.78026817187159 -36.28682454932607,-9.78030595922255 -36.28674205914529,-9.78038100845541 -36.28665367496160,-9.78048728696978 -36.28661012614280,-9.78054753545576 -36.28648521139615,-9.78071808746302 -36.28642252125083,-9.78079927966768 -36.28634655861045,-9.78090785227713 -36.28627006858786,-9.78099884142065 -36.28619889614586,-9.78108054127604 -36.28611723554497,-9.78115952148025 -36.28604317762122,-9.78123967289148 -36.28592957503792,-9.78133062816726 -36.28586752882244,-9.78138381519671 -36.28436975444114,-9.78017805670334
          </coordinates>
        </LinearRing>
      </outerBoundaryIs>
    </Polygon>
  </Placemark>
  <Placemark>
    <name>AgroCAD: 918B</name>
    <styleUrl>FFFF4000</styleUrl>
    <Polygon>
      <outerBoundaryIs>
        <LinearRing>
          <coordinates>
           -36.28334964422393,-9.78080816818714 -36.28433704006403,-9.78019826413027 -36.28583716940954,-9.78140591846998 -36.28578068501865,-9.78144125374268 -36.28563186862825,-9.78151905271407 -36.28552399210582,-9.78153153175125 -36.28544256150509,-9.78155024908436 -36.28535999970779,-9.78159494613377 -36.28529213560681,-9.78164574767996 -36.28524779333782,-9.78168451964111 -36.28509060987826,-9.78182177403266 -36.28503955185890,-9.78186976231994 -36.28493473886145,-9.78194536064739 -36.28486320666612,-9.78197261020741 -36.28482237827971,-9.78198583300478 -36.28481533388659,-9.78198736808133 -36.28334964422393,-9.78080816818714
          </coordinates>
        </LinearRing>
      </outerBoundaryIs>
    </Polygon>
  </Placemark>
</Document>
</kml>
