<?xml version="1.0" encoding="utf-8" ?>
<kml xmlns="http://www.opengis.net/kml/2.2">
<Document id="root_doc">
<Schema name="CONTINENTAL_OU_CABOATÃ_TALHAO_1004_ID_292" id="CONTINENTAL_OU_CABOATÃ_TALHAO_1004_ID_292">
	<SimpleField name="ID" type="float"></SimpleField>
	<SimpleField name="AREA_TOTAL" type="float"></SimpleField>
	<SimpleField name="FAZENDA" type="float"></SimpleField>
	<SimpleField name="FAZ_NOME" type="string"></SimpleField>
	<SimpleField name="TALHAO" type="float"></SimpleField>
	<SimpleField name="ZONA" type="float"></SimpleField>
	<SimpleField name="ACIONISTA" type="string"></SimpleField>
	<SimpleField name="CODE" type="string"></SimpleField>
</Schema>
<Folder><name>CONTINENTAL_OU_CABOATÃ_TALHAO_1004_ID_292</name>
  <Placemark id="CONTINENTAL_OU_CABOATÃ_TALHAO_1004_ID_292.1">
	<Style><LineStyle><color>ff0000ff</color></LineStyle><PolyStyle><fill>0</fill></PolyStyle></Style>
	<ExtendedData><SchemaData schemaUrl="#CONTINENTAL_OU_CABOATÃ_TALHAO_1004_ID_292">
		<SimpleData name="ID">292</SimpleData>
		<SimpleData name="AREA_TOTAL">9.47</SimpleData>
		<SimpleData name="FAZ_NOME">CONTINENTAL OU CABOATÃ</SimpleData>
		<SimpleData name="TALHAO">1004</SimpleData>
		<SimpleData name="ZONA">1</SimpleData>
		<SimpleData name="ACIONISTA">Dr. CARLOS MONTEIRO</SimpleData>
		<SimpleData name="CODE"></SimpleData>
	</SchemaData></ExtendedData>
      <MultiGeometry><Polygon><outerBoundaryIs><LinearRing><coordinates>-36.2292579622573,-9.82511377313646,0 -36.2293843458588,-9.82525352277049,0 -36.2294673171844,-9.82534655584853,0 -36.2295621293176,-9.82545402748452,0 -36.2296137528931,-9.82550822985517,0 -36.2297838736462,-9.82549019520819,0 -36.2302150221439,-9.82545490135004,0 -36.2305897598507,-9.82542875696773,0 -36.2308088988975,-9.8254119073659,0 -36.2309974379814,-9.82539999821542,0 -36.2312402672995,-9.82537792347381,0 -36.2314965784293,-9.82535476360742,0 -36.2315911576228,-9.82534587530377,0 -36.2316915447126,-9.82533824694882,0 -36.231773501352,-9.82533177974892,0 -36.2318172896712,-9.82532748058995,0 -36.2318947005258,-9.82531517763061,0 -36.2319342673692,-9.82530423949416,0 -36.2319522547414,-9.8252948893745,0 -36.2319678553743,-9.82528128589354,0 -36.2307536690958,-9.82391363621971,0 -36.230466013496,-9.82359012404922,0 -36.2302508017195,-9.82332773651456,0 -36.2298960447149,-9.82292350429591,0 -36.2295919803772,-9.8225789664804,0 -36.229483989121,-9.8224533494907,0 -36.2294472483289,-9.82241137746503,0 -36.2294154477322,-9.82237703382974,0 -36.2292840551304,-9.82235683354594,0 -36.2291959338304,-9.82234657596714,0 -36.2290875862105,-9.82233245599913,0 -36.228988886783,-9.8223236686878,0 -36.2288899134524,-9.82231546481842,0 -36.2287749869684,-9.82230472361883,0 -36.2286510766039,-9.82229631160877,0 -36.2285412621848,-9.82229195620759,0 -36.2284380291166,-9.82229294787469,0 -36.228348098382,-9.82228762660708,0 -36.2282698920503,-9.82228011447456,0 -36.2281844860689,-9.82226275764256,0 -36.228091335419,-9.82223859161951,0 -36.228052523048,-9.82223575731268,0 -36.2280118135792,-9.82223870249231,0 -36.2279479911583,-9.82224824923076,0 -36.2278771834862,-9.82226129632683,0 -36.2278145592733,-9.82227425161827,0 -36.2277487550121,-9.82228805594582,0 -36.2276832926346,-9.82230235425094,0 -36.2276146463776,-9.82232361018836,0 -36.2275512030419,-9.8223466382923,0 -36.2274874726115,-9.82237450572792,0 -36.2273167580455,-9.82245423323931,0 -36.2271960308046,-9.82251325244779,0 -36.2270834473911,-9.82256370635503,0 -36.2270587239611,-9.82257596609151,0 -36.2270666354851,-9.82258812724418,0 -36.2271235305441,-9.82265593418554,0 -36.2272412550459,-9.82279406596155,0 -36.227370611455,-9.82293880913066,0 -36.2275082441951,-9.82309578831961,0 -36.2276579035888,-9.82326756213509,0 -36.2277967332088,-9.82342938972726,0 -36.2278941983216,-9.82354096013232,0 -36.2280240761798,-9.82369391450796,0 -36.2281095681242,-9.82378103469278,0 -36.2281242781261,-9.82380249272503,0 -36.228173346439,-9.82386075295763,0 -36.2282403774736,-9.82393979263085,0 -36.2283636729629,-9.82408109593922,0 -36.228454670033,-9.82418677619348,0 -36.2286273669808,-9.82438401803021,0 -36.2287468144539,-9.82452241815251,0 -36.2289203213922,-9.8247230035671,0 -36.2290221982759,-9.82484184032569,0 -36.2291203349651,-9.82495501650233,0 -36.2292579622573,-9.82511377313646,0</coordinates></LinearRing></outerBoundaryIs></Polygon></MultiGeometry>
  </Placemark>
</Folder>
</Document></kml>
