<?xml version="1.0" encoding="utf-8" ?>
<kml xmlns="http://www.opengis.net/kml/2.2">
<Document id="root_doc">
<Schema name="CONTINENTAL_OU_CABOATÃ_TALHAO_1001_ID_298" id="CONTINENTAL_OU_CABOATÃ_TALHAO_1001_ID_298">
	<SimpleField name="ID" type="float"></SimpleField>
	<SimpleField name="AREA_TOTAL" type="float"></SimpleField>
	<SimpleField name="FAZENDA" type="float"></SimpleField>
	<SimpleField name="FAZ_NOME" type="string"></SimpleField>
	<SimpleField name="TALHAO" type="float"></SimpleField>
	<SimpleField name="ZONA" type="float"></SimpleField>
	<SimpleField name="ACIONISTA" type="string"></SimpleField>
	<SimpleField name="CODE" type="string"></SimpleField>
</Schema>
<Folder><name>CONTINENTAL_OU_CABOATÃ_TALHAO_1001_ID_298</name>
  <Placemark id="CONTINENTAL_OU_CABOATÃ_TALHAO_1001_ID_298.1">
	<Style><LineStyle><color>ff0000ff</color></LineStyle><PolyStyle><fill>0</fill></PolyStyle></Style>
	<ExtendedData><SchemaData schemaUrl="#CONTINENTAL_OU_CABOATÃ_TALHAO_1001_ID_298">
		<SimpleData name="ID">298</SimpleData>
		<SimpleData name="AREA_TOTAL">6.33</SimpleData>
		<SimpleData name="FAZ_NOME">CONTINENTAL OU CABOATÃ</SimpleData>
		<SimpleData name="TALHAO">1001</SimpleData>
		<SimpleData name="ZONA">1</SimpleData>
		<SimpleData name="ACIONISTA">Dr. CARLOS MONTEIRO</SimpleData>
		<SimpleData name="CODE"></SimpleData>
	</SchemaData></ExtendedData>
      <MultiGeometry><Polygon><outerBoundaryIs><LinearRing><coordinates>-36.2362962765704,-9.83209066864716,0 -36.2361281199874,-9.83221110174926,0 -36.2358749838384,-9.83238950472941,0 -36.2358777416749,-9.83239916536012,0 -36.2358893719706,-9.83243555703931,0 -36.2359027977617,-9.83247389168906,0 -36.2359812677447,-9.83270001956324,0 -36.2361057618762,-9.8330704177551,0 -36.2362650278033,-9.83354844562177,0 -36.2363002439828,-9.83369366167496,0 -36.2363784901003,-9.83389174322973,0 -36.2365200396338,-9.8342947013363,0 -36.2366358664266,-9.83463746138487,0 -36.2367582130888,-9.83500100967461,0 -36.2367681813091,-9.83502823572973,0 -36.2367778251762,-9.83502664470285,0 -36.2368216164755,-9.83499173016695,0 -36.2368722578808,-9.8349262306702,0 -36.2369063715471,-9.83484616587235,0 -36.2369351027741,-9.83474709060091,0 -36.2369525818781,-9.8346649625948,0 -36.2369742815449,-9.83458365454224,0 -36.2370074810388,-9.83447723172035,0 -36.2370457256687,-9.83437968489133,0 -36.2370865526658,-9.83429523069707,0 -36.237145096318,-9.83419053233345,0 -36.2372083698489,-9.83407311320742,0 -36.237273983637,-9.83394388992993,0 -36.2373468926512,-9.83381051417607,0 -36.2374291248916,-9.83368332549921,0 -36.2375135856105,-9.83355926478637,0 -36.2376000508242,-9.8334342836108,0 -36.2376908866953,-9.83331492610236,0 -36.2377828483092,-9.83320271582423,0 -36.2378682526275,-9.83309986332041,0 -36.2379527736079,-9.83299826332005,0 -36.2380357651384,-9.8329071841084,0 -36.2381322097892,-9.83282047063241,0 -36.2382310426504,-9.83273486107064,0 -36.2383208976812,-9.83265407506152,0 -36.2383855031184,-9.83257726105006,0 -36.2384088342384,-9.83248392910935,0 -36.2384211309918,-9.83235370994823,0 -36.2384093966286,-9.83225732349832,0 -36.2384200872941,-9.83217231602896,0 -36.2384348671998,-9.8320962391995,0 -36.2384155955148,-9.83202349033418,0 -36.2383804756865,-9.83187481428866,0 -36.2383331706246,-9.83168827331428,0 -36.2382858583115,-9.83150091527109,0 -36.2382385944728,-9.83130343841165,0 -36.2381863601938,-9.8311097067324,0 -36.2381492562572,-9.83098380329675,0 -36.2381208412343,-9.83088239059792,0 -36.2381091688943,-9.83083775695328,0 -36.2379825913647,-9.83090944528487,0 -36.2377975336736,-9.83102513109787,0 -36.2376421985818,-9.8311214381515,0 -36.237493692381,-9.83123703143086,0 -36.2372869634405,-9.83138242500611,0 -36.2370100222185,-9.83158122225896,0 -36.2367258301291,-9.83178522912481,0 -36.236476860398,-9.83196237434284,0 -36.2362962765704,-9.83209066864716,0</coordinates></LinearRing></outerBoundaryIs></Polygon></MultiGeometry>
  </Placemark>
</Folder>
</Document></kml>
