<?xml version="1.0" encoding="utf-8" ?>
<kml xmlns="http://www.opengis.net/kml/2.2">
<Document id="root_doc">
<Schema name="CONTINENTAL_OU_CABOATÃ_TALHAO_1003_ID_296" id="CONTINENTAL_OU_CABOATÃ_TALHAO_1003_ID_296">
	<SimpleField name="ID" type="float"></SimpleField>
	<SimpleField name="AREA_TOTAL" type="float"></SimpleField>
	<SimpleField name="FAZENDA" type="float"></SimpleField>
	<SimpleField name="FAZ_NOME" type="string"></SimpleField>
	<SimpleField name="TALHAO" type="float"></SimpleField>
	<SimpleField name="ZONA" type="float"></SimpleField>
	<SimpleField name="ACIONISTA" type="string"></SimpleField>
	<SimpleField name="CODE" type="string"></SimpleField>
</Schema>
<Folder><name>CONTINENTAL_OU_CABOATÃ_TALHAO_1003_ID_296</name>
  <Placemark id="CONTINENTAL_OU_CABOATÃ_TALHAO_1003_ID_296.1">
	<Style><LineStyle><color>ff0000ff</color></LineStyle><PolyStyle><fill>0</fill></PolyStyle></Style>
	<ExtendedData><SchemaData schemaUrl="#CONTINENTAL_OU_CABOATÃ_TALHAO_1003_ID_296">
		<SimpleData name="ID">296</SimpleData>
		<SimpleData name="AREA_TOTAL">28.43</SimpleData>
		<SimpleData name="FAZ_NOME">CONTINENTAL OU CABOATÃ</SimpleData>
		<SimpleData name="TALHAO">1003</SimpleData>
		<SimpleData name="ZONA">1</SimpleData>
		<SimpleData name="ACIONISTA">Dr. CARLOS MONTEIRO</SimpleData>
		<SimpleData name="CODE"></SimpleData>
	</SchemaData></ExtendedData>
      <MultiGeometry><Polygon><outerBoundaryIs><LinearRing><coordinates>-36.2334090358351,-9.82689492667877,0 -36.2338986503698,-9.82746189714785,0 -36.2345990152491,-9.82825986627122,0 -36.2348131399708,-9.82850118739798,0 -36.23487168562,-9.8285700506241,0 -36.2349650490549,-9.82851071459576,0 -36.2350437408443,-9.82846168502764,0 -36.2355400457111,-9.82813937563298,0 -36.2359316201786,-9.8278840299102,0 -36.2364480162079,-9.82754078623471,0 -36.2368808844211,-9.82724883515767,0 -36.2371550122267,-9.82705767159047,0 -36.2371418545519,-9.82700674611665,0 -36.2371070714412,-9.82688561188988,0 -36.237029851782,-9.8265933238169,0 -36.2369769859765,-9.82639138095383,0 -36.2369225918516,-9.82617317492357,0 -36.2368650802768,-9.82594852382972,0 -36.2368088884473,-9.82572286065475,0 -36.2367555676567,-9.82551422835203,0 -36.2366565425322,-9.82512335118514,0 -36.2365511790728,-9.824721029755,0 -36.236444343019,-9.82432107110893,0 -36.2363389699913,-9.82391222721632,0 -36.2362300833137,-9.82350867002755,0 -36.2361859537738,-9.82333390427902,0 -36.2361524593229,-9.82321279513945,0 -36.2361316033966,-9.82312543500163,0 -36.2361276183475,-9.82308996550018,0 -36.2361241836303,-9.82305759733948,0 -36.2354994033127,-9.82301466377995,0 -36.2340581510065,-9.82292277445992,0 -36.2328482120184,-9.82284368487694,0 -36.2325858303952,-9.82282573685251,0 -36.2324923543546,-9.822894199516,0 -36.2324429917957,-9.82292603530632,0 -36.2324228287194,-9.82293820004048,0 -36.2323657180039,-9.82296379167438,0 -36.2322989764662,-9.8229779294696,0 -36.232220133166,-9.82298047950164,0 -36.2321456651039,-9.82297862963958,0 -36.2320713421414,-9.82297079902476,0 -36.2319999245031,-9.82295990528537,0 -36.2318330394444,-9.82293400742894,0 -36.2317574322894,-9.82292223175137,0 -36.2316307019482,-9.82289652479184,0 -36.2315638104052,-9.82287415900501,0 -36.2314939282625,-9.82285240051338,0 -36.2314234419717,-9.82283250083664,0 -36.2313534866496,-9.82281136112046,0 -36.2312815402621,-9.82278871937282,0 -36.2312124702424,-9.82276159765081,0 -36.2311392951702,-9.82273736649999,0 -36.2310595186667,-9.82271414135032,0 -36.2309656360248,-9.82268847597766,0 -36.2308654397004,-9.82266025383732,0 -36.2305613381248,-9.82257343166664,0 -36.2303113886991,-9.82250459772196,0 -36.2301403108513,-9.82247204451022,0 -36.2299616315649,-9.8224268861486,0 -36.2298697156154,-9.82240842448039,0 -36.2297773107956,-9.82239989494447,0 -36.2296725382198,-9.82239343756332,0 -36.2295729804426,-9.82239016313459,0 -36.2294959444986,-9.82239091875876,0 -36.2294744291075,-9.82238730567602,0 -36.2295120959094,-9.82243033555298,0 -36.2296200394611,-9.82255589703477,0 -36.2299239814334,-9.82290029614992,0 -36.2302791701807,-9.82330502026726,0 -36.2304943074182,-9.82356731688641,0 -36.2307815019152,-9.8238903104491,0 -36.2319921669536,-9.8252539936602,0 -36.2320163158835,-9.82528202102433,0 -36.2321163058534,-9.82540281160094,0 -36.232371152622,-9.82570565804364,0 -36.232916048676,-9.82633425509842,0 -36.2334090358351,-9.82689492667877,0</coordinates></LinearRing></outerBoundaryIs></Polygon></MultiGeometry>
  </Placemark>
</Folder>
</Document></kml>
