<?xml version="1.0" encoding="utf-8" ?>
<kml xmlns="http://www.opengis.net/kml/2.2">
<Document id="root_doc">
<Schema name="CONTINENTAL_OU_CABOATÃ_TALHAO_1002_ID_297" id="CONTINENTAL_OU_CABOATÃ_TALHAO_1002_ID_297">
	<SimpleField name="ID" type="float"></SimpleField>
	<SimpleField name="AREA_TOTAL" type="float"></SimpleField>
	<SimpleField name="FAZENDA" type="float"></SimpleField>
	<SimpleField name="FAZ_NOME" type="string"></SimpleField>
	<SimpleField name="TALHAO" type="float"></SimpleField>
	<SimpleField name="ZONA" type="float"></SimpleField>
	<SimpleField name="ACIONISTA" type="string"></SimpleField>
	<SimpleField name="CODE" type="string"></SimpleField>
</Schema>
<Folder><name>CONTINENTAL_OU_CABOATÃ_TALHAO_1002_ID_297</name>
  <Placemark id="CONTINENTAL_OU_CABOATÃ_TALHAO_1002_ID_297.1">
	<Style><LineStyle><color>ff0000ff</color></LineStyle><PolyStyle><fill>0</fill></PolyStyle></Style>
	<ExtendedData><SchemaData schemaUrl="#CONTINENTAL_OU_CABOATÃ_TALHAO_1002_ID_297">
		<SimpleData name="ID">297</SimpleData>
		<SimpleData name="AREA_TOTAL">12.44</SimpleData>
		<SimpleData name="FAZ_NOME">CONTINENTAL OU CABOATÃ</SimpleData>
		<SimpleData name="TALHAO">1002</SimpleData>
		<SimpleData name="ZONA">1</SimpleData>
		<SimpleData name="ACIONISTA">Dr. CARLOS MONTEIRO</SimpleData>
		<SimpleData name="CODE"></SimpleData>
	</SchemaData></ExtendedData>
      <MultiGeometry><Polygon><outerBoundaryIs><LinearRing><coordinates>-36.235024091701,-9.82984421933405,0 -36.2351128043483,-9.83010328300777,0 -36.2351542730491,-9.83023239180115,0 -36.2352576610164,-9.83052798042986,0 -36.2353663678691,-9.83087341077246,0 -36.2355104927911,-9.83130500191288,0 -36.2356138515899,-9.8316095369423,0 -36.2357461457467,-9.83200120550981,0 -36.2358635694374,-9.83235321644633,0 -36.2361068998863,-9.83218172422832,0 -36.2362750005154,-9.83206133119927,0 -36.2364556198774,-9.83193301166019,0 -36.2367045273647,-9.83175591072819,0 -36.2369886577578,-9.8315519481495,0 -36.2372657418225,-9.83135304835821,0 -36.2374718923777,-9.83120806156378,0 -36.2376212330905,-9.83109181872148,0 -36.2377781610742,-9.83099452408076,0 -36.2379638328055,-9.83087845440761,0 -36.2380654223235,-9.83082091826857,0 -36.2380971837114,-9.83079192702803,0 -36.2380732223926,-9.83070030175438,0 -36.2380185152086,-9.8304921201911,0 -36.2379697668655,-9.83028593230216,0 -36.2379217999563,-9.83008687342113,0 -36.2378723415207,-9.8299052287731,0 -36.2378155733312,-9.82970360942405,0 -36.2376969753198,-9.82923489943521,0 -36.2376298670287,-9.82895653662563,0 -36.2376013416378,-9.8288495104672,0 -36.2375404702123,-9.82861068661833,0 -36.2375100945117,-9.82849575043938,0 -36.2374291570839,-9.82821941234079,0 -36.23737994563,-9.82801014498648,0 -36.2373541499528,-9.82790042439925,0 -36.2373240380018,-9.8277564116369,0 -36.2372775109458,-9.82758385433872,0 -36.2372496220582,-9.82746708889195,0 -36.237221066188,-9.82733678060994,0 -36.23719235086,-9.82720699376699,0 -36.2371689864846,-9.82711329754161,0 -36.2369114865372,-9.82729286562123,0 -36.2364781126092,-9.82758515777557,0 -36.2359613630138,-9.82792863645533,0 -36.2355695442126,-9.82818414150169,0 -36.2350727656328,-9.8285067585251,0 -36.2349938457377,-9.8285559302149,0 -36.2349163238174,-9.82860519835793,0 -36.23485727441,-9.82864899812906,0 -36.2347961866359,-9.82869066490913,0 -36.2347343014195,-9.82873281144452,0 -36.2346704847751,-9.82877322498575,0 -36.2346639484029,-9.82877795106675,0 -36.2347814411522,-9.82913045942708,0 -36.2348195153645,-9.82924487773247,0 -36.2349020272215,-9.82949278452388,0 -36.235024091701,-9.82984421933405,0</coordinates></LinearRing></outerBoundaryIs></Polygon></MultiGeometry>
  </Placemark>
</Folder>
</Document></kml>
