<?xml version="1.0" encoding="UTF-8"?>
<kml xmlns="http://www.opengis.net/kml/2.2" xmlns:gx="http://www.google.com/kml/ext/2.2" xmlns:kml="http://www.opengis.net/kml/2.2" xmlns:atom="http://www.w3.org/2005/Atom">
<Document>
  <name>54.kml</name>
  <StyleMap id="FFFF4000">
    <Pair>
      <key>normal</key>
      <styleUrl>#s_FFFF4000</styleUrl>
    </Pair>
    <Pair>
      <key>highlight</key>
      <styleUrl>#s_FFFF4000_hl</styleUrl>
    </Pair>
  </StyleMap>
  <Style id="s_FFFF4000">
   <IconStyle>
      <scale>1.1</scale>
      <Icon>
        <href>http://maps.google.com/mapfiles/kml/pushpin/agrocad.png</href>
      </Icon>
      <hotSpot x="20" y="2" xunits="pixels" yunits="pixels"/>
    </IconStyle>
    <LineStyle>
      <color>FFFF4000</color>
      <width>1</width>
    </LineStyle>
    <PolyStyle>
      <color>40ffffff</color>
      <fill>1</fill>
    </PolyStyle>
  </Style>
  <Style id="s_FFFF4000_hl">
    <IconStyle>
      <scale>1.3</scale>
      <Icon>
        <href>http://maps.google.com/mapfiles/kml/pushpin/agrocad.png</href>
      </Icon>
      <hotSpot x="20" y="2" xunits="pixels" yunits="pixels"/>
    </IconStyle>
    <LineStyle>
      <color>ff000000</color>
      <width>1</width>
    </LineStyle>
    <PolyStyle>
      <color>40ffffff</color>
      <fill>1</fill>
    </PolyStyle>
  </Style>
  <Placemark>
    <name>AgroCAD: 162AC</name>
    <styleUrl>FFFF4000</styleUrl>
    <Polygon>
      <outerBoundaryIs>
        <LinearRing>
          <coordinates>
           -36.25916261622577,-9.82126499362601 -36.25918417947047,-9.82133460685406 -36.25920579102477,-9.82142862433806 -36.25923569702927,-9.82156260434140 -36.25927025880429,-9.82172814712498 -36.25929123629587,-9.82182136348881 -36.25931271384628,-9.82191420730749 -36.25923825047788,-9.82198947328707 -36.25917308336107,-9.82204829499497 -36.25915024181767,-9.82206403689317 -36.25912592829428,-9.82207666972366 -36.25910138954137,-9.82208919978152 -36.25905192068437,-9.82211110718916 -36.25900041702927,-9.82212613818035 -36.25894619764287,-9.82214138168397 -36.25889029204336,-9.82215609252408 -36.25880404584675,-9.82216889521934 -36.25872119525376,-9.82218112653273 -36.25866270716894,-9.82218916086765 -36.25859823383185,-9.82219875814795 -36.25853781307995,-9.82221494916724 -36.25848701391714,-9.82223197676992 -36.25842973653344,-9.82225456020071 -36.25837389104005,-9.82227690236484 -36.25830926177234,-9.82229857480246 -36.25829888840354,-9.82228765520585 -36.25828746610653,-9.82223202733232 -36.25828065800204,-9.82219779923853 -36.25827099055643,-9.82216398166547 -36.25826281382654,-9.82213209900757 -36.25826116037004,-9.82210466432849 -36.25827066546403,-9.82209691251097 -36.25829005823764,-9.82207583670920 -36.25834283602853,-9.82204158414425 -36.25837104360183,-9.82202567626330 -36.25841226858105,-9.82198195503444 -36.25843631502835,-9.82195778939591 -36.25848135475074,-9.82191740477507 -36.25850358838414,-9.82189270974039 -36.25855484847034,-9.82184816682108 -36.25860427005615,-9.82180058462234 -36.25863796313805,-9.82176996247791 -36.25868407607035,-9.82172289826912 -36.25873094280765,-9.82167282509611 -36.25877683481335,-9.82163396920762 -36.25881878189176,-9.82158983893271 -36.25886162385445,-9.82154238224043 -36.25888728517066,-9.82151964891110 -36.25891121326906,-9.82150164453630 -36.25895151844286,-9.82145582340607 -36.25900047481576,-9.82140616462449 -36.25902806510046,-9.82138487138186 -36.25906376681097,-9.82135372890395 -36.25907418935836,-9.82134053727539 -36.25911625260857,-9.82129913338342 -36.25913800686506,-9.82128018432238 -36.25915559120968,-9.82126148385103 -36.25916261622577,-9.82126499362601 -36.25916261622577,-9.82126499362601 -36.25916261622577,-9.82126499362601
          </coordinates>
        </LinearRing>
      </outerBoundaryIs>
    </Polygon>
  </Placemark>
</Document>
</kml>
