<?xml version="1.0" encoding="UTF-8"?>
<kml xmlns="http://www.opengis.net/kml/2.2" xmlns:gx="http://www.google.com/kml/ext/2.2" xmlns:kml="http://www.opengis.net/kml/2.2" xmlns:atom="http://www.w3.org/2005/Atom">
<Document>
  <name>55.kml</name>
  <StyleMap id="FFFF4000">
    <Pair>
      <key>normal</key>
      <styleUrl>#s_FFFF4000</styleUrl>
    </Pair>
    <Pair>
      <key>highlight</key>
      <styleUrl>#s_FFFF4000_hl</styleUrl>
    </Pair>
  </StyleMap>
  <Style id="s_FFFF4000">
   <IconStyle>
      <scale>1.1</scale>
      <Icon>
        <href>http://maps.google.com/mapfiles/kml/pushpin/agrocad.png</href>
      </Icon>
      <hotSpot x="20" y="2" xunits="pixels" yunits="pixels"/>
    </IconStyle>
    <LineStyle>
      <color>FFFF4000</color>
      <width>1</width>
    </LineStyle>
    <PolyStyle>
      <color>40ffffff</color>
      <fill>1</fill>
    </PolyStyle>
  </Style>
  <Style id="s_FFFF4000_hl">
    <IconStyle>
      <scale>1.3</scale>
      <Icon>
        <href>http://maps.google.com/mapfiles/kml/pushpin/agrocad.png</href>
      </Icon>
      <hotSpot x="20" y="2" xunits="pixels" yunits="pixels"/>
    </IconStyle>
    <LineStyle>
      <color>ff000000</color>
      <width>1</width>
    </LineStyle>
    <PolyStyle>
      <color>40ffffff</color>
      <fill>1</fill>
    </PolyStyle>
  </Style>
  <Placemark>
    <name>AgroCAD: 162BA</name>
    <styleUrl>FFFF4000</styleUrl>
    <Polygon>
      <outerBoundaryIs>
        <LinearRing>
          <coordinates>
           -36.25783659520413,-9.81599549428333 -36.25799940042283,-9.81664092120833 -36.25798960580033,-9.81664811513689 -36.25794450909392,-9.81666985564300 -36.25789516395372,-9.81669638681673 -36.25784343812271,-9.81672806089673 -36.25766646529591,-9.81683890402050 -36.25754676653200,-9.81690960148935 -36.25736774544780,-9.81701617975367 -36.25731682735251,-9.81705011443766 -36.25722384177469,-9.81711872684360 -36.25718324150180,-9.81715682753611 -36.25712071627339,-9.81722837661027 -36.25710024811729,-9.81726362430677 -36.25708225022879,-9.81729970911782 -36.25707101123769,-9.81733553305608 -36.25706937801539,-9.81735643334529 -36.25686932357818,-9.81656504787896 -36.25783659520413,-9.81599549428333 -36.25783659520413,-9.81599549428333 -36.25783659520413,-9.81599549428333
          </coordinates>
        </LinearRing>
      </outerBoundaryIs>
    </Polygon>
  </Placemark>
</Document>
</kml>
