<?xml version="1.0" encoding="UTF-8"?>
<kml xmlns="http://www.opengis.net/kml/2.2" xmlns:gx="http://www.google.com/kml/ext/2.2" xmlns:kml="http://www.opengis.net/kml/2.2" xmlns:atom="http://www.w3.org/2005/Atom">
<Document>
  <name>53.kml</name>
  <StyleMap id="FFFF4000">
    <Pair>
      <key>normal</key>
      <styleUrl>#s_FFFF4000</styleUrl>
    </Pair>
    <Pair>
      <key>highlight</key>
      <styleUrl>#s_FFFF4000_hl</styleUrl>
    </Pair>
  </StyleMap>
  <Style id="s_FFFF4000">
   <IconStyle>
      <scale>1.1</scale>
      <Icon>
        <href>http://maps.google.com/mapfiles/kml/pushpin/agrocad.png</href>
      </Icon>
      <hotSpot x="20" y="2" xunits="pixels" yunits="pixels"/>
    </IconStyle>
    <LineStyle>
      <color>FFFF4000</color>
      <width>1</width>
    </LineStyle>
    <PolyStyle>
      <color>40ffffff</color>
      <fill>1</fill>
    </PolyStyle>
  </Style>
  <Style id="s_FFFF4000_hl">
    <IconStyle>
      <scale>1.3</scale>
      <Icon>
        <href>http://maps.google.com/mapfiles/kml/pushpin/agrocad.png</href>
      </Icon>
      <hotSpot x="20" y="2" xunits="pixels" yunits="pixels"/>
    </IconStyle>
    <LineStyle>
      <color>ff000000</color>
      <width>1</width>
    </LineStyle>
    <PolyStyle>
      <color>40ffffff</color>
      <fill>1</fill>
    </PolyStyle>
  </Style>
  <Placemark>
    <name>AgroCAD: 162E0</name>
    <styleUrl>FFFF4000</styleUrl>
    <Polygon>
      <outerBoundaryIs>
        <LinearRing>
          <coordinates>
           -36.25861760550295,-9.82366023108231 -36.25853942202035,-9.82336328154622 -36.25846577400774,-9.82306809424289 -36.25842633423984,-9.82290588799021 -36.25843805104974,-9.82287931961265 -36.25845192322064,-9.82286123708240 -36.25847060544815,-9.82284191312938 -36.25851885520724,-9.82280207828882 -36.25854463478715,-9.82278093629912 -36.25856648770715,-9.82275801537727 -36.25859420850285,-9.82273854090627 -36.25864780126376,-9.82270741666344 -36.25867736680914,-9.82269750726596 -36.25873397658025,-9.82268488450973 -36.25876447730056,-9.82267736017267 -36.25879544006415,-9.82267057539858 -36.25882764615076,-9.82266849006770 -36.25889232420885,-9.82266950301673 -36.25897830750437,-9.82266050899178 -36.25906740233296,-9.82265144372025 -36.25910022467077,-9.82264818959792 -36.25913338725877,-9.82263679596206 -36.25916385406338,-9.82262356477151 -36.25924307682186,-9.82257699535722 -36.25927910742568,-9.82255893507843 -36.25937298681428,-9.82251768349956 -36.25945377708107,-9.82249865598938 -36.25947636346629,-9.82258063614627 -36.25949619211527,-9.82268974697595 -36.25954604744418,-9.82283669155025 -36.25959777779959,-9.82299957064652 -36.25964172867410,-9.82317813776615 -36.25965057965598,-9.82321819818851 -36.25965666669298,-9.82326243211193 -36.25969137985869,-9.82340286390764 -36.25969658326749,-9.82342641504098 -36.25974799184480,-9.82363188706846 -36.25978658573339,-9.82378801813456 -36.25980100940410,-9.82385582900594 -36.25982722526249,-9.82400870586703 -36.25905613035707,-9.82422266636269 -36.25895092637446,-9.82424917679463 -36.25890369261627,-9.82426496395156 -36.25878117267955,-9.82429896005026 -36.25875541750366,-9.82420102987519 -36.25871565568436,-9.82405021548344 -36.25865608729745,-9.82381265817752 -36.25861760550295,-9.82366023108231 -36.25861760550295,-9.82366023108231 -36.25861760550295,-9.82366023108231
          </coordinates>
        </LinearRing>
      </outerBoundaryIs>
    </Polygon>
  </Placemark>
</Document>
</kml>
