<?xml version="1.0" encoding="UTF-8"?>
<kml xmlns="http://www.opengis.net/kml/2.2" xmlns:gx="http://www.google.com/kml/ext/2.2" xmlns:kml="http://www.opengis.net/kml/2.2" xmlns:atom="http://www.w3.org/2005/Atom">
<Document>
  <name>03.kml</name>
  <StyleMap id="FFFF4000">
    <Pair>
      <key>normal</key>
      <styleUrl>#s_FFFF4000</styleUrl>
    </Pair>
    <Pair>
      <key>highlight</key>
      <styleUrl>#s_FFFF4000_hl</styleUrl>
    </Pair>
  </StyleMap>
  <Style id="s_FFFF4000">
   <IconStyle>
      <scale>1.1</scale>
      <Icon>
        <href>http://maps.google.com/mapfiles/kml/pushpin/agrocad.png</href>
      </Icon>
      <hotSpot x="20" y="2" xunits="pixels" yunits="pixels"/>
    </IconStyle>
    <LineStyle>
      <color>FFFF4000</color>
      <width>1</width>
    </LineStyle>
    <PolyStyle>
      <color>40ffffff</color>
      <fill>1</fill>
    </PolyStyle>
  </Style>
  <Style id="s_FFFF4000_hl">
    <IconStyle>
      <scale>1.3</scale>
      <Icon>
        <href>http://maps.google.com/mapfiles/kml/pushpin/agrocad.png</href>
      </Icon>
      <hotSpot x="20" y="2" xunits="pixels" yunits="pixels"/>
    </IconStyle>
    <LineStyle>
      <color>ff000000</color>
      <width>1</width>
    </LineStyle>
    <PolyStyle>
      <color>40ffffff</color>
      <fill>1</fill>
    </PolyStyle>
  </Style>
  <Placemark>
    <name>AgroCAD: 162FE</name>
    <styleUrl>FFFF4000</styleUrl>
    <Polygon>
      <outerBoundaryIs>
        <LinearRing>
          <coordinates>
           -36.27829549342084,-9.79025117329997 -36.27821883833904,-9.79019256508507 -36.27825346309005,-9.79018442803250 -36.27828890207854,-9.79017975661241 -36.27835966207884,-9.79015725597790 -36.27842607423505,-9.79013788367010 -36.27848998721115,-9.79011485145312 -36.27855172546505,-9.79008600705877 -36.27857614210605,-9.79006550706231 -36.27860267566486,-9.79004989848891 -36.27869864899065,-9.78998262315443 -36.27872955799045,-9.78995922391488 -36.27876298820175,-9.78993528170673 -36.27879633943076,-9.78991286351931 -36.27882581498657,-9.78989371729805 -36.27886079049585,-9.78987717034885 -36.27888929514016,-9.78985306305461 -36.27892002565737,-9.78982940776323 -36.27895073549276,-9.78981167757403 -36.27898198885247,-9.78979548735848 -36.27901203462676,-9.78977381562202 -36.27909606723927,-9.78971162892876 -36.27920135326198,-9.78962795970785 -36.27929130331278,-9.78956311000053 -36.27930407040127,-9.78957176979181 -36.27935963915608,-9.78962090466790 -36.27944797151268,-9.78970284350760 -36.27954586755698,-9.78979445164650 -36.27971339236869,-9.78993985751242 -36.27980890225290,-9.79002827235139 -36.27985007320889,-9.79007903167215 -36.27980316789709,-9.79015062133679 -36.27973727756679,-9.79024088712752 -36.27965556391648,-9.79034566007135 -36.27956649362569,-9.79045901484961 -36.27948555432449,-9.79055616846722 -36.27933799231867,-9.79070609391805 -36.27921174749007,-9.79081705244250 -36.27890960094225,-9.79099846841164 -36.27890020109607,-9.79100160745635 -36.27887731808306,-9.79100669228893 -36.27879332359166,-9.79102274442365 -36.27876816653295,-9.79103334514417 -36.27829549342084,-9.79025117329997 -36.27829549342084,-9.79025117329997 -36.27829549342084,-9.79025117329997
          </coordinates>
        </LinearRing>
      </outerBoundaryIs>
    </Polygon>
  </Placemark>
</Document>
</kml>
