<?xml version="1.0" encoding="utf-8" ?>
<kml xmlns="http://www.opengis.net/kml/2.2">
<Document id="root_doc">
<Schema name="PRATA_TALHAO_1011_ID_245" id="PRATA_TALHAO_1011_ID_245">
	<SimpleField name="ID" type="float"></SimpleField>
	<SimpleField name="AREA_TOTAL" type="float"></SimpleField>
	<SimpleField name="FAZENDA" type="float"></SimpleField>
	<SimpleField name="FAZ_NOME" type="string"></SimpleField>
	<SimpleField name="TALHAO" type="float"></SimpleField>
	<SimpleField name="ZONA" type="float"></SimpleField>
	<SimpleField name="ACIONISTA" type="string"></SimpleField>
	<SimpleField name="CODE" type="string"></SimpleField>
</Schema>
<Folder><name>PRATA_TALHAO_1011_ID_245</name>
  <Placemark id="PRATA_TALHAO_1011_ID_245.1">
	<Style><LineStyle><color>ff0000ff</color></LineStyle><PolyStyle><fill>0</fill></PolyStyle></Style>
	<ExtendedData><SchemaData schemaUrl="#PRATA_TALHAO_1011_ID_245">
		<SimpleData name="ID">245</SimpleData>
		<SimpleData name="AREA_TOTAL">9.70</SimpleData>
		<SimpleData name="FAZ_NOME">PRATA</SimpleData>
		<SimpleData name="TALHAO">1011</SimpleData>
		<SimpleData name="ZONA">1</SimpleData>
		<SimpleData name="ACIONISTA">ISABEL TENÓRIO</SimpleData>
		<SimpleData name="CODE"></SimpleData>
	</SchemaData></ExtendedData>
      <MultiGeometry><Polygon><outerBoundaryIs><LinearRing><coordinates>-36.2619612364334,-9.80227594855175,0 -36.2623903189334,-9.80334865577395,0 -36.2628194531,-9.80446440549617,0 -36.2630985144888,-9.80515132688505,0 -36.2632559619888,-9.80560539438501,0 -36.2633174669888,-9.8055438893851,0 -36.2634033044888,-9.8054580521628,0 -36.2634891347666,-9.80539367938505,0 -36.2636178803221,-9.8052649341073,0 -36.263918286711,-9.8050074429962,0 -36.2641543203221,-9.80490015521842,0 -36.2643045233776,-9.80474995216291,0 -36.2646049297665,-9.80449246105182,0 -36.2647765905998,-9.80436371549624,0 -36.2649267936554,-9.80427788521852,0 -36.2650984544887,-9.80417059744076,0 -36.2656992672664,-9.80389164882967,0 -36.2657488222664,-9.80386067716303,0 -36.265747132822,-9.8038564613297,0 -36.2656397464331,-9.8036631660519,0 -36.2655744875442,-9.80348914216302,0 -36.265509967822,-9.80320955577415,0 -36.2654026594887,-9.80284470660749,0 -36.2653599289331,-9.80265241910748,0 -36.2652746397664,-9.80243919605194,0 -36.2652346039331,-9.80233910605191,0 -36.265137835322,-9.80230039855188,0 -36.2648418800443,-9.8023003985519,0 -36.2646287358776,-9.80232171299631,0 -36.2642209986554,-9.80238609216299,0 -36.2637663005999,-9.80242939660742,0 -36.263396146711,-9.8023205277185,0 -36.2628581558778,-9.80201925271849,0 -36.2623228792111,-9.80174090882953,0 -36.2617658283779,-9.80152665827401,0 -36.2616834583779,-9.80149371021843,0 -36.2616834583779,-9.80150671660732,0 -36.2619612364334,-9.80227594855175,0</coordinates></LinearRing></outerBoundaryIs></Polygon></MultiGeometry>
  </Placemark>
</Folder>
</Document></kml>
