<?xml version="1.0" encoding="UTF-8"?>
<kml xmlns="http://www.opengis.net/kml/2.2" xmlns:gx="http://www.google.com/kml/ext/2.2" xmlns:kml="http://www.opengis.net/kml/2.2" xmlns:atom="http://www.w3.org/2005/Atom">
<Document>
  <name>28.kml</name>
  <StyleMap id="FFFF4000">
    <Pair>
      <key>normal</key>
      <styleUrl>#s_FFFF4000</styleUrl>
    </Pair>
    <Pair>
      <key>highlight</key>
      <styleUrl>#s_FFFF4000_hl</styleUrl>
    </Pair>
  </StyleMap>
  <Style id="s_FFFF4000">
   <IconStyle>
      <scale>1.1</scale>
      <Icon>
        <href>http://maps.google.com/mapfiles/kml/pushpin/agrocad.png</href>
      </Icon>
      <hotSpot x="20" y="2" xunits="pixels" yunits="pixels"/>
    </IconStyle>
    <LineStyle>
      <color>FFFF4000</color>
      <width>1</width>
    </LineStyle>
    <PolyStyle>
      <color>40ffffff</color>
      <fill>1</fill>
    </PolyStyle>
  </Style>
  <Style id="s_FFFF4000_hl">
    <IconStyle>
      <scale>1.3</scale>
      <Icon>
        <href>http://maps.google.com/mapfiles/kml/pushpin/agrocad.png</href>
      </Icon>
      <hotSpot x="20" y="2" xunits="pixels" yunits="pixels"/>
    </IconStyle>
    <LineStyle>
      <color>ff000000</color>
      <width>1</width>
    </LineStyle>
    <PolyStyle>
      <color>40ffffff</color>
      <fill>1</fill>
    </PolyStyle>
  </Style>
  <Placemark>
    <name>AgroCAD: 1A0DF</name>
    <styleUrl>FFFF4000</styleUrl>
    <Polygon>
      <outerBoundaryIs>
        <LinearRing>
          <coordinates>
           -36.43625899001900,-9.71167993796401 -36.43617315001900,-9.71159409796403 -36.43582978863008,-9.71122927629737 -36.43563665863008,-9.71107906407513 -36.43546506307457,-9.71090746851955 -36.43534239890787,-9.71076334685289 -36.43533586279677,-9.71075681074180 -36.43534022613007,-9.71074467824180 -36.43538339557458,-9.71059358518629 -36.43545521696347,-9.71037849546405 -36.43550157307458,-9.71026454879736 -36.43556600946347,-9.71015715740851 -36.43562945946348,-9.71007340574184 -36.43570983779677,-9.70999033963075 -36.43572820390788,-9.70997894129743 -36.43583769668568,-9.71004167490853 -36.43605077640789,-9.71036129463074 -36.43650236807450,-9.71085589490852 -36.43678171918561,-9.71115673463073 -36.43734014501893,-9.71169368268630 -36.43759750585224,-9.71192959657516 -36.43765799668553,-9.71199008768628 -36.43727664307452,-9.71226743574182 -36.43704148918562,-9.71248579268625 -36.43692416168561,-9.71238801963065 -36.43681689974121,-9.71225930518624 -36.43660229390781,-9.71204469935289 -36.43643065140781,-9.71187305685290 -36.43625899001900,-9.71167993796401 -36.43625899001900,-9.71167993796401 -36.43625899001900,-9.71167993796401
          </coordinates>
        </LinearRing>
      </outerBoundaryIs>
    </Polygon>
  </Placemark>
</Document>
</kml>
