<?xml version="1.0" encoding="utf-8" ?>
<kml xmlns="http://www.opengis.net/kml/2.2">
<Document id="root_doc">
<Schema name="SANTA_LUCIA_TALHAO_1001_ID_162" id="SANTA_LUCIA_TALHAO_1001_ID_162">
	<SimpleField name="ID" type="float"></SimpleField>
	<SimpleField name="AREA_TOTAL" type="float"></SimpleField>
	<SimpleField name="FAZENDA" type="float"></SimpleField>
	<SimpleField name="FAZ_NOME" type="string"></SimpleField>
	<SimpleField name="TALHAO" type="float"></SimpleField>
	<SimpleField name="ZONA" type="float"></SimpleField>
	<SimpleField name="ACIONISTA" type="string"></SimpleField>
	<SimpleField name="CODE" type="string"></SimpleField>
</Schema>
<Folder><name>SANTA_LUCIA_TALHAO_1001_ID_162</name>
  <Placemark id="SANTA_LUCIA_TALHAO_1001_ID_162.1">
	<Style><LineStyle><color>ff0000ff</color></LineStyle><PolyStyle><fill>0</fill></PolyStyle></Style>
	<ExtendedData><SchemaData schemaUrl="#SANTA_LUCIA_TALHAO_1001_ID_162">
		<SimpleData name="ID">162</SimpleData>
		<SimpleData name="AREA_TOTAL">5.91</SimpleData>
		<SimpleData name="FAZENDA">1173</SimpleData>
		<SimpleData name="FAZ_NOME">SANTA LUCIA</SimpleData>
		<SimpleData name="TALHAO">1001</SimpleData>
		<SimpleData name="ZONA">1</SimpleData>
		<SimpleData name="ACIONISTA">ISABEL TENÓRIO</SimpleData>
		<SimpleData name="CODE"></SimpleData>
	</SchemaData></ExtendedData>
      <MultiGeometry><Polygon><outerBoundaryIs><LinearRing><coordinates>-36.4350629524641,-9.74672507380971,0 -36.4353164257571,-9.74782257166584,0 -36.4358054059057,-9.7477892462894,0 -36.4358259937185,-9.74779035573373,0 -36.4358535512048,-9.74779111788618,0 -36.4358775581033,-9.74779026657955,0 -36.4359030238019,-9.74779410392144,0 -36.4359307523915,-9.74779492200757,0 -36.4359564309439,-9.74779783108035,0 -36.4359827400768,-9.74779967729853,0 -36.436007108835,-9.74780243323803,0 -36.4360328926155,-9.74780670357801,0 -36.4360635961926,-9.74781178873791,0 -36.4361078811099,-9.74782285042902,0 -36.4361337427341,-9.74782765796747,0 -36.4361570354441,-9.74783337348874,0 -36.436181971032,-9.74784090384586,0 -36.4362079498789,-9.74784728939098,0 -36.4362325431787,-9.74785389403486,0 -36.436256138483,-9.74786067901044,0 -36.4362799744002,-9.74787037865419,0 -36.4363021768137,-9.74787951575875,0 -36.436323936056,-9.74789238572741,0 -36.4363465309137,-9.7479049782616,0 -36.4363680028773,-9.74791635980638,0 -36.436400126292,-9.74793403673162,0 -36.4364101544492,-9.74794045881117,0 -36.4364311308843,-9.74795323555496,0 -36.4364620453788,-9.74797367720013,0 -36.4364825483904,-9.74798535341499,0 -36.436502709542,-9.74799818076072,0 -36.436523219862,-9.74801095753928,0 -36.436546640919,-9.74802182707494,0 -36.4365692139118,-9.74803303112208,0 -36.4366156930044,-9.74805007805432,0 -36.4366389641116,-9.74805709742055,0 -36.436663604519,-9.74806139538488,0 -36.4366879684217,-9.74806451941883,0 -36.4367142987545,-9.74806481143446,0 -36.4367393122486,-9.74806355863517,0 -36.4367635310952,-9.74805870628406,0 -36.4367906571495,-9.74805259147947,0 -36.4368131534338,-9.74804458886931,0 -36.4368370646573,-9.74803955917747,0 -36.4368604781054,-9.74803039676553,0 -36.4368827367922,-9.74802253882847,0 -36.4369050848357,-9.74801669853175,0 -36.436927911727,-9.74800548385725,0 -36.4369516009007,-9.7479965781264,0 -36.4369761108278,-9.74798677766496,0 -36.4369989799889,-9.74797534731741,0 -36.4370230195739,-9.74796852666524,0 -36.4370615662968,-9.74795017809451,0 -36.4371028564693,-9.74793985168198,0 -36.4371275197716,-9.74793748849693,0 -36.4371656120732,-9.74793786244866,0 -36.437199854123,-9.74795411434969,0 -36.437221683971,-9.74795957862398,0 -36.4372439602959,-9.74796859386634,0 -36.4372699565924,-9.74797785118585,0 -36.4372941690009,-9.74798498378377,0 -36.4373181068878,-9.7479894126304,0 -36.4373305089819,-9.74799109262721,0 -36.4373551877728,-9.74799500226049,0 -36.4373918566064,-9.74800003879732,0 -36.4374165415891,-9.74800170109354,0 -36.4374416923572,-9.74800249322681,0 -36.4374660834712,-9.74800575484297,0 -36.4374915309352,-9.7480056933399,0 -36.4375152018228,-9.74800298486947,0 -36.4375400384181,-9.7479999415168,0 -36.437566910691,-9.74799680372877,0 -36.4375901112569,-9.74799461502203,0 -36.4376148630467,-9.74799167510571,0 -36.4376344216654,-9.74798935201167,0 -36.437653132976,-9.74797992896204,0 -36.4376772893206,-9.74797573546967,0 -36.4376943451656,-9.74796941980058,0 -36.4377143418037,-9.74796180608385,0 -36.4377332158339,-9.74795260420774,0 -36.4377527714562,-9.74794004184039,0 -36.4377712555676,-9.74792622635133,0 -36.4377875885175,-9.74791019337686,0 -36.4378038630862,-9.74789463734442,0 -36.4378187279628,-9.74787747720146,0 -36.4378360509366,-9.74786127924638,0 -36.4378523851835,-9.74784411531877,0 -36.4378699315824,-9.74781728011952,0 -36.4379885869578,-9.74768798053177,0 -36.438226294524,-9.74743762069637,0 -36.4382427627246,-9.74742362639371,0 -36.4382602302805,-9.74740761849689,0 -36.4382797561335,-9.74739402379736,0 -36.4383000164288,-9.74737975712689,0 -36.4383191471828,-9.74736282644823,0 -36.438338447695,-9.74734901941495,0 -36.4383585001715,-9.74733502872879,0 -36.438376081709,-9.74732018324191,0 -36.43839114546,-9.74730687048803,0 -36.438403616826,-9.7472916174824,0 -36.438414680058,-9.74727240840556,0 -36.4384265614166,-9.74725335497496,0 -36.4384391221796,-9.74723227421068,0 -36.4384497225431,-9.74721099003451,0 -36.4384602374808,-9.74718942135859,0 -36.4384731354653,-9.747168693118,0 -36.4384858374039,-9.74714725029575,0 -36.4384996248296,-9.74712670930813,0 -36.438514988061,-9.74710988296986,0 -36.4385328914131,-9.74709670191811,0 -36.4385490650881,-9.74708395582384,0 -36.4385619986484,-9.74706797432563,0 -36.4385720322518,-9.74704748702844,0 -36.4385798083266,-9.74702768909317,0 -36.4385855468429,-9.74700493664866,0 -36.4385812701149,-9.74696942977115,0 -36.4385791696479,-9.74694296356147,0 -36.4385763507761,-9.74691852163324,0 -36.4385746329765,-9.74690543546375,0 -36.4385701357121,-9.74686858992252,0 -36.4385669501195,-9.74684432827875,0 -36.4385639625938,-9.74681987064434,0 -36.4385596836063,-9.74679654203283,0 -36.4385573136365,-9.74677398266205,0 -36.4385506387108,-9.74675229806803,0 -36.438546885294,-9.74674109531428,0 -36.4385375946653,-9.74670841308334,0 -36.4385312518952,-9.74668576434911,0 -36.4385234819046,-9.74666298966481,0 -36.4385160677968,-9.74663997574044,0 -36.4385080787331,-9.74661738967052,0 -36.4384983768196,-9.7465958764468,0 -36.4384891618686,-9.74657585965454,0 -36.4384807605619,-9.7465546865835,0 -36.4384683186718,-9.74653142134194,0 -36.4384559888657,-9.74651066749024,0 -36.4384461298684,-9.74649116631433,0 -36.4384349037312,-9.74647178300724,0 -36.4384257026241,-9.74645084662349,0 -36.4384130079289,-9.74643030876264,0 -36.4383985209952,-9.74641479249976,0 -36.4383820511385,-9.74639537691037,0 -36.4383659343219,-9.74637637750217,0 -36.4383532234537,-9.74636525441721,0 -36.4383481781584,-9.74635845337585,0 -36.4383375092278,-9.74634757109417,0 -36.438329371397,-9.74634010489661,0 -36.4383224554925,-9.74633136521558,0 -36.438311952612,-9.74632229617627,0 -36.4383007064251,-9.74631420555616,0 -36.4382906813789,-9.74630202690598,0 -36.438275782256,-9.74628820398337,0 -36.4382555208474,-9.74626486992547,0 -36.4382398906508,-9.74623865450887,0 -36.4382268161795,-9.74621952251472,0 -36.4382179652812,-9.74620289177326,0 -36.4382090374474,-9.74618733109397,0 -36.4381974526151,-9.74617160618262,0 -36.4381857730349,-9.74615893817478,0 -36.4381670623928,-9.74614232659213,0 -36.4381533028715,-9.7461335846207,0 -36.4381343621835,-9.74611842924529,0 -36.4381208073356,-9.74610976454558,0 -36.4381116652773,-9.74610527069541,0 -36.4378769371709,-9.74594450584727,0 -36.4376622247852,-9.74577442761557,0 -36.4375470393754,-9.74567938724495,0 -36.437525693848,-9.74570808039995,0 -36.437500830323,-9.74574150251959,0 -36.4374718592376,-9.74578057709897,0 -36.4374594622341,-9.74579732521527,0 -36.4374429537158,-9.74581967033521,0 -36.4374293052862,-9.74583814417601,0 -36.4374018196879,-9.74587562740554,0 -36.4373650127394,-9.74592613551365,0 -36.4373163503188,-9.74599376364068,0 -36.4372882286237,-9.74603339517836,0 -36.4372563632101,-9.7460788763074,0 -36.4372051526762,-9.7461531751195,0 -36.437169806313,-9.74620468630073,0 -36.4371421808036,-9.74624465860173,0 -36.437094156671,-9.74631272508899,0 -36.4370655399975,-9.74635201670448,0 -36.437002078338,-9.74643474321908,0 -36.4369711720421,-9.74647246242398,0 -36.4369577005322,-9.74648847267488,0 -36.4369358035762,-9.74651280046978,0 -36.436916615028,-9.74652685009233,0 -36.4368918391823,-9.74654156212028,0 -36.4368642303596,-9.74655381979789,0 -36.4368441661919,-9.74656075797779,0 -36.4368167065966,-9.74657079384556,0 -36.4367976945192,-9.74657699694541,0 -36.4367757431619,-9.74658168056069,0 -36.4367488598237,-9.74658676030061,0 -36.4367351453522,-9.74658938993188,0 -36.436721431053,-9.74659196081641,0 -36.4367003353263,-9.74659567341235,0 -36.43667222426,-9.74659950838252,0 -36.4366384328035,-9.74660286806169,0 -36.4366245610435,-9.74660441550843,0 -36.4366107173796,-9.74660621745068,0 -36.4365968867382,-9.74660813487081,0 -36.4365743902523,-9.7466111726295,0 -36.4365501583793,-9.74661343333529,0 -36.436525019106,-9.74661485354971,0 -36.4364995395572,-9.74661612878402,0 -36.4364855996465,-9.74661685960753,0 -36.4364716641527,-9.74661766864915,0 -36.4364577329037,-9.74661856009027,0 -36.436443804715,-9.7466195106223,0 -36.4364298783836,-9.74662049643107,0 -36.4364159527064,-9.7466214937024,0 -36.4364020264805,-9.74662247862212,0 -36.4363822860343,-9.74662382391815,0 -36.4363577098515,-9.74662536693617,0 -36.4363323684093,-9.74662691905181,0 -36.4363184334319,-9.74662778230559,0 -36.4363044983411,-9.74662866883202,0 -36.4362905630793,-9.74662957468564,0 -36.4362678663545,-9.7466310198208,0 -36.4362408908758,-9.74663242291265,0 -36.4362164067444,-9.74663311802082,0 -36.4361929270706,-9.74663330026071,0 -36.4361789660833,-9.74663344747098,0 -36.4361650075334,-9.74663370643794,0 -36.4361510512837,-9.74663406529188,0 -36.4361370970221,-9.74663450535633,0 -36.4361231444364,-9.74663500795494,0 -36.4361091932147,-9.74663555441123,0 -36.4360952430448,-9.74663612604884,0 -36.4360721061563,-9.74663708497083,0 -36.4360394465669,-9.74663839814675,0 -36.4360254968715,-9.74663896168234,0 -36.43601154629,-9.74663953243866,0 -36.4359883185604,-9.74664047949513,0 -36.4359617177194,-9.74664139125004,0 -36.4359343878458,-9.74664191640097,0 -36.4359057818301,-9.74664181372827,0 -36.4358719649271,-9.74664110065578,0 -36.4358580032796,-9.74664082788929,0 -36.4358440434063,-9.74664062832381,0 -36.4358300860591,-9.74664055350562,0 -36.4358161319901,-9.74664065498103,0 -36.4358021816877,-9.74664097160807,0 -36.4357882341089,-9.74664146849948,0 -36.435775416196,-9.7466420343725,0 -36.4357463917616,-9.7466434260062,0 -36.4357241925702,-9.74664438560018,0 -36.4356905598236,-9.74664523006485,0 -36.4356766052584,-9.74664565055593,0 -36.4356626610652,-9.74664623158782,0 -36.4356487317913,-9.74664706152583,0 -36.4356348171302,-9.74664814487402,0 -36.4356209105299,-9.74664937823801,0 -36.4355970116937,-9.74665156588279,0 -36.435569446787,-9.74665358591017,0 -36.4355373074476,-9.74665456605551,0 -36.4355233501743,-9.74665502386515,0 -36.4355094071906,-9.74665564167299,0 -36.4354954880522,-9.74665654742588,0 -36.4354815988857,-9.74665782292365,0 -36.4354677357013,-9.74665941383375,0 -36.4354538926529,-9.74666124084375,0 -36.435440122016,-9.74666321630355,0 -36.4354124259345,-9.7466673464587,0 -36.4353920622997,-9.74667032015837,0 -36.4353645161401,-9.7466741866085,0 -36.435333559194,-9.74667839343601,0 -36.4353018051218,-9.74668258556257,0 -36.4352879658026,-9.74668441894862,0 -36.4352741288428,-9.74668627366582,0 -36.4352602968549,-9.74668816467234,0 -36.4352464724518,-9.74669010692635,0 -36.4352326582461,-9.74669211538608,0 -36.4352188568504,-9.74669420500961,0 -36.4352050708775,-9.74669639075514,0 -36.4351913028954,-9.74669868713247,0 -36.4351775546152,-9.74670110007311,0 -36.4351638269782,-9.74670362779563,0 -36.435150120898,-9.74670626824387,0 -36.4351364372883,-9.74670901936162,0 -36.4351227766289,-9.74671187748215,0 -36.4351091350663,-9.74671482284923,0 -36.4350955062546,-9.74671782645427,0 -36.4350629524641,-9.74672507380971,0</coordinates></LinearRing></outerBoundaryIs></Polygon></MultiGeometry>
  </Placemark>
</Folder>
</Document></kml>
