<?xml version="1.0" encoding="utf-8" ?>
<kml xmlns="http://www.opengis.net/kml/2.2">
<Document id="root_doc">
<Schema name="SANTA_LUCIA_TALHAO_1015_ID_168" id="SANTA_LUCIA_TALHAO_1015_ID_168">
	<SimpleField name="ID" type="float"></SimpleField>
	<SimpleField name="AREA_TOTAL" type="float"></SimpleField>
	<SimpleField name="FAZENDA" type="float"></SimpleField>
	<SimpleField name="FAZ_NOME" type="string"></SimpleField>
	<SimpleField name="TALHAO" type="float"></SimpleField>
	<SimpleField name="ZONA" type="float"></SimpleField>
	<SimpleField name="ACIONISTA" type="string"></SimpleField>
	<SimpleField name="CODE" type="string"></SimpleField>
</Schema>
<Folder><name>SANTA_LUCIA_TALHAO_1015_ID_168</name>
  <Placemark id="SANTA_LUCIA_TALHAO_1015_ID_168.1">
	<Style><LineStyle><color>ff0000ff</color></LineStyle><PolyStyle><fill>0</fill></PolyStyle></Style>
	<ExtendedData><SchemaData schemaUrl="#SANTA_LUCIA_TALHAO_1015_ID_168">
		<SimpleData name="ID">168</SimpleData>
		<SimpleData name="AREA_TOTAL">11.00</SimpleData>
		<SimpleData name="FAZENDA">1217</SimpleData>
		<SimpleData name="FAZ_NOME">SANTA LUCIA</SimpleData>
		<SimpleData name="TALHAO">1015</SimpleData>
		<SimpleData name="ZONA">1</SimpleData>
		<SimpleData name="ACIONISTA">ISABEL TENÓRIO</SimpleData>
		<SimpleData name="CODE"></SimpleData>
	</SchemaData></ExtendedData>
      <MultiGeometry><Polygon><outerBoundaryIs><LinearRing><coordinates>-36.4295498922045,-9.73090378285006,0 -36.4298934979841,-9.73173771657738,0 -36.4302130516627,-9.73247310272267,0 -36.4303250160549,-9.73272344346241,0 -36.4303369262896,-9.73273872274722,0 -36.4303551421345,-9.73275917749815,0 -36.4303821634048,-9.73279404809579,0 -36.4303988541553,-9.73280982235939,0 -36.4304145149544,-9.73282599690181,0 -36.4304400286567,-9.73285172777752,0 -36.4304574715972,-9.73286875709219,0 -36.4304745006983,-9.73288757153658,0 -36.4304839913087,-9.73289632623847,0 -36.4305134041267,-9.7329232995462,0 -36.4305331525236,-9.73294126460658,0 -36.4305624920109,-9.7329689768256,0 -36.4305903355123,-9.73299753769435,0 -36.4306079829707,-9.73301526965833,0 -36.430637215095,-9.73305123435266,0 -36.430653677516,-9.73306942312942,0 -36.4306692614486,-9.73308398573349,0 -36.4306916157803,-9.73310341860608,0 -36.4307197127026,-9.73313275650476,0 -36.4307376298239,-9.73315221000544,0 -36.4307547052023,-9.73317222408211,0 -36.4307699708513,-9.73319247830726,0 -36.4307848249165,-9.7332098071131,0 -36.430807906277,-9.7332332032313,0 -36.4308291520614,-9.73325943566191,0 -36.4308674288289,-9.73329498488005,0 -36.4308835011115,-9.73331474495556,0 -36.4309018895692,-9.73333254537583,0 -36.4309196513243,-9.73335180072218,0 -36.4309381965712,-9.7333709873671,0 -36.4309565670289,-9.73338910451885,0 -36.4309759769446,-9.73340710205701,0 -36.4309957761994,-9.73342375646989,0 -36.4310139577029,-9.73343958699008,0 -36.4310273217126,-9.73345688399348,0 -36.43104710347,-9.73347219825787,0 -36.4310654846976,-9.73348977994008,0 -36.4310845992982,-9.73350646181252,0 -36.4311043843769,-9.73352110769844,0 -36.431123891345,-9.73353668721203,0 -36.4311434987143,-9.73355169741684,0 -36.4311634934604,-9.73356673520054,0 -36.4311824040498,-9.73358160904883,0 -36.4312127599713,-9.73360156939801,0 -36.431237466802,-9.73362163605089,0 -36.4312652880524,-9.73364035932503,0 -36.4312809737246,-9.73365340304114,0 -36.431304870559,-9.73366669109142,0 -36.4313379776197,-9.73368793709171,0 -36.4313555673863,-9.73369871508354,0 -36.4313761867433,-9.73371100513535,0 -36.4313970671849,-9.73372380388625,0 -36.431417492546,-9.73373553862458,0 -36.4314357483239,-9.73374702657491,0 -36.4314545158288,-9.73375792669867,0 -36.4314703581359,-9.7337666409752,0 -36.4314876821963,-9.73377359177823,0 -36.4315072661965,-9.73377681514327,0 -36.4315260655843,-9.73377668592378,0 -36.4315440238184,-9.73377493293066,0 -36.4315568664961,-9.7337730098097,0 -36.4319157241636,-9.73375171212532,0 -36.4319566771156,-9.73374851389391,0 -36.4320113371579,-9.73374730991885,0 -36.4316240649888,-9.73206127937075,0 -36.4306155529703,-9.72770641790115,0 -36.4288323845513,-9.72917243033562,0 -36.4290212550591,-9.72966577002124,0 -36.4291229203388,-9.72995049549906,0 -36.4293522261367,-9.73045224021403,0 -36.4295498922045,-9.73090378285006,0</coordinates></LinearRing></outerBoundaryIs></Polygon></MultiGeometry>
  </Placemark>
</Folder>
</Document></kml>
