<?xml version="1.0" encoding="UTF-8"?>
<kml xmlns="http://www.opengis.net/kml/2.2" xmlns:gx="http://www.google.com/kml/ext/2.2" xmlns:kml="http://www.opengis.net/kml/2.2" xmlns:atom="http://www.w3.org/2005/Atom">
<Document>
  <name>1009.kml</name>
  <StyleMap id="FF0040FF">
    <Pair>
      <key>normal</key>
      <styleUrl>#s_FF0040FF</styleUrl>
    </Pair>
    <Pair>
      <key>highlight</key>
      <styleUrl>#s_FF0040FF_hl</styleUrl>
    </Pair>
  </StyleMap>
  <Style id="s_FF0040FF">
   <IconStyle>
      <scale>1.1</scale>
      <Icon>
        <href>http://maps.google.com/mapfiles/kml/pushpin/agrocad.png</href>
      </Icon>
      <hotSpot x="20" y="2" xunits="pixels" yunits="pixels"/>
    </IconStyle>
    <LineStyle>
      <color>FF0040FF</color>
      <width>1</width>
    </LineStyle>
    <PolyStyle>
      <color>40ffffff</color>
      <fill>1</fill>
    </PolyStyle>
  </Style>
  <Style id="s_FF0040FF_hl">
    <IconStyle>
      <scale>1.3</scale>
      <Icon>
        <href>http://maps.google.com/mapfiles/kml/pushpin/agrocad.png</href>
      </Icon>
      <hotSpot x="20" y="2" xunits="pixels" yunits="pixels"/>
    </IconStyle>
    <LineStyle>
      <color>ff000000</color>
      <width>1</width>
    </LineStyle>
    <PolyStyle>
      <color>40ffffff</color>
      <fill>1</fill>
    </PolyStyle>
  </Style>
  <Placemark>
    <name>AgroCAD: 7DCF</name>
    <styleUrl>FF0040FF</styleUrl>
    <Polygon>
      <outerBoundaryIs>
        <LinearRing>
          <coordinates>
           -36.18456952206031,-9.63839649275522 -36.18456069872697,-9.63837738358855 -36.18465143094913,-9.63833458386634 -36.18480777011563,-9.63825334692191 -36.18497823317105,-9.63816100553301 -36.18572082254721,-9.63775710224863 -36.18572277789257,-9.63775876108862 -36.18573497761479,-9.63777834386640 -36.18575581122587,-9.63780232497752 -36.18578543455918,-9.63782361192196 -36.18581289289249,-9.63784147386640 -36.18583977483690,-9.63786394136640 -36.18586592872576,-9.63788023525530 -36.18588349594797,-9.63789087414420 -36.18589922094795,-9.63789941581086 -36.18592871261460,-9.63791700303308 -36.18595914344791,-9.63793360553307 -36.18598955455897,-9.63795189775530 -36.18602777622561,-9.63796858108864 -36.18606992178112,-9.63796905358864 -36.18611418285734,-9.63795587659672 -36.18616864566992,-9.63790370692198 -36.18617518011435,-9.63786785886643 -36.18618170400324,-9.63783267553310 -36.18618471039213,-9.63779694831087 -36.18618728511437,-9.63775854164420 -36.18618359566992,-9.63768715997754 -36.18617720094770,-9.63761643358865 -36.18617498705884,-9.63754047775532 -36.18617731594772,-9.63750391553309 -36.18617217789215,-9.63746935469976 -36.18616662205882,-9.63742916747754 -36.18615952039217,-9.63739044969976 -36.18615697400328,-9.63735060803309 -36.18613868955885,-9.63727501442198 -36.18612104872555,-9.63720012497753 -36.18610750372557,-9.63716173025532 -36.18608444233670,-9.63708612442197 -36.18607751733671,-9.63704734275532 -36.18606663067004,-9.63700861247753 -36.18605916289228,-9.63697009386642 -36.18603019622565,-9.63685428303310 -36.18598794844792,-9.63670354553309 -36.18596653900350,-9.63663228219975 -36.18594286817019,-9.63651933969974 -36.18591912122577,-9.63645088747751 -36.18590171261469,-9.63637942608864 -36.18589217733691,-9.63634242442197 -36.18587901039247,-9.63630444081086 -36.18586907928137,-9.63626896025530 -36.18586312372582,-9.63620011081086 -36.18586037511472,-9.63618107331086 -36.18587229733692,-9.63619365219974 -36.18588103789246,-9.63625421136640 -36.18592947455909,-9.63638066831085 -36.18596850955905,-9.63646406608865 -36.18606610955894,-9.63666774831087 -36.18621739400325,-9.63696222886642 -36.18626995844763,-9.63705747136644 -36.18634986844755,-9.63719809636643 -36.18644090539191,-9.63734742636644 -36.18651123622516,-9.63746506136644 -36.18662097928061,-9.63764640081089 -36.18673372955830,-9.63784228692202 -36.18685677789150,-9.63806850719980 -36.18694434511363,-9.63823930914424 -36.18698044150248,-9.63830890858869 -36.18692357761363,-9.63833802803313 -36.18677051678046,-9.63842021914424 -36.18648536789184,-9.63857594497755 -36.18615200566991,-9.63875643164420 -36.18585484067020,-9.63891400775530 -36.18560725678154,-9.63904700886639 -36.18522583067078,-9.63925183747747 -36.18509446678200,-9.63931994525525 -36.18505642844871,-9.63934042525525 -36.18502726344874,-9.63928999219970 -36.18494135428217,-9.63913205331080 -36.18486702233779,-9.63898131219968 -36.18478586789343,-9.63882806136634 -36.18468204261576,-9.63862379303300 -36.18462025622692,-9.63850203053300 -36.18456952206031,-9.63839649275522
          </coordinates>
        </LinearRing>
      </outerBoundaryIs>
    </Polygon>
  </Placemark>
</Document>
</kml>
