<?xml version="1.0" encoding="UTF-8"?>
<kml xmlns="http://www.opengis.net/kml/2.2" xmlns:gx="http://www.google.com/kml/ext/2.2" xmlns:kml="http://www.opengis.net/kml/2.2" xmlns:atom="http://www.w3.org/2005/Atom">
<Document>
  <name>1060.kml</name>
  <StyleMap id="FFFF4000">
    <Pair>
      <key>normal</key>
      <styleUrl>#s_FFFF4000</styleUrl>
    </Pair>
    <Pair>
      <key>highlight</key>
      <styleUrl>#s_FFFF4000_hl</styleUrl>
    </Pair>
  </StyleMap>
  <Style id="s_FFFF4000">
   <IconStyle>
      <scale>1.1</scale>
      <Icon>
        <href>http://maps.google.com/mapfiles/kml/pushpin/agrocad.png</href>
      </Icon>
      <hotSpot x="20" y="2" xunits="pixels" yunits="pixels"/>
    </IconStyle>
    <LineStyle>
      <color>FFFF4000</color>
      <width>1</width>
    </LineStyle>
    <PolyStyle>
      <color>40ffffff</color>
      <fill>1</fill>
    </PolyStyle>
  </Style>
  <Style id="s_FFFF4000_hl">
    <IconStyle>
      <scale>1.3</scale>
      <Icon>
        <href>http://maps.google.com/mapfiles/kml/pushpin/agrocad.png</href>
      </Icon>
      <hotSpot x="20" y="2" xunits="pixels" yunits="pixels"/>
    </IconStyle>
    <LineStyle>
      <color>ff000000</color>
      <width>1</width>
    </LineStyle>
    <PolyStyle>
      <color>40ffffff</color>
      <fill>1</fill>
    </PolyStyle>
  </Style>
  <Placemark>
    <name>AgroCAD: 8EC7</name>
    <styleUrl>FFFF4000</styleUrl>
    <Polygon>
      <outerBoundaryIs>
        <LinearRing>
          <coordinates>
           -36.17249562088713,-9.63346188140769 -36.17250835896256,-9.63342853247582 -36.17250828304653,-9.63342853830070 -36.17257013416600,-9.63326491383180 -36.17261118741506,-9.63314457173721 -36.17263635963253,-9.63306544647078 -36.17264820704644,-9.63300283449507 -36.17265473121014,-9.63294472951056 -36.17265820992838,-9.63288508244269 -36.17265438784424,-9.63282562955108 -36.17264744818495,-9.63277613152799 -36.17263719455712,-9.63274032398257 -36.17261572793897,-9.63267919191502 -36.17260305827100,-9.63264802179359 -36.17257267016303,-9.63258370957506 -36.17255642025828,-9.63255573403109 -36.17251316884217,-9.63250194374403 -36.17248159543234,-9.63246399856347 -36.17245001952400,-9.63242693413336 -36.17241987949952,-9.63239171619957 -36.17206573014498,-9.63199037804594 -36.17223729818814,-9.63170554318727 -36.17225669798854,-9.63172879558157 -36.17227378592150,-9.63175089138311 -36.17229059442639,-9.63177351963559 -36.17230946501050,-9.63179790752196 -36.17232991494474,-9.63182351984273 -36.17235153337345,-9.63184956362067 -36.17237121725315,-9.63187763234343 -36.17239362624883,-9.63190597867388 -36.17241681656614,-9.63193361417222 -36.17244065845973,-9.63196157999750 -36.17246395918652,-9.63198981867546 -36.17248803844250,-9.63201649013555 -36.17251268072586,-9.63204383679344 -36.17253678515134,-9.63207065178660 -36.17256062667256,-9.63209641763686 -36.17259404451707,-9.63212849483621 -36.17261254626200,-9.63214156168092 -36.17265010741177,-9.63216874520940 -36.17268041160946,-9.63218818120594 -36.17271137553523,-9.63220558109889 -36.17274256672264,-9.63221943981838 -36.17277358083034,-9.63223262010379 -36.17280539238772,-9.63224703106629 -36.17283715859751,-9.63225705322760 -36.17286829557155,-9.63227202068465 -36.17290146831491,-9.63228287327576 -36.17292912454368,-9.63229210737317 -36.17296461282005,-9.63230549945382 -36.17299664355801,-9.63231445321006 -36.17302915756404,-9.63232387304680 -36.17306419612076,-9.63232991053478 -36.17309899915678,-9.63233248975886 -36.17313267860434,-9.63233401499968 -36.17316688831905,-9.63233226103099 -36.17320197416276,-9.63232954252061 -36.17323654371362,-9.63232932478011 -36.17327103433891,-9.63232764201482 -36.17330410124953,-9.63232353646434 -36.17333750908879,-9.63232053254170 -36.17344333857024,-9.63231958049843 -36.17347345132706,-9.63231770857904 -36.17350620205153,-9.63231293403253 -36.17353919652023,-9.63231346899662 -36.17357468925869,-9.63231275078648 -36.17360756742811,-9.63231070667826 -36.17364235425720,-9.63230638833717 -36.17367580091447,-9.63230529640599 -36.17370593457169,-9.63230313330260 -36.17373610560564,-9.63230622932849 -36.17378356454562,-9.63230922538108 -36.17381301012099,-9.63232904995253 -36.17384198354064,-9.63234640831376 -36.17386655893958,-9.63236982140595 -36.17389008415060,-9.63239447829866 -36.17391589506320,-9.63241533839808 -36.17393875653288,-9.63244040303443 -36.17396300849974,-9.63246688917344 -36.17398888401565,-9.63249182947822 -36.17401060256455,-9.63251773047392 -36.17403350673495,-9.63254006982253 -36.17405354882398,-9.63256462832698 -36.17407373539186,-9.63259175794163 -36.17409293660535,-9.63261595413385 -36.17410792423432,-9.63264619190618 -36.17411119689077,-9.63268246049846 -36.17410142449961,-9.63271419358798 -36.17408245742148,-9.63274261773176 -36.17406086800623,-9.63276892328060 -36.17403421673910,-9.63280098567371 -36.17401007205122,-9.63282981096369 -36.17398670613722,-9.63285555480064 -36.17396172448911,-9.63287935941156 -36.17393940488384,-9.63290370271332 -36.17391600581500,-9.63293031298931 -36.17389223626931,-9.63295491130304 -36.17386335460128,-9.63298025522558 -36.17383770013831,-9.63300581062093 -36.17381565222937,-9.63302809003654 -36.17360920597935,-9.63325168781534 -36.17358271695423,-9.63327681842825 -36.17355599632734,-9.63330766221277 -36.17353041423222,-9.63333596482326 -36.17351051056926,-9.63336695519007 -36.17348252906566,-9.63339030800912 -36.17346518277294,-9.63341851116983 -36.17344812703741,-9.63344819942232 -36.17343726131097,-9.63348265617129 -36.17342310014329,-9.63351673340454 -36.17340736119119,-9.63354964164462 -36.17339382254079,-9.63358169894124 -36.17337875972303,-9.63361648844609 -36.17336278867739,-9.63365138689231 -36.17334745761838,-9.63368574442189 -36.17333003035915,-9.63372015731234 -36.17331358505133,-9.63375501629313 -36.17329891117513,-9.63379067023605 -36.17328570687459,-9.63381905653330 -36.17326997858693,-9.63385250275137 -36.17325140810044,-9.63388525593534 -36.17323350216443,-9.63392170967787 -36.17321012146488,-9.63395789893073 -36.17319390462697,-9.63399003281043 -36.17319252294922,-9.63399303957904 -36.17249562088713,-9.63346188140769
          </coordinates>
        </LinearRing>
      </outerBoundaryIs>
    </Polygon>
  </Placemark>
</Document>
</kml>
