<?xml version="1.0" encoding="UTF-8"?>
<kml xmlns="http://www.opengis.net/kml/2.2" xmlns:gx="http://www.google.com/kml/ext/2.2" xmlns:kml="http://www.opengis.net/kml/2.2" xmlns:atom="http://www.w3.org/2005/Atom">
<Document>
  <name>1047.kml</name>
  <StyleMap id="FFFF4000">
    <Pair>
      <key>normal</key>
      <styleUrl>#s_FFFF4000</styleUrl>
    </Pair>
    <Pair>
      <key>highlight</key>
      <styleUrl>#s_FFFF4000_hl</styleUrl>
    </Pair>
  </StyleMap>
  <Style id="s_FFFF4000">
   <IconStyle>
      <scale>1.1</scale>
      <Icon>
        <href>http://maps.google.com/mapfiles/kml/pushpin/agrocad.png</href>
      </Icon>
      <hotSpot x="20" y="2" xunits="pixels" yunits="pixels"/>
    </IconStyle>
    <LineStyle>
      <color>FFFF4000</color>
      <width>1</width>
    </LineStyle>
    <PolyStyle>
      <color>40ffffff</color>
      <fill>1</fill>
    </PolyStyle>
  </Style>
  <Style id="s_FFFF4000_hl">
    <IconStyle>
      <scale>1.3</scale>
      <Icon>
        <href>http://maps.google.com/mapfiles/kml/pushpin/agrocad.png</href>
      </Icon>
      <hotSpot x="20" y="2" xunits="pixels" yunits="pixels"/>
    </IconStyle>
    <LineStyle>
      <color>ff000000</color>
      <width>1</width>
    </LineStyle>
    <PolyStyle>
      <color>40ffffff</color>
      <fill>1</fill>
    </PolyStyle>
  </Style>
  <Placemark>
    <name>AgroCAD: 8ECB</name>
    <styleUrl>FFFF4000</styleUrl>
    <Polygon>
      <outerBoundaryIs>
        <LinearRing>
          <coordinates>
           -36.16315545742486,-9.64114952111386 -36.16306431870115,-9.64114022456861 -36.16303405397754,-9.64113004951708 -36.16300409603956,-9.64112570524063 -36.16297546738309,-9.64111868057845 -36.16294870168753,-9.64111310986937 -36.16292142724239,-9.64110524926194 -36.16289474555234,-9.64109594521049 -36.16286814041458,-9.64108525954200 -36.16284176871245,-9.64107350219584 -36.16281719664653,-9.64105560029084 -36.16279526077272,-9.64103478294611 -36.16277739078610,-9.64101253749058 -36.16276659114014,-9.64098813488678 -36.16276572263773,-9.64094451310988 -36.16276456263071,-9.64091465704293 -36.16276862047879,-9.64088683383011 -36.16276750361574,-9.64085921312954 -36.16277038437597,-9.64083140086668 -36.16279948951699,-9.64043084871140 -36.16282181600293,-9.64007576260731 -36.16284664984846,-9.63958561135780 -36.16287325680413,-9.63905193238078 -36.16289582985221,-9.63864598997066 -36.16293839468184,-9.63789774530265 -36.16321394428991,-9.63789184141635 -36.16368304688525,-9.63788117820940 -36.16370976672909,-9.63789122548874 -36.16370114888190,-9.63796678860081 -36.16370126675616,-9.63807136326461 -36.16369543338022,-9.63808164549436 -36.16369769535842,-9.63811938348400 -36.16369936626249,-9.63815574929757 -36.16370083142390,-9.63819265334282 -36.16370082751733,-9.63822946215288 -36.16370334059605,-9.63826676680556 -36.16370115471891,-9.63830394610496 -36.16370386590647,-9.63834024313488 -36.16370508327366,-9.63837543647436 -36.16370569099712,-9.63841057056112 -36.16370739059250,-9.63844489558419 -36.16370876974466,-9.63848084989924 -36.16370967607938,-9.63851321835647 -36.16371223472573,-9.63854459087321 -36.16371639870413,-9.63860447948456 -36.16371592446549,-9.63863794824033 -36.16371663985052,-9.63867064630407 -36.16371763973815,-9.63870177232711 -36.16371795019512,-9.63873649527822 -36.16371732005682,-9.63876910628667 -36.16371951819186,-9.63880324857895 -36.16371760339499,-9.63883368764692 -36.16371420038112,-9.63886663981841 -36.16371401251430,-9.63889765115646 -36.16371112428979,-9.63894121156153 -36.16370549412961,-9.63897515676487 -36.16370182615518,-9.63900745051247 -36.16369882618098,-9.63904329979378 -36.16369483107174,-9.63907547537376 -36.16369084246609,-9.63910628094747 -36.16368638340259,-9.63913818287269 -36.16367258242536,-9.63916675526452 -36.16366440998536,-9.63920258131096 -36.16366120042439,-9.63923524677412 -36.16365578516933,-9.63926804576841 -36.16364704840876,-9.63929622113055 -36.16364064177749,-9.63932842034202 -36.16363316920632,-9.63935953302572 -36.16362508327725,-9.63939146829699 -36.16361929852635,-9.63942152127033 -36.16361399043352,-9.63944948900866 -36.16360862100241,-9.63948087537954 -36.16360190493206,-9.63951541270313 -36.16360086555380,-9.63954716665423 -36.16359530448706,-9.63957913469856 -36.16358863328264,-9.63961194162606 -36.16358754974177,-9.63963655851013 -36.16358242628101,-9.63966466352239 -36.16358501279832,-9.63969402871347 -36.16358774610128,-9.63972199092880 -36.16358174044157,-9.63975248525963 -36.16358363700574,-9.63978358514473 -36.16358435315610,-9.63981775452726 -36.16357908866806,-9.63985157611344 -36.16357400109274,-9.63988545758868 -36.16357379778167,-9.63991736922750 -36.16357334215710,-9.63995147476710 -36.16356857557835,-9.63997912047728 -36.16356574908872,-9.64000923568884 -36.16356471617092,-9.64004056060129 -36.16355769094866,-9.64007569741002 -36.16355553795532,-9.64010889294856 -36.16355146121998,-9.64013957369737 -36.16355650993283,-9.64016613329779 -36.16355458041854,-9.64019840982555 -36.16355497856589,-9.64023372506282 -36.16355888521518,-9.64026728335161 -36.16355571794411,-9.64029821928397 -36.16355769203028,-9.64032979309961 -36.16355272179922,-9.64036257626805 -36.16355278614483,-9.64039565971619 -36.16355036772747,-9.64042914153137 -36.16354741867199,-9.64045985854268 -36.16354966256232,-9.64049209605012 -36.16354774900373,-9.64052305252513 -36.16355353891862,-9.64055579967803 -36.16355822469989,-9.64058655979671 -36.16356113633416,-9.64061569421213 -36.16356827864868,-9.64065618250181 -36.16357925109024,-9.64068644178103 -36.16358437859290,-9.64071864788498 -36.16359166386902,-9.64074618133376 -36.16359733073612,-9.64077821615660 -36.16359996413145,-9.64080906390418 -36.16360142164044,-9.64084018719188 -36.16360338595700,-9.64087125191171 -36.16360857310833,-9.64090514605162 -36.16361050340841,-9.64098572591854 -36.16361378265745,-9.64101493747395 -36.16361546177785,-9.64104371719779 -36.16361456223152,-9.64107172911543 -36.16361220229754,-9.64109708993210 -36.16359697278796,-9.64112418492423 -36.16357742398548,-9.64114180356532 -36.16355266383840,-9.64115835496506 -36.16352870033261,-9.64116968566769 -36.16349925293622,-9.64118048777243 -36.16347057577832,-9.64118631929503 -36.16344138164486,-9.64118902382985 -36.16341203146346,-9.64118512743815 -36.16338525375520,-9.64118092062303 -36.16335914240913,-9.64117756197657 -36.16333076198951,-9.64117758737992 -36.16332120784293,-9.64117555433054 -36.16315545742486,-9.64114952111386
          </coordinates>
        </LinearRing>
      </outerBoundaryIs>
    </Polygon>
  </Placemark>
</Document>
</kml>
