<?xml version="1.0" encoding="UTF-8"?>
<kml xmlns="http://www.opengis.net/kml/2.2" xmlns:gx="http://www.google.com/kml/ext/2.2" xmlns:kml="http://www.opengis.net/kml/2.2" xmlns:atom="http://www.w3.org/2005/Atom">
<Document>
  <name>1062.kml</name>
  <StyleMap id="FFFF4000">
    <Pair>
      <key>normal</key>
      <styleUrl>#s_FFFF4000</styleUrl>
    </Pair>
    <Pair>
      <key>highlight</key>
      <styleUrl>#s_FFFF4000_hl</styleUrl>
    </Pair>
  </StyleMap>
  <Style id="s_FFFF4000">
   <IconStyle>
      <scale>1.1</scale>
      <Icon>
        <href>http://maps.google.com/mapfiles/kml/pushpin/agrocad.png</href>
      </Icon>
      <hotSpot x="20" y="2" xunits="pixels" yunits="pixels"/>
    </IconStyle>
    <LineStyle>
      <color>FFFF4000</color>
      <width>1</width>
    </LineStyle>
    <PolyStyle>
      <color>40ffffff</color>
      <fill>1</fill>
    </PolyStyle>
  </Style>
  <Style id="s_FFFF4000_hl">
    <IconStyle>
      <scale>1.3</scale>
      <Icon>
        <href>http://maps.google.com/mapfiles/kml/pushpin/agrocad.png</href>
      </Icon>
      <hotSpot x="20" y="2" xunits="pixels" yunits="pixels"/>
    </IconStyle>
    <LineStyle>
      <color>ff000000</color>
      <width>1</width>
    </LineStyle>
    <PolyStyle>
      <color>40ffffff</color>
      <fill>1</fill>
    </PolyStyle>
  </Style>
  <Placemark>
    <name>AgroCAD: 92D2</name>
    <styleUrl>FFFF4000</styleUrl>
    <Polygon>
      <outerBoundaryIs>
        <LinearRing>
          <coordinates>
           -36.17297951324700,-9.62973967289342 -36.16590742274573,-9.63295022599657 -36.16611490826620,-9.63264330960093 -36.16614591886722,-9.63260850462439 -36.16618242220174,-9.63258664352523 -36.16621790585217,-9.63257104809158 -36.16624156182589,-9.63256177936814 -36.16628211753446,-9.63254644224050 -36.16632572932587,-9.63253216680232 -36.16637472233441,-9.63251578349766 -36.16642671599969,-9.63249998982498 -36.16647736386937,-9.63248528112321 -36.16653340576165,-9.63246813738928 -36.16658974485050,-9.63244696254292 -36.16664864913865,-9.63242187718296 -36.16670705488980,-9.63239335512029 -36.16675762672200,-9.63236187335655 -36.16680822761040,-9.63232938067863 -36.16686187234079,-9.63228741485449 -36.16690967982616,-9.63225216305843 -36.16695364460311,-9.63221551729191 -36.16699623283266,-9.63217738855377 -36.16703551547233,-9.63213890268665 -36.16707347380795,-9.63209841185051 -36.16711683251750,-9.63206115568167 -36.16716677262529,-9.63201706111138 -36.16722156573720,-9.63197571171408 -36.16727799126834,-9.63193295457127 -36.16734128310444,-9.63189087819548 -36.16736994673070,-9.63187036529544 -36.16743500141708,-9.63183007854852 -36.16749689228603,-9.63179128179377 -36.16756104408179,-9.63175362098550 -36.16762358088319,-9.63171887236668 -36.16768233165285,-9.63167710223096 -36.16773922190371,-9.63163618416578 -36.16779347028366,-9.63159042477860 -36.16784637023952,-9.63154366845181 -36.16790041720855,-9.63149556196687 -36.16794726060185,-9.63145288511591 -36.16799630761643,-9.63141034239054 -36.16803953412859,-9.63137263017646 -36.16808664263960,-9.63133674110782 -36.16813538892317,-9.63129587041324 -36.16818203669926,-9.63125956628242 -36.16822873086232,-9.63122378721266 -36.16827535943759,-9.63118969286365 -36.16832113364129,-9.63115884322929 -36.16837432303172,-9.63113127788751 -36.16842806753846,-9.63110365406141 -36.16848215729111,-9.63107867396178 -36.16853299824926,-9.63105493594394 -36.16858704823510,-9.63103313115621 -36.16863760114367,-9.63101934357894 -36.16868555900423,-9.63100707502308 -36.16873117938472,-9.63099899088564 -36.16876924792925,-9.63098931040026 -36.16881825919621,-9.63097563533028 -36.16886561158243,-9.63095319527926 -36.16891742751648,-9.63092954992064 -36.16896719648182,-9.63090695361563 -36.16902100517198,-9.63088539076023 -36.16906035007634,-9.63086108981138 -36.16908852541136,-9.63083240639741 -36.16911958553672,-9.63080281330335 -36.16915903392480,-9.63076980114773 -36.16920258694236,-9.63074172951672 -36.16924957606570,-9.63071683880236 -36.16929871476534,-9.63069326915509 -36.16935207231694,-9.63067765274339 -36.16940748664575,-9.63066571943307 -36.16947110135906,-9.63066251754681 -36.16953764411373,-9.63065561372237 -36.16960366869398,-9.63063280529770 -36.16966640787200,-9.63059659162806 -36.16972333931983,-9.63055145151408 -36.16978135669502,-9.63050030059451 -36.16983446887041,-9.63044944915182 -36.16988762242133,-9.63039935097444 -36.16993802609597,-9.63035371960726 -36.16999033059454,-9.63031218717934 -36.17004512086354,-9.63027575451545 -36.17009437293502,-9.63024551093560 -36.17014702090257,-9.63021915200049 -36.17020422818999,-9.63019693166805 -36.17027228756079,-9.63017249761912 -36.17034299343247,-9.63014734976020 -36.17041775627389,-9.63012087477618 -36.17049698095828,-9.63009319013319 -36.17058244332937,-9.63006391837805 -36.17066721910561,-9.63002927297240 -36.17075163895690,-9.62999541262581 -36.17083475918259,-9.62995769247356 -36.17092970832991,-9.62991553962709 -36.17115381003036,-9.62981572445675 -36.17123832418341,-9.62977893666024 -36.17131016266167,-9.62974821034543 -36.17138100761485,-9.62971762487042 -36.17144887167011,-9.62969081029033 -36.17150119037705,-9.62966886085149 -36.17154271920591,-9.62965432679113 -36.17157137570448,-9.62964571669410 -36.17160530974737,-9.62963822596854 -36.17214182710483,-9.62958792014697 -36.17228453839353,-9.62957068325383 -36.17276173318675,-9.62951001712394 -36.17297951324700,-9.62973967289342
          </coordinates>
        </LinearRing>
      </outerBoundaryIs>
    </Polygon>
  </Placemark>
</Document>
</kml>
