<?xml version="1.0" encoding="UTF-8"?>
<kml xmlns="http://www.opengis.net/kml/2.2" xmlns:gx="http://www.google.com/kml/ext/2.2" xmlns:kml="http://www.opengis.net/kml/2.2" xmlns:atom="http://www.w3.org/2005/Atom">
<Document>
  <name>1028.kml</name>
  <StyleMap id="FF0040FF">
    <Pair>
      <key>normal</key>
      <styleUrl>#s_FF0040FF</styleUrl>
    </Pair>
    <Pair>
      <key>highlight</key>
      <styleUrl>#s_FF0040FF_hl</styleUrl>
    </Pair>
  </StyleMap>
  <Style id="s_FF0040FF">
   <IconStyle>
      <scale>1.1</scale>
      <Icon>
        <href>http://maps.google.com/mapfiles/kml/pushpin/agrocad.png</href>
      </Icon>
      <hotSpot x="20" y="2" xunits="pixels" yunits="pixels"/>
    </IconStyle>
    <LineStyle>
      <color>FF0040FF</color>
      <width>1</width>
    </LineStyle>
    <PolyStyle>
      <color>40ffffff</color>
      <fill>1</fill>
    </PolyStyle>
  </Style>
  <Style id="s_FF0040FF_hl">
    <IconStyle>
      <scale>1.3</scale>
      <Icon>
        <href>http://maps.google.com/mapfiles/kml/pushpin/agrocad.png</href>
      </Icon>
      <hotSpot x="20" y="2" xunits="pixels" yunits="pixels"/>
    </IconStyle>
    <LineStyle>
      <color>ff000000</color>
      <width>1</width>
    </LineStyle>
    <PolyStyle>
      <color>40ffffff</color>
      <fill>1</fill>
    </PolyStyle>
  </Style>
  <Placemark>
    <name>AgroCAD: 7DDE</name>
    <styleUrl>FF0040FF</styleUrl>
    <Polygon>
      <outerBoundaryIs>
        <LinearRing>
          <coordinates>
           -36.17431903429196,-9.65006984858794 -36.17425384318092,-9.64994522386571 -36.17418344123656,-9.64978006442126 -36.17415452401436,-9.64970732219903 -36.17410795262553,-9.64955984053238 -36.17418124984766,-9.64952292525459 -36.17431683790310,-9.64945154358794 -36.17448080456961,-9.64936505469905 -36.17457176095842,-9.64931352497685 -36.17485854568037,-9.64913394331018 -36.17501393734689,-9.64903242942132 -36.17517573401340,-9.64892922719910 -36.17533653567991,-9.64882528831021 -36.17541618373540,-9.64877374247690 -36.17556707095747,-9.64868623025468 -36.17569098401291,-9.64892032886579 -36.17579624179059,-9.64911408192135 -36.17591485040156,-9.64932356997692 -36.17612929345690,-9.64971369303248 -36.17631306567894,-9.65005121192139 -36.17646786762322,-9.65033848219917 -36.17670565317855,-9.65076464942142 -36.17684375706728,-9.65101876886586 -36.17697788678937,-9.65126457914365 -36.17708752123370,-9.65146108414365 -36.17726777790019,-9.65178407608811 -36.17732661456680,-9.65188980719921 -36.17731984067791,-9.65189770386589 -36.17725586428909,-9.65198558636588 -36.17718323401137,-9.65208301164365 -36.17711196706699,-9.65217859136587 -36.17704351790039,-9.65227593803254 -36.17697088540046,-9.65237269108809 -36.17690085928940,-9.65245831386587 -36.17684416067832,-9.65253187303253 -36.17679089262285,-9.65259728414364 -36.17672582040068,-9.65266779331029 -36.17665981845629,-9.65273827858808 -36.17661741206744,-9.65278273969917 -36.17658923123415,-9.65281642414362 -36.17640769790098,-9.65285678442139 -36.17627742929000,-9.65288823025471 -36.17587076401259,-9.65298565692135 -36.17551394567961,-9.65306716358800 -36.17520377429102,-9.65314439247686 -36.17478494540254,-9.65325202636574 -36.17453188929167,-9.65331266719905 -36.17432183429187,-9.65336197581014 -36.17421216901420,-9.65338885303236 -36.17411731984761,-9.65340602331015 -36.17403694984770,-9.65342091331013 -36.17394952123667,-9.65343340886569 -36.17386859401452,-9.65344494525457 -36.17376094818128,-9.65345869608789 -36.17361848012587,-9.65347473581010 -36.17349012373710,-9.65348331553233 -36.17347154790379,-9.65348253275454 -36.17338640568166,-9.65344560136565 -36.17329806207062,-9.65341894358787 -36.17314590095966,-9.65335568942120 -36.17306047179308,-9.65330932553230 -36.17288660457103,-9.65319834442118 -36.17271094707120,-9.65308589442116 -36.17252902151584,-9.65297505581006 -36.17243461818258,-9.65292162053227 -36.17226877984942,-9.65282004969892 -36.17221854540503,-9.65278569747669 -36.17219197290506,-9.65273947747669 -36.17224955373833,-9.65260017053226 -36.17233827068270,-9.65252085247671 -36.17243832262704,-9.65243264997671 -36.17255956790472,-9.65232290886560 -36.17276790484896,-9.65213068053227 -36.17288020707108,-9.65204425858785 -36.17294498762657,-9.65201064719895 -36.17315609068192,-9.65192010664341 -36.17324215929296,-9.65187414081009 -36.17332695651511,-9.65183307386564 -36.17341114873724,-9.65179740247677 -36.17351543957048,-9.65175884414344 -36.17373094484804,-9.65168421303234 -36.17383596734795,-9.65164334164345 -36.17393956790339,-9.65159839108792 -36.17405115679217,-9.65154603247681 -36.17413970734765,-9.65150169442127 -36.17422363762536,-9.65146248386571 -36.17430757095860,-9.65142390608793 -36.17435532984745,-9.65137670192128 -36.17439463290296,-9.65130164581017 -36.17445839318069,-9.65114097942128 -36.17451213123621,-9.65097396497684 -36.17454181040284,-9.65088787525462 -36.17458815068057,-9.65073009608795 -36.17459072401391,-9.65065764497684 -36.17457243262503,-9.65057122886573 -36.17447965873625,-9.65036894914351 -36.17440269679189,-9.65022206275460 -36.17431903429196,-9.65006984858794
          </coordinates>
        </LinearRing>
      </outerBoundaryIs>
    </Polygon>
  </Placemark>
</Document>
</kml>
