<?xml version="1.0" encoding="UTF-8"?>
<kml xmlns="http://www.opengis.net/kml/2.2" xmlns:gx="http://www.google.com/kml/ext/2.2" xmlns:kml="http://www.opengis.net/kml/2.2" xmlns:atom="http://www.w3.org/2005/Atom">
<Document>
  <name>1020.kml</name>
  <StyleMap id="FF0040FF">
    <Pair>
      <key>normal</key>
      <styleUrl>#s_FF0040FF</styleUrl>
    </Pair>
    <Pair>
      <key>highlight</key>
      <styleUrl>#s_FF0040FF_hl</styleUrl>
    </Pair>
  </StyleMap>
  <Style id="s_FF0040FF">
   <IconStyle>
      <scale>1.1</scale>
      <Icon>
        <href>http://maps.google.com/mapfiles/kml/pushpin/agrocad.png</href>
      </Icon>
      <hotSpot x="20" y="2" xunits="pixels" yunits="pixels"/>
    </IconStyle>
    <LineStyle>
      <color>FF0040FF</color>
      <width>1</width>
    </LineStyle>
    <PolyStyle>
      <color>40ffffff</color>
      <fill>1</fill>
    </PolyStyle>
  </Style>
  <Style id="s_FF0040FF_hl">
    <IconStyle>
      <scale>1.3</scale>
      <Icon>
        <href>http://maps.google.com/mapfiles/kml/pushpin/agrocad.png</href>
      </Icon>
      <hotSpot x="20" y="2" xunits="pixels" yunits="pixels"/>
    </IconStyle>
    <LineStyle>
      <color>ff000000</color>
      <width>1</width>
    </LineStyle>
    <PolyStyle>
      <color>40ffffff</color>
      <fill>1</fill>
    </PolyStyle>
  </Style>
  <Placemark>
    <name>AgroCAD: 7DF8</name>
    <styleUrl>FF0040FF</styleUrl>
    <Polygon>
      <outerBoundaryIs>
        <LinearRing>
          <coordinates>
           -36.18170466685452,-9.64119538027985 -36.18171644319622,-9.64118587677125 -36.18179061491929,-9.64113920048330 -36.18207800960821,-9.64098071257555 -36.18239845016342,-9.64080771681024 -36.18256933277798,-9.64071767128550 -36.18277987495780,-9.64060474891017 -36.18299005269939,-9.64048908618237 -36.18312576976599,-9.64041460519191 -36.18313281664033,-9.64043564777757 -36.18316522773726,-9.64052815912235 -36.18320845010258,-9.64063236615407 -36.18325111630622,-9.64074598922268 -36.18329934060020,-9.64086696584584 -36.18333311606247,-9.64095318355099 -36.18337083491518,-9.64105453343817 -36.18340690652855,-9.64115274980575 -36.18343419753328,-9.64122966035673 -36.18348602510717,-9.64137106018500 -36.18349553944750,-9.64139977757513 -36.18351108526724,-9.64143631181679 -36.18352566464081,-9.64147688966622 -36.18354005277369,-9.64151966769187 -36.18355485961584,-9.64155993393457 -36.18356821916311,-9.64159999549523 -36.18360199940893,-9.64169850992658 -36.18360960580088,-9.64171719142059 -36.18363665771966,-9.64178616051696 -36.18366186473717,-9.64185419611991 -36.18369415044423,-9.64193020978620 -36.18370853779549,-9.64196770105197 -36.18372502511688,-9.64200607848692 -36.18374170618858,-9.64204536514518 -36.18376148805420,-9.64208412406905 -36.18378097217818,-9.64212229920837 -36.18380246415850,-9.64216121356699 -36.18382150710538,-9.64219267613273 -36.18384497144803,-9.64222687107452 -36.18387140322310,-9.64226261862503 -36.18389517973693,-9.64229513900394 -36.18389200893658,-9.64229506087666 -36.18380967263466,-9.64229231023992 -36.18372369873751,-9.64228327166498 -36.18364194304043,-9.64226667504322 -36.18354706930343,-9.64224099082977 -36.18346344342291,-9.64221749371226 -36.18336633366637,-9.64218651080888 -36.18327612230673,-9.64215472792660 -36.18320017649338,-9.64212133341246 -36.18311467459661,-9.64208318609022 -36.18302007635479,-9.64203112784321 -36.18293073155270,-9.64198428094175 -36.18282790115862,-9.64192220887094 -36.18273155160818,-9.64186769999058 -36.18263819357198,-9.64180608594063 -36.18255055586342,-9.64174917070139 -36.18244335201255,-9.64168219000467 -36.18231601991775,-9.64160083444439 -36.18217114295671,-9.64150135888776 -36.18202941788398,-9.64140960141044 -36.18189146605707,-9.64132118022888 -36.18176885466531,-9.64124123824602 -36.18170466685449,-9.64119538027985 -36.18170466685452,-9.64119538027985
          </coordinates>
        </LinearRing>
      </outerBoundaryIs>
    </Polygon>
  </Placemark>
</Document>
</kml>
