<?xml version="1.0" encoding="UTF-8"?>
<kml xmlns="http://www.opengis.net/kml/2.2" xmlns:gx="http://www.google.com/kml/ext/2.2" xmlns:kml="http://www.opengis.net/kml/2.2" xmlns:atom="http://www.w3.org/2005/Atom">
<Document>
  <name>1008.kml</name>
  <StyleMap id="FF0040FF">
    <Pair>
      <key>normal</key>
      <styleUrl>#s_FF0040FF</styleUrl>
    </Pair>
    <Pair>
      <key>highlight</key>
      <styleUrl>#s_FF0040FF_hl</styleUrl>
    </Pair>
  </StyleMap>
  <Style id="s_FF0040FF">
   <IconStyle>
      <scale>1.1</scale>
      <Icon>
        <href>http://maps.google.com/mapfiles/kml/pushpin/agrocad.png</href>
      </Icon>
      <hotSpot x="20" y="2" xunits="pixels" yunits="pixels"/>
    </IconStyle>
    <LineStyle>
      <color>FF0040FF</color>
      <width>1</width>
    </LineStyle>
    <PolyStyle>
      <color>40ffffff</color>
      <fill>1</fill>
    </PolyStyle>
  </Style>
  <Style id="s_FF0040FF_hl">
    <IconStyle>
      <scale>1.3</scale>
      <Icon>
        <href>http://maps.google.com/mapfiles/kml/pushpin/agrocad.png</href>
      </Icon>
      <hotSpot x="20" y="2" xunits="pixels" yunits="pixels"/>
    </IconStyle>
    <LineStyle>
      <color>ff000000</color>
      <width>1</width>
    </LineStyle>
    <PolyStyle>
      <color>40ffffff</color>
      <fill>1</fill>
    </PolyStyle>
  </Style>
  <Placemark>
    <name>AgroCAD: 7DD0</name>
    <styleUrl>FF0040FF</styleUrl>
    <Polygon>
      <outerBoundaryIs>
        <LinearRing>
          <coordinates>
           -36.18559854205943,-9.63561686386640 -36.18554637261504,-9.63555973136640 -36.18548902678174,-9.63550533914416 -36.18544023511514,-9.63545370914417 -36.18542052205960,-9.63542899192195 -36.18537775178185,-9.63537748969973 -36.18533031205970,-9.63532371858860 -36.18530664317083,-9.63529385386636 -36.18528344900418,-9.63526359692193 -36.18525033233755,-9.63521364247749 -36.18517371872651,-9.63512251247749 -36.18513009372654,-9.63506180525526 -36.18508099928216,-9.63500009581082 -36.18502768400443,-9.63493291358859 -36.18497906372669,-9.63486726469968 -36.18495048983784,-9.63483606553303 -36.18490778900454,-9.63477733525525 -36.18488519928235,-9.63474610719969 -36.18482092206019,-9.63464286386636 -36.18479420206021,-9.63461388608857 -36.18474877928248,-9.63455692497746 -36.18472865178250,-9.63452470303301 -36.18465434567147,-9.63442526164412 -36.18460410872707,-9.63437119747745 -36.18453585817158,-9.63428956858857 -36.18448096900496,-9.63423659053300 -36.18442523094947,-9.63419123553300 -36.18440197428283,-9.63416812775521 -36.18438698428283,-9.63414104331077 -36.18440163122727,-9.63409928831077 -36.18441624344948,-9.63407120219966 -36.18445228511613,-9.63401089414411 -36.18446813900499,-9.63397704108855 -36.18449244428274,-9.63392824414412 -36.18450497372718,-9.63390959164411 -36.18452475456049,-9.63390528747745 -36.18455226844936,-9.63390725136635 -36.18458202567155,-9.63391177053301 -36.18461045622708,-9.63392223803302 -36.18464071039370,-9.63393225192190 -36.18467015094925,-9.63392789108855 -36.18469706983811,-9.63391030053301 -36.18472764844918,-9.63389238025523 -36.18475985456027,-9.63387363692190 -36.18479413733802,-9.63384981414413 -36.18484837122686,-9.63380551247747 -36.18491210344902,-9.63375480664412 -36.18497182650453,-9.63370159442193 -36.18502763289335,-9.63365016969970 -36.18508139844887,-9.63359593442193 -36.18511164650439,-9.63356929525526 -36.18516518011546,-9.63351180581081 -36.18519166650432,-9.63348561692193 -36.18524572400426,-9.63343606331082 -36.18527071928202,-9.63340669719971 -36.18532577872641,-9.63335025469972 -36.18535206983751,-9.63332142247750 -36.18538053428193,-9.63329649997750 -36.18541551427029,-9.63326233138382 -36.18542033039299,-9.63326846969972 -36.18544514955965,-9.63330522608862 -36.18546923594851,-9.63334176275527 -36.18549173289293,-9.63338011275529 -36.18552149094845,-9.63342743831085 -36.18554237900398,-9.63347354136640 -36.18555757733730,-9.63351059414418 -36.18557131483729,-9.63355081997750 -36.18558560650394,-9.63359214636640 -36.18559816233727,-9.63363404803307 -36.18561178205948,-9.63367759247751 -36.18562570178168,-9.63372157942196 -36.18563938483723,-9.63376481025529 -36.18565505872609,-9.63381001053308 -36.18566940178162,-9.63385402331084 -36.18568505122606,-9.63389546914418 -36.18569966400382,-9.63393760914418 -36.18571607761492,-9.63397827386641 -36.18573168400379,-9.63402040553307 -36.18576495317042,-9.63410811692197 -36.18578217178151,-9.63415081192198 -36.18580079511482,-9.63419296108864 -36.18582074483703,-9.63423507692196 -36.18583987400369,-9.63427159192197 -36.18585768539256,-9.63431038525530 -36.18587360705920,-9.63434895108864 -36.18589287483696,-9.63438529747753 -36.18591182455916,-9.63442079664420 -36.18593581900358,-9.63445442053308 -36.18596142094800,-9.63448944469975 -36.18598617900354,-9.63452501108864 -36.18601267094794,-9.63455985164421 -36.18603759289238,-9.63459295192198 -36.18606488900346,-9.63462745442199 -36.18609153428121,-9.63466252886643 -36.18611850928119,-9.63469796164421 -36.18614567844783,-9.63473361219975 -36.18617137539223,-9.63477026969977 -36.18619567844779,-9.63480406997754 -36.18622028900330,-9.63484126442200 -36.18624720066995,-9.63487998581087 -36.18627337233660,-9.63491904969977 -36.18628544233658,-9.63493743164421 -36.18629735761434,-9.63496177053311 -36.18631797289210,-9.63499994331088 -36.18633972566986,-9.63503843747756 -36.18636068928092,-9.63507833164421 -36.18638369233649,-9.63511883775532 -36.18640509650312,-9.63515925581089 -36.18642824816976,-9.63519682608867 -36.18647517372527,-9.63527706553311 -36.18649748455858,-9.63531734858868 -36.18651889566967,-9.63535740886645 -36.18654025900300,-9.63539897164422 -36.18655444928074,-9.63542290414422 -36.18654385205854,-9.63543480914422 -36.18648629316970,-9.63548738219978 -36.18642130566975,-9.63554956831088 -36.18635417066982,-9.63561772108866 -36.18628660872544,-9.63568824831089 -36.18621673872549,-9.63575832164420 -36.18613992650337,-9.63582794303310 -36.18606948872564,-9.63588429525532 -36.18594593622576,-9.63598613775531 -36.18590562844801,-9.63604472497753 -36.18588164539248,-9.63611465164419 -36.18587731483692,-9.63614487858864 -36.18586102317026,-9.63612318414419 -36.18584174344807,-9.63609281414419 -36.18581051733699,-9.63602720469974 -36.18577999817035,-9.63595379553307 -36.18574819039260,-9.63588280358863 -36.18573256205929,-9.63584681553309 -36.18571435761486,-9.63581116081085 -36.18567815733713,-9.63574684831085 -36.18564625039271,-9.63568001386639 -36.18562366817051,-9.63564757442196 -36.18559854205943,-9.63561686386640
          </coordinates>
        </LinearRing>
      </outerBoundaryIs>
    </Polygon>
  </Placemark>
</Document>
</kml>
