<?xml version="1.0" encoding="UTF-8"?>
<kml xmlns="http://www.opengis.net/kml/2.2" xmlns:gx="http://www.google.com/kml/ext/2.2" xmlns:kml="http://www.opengis.net/kml/2.2" xmlns:atom="http://www.w3.org/2005/Atom">
<Document>
  <name>1022.kml</name>
  <StyleMap id="FF0040FF">
    <Pair>
      <key>normal</key>
      <styleUrl>#s_FF0040FF</styleUrl>
    </Pair>
    <Pair>
      <key>highlight</key>
      <styleUrl>#s_FF0040FF_hl</styleUrl>
    </Pair>
  </StyleMap>
  <Style id="s_FF0040FF">
   <IconStyle>
      <scale>1.1</scale>
      <Icon>
        <href>http://maps.google.com/mapfiles/kml/pushpin/agrocad.png</href>
      </Icon>
      <hotSpot x="20" y="2" xunits="pixels" yunits="pixels"/>
    </IconStyle>
    <LineStyle>
      <color>FF0040FF</color>
      <width>1</width>
    </LineStyle>
    <PolyStyle>
      <color>40ffffff</color>
      <fill>1</fill>
    </PolyStyle>
  </Style>
  <Style id="s_FF0040FF_hl">
    <IconStyle>
      <scale>1.3</scale>
      <Icon>
        <href>http://maps.google.com/mapfiles/kml/pushpin/agrocad.png</href>
      </Icon>
      <hotSpot x="20" y="2" xunits="pixels" yunits="pixels"/>
    </IconStyle>
    <LineStyle>
      <color>ff000000</color>
      <width>1</width>
    </LineStyle>
    <PolyStyle>
      <color>40ffffff</color>
      <fill>1</fill>
    </PolyStyle>
  </Style>
  <Placemark>
    <name>AgroCAD: 7DD7</name>
    <styleUrl>FF0040FF</styleUrl>
    <Polygon>
      <outerBoundaryIs>
        <LinearRing>
          <coordinates>
           -36.18252500595103,-9.64223639469954 -36.18249922011770,-9.64220578664399 -36.18247338400663,-9.64218513025509 -36.18240950122891,-9.64208276775509 -36.18238395928450,-9.64205843358841 -36.18233878622899,-9.64199719442175 -36.18230989039568,-9.64196936192175 -36.18224626539573,-9.64191466386619 -36.18223074234020,-9.64188008747730 -36.18220527706245,-9.64185193247729 -36.18216416928471,-9.64183220247731 -36.18212480428475,-9.64178799747729 -36.18208642011812,-9.64173456942173 -36.18205753928481,-9.64171437108841 -36.18202917039595,-9.64168806108840 -36.18196805928489,-9.64163754636615 -36.18192015845162,-9.64158221608840 -36.18189181678497,-9.64155943775507 -36.18185434261834,-9.64155523525506 -36.18181664734060,-9.64154788719950 -36.18178086984065,-9.64153180025506 -36.18170892095181,-9.64149436747727 -36.18168122039629,-9.64147298358839 -36.18164988011854,-9.64144772719949 -36.18162133663687,-9.64141222307912 -36.18163094595192,-9.64139437136617 -36.18165241511854,-9.64135289442172 -36.18167361845186,-9.64131076775505 -36.18169489984074,-9.64126929886616 -36.18170598567405,-9.64124779414394 -36.18174202317401,-9.64127354081061 -36.18186540317390,-9.64135398386616 -36.18200340428488,-9.64144243664397 -36.18214464456251,-9.64153387997729 -36.18228961178460,-9.64163341775509 -36.18241760789559,-9.64171519747731 -36.18252469678437,-9.64178210636620 -36.18261195400651,-9.64183877442177 -36.18270624261752,-9.64190100275511 -36.18280323150633,-9.64195587331067 -36.18290656067289,-9.64201824664401 -36.18299655233946,-9.64206543247735 -36.18309216372825,-9.64211804831070 -36.18317914817263,-9.64215685719958 -36.18325644900588,-9.64219084747736 -36.18334848039469,-9.64222327164403 -36.18344672095015,-9.64225461525515 -36.18353113095005,-9.64227833275515 -36.18362730733885,-9.64230436969961 -36.18371193289433,-9.64232154886628 -36.18380095289424,-9.64233090775517 -36.18388475872750,-9.64233370747740 -36.18395540872743,-9.64233544831073 -36.18402505622738,-9.64233883219963 -36.18409899400508,-9.64233969108852 -36.18416585956055,-9.64233948358853 -36.18430017928267,-9.64234701108854 -36.18429252789378,-9.64238903331077 -36.18426910456046,-9.64251986608851 -36.18425290372716,-9.64261363664408 -36.18423511789384,-9.64271690414410 -36.18422447594940,-9.64279753719965 -36.18420428956051,-9.64295672831075 -36.18418380594942,-9.64313702275519 -36.18416407650498,-9.64331251219964 -36.18414976483834,-9.64342847414407 -36.18413853094946,-9.64351012997740 -36.18412442344946,-9.64362788275519 -36.18410769622725,-9.64375095192186 -36.18408739650505,-9.64384756053294 -36.18406355594950,-9.64391782664407 -36.18402556567176,-9.64396767414407 -36.18395581206072,-9.64403177858851 -36.18386279594969,-9.64409568636629 -36.18377817372754,-9.64414299303294 -36.18369696178318,-9.64417828469960 -36.18361750678326,-9.64421164636627 -36.18353623928334,-9.64424736247738 -36.18346194511674,-9.64427939164405 -36.18341352428345,-9.64430131469958 -36.18339757761680,-9.64427619247738 -36.18337402650571,-9.64423568553292 -36.18335020872796,-9.64419660608847 -36.18332662789464,-9.64415936442180 -36.18330178011688,-9.64412058275514 -36.18325050983917,-9.64403746525513 -36.18322292039475,-9.64399736025513 -36.18319488067256,-9.64395918581069 -36.18318684678367,-9.64394597942180 -36.18317188011701,-9.64393204803291 -36.18325942622806,-9.64393215525514 -36.18330415317245,-9.64393233164403 -36.18339346511682,-9.64393873997736 -36.18343827567231,-9.64394259553291 -36.18353161511668,-9.64394699358848 -36.18357726344997,-9.64394714969959 -36.18366048761655,-9.64394271803294 -36.18371895956094,-9.64393461692183 -36.18373858678314,-9.64386324442182 -36.18376078678313,-9.64378447386628 -36.18378241622756,-9.64370536914405 -36.18377868511645,-9.64366882692183 -36.18375672261648,-9.64363419581072 -36.18366923317211,-9.64353168664405 -36.18345313650565,-9.64334566219959 -36.18341800511680,-9.64331909358848 -36.18332906678356,-9.64323453108848 -36.18325114178364,-9.64315892553291 -36.18319750872813,-9.64310954358847 -36.18314384011708,-9.64306662081069 -36.18302866428385,-9.64295521803290 -36.18293937483950,-9.64286942192179 -36.18290757650619,-9.64283847136622 -36.18284203983960,-9.64276797914401 -36.18281434706183,-9.64273466969956 -36.18276314706189,-9.64265383719956 -36.18269586372862,-9.64254954108844 -36.18266910011755,-9.64248458192177 -36.18263334261757,-9.64240913386621 -36.18260090761761,-9.64233246442177 -36.18255348039543,-9.64226079969954 -36.18252500595103,-9.64223639469954
          </coordinates>
        </LinearRing>
      </outerBoundaryIs>
    </Polygon>
  </Placemark>
</Document>
</kml>
