<?xml version="1.0" encoding="UTF-8"?>
<kml xmlns="http://www.opengis.net/kml/2.2" xmlns:gx="http://www.google.com/kml/ext/2.2" xmlns:kml="http://www.opengis.net/kml/2.2" xmlns:atom="http://www.w3.org/2005/Atom">
<Document>
  <name>1006.kml</name>
  <StyleMap id="FF0040FF">
    <Pair>
      <key>normal</key>
      <styleUrl>#s_FF0040FF</styleUrl>
    </Pair>
    <Pair>
      <key>highlight</key>
      <styleUrl>#s_FF0040FF_hl</styleUrl>
    </Pair>
  </StyleMap>
  <Style id="s_FF0040FF">
   <IconStyle>
      <scale>1.1</scale>
      <Icon>
        <href>http://maps.google.com/mapfiles/kml/pushpin/agrocad.png</href>
      </Icon>
      <hotSpot x="20" y="2" xunits="pixels" yunits="pixels"/>
    </IconStyle>
    <LineStyle>
      <color>FF0040FF</color>
      <width>1</width>
    </LineStyle>
    <PolyStyle>
      <color>40ffffff</color>
      <fill>1</fill>
    </PolyStyle>
  </Style>
  <Style id="s_FF0040FF_hl">
    <IconStyle>
      <scale>1.3</scale>
      <Icon>
        <href>http://maps.google.com/mapfiles/kml/pushpin/agrocad.png</href>
      </Icon>
      <hotSpot x="20" y="2" xunits="pixels" yunits="pixels"/>
    </IconStyle>
    <LineStyle>
      <color>ff000000</color>
      <width>1</width>
    </LineStyle>
    <PolyStyle>
      <color>40ffffff</color>
      <fill>1</fill>
    </PolyStyle>
  </Style>
  <Placemark>
    <name>AgroCAD: 7DCD</name>
    <styleUrl>FF0040FF</styleUrl>
    <Polygon>
      <outerBoundaryIs>
        <LinearRing>
          <coordinates>
           -36.18380733233875,-9.64006256469961 -36.18397826178303,-9.63996663719963 -36.18418666317174,-9.63985373386631 -36.18442883956040,-9.63972325247744 -36.18468962567127,-9.63958208331080 -36.18483455289335,-9.63949590247746 -36.18497912039322,-9.63942316108857 -36.18511158261532,-9.63935184247747 -36.18524292872630,-9.63928374386638 -36.18562458789262,-9.63907879025527 -36.18587208983684,-9.63894583303308 -36.18616930733657,-9.63878822886642 -36.18650286705848,-9.63860763581089 -36.18678796122487,-9.63845193969979 -36.18694059428030,-9.63836997831092 -36.18711283289127,-9.63828177636648 -36.18715885400233,-9.63825506303314 -36.18723843289112,-9.63820982664427 -36.18748412761313,-9.63807989247762 -36.18761721094633,-9.63800565442208 -36.18776699483508,-9.63792702164430 -36.18794734261269,-9.63782888803319 -36.18816166622359,-9.63771350803320 -36.18833247789011,-9.63762021914433 -36.18839361733451,-9.63758331108877 -36.18842444626347,-9.63756424948674 -36.18845809761224,-9.63759031442211 -36.18852646038993,-9.63764367303322 -36.18855716955657,-9.63767180414433 -36.18862061733428,-9.63772991247765 -36.18868468844535,-9.63779135219989 -36.18874592177861,-9.63785152275546 -36.18877722400080,-9.63788222136659 -36.18883577538964,-9.63794274164436 -36.18888709705625,-9.63800196331103 -36.18894463677842,-9.63806439692213 -36.18900366622283,-9.63813071942215 -36.18906188316719,-9.63819798831104 -36.18912062594492,-9.63826597942215 -36.18917764594486,-9.63833400886661 -36.18920104622261,-9.63836276414438 -36.18914664288933,-9.63839463942216 -36.18878853094522,-9.63858836803325 -36.18858958038984,-9.63869357747767 -36.18802992177926,-9.63899795108875 -36.18773083205731,-9.63916000608874 -36.18754621955749,-9.63926015136650 -36.18713644844675,-9.63948100886647 -36.18665578955829,-9.63974112914425 -36.18634864150303,-9.63990876553310 -36.18605059455886,-9.64006847664419 -36.18571338761473,-9.64024851386639 -36.18534416678174,-9.64044621303304 -36.18495803344875,-9.64065630942192 -36.18461246233798,-9.64084353553300 -36.18439795928262,-9.64095702331077 -36.18422305594943,-9.64105216636630 -36.18403785456071,-9.64115330914408 -36.18386696150533,-9.64124531442184 -36.18373680317212,-9.64131657719961 -36.18365971067219,-9.64135803219960 -36.18357744956115,-9.64140270692183 -36.18353772178342,-9.64142307525514 -36.18352348178343,-9.64138960997739 -36.18351425595011,-9.64136176358849 -36.18346229817237,-9.64122000831071 -36.18343500317241,-9.64114308692182 -36.18339883678356,-9.64104461219960 -36.18336098372804,-9.64094290164404 -36.18332705706141,-9.64085629831070 -36.18327892706147,-9.64073555803291 -36.18323617317261,-9.64062170164403 -36.18319310400599,-9.64051786414402 -36.18316110928381,-9.64042654136625 -36.18315200039493,-9.64039934081069 -36.18320064678376,-9.64037264358847 -36.18333110150587,-9.64030306303291 -36.18351691233903,-9.64020952747739 -36.18362123122782,-9.64015915664405 -36.18370014956106,-9.64012378942183 -36.18380733233875,-9.64006256469961
          </coordinates>
        </LinearRing>
      </outerBoundaryIs>
    </Polygon>
  </Placemark>
</Document>
</kml>
