<?xml version="1.0" encoding="UTF-8"?>
<kml xmlns="http://www.opengis.net/kml/2.2" xmlns:gx="http://www.google.com/kml/ext/2.2" xmlns:kml="http://www.opengis.net/kml/2.2" xmlns:atom="http://www.w3.org/2005/Atom">
<Document>
  <name>1035.kml</name>
  <StyleMap id="FF0040FF">
    <Pair>
      <key>normal</key>
      <styleUrl>#s_FF0040FF</styleUrl>
    </Pair>
    <Pair>
      <key>highlight</key>
      <styleUrl>#s_FF0040FF_hl</styleUrl>
    </Pair>
  </StyleMap>
  <Style id="s_FF0040FF">
   <IconStyle>
      <scale>1.1</scale>
      <Icon>
        <href>http://maps.google.com/mapfiles/kml/pushpin/agrocad.png</href>
      </Icon>
      <hotSpot x="20" y="2" xunits="pixels" yunits="pixels"/>
    </IconStyle>
    <LineStyle>
      <color>FF0040FF</color>
      <width>1</width>
    </LineStyle>
    <PolyStyle>
      <color>40ffffff</color>
      <fill>1</fill>
    </PolyStyle>
  </Style>
  <Style id="s_FF0040FF_hl">
    <IconStyle>
      <scale>1.3</scale>
      <Icon>
        <href>http://maps.google.com/mapfiles/kml/pushpin/agrocad.png</href>
      </Icon>
      <hotSpot x="20" y="2" xunits="pixels" yunits="pixels"/>
    </IconStyle>
    <LineStyle>
      <color>ff000000</color>
      <width>1</width>
    </LineStyle>
    <PolyStyle>
      <color>40ffffff</color>
      <fill>1</fill>
    </PolyStyle>
  </Style>
  <Placemark>
    <name>AgroCAD: 7DE4</name>
    <styleUrl>FF0040FF</styleUrl>
    <Polygon>
      <outerBoundaryIs>
        <LinearRing>
          <coordinates>
           -36.16195191569293,-9.65096385192053 -36.16194934985959,-9.65089394553163 -36.16194663430405,-9.65084273608718 -36.16213366069275,-9.65082182942053 -36.16257262097009,-9.65076966830945 -36.16345247430256,-9.65066173886505 -36.16369220624677,-9.65063224719841 -36.16424283652400,-9.65056805414289 -36.16485708541229,-9.65049351886514 -36.16502390485659,-9.65047211053181 -36.16525757902301,-9.65044410775406 -36.16550766596721,-9.65041261275408 -36.16605084596669,-9.65034685636519 -36.16633693985529,-9.65031357247636 -36.16673178902158,-9.65026598108747 -36.16698492735466,-9.65023673692082 -36.16710691679897,-9.65022153330972 -36.16736645735427,-9.65018754803196 -36.16764905652067,-9.65014764053198 -36.16779220874275,-9.65012617525422 -36.16800635624255,-9.65010361053201 -36.16798721624256,-9.65012395747644 -36.16794290290928,-9.65018066858755 -36.16786693874268,-9.65030421247644 -36.16783363402048,-9.65036680942088 -36.16779838846497,-9.65043989580976 -36.16775805652056,-9.65052082275421 -36.16771831874281,-9.65059110358754 -36.16769284763173,-9.65062822497643 -36.16762353485402,-9.65067679636530 -36.16756908652074,-9.65070246803197 -36.16750460318747,-9.65072733719862 -36.16742936263198,-9.65075394247640 -36.16733239374319,-9.65079085164307 -36.16723460096550,-9.65083590636528 -36.16713978013225,-9.65088584997641 -36.16705135596567,-9.65093296025416 -36.16696606902131,-9.65097702636525 -36.16687872346584,-9.65100938636527 -36.16678043957706,-9.65102938858748 -36.16656888957725,-9.65105805108747 -36.16644635013293,-9.65107550914301 -36.16632880346639,-9.65108837275412 -36.16621318263315,-9.65110487692078 -36.16599779152225,-9.65113601303188 -36.16576097763361,-9.65116630969853 -36.16562250846708,-9.65118369192075 -36.16549250680054,-9.65120353775406 -36.16536967152288,-9.65122070386516 -36.16513604735643,-9.65124853664294 -36.16500238318990,-9.65126493747626 -36.16470621763463,-9.65130544830958 -36.16459256985697,-9.65132194830957 -36.16448184263486,-9.65133785275400 -36.16436340569052,-9.65135461692067 -36.16411106957966,-9.65138685330954 -36.16398753096866,-9.65140288942063 -36.16386141124659,-9.65142061025397 -36.16372072680227,-9.65144024330952 -36.16354665930245,-9.65146192747618 -36.16330026596936,-9.65149251942060 -36.16317875708058,-9.65150773886504 -36.16305197346959,-9.65152494136503 -36.16282012791426,-9.65155536275391 -36.16269874569217,-9.65157177386501 -36.16257780930340,-9.65158706414278 -36.16245424847019,-9.65160457275389 -36.16234633513695,-9.65162026636500 -36.16223990652596,-9.65163366942053 -36.16213795902605,-9.65164523469831 -36.16205371069281,-9.65165253053164 -36.16204714735948,-9.65161155608719 -36.16203563541504,-9.65154532497609 -36.16202595847062,-9.65147864275387 -36.16201624513730,-9.65140638219830 -36.16200197319285,-9.65132233803164 -36.16199250319287,-9.65126443025385 -36.16196752985957,-9.65109569414275 -36.16195191569293,-9.65096385192053
          </coordinates>
        </LinearRing>
      </outerBoundaryIs>
    </Polygon>
  </Placemark>
</Document>
</kml>
