<?xml version="1.0" encoding="UTF-8"?>
<kml xmlns="http://www.opengis.net/kml/2.2" xmlns:gx="http://www.google.com/kml/ext/2.2" xmlns:kml="http://www.opengis.net/kml/2.2" xmlns:atom="http://www.w3.org/2005/Atom">
<Document>
  <name>1007.kml</name>
  <StyleMap id="FF0040FF">
    <Pair>
      <key>normal</key>
      <styleUrl>#s_FF0040FF</styleUrl>
    </Pair>
    <Pair>
      <key>highlight</key>
      <styleUrl>#s_FF0040FF_hl</styleUrl>
    </Pair>
  </StyleMap>
  <Style id="s_FF0040FF">
   <IconStyle>
      <scale>1.1</scale>
      <Icon>
        <href>http://maps.google.com/mapfiles/kml/pushpin/agrocad.png</href>
      </Icon>
      <hotSpot x="20" y="2" xunits="pixels" yunits="pixels"/>
    </IconStyle>
    <LineStyle>
      <color>FF0040FF</color>
      <width>1</width>
    </LineStyle>
    <PolyStyle>
      <color>40ffffff</color>
      <fill>1</fill>
    </PolyStyle>
  </Style>
  <Style id="s_FF0040FF_hl">
    <IconStyle>
      <scale>1.3</scale>
      <Icon>
        <href>http://maps.google.com/mapfiles/kml/pushpin/agrocad.png</href>
      </Icon>
      <hotSpot x="20" y="2" xunits="pixels" yunits="pixels"/>
    </IconStyle>
    <LineStyle>
      <color>ff000000</color>
      <width>1</width>
    </LineStyle>
    <PolyStyle>
      <color>40ffffff</color>
      <fill>1</fill>
    </PolyStyle>
  </Style>
  <Placemark>
    <name>AgroCAD: 7DD1</name>
    <styleUrl>FF0040FF</styleUrl>
    <Polygon>
      <outerBoundaryIs>
        <LinearRing>
          <coordinates>
           -36.18654250455848,-9.63744653969979 -36.18647214344743,-9.63732885414423 -36.18638131428086,-9.63717986469978 -36.18630178900317,-9.63703991664421 -36.18624959150321,-9.63694533969976 -36.18609878039226,-9.63665177997754 -36.18600146650346,-9.63644869553308 -36.18596305039238,-9.63636661942197 -36.18591651205909,-9.63624511942198 -36.18590809261468,-9.63618678386641 -36.18591721761467,-9.63612308969975 -36.18593850205909,-9.63606103192196 -36.18597313150352,-9.63601069803308 -36.18609255150339,-9.63591226192197 -36.18616365566999,-9.63585537636643 -36.18624197678103,-9.63578438775533 -36.18631275039208,-9.63571340775532 -36.18638038816979,-9.63564280108867 -36.18644696983640,-9.63557521025534 -36.18651126539190,-9.63551368636646 -36.18657484521569,-9.63545561395309 -36.18658906483627,-9.63547754386645 -36.18661564983625,-9.63551032636645 -36.18664223122510,-9.63553964442200 -36.18666938150286,-9.63557237997756 -36.18670008094728,-9.63560418831090 -36.18673157150281,-9.63563486081090 -36.18676245011388,-9.63566624747757 -36.18679322011384,-9.63569750858869 -36.18682664066938,-9.63572929192202 -36.18686049400267,-9.63576045303315 -36.18689552483595,-9.63578961497758 -36.18692896011371,-9.63581941581092 -36.18695931539146,-9.63584888497758 -36.18699149455812,-9.63587845414427 -36.18705577233582,-9.63593780414426 -36.18708814400245,-9.63596743775537 -36.18712096678019,-9.63599695692203 -36.18715318205794,-9.63602764497759 -36.18718508011347,-9.63605805803315 -36.18725102455786,-9.63611832081094 -36.18731818150223,-9.63618144386650 -36.18738398066883,-9.63624724831094 -36.18741737233547,-9.63627834053317 -36.18747178705763,-9.63633143219983 -36.18750881372427,-9.63638065692206 -36.18753347955758,-9.63641432775540 -36.18755700511310,-9.63645166664428 -36.18759955122417,-9.63652434025540 -36.18764212927969,-9.63660336886651 -36.18768367122410,-9.63668218164430 -36.18770332039074,-9.63672126442207 -36.18774141511292,-9.63679937247763 -36.18778387483510,-9.63687777858874 -36.18782588872394,-9.63695205636653 -36.18784898650169,-9.63698874525542 -36.18789864483499,-9.63706467469986 -36.18792568372386,-9.63710022108874 -36.18795238483493,-9.63713537581097 -36.18797956539046,-9.63716838858875 -36.18799526511268,-9.63718526775542 -36.18802585844598,-9.63721725469986 -36.18805544316817,-9.63724802386651 -36.18808811455703,-9.63728077969987 -36.18812230011254,-9.63731178969987 -36.18815669011252,-9.63734479858876 -36.18820247927913,-9.63738221886655 -36.18829278816795,-9.63745381831100 -36.18832495816791,-9.63748137858878 -36.18839362685237,-9.63754072831709 -36.18837452539010,-9.63755253886655 -36.18831422761238,-9.63758893886654 -36.18814420455697,-9.63768179692209 -36.18792990594605,-9.63779716331097 -36.18774972539066,-9.63789520608874 -36.18759977177968,-9.63797392803317 -36.18746664011315,-9.63804819303317 -36.18722081511338,-9.63817819608872 -36.18714061011344,-9.63822378831092 -36.18709527789127,-9.63825010192203 -36.18701280205801,-9.63829233692203 -36.18697676261359,-9.63822284775536 -36.18688903316925,-9.63805172969980 -36.18676556678048,-9.63782474081090 -36.18665240233615,-9.63762813497756 -36.18654250455848,-9.63744653969979
          </coordinates>
        </LinearRing>
      </outerBoundaryIs>
    </Polygon>
  </Placemark>
</Document>
</kml>
