<?xml version="1.0" encoding="UTF-8"?>
<kml xmlns="http://www.opengis.net/kml/2.2" xmlns:gx="http://www.google.com/kml/ext/2.2" xmlns:kml="http://www.opengis.net/kml/2.2" xmlns:atom="http://www.w3.org/2005/Atom">
<Document>
  <name>1037.kml</name>
  <StyleMap id="FF0040FF">
    <Pair>
      <key>normal</key>
      <styleUrl>#s_FF0040FF</styleUrl>
    </Pair>
    <Pair>
      <key>highlight</key>
      <styleUrl>#s_FF0040FF_hl</styleUrl>
    </Pair>
  </StyleMap>
  <Style id="s_FF0040FF">
   <IconStyle>
      <scale>1.1</scale>
      <Icon>
        <href>http://maps.google.com/mapfiles/kml/pushpin/agrocad.png</href>
      </Icon>
      <hotSpot x="20" y="2" xunits="pixels" yunits="pixels"/>
    </IconStyle>
    <LineStyle>
      <color>FF0040FF</color>
      <width>1</width>
    </LineStyle>
    <PolyStyle>
      <color>40ffffff</color>
      <fill>1</fill>
    </PolyStyle>
  </Style>
  <Style id="s_FF0040FF_hl">
    <IconStyle>
      <scale>1.3</scale>
      <Icon>
        <href>http://maps.google.com/mapfiles/kml/pushpin/agrocad.png</href>
      </Icon>
      <hotSpot x="20" y="2" xunits="pixels" yunits="pixels"/>
    </IconStyle>
    <LineStyle>
      <color>ff000000</color>
      <width>1</width>
    </LineStyle>
    <PolyStyle>
      <color>40ffffff</color>
      <fill>1</fill>
    </PolyStyle>
  </Style>
  <Placemark>
    <name>AgroCAD: 7DE7</name>
    <styleUrl>FF0040FF</styleUrl>
    <Polygon>
      <outerBoundaryIs>
        <LinearRing>
          <coordinates>
           -36.15910298486244,-9.65041765886480 -36.15908624486246,-9.65029728942034 -36.15907833930691,-9.65026378164257 -36.15907990764025,-9.65022728275368 -36.15910452152912,-9.65021027886479 -36.15920131347348,-9.65020316525368 -36.15931187236224,-9.65019929636481 -36.15946778791764,-9.65019046525371 -36.15953201625091,-9.65018530358704 -36.15960976763972,-9.65018175247593 -36.15967329625077,-9.65017063080927 -36.15974213625070,-9.65016820164261 -36.15976879458402,-9.65016051580928 -36.15980745180620,-9.65015807969817 -36.15988396263945,-9.65015245830929 -36.15992297763941,-9.65015230580929 -36.16000185819488,-9.65014962969819 -36.16008010680594,-9.65014514858708 -36.16019870958357,-9.65013667414263 -36.16027627819462,-9.65012995053154 -36.16031523291680,-9.65012342803154 -36.16039370791671,-9.65012084303154 -36.16047491902774,-9.65011741692044 -36.16055654180544,-9.65010927136489 -36.16059707847207,-9.65010712164266 -36.16063808486092,-9.65010636358710 -36.16071058458306,-9.65009345775376 -36.16074630736082,-9.65009664192045 -36.16078205513856,-9.65009603386490 -36.16081054541630,-9.65008485747602 -36.16087632097180,-9.65006813608713 -36.16098042347169,-9.65004371330937 -36.16105528208275,-9.65002751025381 -36.16116731402708,-9.64999862803159 -36.16128499902694,-9.64997113775381 -36.16132560402692,-9.64996132664271 -36.16136791986021,-9.64994996886494 -36.16142303736015,-9.64993626053160 -36.16146313069343,-9.64992953192049 -36.16154495319336,-9.64990701525383 -36.16158448763775,-9.64989633414273 -36.16166212347103,-9.64987637692052 -36.16170149652653,-9.64986344275383 -36.16174195874872,-9.64985912053162 -36.16178361096503,-9.64985250406883 -36.16178526013758,-9.64985818553163 -36.16179779485978,-9.64993103914274 -36.16180181763756,-9.64998005942052 -36.16182456791530,-9.65012224414274 -36.16184530569306,-9.65029976386496 -36.16186817013748,-9.65049128830940 -36.16189272152634,-9.65064245525386 -36.16190424624854,-9.65073107442052 -36.16190846569297,-9.65081063830941 -36.16122140291587,-9.65088743942048 -36.16063373986090,-9.65096980692044 -36.16027271902793,-9.65101245692042 -36.15981543347283,-9.65106805997595 -36.15948074736203,-9.65110903025370 -36.15935109291772,-9.65112150192036 -36.15928806402890,-9.65113162886481 -36.15924764014005,-9.65113831886481 -36.15923791986228,-9.65110618108703 -36.15921327319564,-9.65102823719812 -36.15919541486234,-9.65095456775368 -36.15917342125125,-9.65083842803147 -36.15912637514019,-9.65057809275369 -36.15910298486244,-9.65041765886480
          </coordinates>
        </LinearRing>
      </outerBoundaryIs>
    </Polygon>
  </Placemark>
</Document>
</kml>
