<?xml version="1.0" encoding="UTF-8"?>
<kml xmlns="http://www.opengis.net/kml/2.2" xmlns:gx="http://www.google.com/kml/ext/2.2" xmlns:kml="http://www.opengis.net/kml/2.2" xmlns:atom="http://www.w3.org/2005/Atom">
<Document>
  <name>1012.kml</name>
  <StyleMap id="FF0040FF">
    <Pair>
      <key>normal</key>
      <styleUrl>#s_FF0040FF</styleUrl>
    </Pair>
    <Pair>
      <key>highlight</key>
      <styleUrl>#s_FF0040FF_hl</styleUrl>
    </Pair>
  </StyleMap>
  <Style id="s_FF0040FF">
   <IconStyle>
      <scale>1.1</scale>
      <Icon>
        <href>http://maps.google.com/mapfiles/kml/pushpin/agrocad.png</href>
      </Icon>
      <hotSpot x="20" y="2" xunits="pixels" yunits="pixels"/>
    </IconStyle>
    <LineStyle>
      <color>FF0040FF</color>
      <width>1</width>
    </LineStyle>
    <PolyStyle>
      <color>40ffffff</color>
      <fill>1</fill>
    </PolyStyle>
  </Style>
  <Style id="s_FF0040FF_hl">
    <IconStyle>
      <scale>1.3</scale>
      <Icon>
        <href>http://maps.google.com/mapfiles/kml/pushpin/agrocad.png</href>
      </Icon>
      <hotSpot x="20" y="2" xunits="pixels" yunits="pixels"/>
    </IconStyle>
    <LineStyle>
      <color>ff000000</color>
      <width>1</width>
    </LineStyle>
    <PolyStyle>
      <color>40ffffff</color>
      <fill>1</fill>
    </PolyStyle>
  </Style>
  <Placemark>
    <name>AgroCAD: 7DD6</name>
    <styleUrl>FF0040FF</styleUrl>
    <Polygon>
      <outerBoundaryIs>
        <LinearRing>
          <coordinates>
           -36.18245437122898,-9.63856173386622 -36.18243551372900,-9.63851303969955 -36.18239611317349,-9.63841261275509 -36.18234821678463,-9.63828627553288 -36.18230505372914,-9.63816676747730 -36.18226426122917,-9.63805221497731 -36.18223075817367,-9.63795873247731 -36.18220178428479,-9.63787366969953 -36.18217956317371,-9.63780658997731 -36.18214175095153,-9.63766391525508 -36.18213734372930,-9.63764919581063 -36.18215112761819,-9.63763505525508 -36.18219832261814,-9.63757962636620 -36.18227318067363,-9.63750201692178 -36.18235612650688,-9.63741546747732 -36.18244192289569,-9.63733660192177 -36.18252124234007,-9.63726853053288 -36.18259837650667,-9.63720511692178 -36.18267895261769,-9.63714081719955 -36.18277794317317,-9.63706864581067 -36.18287489233974,-9.63699564831068 -36.18294410650634,-9.63693985331069 -36.18299930511740,-9.63689943414402 -36.18307358039511,-9.63684968636626 -36.18315826289503,-9.63680443164403 -36.18325126011716,-9.63676031775515 -36.18333998706152,-9.63671444331071 -36.18342353678367,-9.63667480331072 -36.18349345233916,-9.63664059108849 -36.18357006011687,-9.63660626969960 -36.18361483983904,-9.63658752997740 -36.18361825345015,-9.63660242025517 -36.18365351233901,-9.63667601692185 -36.18370545983895,-9.63677749914406 -36.18375237261668,-9.63686797692184 -36.18380116678330,-9.63695163692185 -36.18384911928326,-9.63703623997741 -36.18394656122760,-9.63723701525519 -36.18398478317201,-9.63731659803296 -36.18406166094970,-9.63748282442184 -36.18414237206074,-9.63765003692186 -36.18419269067181,-9.63773617553298 -36.18429676483836,-9.63793494108854 -36.18435636817162,-9.63804343053299 -36.18446305372707,-9.63825265553299 -36.18451264233814,-9.63836005525521 -36.18435691650495,-9.63843901192188 -36.18415815650514,-9.63853660803298 -36.18396334400532,-9.63863838469963 -36.18376357094995,-9.63874373192184 -36.18358142095011,-9.63883813775517 -36.18340417206140,-9.63893324136626 -36.18323229178377,-9.63902019914403 -36.18306637317283,-9.63910544831069 -36.18290667817297,-9.63918462858845 -36.18279778622863,-9.63924023164400 -36.18273683317313,-9.63926760497733 -36.18273501067313,-9.63926837303289 -36.18270582317317,-9.63918627831067 -36.18266172733990,-9.63907791914401 -36.18261955345103,-9.63896707025511 -36.18257565706219,-9.63886132942177 -36.18252314678446,-9.63873526608844 -36.18245437122898,-9.63856173386622
          </coordinates>
        </LinearRing>
      </outerBoundaryIs>
    </Polygon>
  </Placemark>
</Document>
</kml>
