<?xml version="1.0" encoding="UTF-8"?>
<kml xmlns="http://www.opengis.net/kml/2.2" xmlns:gx="http://www.google.com/kml/ext/2.2" xmlns:kml="http://www.opengis.net/kml/2.2" xmlns:atom="http://www.w3.org/2005/Atom">
<Document>
  <name>1041.kml</name>
  <StyleMap id="FFFF4000">
    <Pair>
      <key>normal</key>
      <styleUrl>#s_FFFF4000</styleUrl>
    </Pair>
    <Pair>
      <key>highlight</key>
      <styleUrl>#s_FFFF4000_hl</styleUrl>
    </Pair>
  </StyleMap>
  <Style id="s_FFFF4000">
   <IconStyle>
      <scale>1.1</scale>
      <Icon>
        <href>http://maps.google.com/mapfiles/kml/pushpin/agrocad.png</href>
      </Icon>
      <hotSpot x="20" y="2" xunits="pixels" yunits="pixels"/>
    </IconStyle>
    <LineStyle>
      <color>FFFF4000</color>
      <width>1</width>
    </LineStyle>
    <PolyStyle>
      <color>40ffffff</color>
      <fill>1</fill>
    </PolyStyle>
  </Style>
  <Style id="s_FFFF4000_hl">
    <IconStyle>
      <scale>1.3</scale>
      <Icon>
        <href>http://maps.google.com/mapfiles/kml/pushpin/agrocad.png</href>
      </Icon>
      <hotSpot x="20" y="2" xunits="pixels" yunits="pixels"/>
    </IconStyle>
    <LineStyle>
      <color>ff000000</color>
      <width>1</width>
    </LineStyle>
    <PolyStyle>
      <color>40ffffff</color>
      <fill>1</fill>
    </PolyStyle>
  </Style>
  <Placemark>
    <name>AgroCAD: 90BB</name>
    <styleUrl>FFFF4000</styleUrl>
    <Polygon>
      <outerBoundaryIs>
        <LinearRing>
          <coordinates>
           -36.15613648468199,-9.64220281807125 -36.15650468937275,-9.64161343215305 -36.15659510597101,-9.64146699641660 -36.15835609967340,-9.64363411327999 -36.15822994717582,-9.64369543138955 -36.15820314287482,-9.64371527258238 -36.15816233447048,-9.64374720626018 -36.15812213889852,-9.64378819698421 -36.15808535293553,-9.64382309533394 -36.15805473872717,-9.64386007251199 -36.15801667380870,-9.64389891824469 -36.15797539539728,-9.64393267863481 -36.15793228548533,-9.64396203952135 -36.15789370275454,-9.64399047624613 -36.15784746425055,-9.64402121336123 -36.15780638791156,-9.64405251819012 -36.15776267818159,-9.64408508167682 -36.15771717640437,-9.64411786020470 -36.15767347352075,-9.64414697870839 -36.15762749194200,-9.64418033241555 -36.15758594084297,-9.64421387497638 -36.15754487938578,-9.64424026988725 -36.15750834164583,-9.64426676549354 -36.15738160223170,-9.64435739582147 -36.15728232660772,-9.64442790454298 -36.15718454940877,-9.64449431887799 -36.15713137487755,-9.64452548707937 -36.15708097658810,-9.64454663993665 -36.15702918949771,-9.64455353717515 -36.15700056030350,-9.64454973944384 -36.15697209634310,-9.64453887361735 -36.15695551061540,-9.64452807037709 -36.15688892050005,-9.64445170952329 -36.15685605973108,-9.64440659327896 -36.15678508014823,-9.64431555484101 -36.15658898727406,-9.64407446965287 -36.15653667903835,-9.64401367036180 -36.15647256940054,-9.64392888447589 -36.15642801887811,-9.64386731026640 -36.15640530863586,-9.64382417380063 -36.15638436622103,-9.64378395324247 -36.15636321252348,-9.64374222465639 -36.15634000172530,-9.64369875840160 -36.15631842418333,-9.64365393699348 -36.15629815852772,-9.64361199114465 -36.15628070833371,-9.64356608955884 -36.15621370002115,-9.64338710980668 -36.15619497514347,-9.64333926316276 -36.15617799467140,-9.64328740530972 -36.15616019448441,-9.64323940949105 -36.15614271120623,-9.64319220565246 -36.15612300043977,-9.64314329770927 -36.15610197718301,-9.64309572779421 -36.15607975354440,-9.64304778344448 -36.15605888241877,-9.64300194393694 -36.15603657213947,-9.64295580776279 -36.15600962886251,-9.64291386955029 -36.15598091797549,-9.64287528280031 -36.15595360424493,-9.64283691776022 -36.15592905992587,-9.64280307108982 -36.15586445149546,-9.64271476110950 -36.15582916271569,-9.64267350897565 -36.15585929407602,-9.64262616925825 -36.15613648468199,-9.64220281807125
          </coordinates>
        </LinearRing>
      </outerBoundaryIs>
    </Polygon>
  </Placemark>
</Document>
</kml>
