<?xml version="1.0" encoding="UTF-8"?>
<kml xmlns="http://www.opengis.net/kml/2.2" xmlns:gx="http://www.google.com/kml/ext/2.2" xmlns:kml="http://www.opengis.net/kml/2.2" xmlns:atom="http://www.w3.org/2005/Atom">
<Document>
  <name>1004.kml</name>
  <StyleMap id="FF0040FF">
    <Pair>
      <key>normal</key>
      <styleUrl>#s_FF0040FF</styleUrl>
    </Pair>
    <Pair>
      <key>highlight</key>
      <styleUrl>#s_FF0040FF_hl</styleUrl>
    </Pair>
  </StyleMap>
  <Style id="s_FF0040FF">
   <IconStyle>
      <scale>1.1</scale>
      <Icon>
        <href>http://maps.google.com/mapfiles/kml/pushpin/agrocad.png</href>
      </Icon>
      <hotSpot x="20" y="2" xunits="pixels" yunits="pixels"/>
    </IconStyle>
    <LineStyle>
      <color>FF0040FF</color>
      <width>1</width>
    </LineStyle>
    <PolyStyle>
      <color>40ffffff</color>
      <fill>1</fill>
    </PolyStyle>
  </Style>
  <Style id="s_FF0040FF_hl">
    <IconStyle>
      <scale>1.3</scale>
      <Icon>
        <href>http://maps.google.com/mapfiles/kml/pushpin/agrocad.png</href>
      </Icon>
      <hotSpot x="20" y="2" xunits="pixels" yunits="pixels"/>
    </IconStyle>
    <LineStyle>
      <color>ff000000</color>
      <width>1</width>
    </LineStyle>
    <PolyStyle>
      <color>40ffffff</color>
      <fill>1</fill>
    </PolyStyle>
  </Style>
  <Placemark>
    <name>AgroCAD: 7DCC</name>
    <styleUrl>FF0040FF</styleUrl>
    <Polygon>
      <outerBoundaryIs>
        <LinearRing>
          <coordinates>
           -36.18038511484176,-9.64856612053275 -36.18045976623058,-9.64847600414384 -36.18048363123055,-9.64845011331052 -36.18053719900827,-9.64839064997720 -36.18058442734156,-9.64833808081052 -36.18060804484154,-9.64830946192164 -36.18063203011929,-9.64828107692164 -36.18070243567478,-9.64819279553276 -36.18072350039700,-9.64816103719944 -36.18074811623030,-9.64813509553275 -36.18079272400804,-9.64808226275498 -36.18081182984136,-9.64807434497722 -36.18084516428579,-9.64803600803276 -36.18085597261909,-9.64801278914387 -36.18089703228997,-9.64798346862523 -36.18090290539683,-9.64795027719944 -36.18092360345235,-9.64791951997721 -36.18096600511900,-9.64785702636610 -36.18099323873007,-9.64782869803277 -36.18101726095228,-9.64779662192167 -36.18104228900783,-9.64777498664389 -36.18108759511888,-9.64772002803278 -36.18110806678553,-9.64769546803278 -36.18114094067439,-9.64764286442167 -36.18116297817437,-9.64762514719945 -36.18118966511879,-9.64759949275501 -36.18121459761876,-9.64758286136613 -36.18124333678542,-9.64752265497723 -36.18128813622982,-9.64747212664390 -36.18130280456313,-9.64745252969947 -36.18133582456311,-9.64740581275501 -36.18134817706309,-9.64737848025502 -36.18136655789641,-9.64735298108834 -36.18139111122972,-9.64733564108835 -36.18141027872970,-9.64731156136614 -36.18145754595189,-9.64725388386614 -36.18147790872964,-9.64722820386614 -36.18150085345184,-9.64720170831059 -36.18151971650738,-9.64717275192170 -36.18154175456290,-9.64714439275503 -36.18156294067401,-9.64711668331059 -36.18158176456287,-9.64708934219948 -36.18160269650730,-9.64706275108837 -36.18162645928507,-9.64703834692169 -36.18164746261839,-9.64701202192171 -36.18167001150724,-9.64697492164392 -36.18169367011834,-9.64694792969948 -36.18171848095163,-9.64691849747726 -36.18174376984050,-9.64689703414394 -36.18178229511824,-9.64684309136615 -36.18180774872934,-9.64681590636615 -36.18182642400710,-9.64678627025504 -36.18184875206264,-9.64676209025504 -36.18186628011817,-9.64674362469948 -36.18188457511816,-9.64671616636616 -36.18190224095147,-9.64668551997727 -36.18193103400699,-9.64666052469950 -36.18195488900698,-9.64663580497728 -36.18198104150696,-9.64660932858839 -36.18200522595138,-9.64658520219949 -36.18204841734023,-9.64653214192173 -36.18206890484021,-9.64650792914395 -36.18209507511797,-9.64648099997729 -36.18212448095126,-9.64645939219953 -36.18215144484012,-9.64643277719952 -36.18220382789564,-9.64638326914397 -36.18222790067339,-9.64635750219952 -36.18224923567337,-9.64633254553286 -36.18226652539559,-9.64630593719952 -36.18229272122889,-9.64628181275508 -36.18231928178442,-9.64626177025508 -36.18234890678439,-9.64624676386619 -36.18241955706210,-9.64615879608842 -36.18248554150649,-9.64612333831065 -36.18250199678424,-9.64609315358843 -36.18252514178422,-9.64607062469953 -36.18254743317310,-9.64604446775510 -36.18257094678420,-9.64602219442176 -36.18262785261747,-9.64598792581065 -36.18266610428410,-9.64598088997732 -36.18268436678409,-9.64594850775511 -36.18270497511741,-9.64591598747732 -36.18275159206181,-9.64587568053288 -36.18277699067288,-9.64585303414400 -36.18281084289508,-9.64583335775512 -36.18284190206170,-9.64581718803288 -36.18287192150614,-9.64579813831066 -36.18289808567278,-9.64577647692178 -36.18292679817276,-9.64576023053290 -36.18294746150606,-9.64573976497734 -36.18297527122826,-9.64571965636623 -36.18299005845047,-9.64570927053289 -36.18300938539489,-9.64570422414400 -36.18303347067266,-9.64568714247734 -36.18307637206149,-9.64565501581069 -36.18309572706148,-9.64562854358845 -36.18312086456147,-9.64561001136624 -36.18314042650589,-9.64558801219957 -36.18319612595028,-9.64555944775513 -36.18322401928359,-9.64553859886624 -36.18324568428356,-9.64551768386624 -36.18327250511689,-9.64550604108847 -36.18329743400575,-9.64548806192180 -36.18332120483905,-9.64546364053292 -36.18334827428347,-9.64544332331069 -36.18337469483901,-9.64542464025514 -36.18339328650564,-9.64541518025513 -36.18342191400562,-9.64540453553291 -36.18345211789448,-9.64539470414404 -36.18347915845002,-9.64537711192181 -36.18349855317223,-9.64535211331071 -36.18352666817220,-9.64533322997738 -36.18354753761661,-9.64530512442182 -36.18357360233881,-9.64528682803294 -36.18359987122768,-9.64526808497737 -36.18363093761654,-9.64524715692182 -36.18365909789428,-9.64523420969960 -36.18368598261649,-9.64522865858849 -36.18373733928311,-9.64518662997736 -36.18376199983865,-9.64517247136627 -36.18380674872750,-9.64514265636628 -36.18385418067190,-9.64510902442184 -36.18387827761631,-9.64509104247740 -36.18388247983854,-9.64507216053295 -36.18391266289405,-9.64506106692183 -36.18393255928292,-9.64504719969962 -36.18395833011623,-9.64502996608850 -36.18398840706066,-9.64501219775518 -36.18401672261618,-9.64500280886629 -36.18404328317171,-9.64498514136629 -36.18407307761613,-9.64496818053297 -36.18408420483834,-9.64494822886629 -36.18411247622721,-9.64493616664407 -36.18413034483830,-9.64491514719963 -36.18415522983828,-9.64490321442185 -36.18418082261603,-9.64488983442187 -36.18420448872712,-9.64488977553296 -36.18422545178266,-9.64488152108853 -36.18424784372708,-9.64485996358854 -36.18425954428263,-9.64482974358852 -36.18428511150483,-9.64481076831075 -36.18431651011591,-9.64478754831075 -36.18434706956033,-9.64477706914408 -36.18437209678252,-9.64476155997742 -36.18442024678247,-9.64471678136632 -36.18448289872687,-9.64468490497742 -36.18453857650459,-9.64465175942188 -36.18455847400456,-9.64462689969965 -36.18459343372676,-9.64461174858853 -36.18462568872675,-9.64458752247744 -36.18465611900449,-9.64456546081077 -36.18469314456000,-9.64454854108855 -36.18472038511555,-9.64453188858856 -36.18475146289328,-9.64453537442190 -36.18477271953045,-9.64455054246081 -36.18463800178226,-9.64471723108855 -36.18457868539343,-9.64477748858855 -36.18451783289351,-9.64483913136633 -36.18440996928248,-9.64496169608853 -36.18436015650475,-9.64503932803298 -36.18431088650480,-9.64513830719964 -36.18426333928260,-9.64524620831074 -36.18422814067153,-9.64534365303296 -36.18419651344934,-9.64540751303297 -36.18414779261605,-9.64546478469964 -36.18407967206056,-9.64551468719962 -36.18401226094951,-9.64555677025517 -36.18394276428289,-9.64559239247740 -36.18385573956076,-9.64562196997740 -36.18377000706085,-9.64564045414405 -36.18367135039426,-9.64565674469959 -36.18358242817212,-9.64567727303293 -36.18348576900555,-9.64570965831071 -36.18338589428343,-9.64575370581069 -36.18330118595017,-9.64581429414403 -36.18322938650580,-9.64589005969958 -36.18317025761696,-9.64597955081068 -36.18311511483923,-9.64607140525512 -36.18306579622816,-9.64615039219957 -36.18301519706153,-9.64622130275512 -36.18287981261722,-9.64638896247733 -36.18282452983950,-9.64646470442177 -36.18278361122842,-9.64654765136622 -36.18274910678402,-9.64664552692176 -36.18273125872846,-9.64674402247733 -36.18270636206182,-9.64684032553286 -36.18266997456185,-9.64693450719954 -36.18262398039523,-9.64701980775509 -36.18249832511757,-9.64721885108842 -36.18243649983983,-9.64731547664396 -36.18237443317323,-9.64742007497729 -36.18223960456224,-9.64764732414397 -36.18218417484007,-9.64773264219951 -36.18211420761791,-9.64783043914394 -36.18202519178466,-9.64793297775506 -36.18193303317361,-9.64803693247727 -36.18183717872927,-9.64814418164394 -36.18173924928491,-9.64825147608838 -36.18163495345167,-9.64837006969947 -36.18151064234068,-9.64851738025503 -36.18135963039637,-9.64869894775502 -36.18120927289652,-9.64887310747723 -36.18109325595219,-9.64901251192167 -36.18093208400788,-9.64920445858833 -36.18087363289681,-9.64927683831055 -36.18076771484137,-9.64941712914387 -36.18071559956363,-9.64949348303275 -36.18066945595256,-9.64956324275498 -36.18063029373038,-9.64960943858831 -36.18058209595264,-9.64964693414387 -36.18052980373047,-9.64967106775497 -36.18047204123052,-9.64967511914386 -36.18042688761944,-9.64967993942163 -36.18038591873060,-9.64968298275496 -36.18034407623066,-9.64968443886607 -36.18030163345291,-9.64968672553273 -36.18025885734184,-9.64968794553273 -36.18021656234188,-9.64969002692162 -36.18017271900857,-9.64969182997717 -36.18013038567529,-9.64969420775494 -36.18008744539756,-9.64969569997716 -36.18004345539759,-9.64969729803270 -36.18000203789763,-9.64969854331049 -36.17996203123099,-9.64969936192161 -36.17992036400881,-9.64969902053272 -36.17987909511997,-9.64970055858826 -36.17983787678669,-9.64969995247715 -36.17979719650895,-9.64969964636603 -36.17975820623119,-9.64969847331047 -36.17971696678681,-9.64969531858825 -36.17967560067572,-9.64969454692158 -36.17963445595353,-9.64969480442158 -36.17959526206469,-9.64969625219935 -36.17955899123137,-9.64969790719935 -36.17952530400922,-9.64969859525491 -36.17949131900925,-9.64969864303268 -36.17947481178702,-9.64969743497713 -36.17947345678702,-9.64969726775490 -36.17947802706480,-9.64968945747713 -36.17950321873144,-9.64965779303269 -36.17953052400920,-9.64963069358825 -36.17955571012030,-9.64960347108825 -36.17959967373135,-9.64954262581046 -36.17966775206463,-9.64946237136603 -36.17973161373123,-9.64937863636603 -36.17980352345340,-9.64930012053270 -36.17982707984227,-9.64926114164381 -36.17985193206445,-9.64923651803271 -36.17990122845331,-9.64918521775494 -36.17996436761991,-9.64909745969939 -36.18001074206431,-9.64903845664382 -36.18005810150871,-9.64898208914383 -36.18008087706424,-9.64895433442161 -36.18010454289755,-9.64892920719940 -36.18013820789753,-9.64887841247717 -36.18015825373084,-9.64885507331050 -36.18017278761972,-9.64883242497717 -36.18022078206413,-9.64877361136605 -36.18024766761965,-9.64874396331053 -36.18031215984183,-9.64866007775496 -36.18033726011957,-9.64862839192162 -36.18038511484176,-9.64856612053275
          </coordinates>
        </LinearRing>
      </outerBoundaryIs>
    </Polygon>
  </Placemark>
</Document>
</kml>
