<?xml version="1.0" encoding="UTF-8"?>
<kml xmlns="http://www.opengis.net/kml/2.2" xmlns:gx="http://www.google.com/kml/ext/2.2" xmlns:kml="http://www.opengis.net/kml/2.2" xmlns:atom="http://www.w3.org/2005/Atom">
<Document>
  <name>1064.kml</name>
  <StyleMap id="FFFF4000">
    <Pair>
      <key>normal</key>
      <styleUrl>#s_FFFF4000</styleUrl>
    </Pair>
    <Pair>
      <key>highlight</key>
      <styleUrl>#s_FFFF4000_hl</styleUrl>
    </Pair>
  </StyleMap>
  <Style id="s_FFFF4000">
   <IconStyle>
      <scale>1.1</scale>
      <Icon>
        <href>http://maps.google.com/mapfiles/kml/pushpin/agrocad.png</href>
      </Icon>
      <hotSpot x="20" y="2" xunits="pixels" yunits="pixels"/>
    </IconStyle>
    <LineStyle>
      <color>FFFF4000</color>
      <width>1</width>
    </LineStyle>
    <PolyStyle>
      <color>40ffffff</color>
      <fill>1</fill>
    </PolyStyle>
  </Style>
  <Style id="s_FFFF4000_hl">
    <IconStyle>
      <scale>1.3</scale>
      <Icon>
        <href>http://maps.google.com/mapfiles/kml/pushpin/agrocad.png</href>
      </Icon>
      <hotSpot x="20" y="2" xunits="pixels" yunits="pixels"/>
    </IconStyle>
    <LineStyle>
      <color>ff000000</color>
      <width>1</width>
    </LineStyle>
    <PolyStyle>
      <color>40ffffff</color>
      <fill>1</fill>
    </PolyStyle>
  </Style>
  <Placemark>
    <name>AgroCAD: 92D3</name>
    <styleUrl>FFFF4000</styleUrl>
    <Polygon>
      <outerBoundaryIs>
        <LinearRing>
          <coordinates>
           -36.17675036497112,-9.62804792030588 -36.17654434852671,-9.62803008623745 -36.17634363771881,-9.62800921090606 -36.17597844416053,-9.62793479626273 -36.17580728507832,-9.62790564661283 -36.17567534838297,-9.62788503590089 -36.17553620484284,-9.62787087830564 -36.17537534123722,-9.62784726816449 -36.17519336044842,-9.62780955918064 -36.17507410282301,-9.62777410822624 -36.17492797713187,-9.62774576721643 -36.17486000428064,-9.62773749863995 -36.17477078268240,-9.62773205967343 -36.17467051591234,-9.62773106572606 -36.17457284008444,-9.62773975218048 -36.17441902884711,-9.62776736314377 -36.17411595182411,-9.62782295656520 -36.17386012078144,-9.62786242214026 -36.17376915335539,-9.62787962895734 -36.17364314418822,-9.62791896371808 -36.17352910126053,-9.62795937341260 -36.17344143589912,-9.62799404740442 -36.17333653929442,-9.62804528137340 -36.17324106334120,-9.62810078126408 -36.17313448258707,-9.62818806303450 -36.17304797057997,-9.62826157769818 -36.17303503885791,-9.62827799042569 -36.17302836458358,-9.62829168216070 -36.17302672490324,-9.62842180059557 -36.17303948542034,-9.62877413660779 -36.17303780075526,-9.62885716140972 -36.17302393207380,-9.62895684479906 -36.17299395147716,-9.62907340898450 -36.17297923980720,-9.62913398052575 -36.17285464763090,-9.62938271060572 -36.17282858253811,-9.62945250243290 -36.17279358441049,-9.62949000656329 -36.17279306755530,-9.62949033127808 -36.17301454016555,-9.62972388091500 -36.17675036497112,-9.62804792030588
          </coordinates>
        </LinearRing>
      </outerBoundaryIs>
    </Polygon>
  </Placemark>
  <Placemark>
    <name>AgroCAD: 92D1</name>
    <styleUrl>FFFF4000</styleUrl>
    <Polygon>
      <outerBoundaryIs>
        <LinearRing>
          <coordinates>
           -36.17946743691126,-9.62676502481515 -36.17943156716806,-9.62658538790652 -36.17931068945752,-9.62658867515606 -36.17926675642598,-9.62659955117360 -36.17921154392337,-9.62661411186094 -36.17915404054680,-9.62663158257942 -36.17906855060404,-9.62665678861966 -36.17897244684966,-9.62669171277240 -36.17888889177639,-9.62672363853150 -36.17882054727977,-9.62674997942587 -36.17876393655549,-9.62677719772940 -36.17859632453436,-9.62686136807711 -36.17833268672547,-9.62700507222644 -36.17819039151212,-9.62708441452735 -36.17802196159792,-9.62717654882459 -36.17775487118878,-9.62731847606560 -36.17757641179538,-9.62741165578530 -36.17733656185781,-9.62751148821257 -36.17726594728257,-9.62753989769768 -36.17722314940123,-9.62755660538728 -36.17719702773297,-9.62756777711431 -36.17715978355685,-9.62759210440080 -36.17717186087733,-9.62762002604288 -36.17709627995441,-9.62768056921433 -36.17703661003981,-9.62772747367107 -36.17699221097796,-9.62777463074441 -36.17687089033276,-9.62797189289636 -36.17685649771223,-9.62800805256816 -36.17697585560640,-9.62796131194999 -36.17721856091510,-9.62786662706692 -36.17740646757784,-9.62780046718467 -36.17752717695970,-9.62774537320328 -36.17764138912966,-9.62768381515799 -36.17773061306131,-9.62762549274768 -36.17788299526391,-9.62751237815847 -36.17794557439856,-9.62746021810969 -36.17808585317363,-9.62736118053555 -36.17819563925309,-9.62728132528371 -36.17831835731264,-9.62720840384109 -36.17844961315866,-9.62713010671572 -36.17859294003462,-9.62705422415430 -36.17871928823470,-9.62698407565924 -36.17881437443494,-9.62693351485287 -36.17887069563702,-9.62690581306962 -36.17893436708170,-9.62687592495977 -36.17901857683115,-9.62684095136889 -36.17918316859473,-9.62679580014881 -36.17922849509163,-9.62678897454953 -36.17929457151853,-9.62679127450385 -36.17944048679211,-9.62676725509170 -36.17946743691126,-9.62676502481515
          </coordinates>
        </LinearRing>
      </outerBoundaryIs>
    </Polygon>
  </Placemark>
  <Placemark>
    <name>AgroCAD: 92D4</name>
    <styleUrl>FFFF4000</styleUrl>
    <Polygon>
      <outerBoundaryIs>
        <LinearRing>
          <coordinates>
           -36.18052586011462,-9.62662236523473 -36.17950395529293,-9.62676200270663 -36.17947840804251,-9.62663406127476 -36.17974741138655,-9.62666691536610 -36.17977467156791,-9.62666295461566 -36.17981894552720,-9.62665666607202 -36.17999427841984,-9.62662868834546 -36.18015542164844,-9.62660919120548 -36.18042221739514,-9.62658062616172 -36.18045079656902,-9.62658796937675 -36.18050967556813,-9.62660358735342 -36.18052577299759,-9.62660865785274 -36.18052586011462,-9.62662236523473
          </coordinates>
        </LinearRing>
      </outerBoundaryIs>
    </Polygon>
  </Placemark>
</Document>
</kml>
