<?xml version="1.0" encoding="UTF-8"?>
<kml xmlns="http://www.opengis.net/kml/2.2" xmlns:gx="http://www.google.com/kml/ext/2.2" xmlns:kml="http://www.opengis.net/kml/2.2" xmlns:atom="http://www.w3.org/2005/Atom">
<Document>
  <name>1045.kml</name>
  <StyleMap id="FF0040FF">
    <Pair>
      <key>normal</key>
      <styleUrl>#s_FF0040FF</styleUrl>
    </Pair>
    <Pair>
      <key>highlight</key>
      <styleUrl>#s_FF0040FF_hl</styleUrl>
    </Pair>
  </StyleMap>
  <Style id="s_FF0040FF">
   <IconStyle>
      <scale>1.1</scale>
      <Icon>
        <href>http://maps.google.com/mapfiles/kml/pushpin/agrocad.png</href>
      </Icon>
      <hotSpot x="20" y="2" xunits="pixels" yunits="pixels"/>
    </IconStyle>
    <LineStyle>
      <color>FF0040FF</color>
      <width>1</width>
    </LineStyle>
    <PolyStyle>
      <color>40ffffff</color>
      <fill>1</fill>
    </PolyStyle>
  </Style>
  <Style id="s_FF0040FF_hl">
    <IconStyle>
      <scale>1.3</scale>
      <Icon>
        <href>http://maps.google.com/mapfiles/kml/pushpin/agrocad.png</href>
      </Icon>
      <hotSpot x="20" y="2" xunits="pixels" yunits="pixels"/>
    </IconStyle>
    <LineStyle>
      <color>ff000000</color>
      <width>1</width>
    </LineStyle>
    <PolyStyle>
      <color>40ffffff</color>
      <fill>1</fill>
    </PolyStyle>
  </Style>
  <Placemark>
    <name>AgroCAD: 7DEB</name>
    <styleUrl>FF0040FF</styleUrl>
    <Polygon>
      <outerBoundaryIs>
        <LinearRing>
          <coordinates>
           -36.15886885625199,-9.63741051664258 -36.15865869986333,-9.63732359358702 -36.15834543569695,-9.63718885108699 -36.15816164041937,-9.63710716442031 -36.15803135430839,-9.63704770803142 -36.15785506597524,-9.63696952553141 -36.15771835958649,-9.63690678275363 -36.15760944597550,-9.63685633330916 -36.15753618542001,-9.63682288997582 -36.15743519319789,-9.63677610469805 -36.15745326347564,-9.63675266525361 -36.15747816792008,-9.63672065803139 -36.15752235097558,-9.63675080803139 -36.15759067403108,-9.63678822275361 -36.15776190708645,-9.63685936525363 -36.15794358097515,-9.63692245275364 -36.15804018875284,-9.63694596858698 -36.15828911430813,-9.63699121969810 -36.15844364903021,-9.63701707164256 -36.15860907930781,-9.63704553719813 -36.15877504680766,-9.63707028969813 -36.15909660014066,-9.63710843580926 -36.15942925652922,-9.63716126997595 -36.15965846819565,-9.63719510886485 -36.15987435097322,-9.63723174386485 -36.16021528625065,-9.63728385719823 -36.16047805875040,-9.63731651692046 -36.16070401458350,-9.63733258914269 -36.16078147569453,-9.63733127747602 -36.16083983763892,-9.63734037886492 -36.16087042819445,-9.63734105025382 -36.16081094013895,-9.63737714525381 -36.16065476375021,-9.63748426275380 -36.16049169430592,-9.63760685330936 -36.16002887347303,-9.63801903692042 -36.15990032541760,-9.63794550330931 -36.15975806625109,-9.63785535719819 -36.15961992652902,-9.63777373858706 -36.15940783819589,-9.63764534636484 -36.15933155569596,-9.63760151747593 -36.15924963347383,-9.63756939942040 -36.15913620680726,-9.63752524303148 -36.15906445486290,-9.63749024830926 -36.15886885625199,-9.63741051664258
          </coordinates>
        </LinearRing>
      </outerBoundaryIs>
    </Polygon>
  </Placemark>
</Document>
</kml>
