<?xml version="1.0" encoding="UTF-8"?>
<kml xmlns="http://www.opengis.net/kml/2.2" xmlns:gx="http://www.google.com/kml/ext/2.2" xmlns:kml="http://www.opengis.net/kml/2.2" xmlns:atom="http://www.w3.org/2005/Atom">
<Document>
  <name>21.kml</name>
  <StyleMap id="FFFF4000">
    <Pair>
      <key>normal</key>
      <styleUrl>#s_FFFF4000</styleUrl>
    </Pair>
    <Pair>
      <key>highlight</key>
      <styleUrl>#s_FFFF4000_hl</styleUrl>
    </Pair>
  </StyleMap>
  <Style id="s_FFFF4000">
   <IconStyle>
      <scale>1.1</scale>
      <Icon>
        <href>http://maps.google.com/mapfiles/kml/pushpin/agrocad.png</href>
      </Icon>
      <hotSpot x="20" y="2" xunits="pixels" yunits="pixels"/>
    </IconStyle>
    <LineStyle>
      <color>FFFF4000</color>
      <width>1</width>
    </LineStyle>
    <PolyStyle>
      <color>40ffffff</color>
      <fill>1</fill>
    </PolyStyle>
  </Style>
  <Style id="s_FFFF4000_hl">
    <IconStyle>
      <scale>1.3</scale>
      <Icon>
        <href>http://maps.google.com/mapfiles/kml/pushpin/agrocad.png</href>
      </Icon>
      <hotSpot x="20" y="2" xunits="pixels" yunits="pixels"/>
    </IconStyle>
    <LineStyle>
      <color>ff000000</color>
      <width>1</width>
    </LineStyle>
    <PolyStyle>
      <color>40ffffff</color>
      <fill>1</fill>
    </PolyStyle>
  </Style>
  <Placemark>
    <name>AgroCAD: 19853</name>
    <styleUrl>FFFF4000</styleUrl>
    <Polygon>
      <outerBoundaryIs>
        <LinearRing>
          <coordinates>
           -36.30136037641920,-9.71534299358882 -36.30186068079492,-9.71541245104667 -36.30240202972343,-9.71549709019275 -36.30252490371034,-9.71584348599354 -36.30259537238055,-9.71603252143622 -36.30264788640416,-9.71606197165861 -36.30274908787026,-9.71608689508247 -36.30277052535245,-9.71615734292282 -36.30278368227986,-9.71618429701855 -36.30280156278475,-9.71620988856530 -36.30282255605875,-9.71623722663187 -36.30284272425276,-9.71626160869196 -36.30286180956515,-9.71628606120130 -36.30287906541376,-9.71631058102435 -36.30289620697136,-9.71633379098392 -36.30291051401356,-9.71636083079428 -36.30291746374575,-9.71638899373580 -36.30292767016616,-9.71641198553020 -36.30294073321125,-9.71643665800003 -36.30295462792856,-9.71646459704721 -36.30296482692966,-9.71649328225103 -36.30297653408465,-9.71652087967164 -36.30298433547977,-9.71654654112904 -36.30299267006286,-9.71657346844085 -36.30299991502897,-9.71660239373415 -36.30300239137926,-9.71663285306213 -36.30300351630856,-9.71666154005562 -36.30300808290826,-9.71669256528160 -36.30300745365536,-9.71672541635839 -36.30300775768086,-9.71675711318826 -36.30302026794306,-9.71678487976245 -36.30303599148086,-9.71681239458312 -36.30305099750666,-9.71684018233581 -36.30306492273626,-9.71686760695926 -36.30308627113326,-9.71689333788039 -36.30310997902495,-9.71691687991229 -36.30312980425927,-9.71694189836663 -36.30314439142146,-9.71696443389658 -36.30316045966615,-9.71698961445302 -36.30317156051536,-9.71701835557740 -36.30318640301767,-9.71704090970205 -36.30319676728755,-9.71706636999088 -36.30320077480526,-9.71709245285413 -36.30320891122557,-9.71712979767123 -36.30320448497156,-9.71716272453834 -36.30318750120337,-9.71719253151719 -36.30317316841167,-9.71722597784417 -36.30318017899786,-9.71725865099416 -36.30318524412106,-9.71729376800988 -36.30318627545476,-9.71733571465977 -36.30319172649656,-9.71737485245023 -36.30319788801946,-9.71740990707500 -36.30320482763456,-9.71744873547163 -36.30321819906797,-9.71748504779481 -36.30323332817747,-9.71751755846176 -36.30324417099068,-9.71755441317111 -36.30324735915817,-9.71759306162804 -36.30325232966626,-9.71763257480562 -36.30326251045807,-9.71766847663531 -36.30327040953867,-9.71768960622077 -36.30335392235717,-9.71794040985023 -36.30145531672400,-9.71817283393922 -36.30136037641920,-9.71534299358882 -36.30136037641920,-9.71534299358882 -36.30136037641920,-9.71534299358882
          </coordinates>
        </LinearRing>
      </outerBoundaryIs>
    </Polygon>
  </Placemark>
</Document>
</kml>
