<?xml version="1.0" encoding="UTF-8"?>
<kml xmlns="http://www.opengis.net/kml/2.2" xmlns:gx="http://www.google.com/kml/ext/2.2" xmlns:kml="http://www.opengis.net/kml/2.2" xmlns:atom="http://www.w3.org/2005/Atom">
<Document>
  <name>58.kml</name>
  <StyleMap id="FFFF4000">
    <Pair>
      <key>normal</key>
      <styleUrl>#s_FFFF4000</styleUrl>
    </Pair>
    <Pair>
      <key>highlight</key>
      <styleUrl>#s_FFFF4000_hl</styleUrl>
    </Pair>
  </StyleMap>
  <Style id="s_FFFF4000">
   <IconStyle>
      <scale>1.1</scale>
      <Icon>
        <href>http://maps.google.com/mapfiles/kml/pushpin/agrocad.png</href>
      </Icon>
      <hotSpot x="20" y="2" xunits="pixels" yunits="pixels"/>
    </IconStyle>
    <LineStyle>
      <color>FFFF4000</color>
      <width>1</width>
    </LineStyle>
    <PolyStyle>
      <color>40ffffff</color>
      <fill>1</fill>
    </PolyStyle>
  </Style>
  <Style id="s_FFFF4000_hl">
    <IconStyle>
      <scale>1.3</scale>
      <Icon>
        <href>http://maps.google.com/mapfiles/kml/pushpin/agrocad.png</href>
      </Icon>
      <hotSpot x="20" y="2" xunits="pixels" yunits="pixels"/>
    </IconStyle>
    <LineStyle>
      <color>ff000000</color>
      <width>1</width>
    </LineStyle>
    <PolyStyle>
      <color>40ffffff</color>
      <fill>1</fill>
    </PolyStyle>
  </Style>
  <Placemark>
    <name>AgroCAD: 1A0C4</name>
    <styleUrl>FFFF4000</styleUrl>
    <Polygon>
      <outerBoundaryIs>
        <LinearRing>
          <coordinates>
           -36.30325500004144,-9.70239666633492 -36.30327166670811,-9.70237333300159 -36.30327666670810,-9.70237666633492 -36.30328333337476,-9.70239666633492 -36.30328666670810,-9.70241333300160 -36.30329000004143,-9.70244166633492 -36.30329166670811,-9.70247833300159 -36.30329166670811,-9.70252333300157 -36.30329000004143,-9.70257499966825 -36.30329333337477,-9.70269833300157 -36.30329333337477,-9.70276333300157 -36.30329666670810,-9.70282999966823 -36.30330000004143,-9.70294833300156 -36.30330000004143,-9.70312999966823 -36.30329666670810,-9.70326833300155 -36.30329666670810,-9.70333666633488 -36.30329333337477,-9.70340666633490 -36.30329333337477,-9.70361499966821 -36.30329000004143,-9.70375333300153 -36.30329000004142,-9.70397666633486 -36.30328666670809,-9.70402666633487 -36.30328666670808,-9.70412166633487 -36.30329000004143,-9.70416999966820 -36.30329166670810,-9.70422166633486 -36.30328833337475,-9.70427333300153 -36.30328666670808,-9.70432499966818 -36.30328833337475,-9.70437333300153 -36.30328833337475,-9.70441499966820 -36.30329000004142,-9.70446666633485 -36.30329333337475,-9.70450666633485 -36.30329666670809,-9.70459166633485 -36.30328833337475,-9.70485499966818 -36.30328833337475,-9.70495999966817 -36.30329333337475,-9.70500999966816 -36.30329500004143,-9.70505833300151 -36.30329833337476,-9.70510833300150 -36.30329666670809,-9.70516333300150 -36.30329666670809,-9.70521666633484 -36.30329833337476,-9.70526999966816 -36.30330166670809,-9.70532333300149 -36.30330333337476,-9.70537999966816 -36.30330333337476,-9.70543833300148 -36.30330166670809,-9.70550499966815 -36.30330166670809,-9.70571833300148 -36.30330000004142,-9.70578833300148 -36.30330000004142,-9.70594999966814 -36.30329666670809,-9.70599166633480 -36.30329500004144,-9.70602666633481 -36.30329500004143,-9.70611999966813 -36.30329666670809,-9.70614833300146 -36.30329666670809,-9.70619999966814 -36.30329500004143,-9.70622999966814 -36.30329166670809,-9.70624666633480 -36.30326500004142,-9.70626166633480 -36.30324833337476,-9.70626499966813 -36.30322666670809,-9.70626666633480 -36.30321000004143,-9.70626666633479 -36.30317000004143,-9.70627499966812 -36.30314666670810,-9.70627499966813 -36.30312166670810,-9.70627666633478 -36.30309000004144,-9.70627499966812 -36.30306333337476,-9.70627999966812 -36.30303666670812,-9.70628166633479 -36.30297833337478,-9.70629166633477 -36.30295333337479,-9.70629166633477 -36.30293000004144,-9.70629333300144 -36.30291166670813,-9.70629333300144 -36.30286333337480,-9.70628666633478 -36.30285333337480,-9.70627499966811 -36.30283000004145,-9.70623999966811 -36.30281333337479,-9.70619999966811 -36.30279666670813,-9.70615666633478 -36.30278333337479,-9.70613833300144 -36.30275333337479,-9.70608166633478 -36.30273500004147,-9.70604499966812 -36.30272666670814,-9.70602666633478 -36.30271500004147,-9.70600999966811 -36.30270000004146,-9.70598166633478 -36.30268333337482,-9.70595833300145 -36.30267000004147,-9.70594333300144 -36.30266166670814,-9.70593166633477 -36.30265500004147,-9.70591833300145 -36.30263500004148,-9.70588999966811 -36.30262500004147,-9.70588166633477 -36.30262000004148,-9.70587333300144 -36.30259333337482,-9.70581333300143 -36.30258666670814,-9.70579499966811 -36.30257833337482,-9.70577833300145 -36.30257166670816,-9.70576166633478 -36.30256833337482,-9.70574666633478 -36.30255500004148,-9.70571833300145 -36.30254500004149,-9.70569999966811 -36.30252833337482,-9.70567666633478 -36.30250666670816,-9.70565833300145 -36.30249666670816,-9.70564833300144 -36.30248500004150,-9.70561499966811 -36.30247833337482,-9.70560166633477 -36.30246500004148,-9.70558333300144 -36.30245166670817,-9.70555333300144 -36.30244333337483,-9.70554166633478 -36.30243166670816,-9.70553499966812 -36.30242000004149,-9.70552166633478 -36.30240333337483,-9.70548166633478 -36.30239833337483,-9.70545666633478 -36.30240833337483,-9.70543666633477 -36.30241666670816,-9.70540666633477 -36.30242000004148,-9.70537833300145 -36.30242000004149,-9.70533499966812 -36.30238000004149,-9.70529833300144 -36.30235833337484,-9.70528833300145 -36.30234000004151,-9.70527833300145 -36.30232833337483,-9.70528166633478 -36.30230666670817,-9.70527833300145 -36.30225166670817,-9.70528499966812 -36.30222333337485,-9.70528499966811 -36.30220000004151,-9.70528999966810 -36.30218333337484,-9.70529166633478 -36.30216500004151,-9.70528999966811 -36.30211166670819,-9.70530499966810 -36.30210333337485,-9.70530999966810 -36.30209000004152,-9.70531333300144 -36.30207166670817,-9.70531499966810 -36.30204333337486,-9.70531166633477 -36.30201666670819,-9.70531333300143 -36.30199333337487,-9.70531999966810 -36.30197000004153,-9.70532166633477 -36.30194166670821,-9.70532666633476 -36.30192666670820,-9.70532666633476 -36.30189333337487,-9.70532999966809 -36.30187666670821,-9.70533333300143 -36.30186500004154,-9.70533833300143 -36.30184500004154,-9.70533999966809 -36.30179666670822,-9.70534999966808 -36.30171833337489,-9.70535499966807 -36.30169166670823,-9.70535999966808 -36.30166166670822,-9.70536333300141 -36.30162666670822,-9.70536333300141 -36.30159166670822,-9.70536499966807 -36.30155666670824,-9.70536999966807 -36.30151833337490,-9.70537166633474 -36.30148000004157,-9.70537666633473 -36.30144833337491,-9.70538499966807 -36.30142000004157,-9.70538833300140 -36.30137166670824,-9.70539166633474 -36.30134333337491,-9.70539166633472 -36.30129500004158,-9.70539499966806 -36.30127333337492,-9.70539333300139 -36.30122166670826,-9.70539999966805 -36.30116000004159,-9.70540666633472 -36.30113333337493,-9.70541166633471 -36.30106166670827,-9.70541666633472 -36.30104500004160,-9.70541666633472 -36.30103666670827,-9.70541166633471 -36.30103000004160,-9.70539166633471 -36.30103333337494,-9.70534833300138 -36.30103333337494,-9.70531833300138 -36.30103000004162,-9.70528499966805 -36.30102500004161,-9.70525333300139 -36.30101833337493,-9.70517833300139 -36.30101833337493,-9.70513499966805 -36.30101000004160,-9.70490666633473 -36.30100833337495,-9.70486499966806 -36.30100500004161,-9.70482499966807 -36.30100500004161,-9.70469999966808 -36.30100666670827,-9.70465999966807 -36.30100500004161,-9.70462166633473 -36.30100666670827,-9.70458499966808 -36.30099833337495,-9.70440499966808 -36.30099833337495,-9.70437166633474 -36.30100166670828,-9.70430666633475 -36.30100166670829,-9.70427333300142 -36.30099166670827,-9.70419999966808 -36.30098833337494,-9.70416666633475 -36.30098333337495,-9.70413333300141 -36.30098166670828,-9.70409166633475 -36.30098166670828,-9.70402999966809 -36.30098897967924,-9.70395484276702 -36.30325500004144,-9.70239666633492 -36.30325500004144,-9.70239666633492 -36.30325500004144,-9.70239666633492
          </coordinates>
        </LinearRing>
      </outerBoundaryIs>
    </Polygon>
  </Placemark>
</Document>
</kml>
