<?xml version="1.0" encoding="UTF-8"?>
<kml xmlns="http://www.opengis.net/kml/2.2" xmlns:gx="http://www.google.com/kml/ext/2.2" xmlns:kml="http://www.opengis.net/kml/2.2" xmlns:atom="http://www.w3.org/2005/Atom">
<Document>
  <name>09.kml</name>
  <StyleMap id="FFFF4000">
    <Pair>
      <key>normal</key>
      <styleUrl>#s_FFFF4000</styleUrl>
    </Pair>
    <Pair>
      <key>highlight</key>
      <styleUrl>#s_FFFF4000_hl</styleUrl>
    </Pair>
  </StyleMap>
  <Style id="s_FFFF4000">
   <IconStyle>
      <scale>1.1</scale>
      <Icon>
        <href>http://maps.google.com/mapfiles/kml/pushpin/agrocad.png</href>
      </Icon>
      <hotSpot x="20" y="2" xunits="pixels" yunits="pixels"/>
    </IconStyle>
    <LineStyle>
      <color>FFFF4000</color>
      <width>1</width>
    </LineStyle>
    <PolyStyle>
      <color>40ffffff</color>
      <fill>1</fill>
    </PolyStyle>
  </Style>
  <Style id="s_FFFF4000_hl">
    <IconStyle>
      <scale>1.3</scale>
      <Icon>
        <href>http://maps.google.com/mapfiles/kml/pushpin/agrocad.png</href>
      </Icon>
      <hotSpot x="20" y="2" xunits="pixels" yunits="pixels"/>
    </IconStyle>
    <LineStyle>
      <color>ff000000</color>
      <width>1</width>
    </LineStyle>
    <PolyStyle>
      <color>40ffffff</color>
      <fill>1</fill>
    </PolyStyle>
  </Style>
  <Placemark>
    <name>AgroCAD: 1A0E1</name>
    <styleUrl>FFFF4000</styleUrl>
    <Polygon>
      <outerBoundaryIs>
        <LinearRing>
          <coordinates>
           -36.45716546105175,-9.71391821681167 -36.45724148491345,-9.71387467282462 -36.45732086153657,-9.71383418823231 -36.45740065725476,-9.71379621821103 -36.45748288372486,-9.71375368005242 -36.45756376909047,-9.71370887878001 -36.45764180460896,-9.71366751408783 -36.45772101359396,-9.71362803532388 -36.45780022257896,-9.71358696399832 -36.45787825809747,-9.71354840724373 -36.45795528778757,-9.71350641390889 -36.45803458059158,-9.71346454630251 -36.45811177791979,-9.71342427125780 -36.45818235354459,-9.71338408003217 -36.45824991168407,-9.71334816357702 -36.45831327887208,-9.71331484551196 -36.45837337711779,-9.71328249136570 -36.45842777566938,-9.71325164596205 -36.45853984171480,-9.71318635093634 -36.45855886863499,-9.71318090269929 -36.45857655445068,-9.71318396209385 -36.45858996549578,-9.71319904951958 -36.45859197715249,-9.71322846999980 -36.45858359524937,-9.71327712694766 -36.45857010038529,-9.71334141614497 -36.45855702461618,-9.71341961930153 -36.45854361357108,-9.71350905420843 -36.45850882867307,-9.71369060623107 -36.45847437905108,-9.71386809303074 -36.45845719614948,-9.71395413326676 -36.45843800159128,-9.71404134696924 -36.45840900020628,-9.71421485236489 -36.45839047620028,-9.71429741411115 -36.45836583340499,-9.71437553344870 -36.45834471100898,-9.71444895892051 -36.45833280870649,-9.71451848680733 -36.45832157695618,-9.71458197972377 -36.45831562580498,-9.71464157505539 -36.45830389114049,-9.71469848817787 -36.45827908070718,-9.71474764804002 -36.45823951812417,-9.71477006963098 -36.45817539656487,-9.71479517343098 -36.45809434356128,-9.71483180234780 -36.45800926724407,-9.71487379568264 -36.45792569966937,-9.71491599856517 -36.45784003661897,-9.71495577069572 -36.45775118844536,-9.71499382453604 -36.45765496419697,-9.71503829053243 -36.45755471663507,-9.71508883340851 -36.45745111631185,-9.71513778372303 -36.45734986292155,-9.71518396800950 -36.45725162701635,-9.71523425942850 -36.45715875552915,-9.71528010843885 -36.45706714132755,-9.71531925192666 -36.45697225818364,-9.71535395300574 -36.45688005724885,-9.71539498242181 -36.45678374918144,-9.71543672429961 -36.45668056795334,-9.71548475260477 -36.45657964983914,-9.71553081116266 -36.45648811945653,-9.71557527715900 -36.45640597680543,-9.71561282808521 -36.45633380861914,-9.71564459549816 -36.45627287218303,-9.71567359688316 -36.45622534679212,-9.71570176007784 -36.45618033597202,-9.71572393021170 -36.45616026942953,-9.71572645710978 -36.45576710814572,-9.71462594280582 -36.45578261466652,-9.71461529778878 -36.45579795354932,-9.71460775407599 -36.45581463353671,-9.71460385649098 -36.45583868959882,-9.71459321147396 -36.45587456414432,-9.71457485510599 -36.45601462574632,-9.71450474048594 -36.45610841924283,-9.71445755037110 -36.45615862684282,-9.71443282375681 -36.45621386358474,-9.71440466056218 -36.45627580584923,-9.71437456952971 -36.45634705202613,-9.71434037136486 -36.45642081277403,-9.71430173079125 -36.45649448970293,-9.71426468277916 -36.45656992683143,-9.71422788622424 -36.45664670506454,-9.71419318514512 -36.45672222601213,-9.71415412547641 -36.45680177027324,-9.71411414379820 -36.45688056016304,-9.71407835307165 -36.45695683548185,-9.71403711410811 -36.45709312522735,-9.71395756984699 -36.45716546105175,-9.71391821681167 -36.45716546105175,-9.71391821681167 -36.45716546105175,-9.71391821681167
          </coordinates>
        </LinearRing>
      </outerBoundaryIs>
    </Polygon>
  </Placemark>
</Document>
</kml>
