<?xml version="1.0" encoding="UTF-8"?>
<kml xmlns="http://www.opengis.net/kml/2.2" xmlns:gx="http://www.google.com/kml/ext/2.2" xmlns:kml="http://www.opengis.net/kml/2.2" xmlns:atom="http://www.w3.org/2005/Atom">
<Document>
  <name>21.kml</name>
  <StyleMap id="FFFF4000">
    <Pair>
      <key>normal</key>
      <styleUrl>#s_FFFF4000</styleUrl>
    </Pair>
    <Pair>
      <key>highlight</key>
      <styleUrl>#s_FFFF4000_hl</styleUrl>
    </Pair>
  </StyleMap>
  <Style id="s_FFFF4000">
   <IconStyle>
      <scale>1.1</scale>
      <Icon>
        <href>http://maps.google.com/mapfiles/kml/pushpin/agrocad.png</href>
      </Icon>
      <hotSpot x="20" y="2" xunits="pixels" yunits="pixels"/>
    </IconStyle>
    <LineStyle>
      <color>FFFF4000</color>
      <width>1</width>
    </LineStyle>
    <PolyStyle>
      <color>40ffffff</color>
      <fill>1</fill>
    </PolyStyle>
  </Style>
  <Style id="s_FFFF4000_hl">
    <IconStyle>
      <scale>1.3</scale>
      <Icon>
        <href>http://maps.google.com/mapfiles/kml/pushpin/agrocad.png</href>
      </Icon>
      <hotSpot x="20" y="2" xunits="pixels" yunits="pixels"/>
    </IconStyle>
    <LineStyle>
      <color>ff000000</color>
      <width>1</width>
    </LineStyle>
    <PolyStyle>
      <color>40ffffff</color>
      <fill>1</fill>
    </PolyStyle>
  </Style>
  <Placemark>
    <name>AgroCAD: 1A0DA</name>
    <styleUrl>FFFF4000</styleUrl>
    <Polygon>
      <outerBoundaryIs>
        <LinearRing>
          <coordinates>
           -36.45253169352163,-9.72268757345648 -36.45245223307953,-9.72267210884510 -36.45237369464683,-9.72265526121973 -36.45229876043242,-9.72263715630885 -36.45222617315102,-9.72262609219673 -36.45215316677433,-9.72261737501740 -36.45207429306552,-9.72260182658701 -36.45183239134011,-9.72255040361103 -36.45174873994641,-9.72253410080942 -36.45166416654341,-9.72252048021671 -36.45157749766460,-9.72250514133394 -36.45139619709900,-9.72247710386780 -36.45130659455411,-9.72245711302866 -36.45121615381890,-9.72244043304145 -36.45113090986360,-9.72242262149717 -36.45105371253539,-9.72240401367213 -36.45097911359719,-9.72238716604675 -36.45090652631568,-9.72237178525445 -36.45083519631969,-9.72236067923276 -36.45076604561859,-9.72235066285848 -36.45069714637448,-9.72233280940471 -36.45062749275918,-9.72230938198533 -36.45055138507838,-9.72229412692152 -36.45047318192178,-9.72228126070019 -36.45039372147968,-9.72226688573622 -36.45030889661958,-9.72225112775822 -36.45022348502637,-9.72223721379903 -36.45014016890887,-9.72222275501601 -36.45006163047607,-9.72220997261371 -36.44998594189047,-9.72220096206779 -36.44991419279936,-9.72218960458897 -36.44983992913726,-9.72217208641136 -36.44976700657966,-9.72215745999037 -36.44970204683005,-9.72214673115425 -36.44964546898366,-9.72213491267071 -36.44960171544905,-9.72213051217158 -36.44957070240736,-9.72212883579095 -36.44954253921265,-9.72212389046814 -36.44948545845205,-9.72210775530446 -36.44948034549116,-9.72210192988183 -36.44947858529146,-9.72209254215027 -36.44949241543175,-9.72204199927411 -36.44949719311655,-9.72200868120900 -36.44951186144705,-9.72193676447985 -36.44953013399595,-9.72186518302675 -36.44955201076325,-9.72178287273760 -36.44956290723737,-9.72174192714056 -36.44956860693155,-9.72171782916897 -36.44957254642605,-9.72170839952792 -36.44957170823575,-9.72168191271387 -36.44958226943375,-9.72165312087651 -36.44958738239465,-9.72164750500142 -36.45366240616907,-9.72259165486795 -36.45365981386936,-9.72262927732003 -36.45365604201296,-9.72271904750300 -36.45365268925166,-9.72276644716539 -36.45364615136726,-9.72281028451893 -36.45363894293047,-9.72284632670264 -36.45362955519897,-9.72286967030299 -36.45361782053447,-9.72288249461478 -36.45360340366106,-9.72288588928559 -36.45358161071276,-9.72288169833404 -36.45354925656657,-9.72287138859314 -36.45350617358425,-9.72286304859943 -36.45346208477366,-9.72285760036238 -36.45336217248776,-9.72284108801317 -36.45329939203306,-9.72283002390093 -36.45317466931395,-9.72280546492456 -36.45311063157365,-9.72279356262213 -36.45297668876095,-9.72276996756472 -36.45290971735465,-9.72275500586758 -36.45283914172995,-9.72274075663212 -36.45268818365384,-9.72271242579943 -36.45261048341144,-9.72269951766849 -36.45253169352163,-9.72268757345648 -36.45253169352163,-9.72268757345648 -36.45253169352163,-9.72268757345648
          </coordinates>
        </LinearRing>
      </outerBoundaryIs>
    </Polygon>
  </Placemark>
</Document>
</kml>
