<?xml version="1.0" encoding="UTF-8"?>
<kml xmlns="http://www.opengis.net/kml/2.2" xmlns:gx="http://www.google.com/kml/ext/2.2" xmlns:kml="http://www.opengis.net/kml/2.2" xmlns:atom="http://www.w3.org/2005/Atom">
<Document>
  <name>11.kml</name>
  <StyleMap id="FFFF4000">
    <Pair>
      <key>normal</key>
      <styleUrl>#s_FFFF4000</styleUrl>
    </Pair>
    <Pair>
      <key>highlight</key>
      <styleUrl>#s_FFFF4000_hl</styleUrl>
    </Pair>
  </StyleMap>
  <Style id="s_FFFF4000">
   <IconStyle>
      <scale>1.1</scale>
      <Icon>
        <href>http://maps.google.com/mapfiles/kml/pushpin/agrocad.png</href>
      </Icon>
      <hotSpot x="20" y="2" xunits="pixels" yunits="pixels"/>
    </IconStyle>
    <LineStyle>
      <color>FFFF4000</color>
      <width>1</width>
    </LineStyle>
    <PolyStyle>
      <color>40ffffff</color>
      <fill>1</fill>
    </PolyStyle>
  </Style>
  <Style id="s_FFFF4000_hl">
    <IconStyle>
      <scale>1.3</scale>
      <Icon>
        <href>http://maps.google.com/mapfiles/kml/pushpin/agrocad.png</href>
      </Icon>
      <hotSpot x="20" y="2" xunits="pixels" yunits="pixels"/>
    </IconStyle>
    <LineStyle>
      <color>ff000000</color>
      <width>1</width>
    </LineStyle>
    <PolyStyle>
      <color>40ffffff</color>
      <fill>1</fill>
    </PolyStyle>
  </Style>
  <Placemark>
    <name>AgroCAD: 1A0E2</name>
    <styleUrl>FFFF4000</styleUrl>
    <Polygon>
      <outerBoundaryIs>
        <LinearRing>
          <coordinates>
           -36.45386458376387,-9.71423706440808 -36.45384807141466,-9.71420047740070 -36.45384773613846,-9.71418983238370 -36.45384815523367,-9.71416590205018 -36.45386072808836,-9.71414704276807 -36.45388419741727,-9.71413811604113 -36.45390640946067,-9.71412747102415 -36.45392778331377,-9.71411556872164 -36.45396715601167,-9.71410327771645 -36.45400785562588,-9.71408491818920 -36.45403501369067,-9.71406937387227 -36.45407337531227,-9.71404924732447 -36.45411665637967,-9.71402869663458 -36.45415588368607,-9.71400862197417 -36.45418666146348,-9.71399351988170 -36.45426040596647,-9.71395849339181 -36.45428225172867,-9.71394582552484 -36.45432647372869,-9.71392807536931 -36.45437008587398,-9.71391323668182 -36.45442257239867,-9.71389088239739 -36.45446563641718,-9.71387079079086 -36.45452223755988,-9.71384846710927 -36.45461545890358,-9.71380308781885 -36.45467445974360,-9.71377436673245 -36.45473581179109,-9.71374566312926 -36.45482077297478,-9.71370430472321 -36.45488050743959,-9.71367573485196 -36.45493481022139,-9.71364639554903 -36.45503871333119,-9.71358768192269 -36.45518207419340,-9.71351934736201 -36.45522207530949,-9.71349617103288 -36.45524441185000,-9.71349633720806 -36.45526385867940,-9.71350071421456 -36.45527919756220,-9.71353231398951 -36.45529713483489,-9.71357749244761 -36.45531934687840,-9.71364090154516 -36.45535698162361,-9.71371625485466 -36.45539847204420,-9.71378750103163 -36.45544507542581,-9.71385992067500 -36.45548757167490,-9.71393749518883 -36.45552612842950,-9.71401594980257 -36.45555462690031,-9.71409306331169 -36.45557843150531,-9.71417323621551 -36.45560156555801,-9.71425227756244 -36.45563065076202,-9.71432255982045 -36.45565981978510,-9.71438881876509 -36.45568865353201,-9.71445226977206 -36.45570600407161,-9.71451333193672 -36.45572897048621,-9.71455503190500 -36.45574590193071,-9.71459195418842 -36.45573303365931,-9.71463296211399 -36.45439700225338,-9.71530584088151 -36.45439356567308,-9.71531145675655 -36.45438350738917,-9.71529519586444 -36.45435450600427,-9.71523895329414 -36.45433992149278,-9.71520814980002 -36.45432508552408,-9.71517374208748 -36.45428954625467,-9.71509331772659 -36.45427487792417,-9.71504994137764 -36.45425425844237,-9.71500673266678 -36.45423682408377,-9.71496595470790 -36.45421645605897,-9.71492643403442 -36.45419466311077,-9.71488967938902 -36.45417488181927,-9.71485422393862 -36.45415727982267,-9.71481721783615 -36.45414286294917,-9.71478096610490 -36.45412333311477,-9.71474102633620 -36.45409894177657,-9.71470498415265 -36.45407723264737,-9.71467011543538 -36.45405845718428,-9.71463797083676 -36.45404311830147,-9.71460616151430 -36.45402878524696,-9.71457460364878 -36.45401503892577,-9.71454233332163 -36.45397136921026,-9.71445340132892 -36.45395678469877,-9.71442616014367 -36.45392769949476,-9.71436916320205 -36.45390070976656,-9.71430927450386 -36.45386458376387,-9.71423706440808 -36.45386458376387,-9.71423706440808 -36.45386458376387,-9.71423706440808
          </coordinates>
        </LinearRing>
      </outerBoundaryIs>
    </Polygon>
  </Placemark>
</Document>
</kml>
