<?xml version="1.0" encoding="UTF-8"?>
<kml xmlns="http://www.opengis.net/kml/2.2" xmlns:gx="http://www.google.com/kml/ext/2.2" xmlns:kml="http://www.opengis.net/kml/2.2" xmlns:atom="http://www.w3.org/2005/Atom">
<Document>
  <name>12.kml</name>
  <StyleMap id="FFFF4000">
    <Pair>
      <key>normal</key>
      <styleUrl>#s_FFFF4000</styleUrl>
    </Pair>
    <Pair>
      <key>highlight</key>
      <styleUrl>#s_FFFF4000_hl</styleUrl>
    </Pair>
  </StyleMap>
  <Style id="s_FFFF4000">
   <IconStyle>
      <scale>1.1</scale>
      <Icon>
        <href>http://maps.google.com/mapfiles/kml/pushpin/agrocad.png</href>
      </Icon>
      <hotSpot x="20" y="2" xunits="pixels" yunits="pixels"/>
    </IconStyle>
    <LineStyle>
      <color>FFFF4000</color>
      <width>1</width>
    </LineStyle>
    <PolyStyle>
      <color>40ffffff</color>
      <fill>1</fill>
    </PolyStyle>
  </Style>
  <Style id="s_FFFF4000_hl">
    <IconStyle>
      <scale>1.3</scale>
      <Icon>
        <href>http://maps.google.com/mapfiles/kml/pushpin/agrocad.png</href>
      </Icon>
      <hotSpot x="20" y="2" xunits="pixels" yunits="pixels"/>
    </IconStyle>
    <LineStyle>
      <color>ff000000</color>
      <width>1</width>
    </LineStyle>
    <PolyStyle>
      <color>40ffffff</color>
      <fill>1</fill>
    </PolyStyle>
  </Style>
  <Placemark>
    <name>AgroCAD: 1A0E4</name>
    <styleUrl>FFFF4000</styleUrl>
    <Polygon>
      <outerBoundaryIs>
        <LinearRing>
          <coordinates>
           -36.45398075694187,-9.71553659467574 -36.45403129981796,-9.71551149087578 -36.45408762620727,-9.71548881782763 -36.45414294676817,-9.71545964880468 -36.45419617185338,-9.71542867767241 -36.45425492899458,-9.71539892191621 -36.45432374441958,-9.71536644204133 -36.45439817571978,-9.71532729855353 -36.45447654651448,-9.71528534712817 -36.45456262865997,-9.71524130022708 -36.45464770497719,-9.71519607985946 -36.45473739134118,-9.71515056612526 -36.45482707770508,-9.71510677068117 -36.45491550678349,-9.71506540598904 -36.45499949345329,-9.71502429275400 -36.45507945680960,-9.71498385007119 -36.45515799524230,-9.71494751452096 -36.45523334855180,-9.71490967022806 -36.45530903713750,-9.71487048483082 -36.45538170823791,-9.71483142516201 -36.45545144567222,-9.71479676599243 -36.45551405848891,-9.71476290310360 -36.45556569101251,-9.71473147096667 -36.45559421471560,-9.71471608466038 -36.45561811782720,-9.71470343201355 -36.45566265144481,-9.71468335119759 -36.45570071698921,-9.71466351385954 -36.45571545400902,-9.71465808305788 -36.45572545008691,-9.71465863222822 -36.45573785530360,-9.71467698859613 -36.45575361328162,-9.71471462334141 -36.45577079618313,-9.71476629777442 -36.45581932740242,-9.71490623364785 -36.45584807733031,-9.71499680011159 -36.45587892273403,-9.71508812094667 -36.45590800793801,-9.71517952560071 -36.45593499766621,-9.71527030161210 -36.45596190357542,-9.71535483310556 -36.45601227881342,-9.71549854083542 -36.45603490995203,-9.71556710480341 -36.45605494270063,-9.71562510757336 -36.45607749002012,-9.71566772955095 -36.45608779976102,-9.71570406510123 -36.45608335735232,-9.71573172538165 -36.45605787636672,-9.71576646837034 -36.45601630212702,-9.71578817749951 -36.45595628770033,-9.71581856189851 -36.45587665962013,-9.71585590327709 -36.45578848199881,-9.71589592686482 -36.45569971764422,-9.71593527990017 -36.45561019891832,-9.71597848861099 -36.45543174819981,-9.71606243337123 -36.45525145346260,-9.71614650386006 -36.45516252147000,-9.71618598262393 -36.45507878625731,-9.71622520993080 -36.45491357894580,-9.71630500564902 -36.45483026282829,-9.71634771144565 -36.45475356841429,-9.71638832176654 -36.45468860866468,-9.71642985409667 -36.45463261755149,-9.71647939114451 -36.45457168111538,-9.71652385714075 -36.45450554789938,-9.71654669782694 -36.45443748684568,-9.71655264897814 -36.45437311382928,-9.71656182716213 -36.45431628452577,-9.71658588322420 -36.45425224678557,-9.71662100339850 -36.45417806694248,-9.71665704558212 -36.45410673694647,-9.71669283630867 -36.45403934644497,-9.71671953267029 -36.45397296177187,-9.71675197063558 -36.45391571337326,-9.71677849935898 -36.45386592486836,-9.71679853210769 -36.45382376389546,-9.71681902586090 -36.45378403367436,-9.71683687931468 -36.45376442002095,-9.71683981298072 -36.45374882968106,-9.71683696313371 -36.45374589601496,-9.71683067670628 -36.45373701119757,-9.71681978023219 -36.45370004700457,-9.71674560038913 -36.45369116218726,-9.71671949076078 -36.45368780942595,-9.71669606334139 -36.45368219355086,-9.71666467311403 -36.45367146471476,-9.71662674500219 -36.45365922713616,-9.71658927789501 -36.45364883357626,-9.71655528927760 -36.45363659599765,-9.71652134256981 -36.45362402314296,-9.71648886269502 -36.45361253993556,-9.71645567035842 -36.45359460266276,-9.71638480136712 -36.45356643946815,-9.71630974142419 -36.45354674199565,-9.71627080748399 -36.45353106783675,-9.71622847887295 -36.45352486522845,-9.71618485106703 -36.45353022964645,-9.71614667149802 -36.45354355687246,-9.71610656409135 -36.45356367344005,-9.71606842643191 -36.45358873533055,-9.71602521772108 -36.45362041892455,-9.71597538730673 -36.45365453327046,-9.71592253940720 -36.45369040781595,-9.71586788939857 -36.45372385160967,-9.71581411948968 -36.45375008696656,-9.71576278033285 -36.45376869479156,-9.71571202790912 -36.45379157738736,-9.71566860965064 -36.45381471143998,-9.71562711922995 -36.45384756850047,-9.71559564518358 -36.45388998093047,-9.71557460660659 -36.45393457265537,-9.71555717224801 -36.45398075694187,-9.71553659467574 -36.45398075694187,-9.71553659467574 -36.45398075694187,-9.71553659467574
          </coordinates>
        </LinearRing>
      </outerBoundaryIs>
    </Polygon>
  </Placemark>
</Document>
</kml>
