<?xml version="1.0" encoding="UTF-8"?>
<kml xmlns="http://www.opengis.net/kml/2.2" xmlns:gx="http://www.google.com/kml/ext/2.2" xmlns:kml="http://www.opengis.net/kml/2.2" xmlns:atom="http://www.w3.org/2005/Atom">
<Document>
  <name>23.kml</name>
  <StyleMap id="FFFF4000">
    <Pair>
      <key>normal</key>
      <styleUrl>#s_FFFF4000</styleUrl>
    </Pair>
    <Pair>
      <key>highlight</key>
      <styleUrl>#s_FFFF4000_hl</styleUrl>
    </Pair>
  </StyleMap>
  <Style id="s_FFFF4000">
   <IconStyle>
      <scale>1.1</scale>
      <Icon>
        <href>http://maps.google.com/mapfiles/kml/pushpin/agrocad.png</href>
      </Icon>
      <hotSpot x="20" y="2" xunits="pixels" yunits="pixels"/>
    </IconStyle>
    <LineStyle>
      <color>FFFF4000</color>
      <width>1</width>
    </LineStyle>
    <PolyStyle>
      <color>40ffffff</color>
      <fill>1</fill>
    </PolyStyle>
  </Style>
  <Style id="s_FFFF4000_hl">
    <IconStyle>
      <scale>1.3</scale>
      <Icon>
        <href>http://maps.google.com/mapfiles/kml/pushpin/agrocad.png</href>
      </Icon>
      <hotSpot x="20" y="2" xunits="pixels" yunits="pixels"/>
    </IconStyle>
    <LineStyle>
      <color>ff000000</color>
      <width>1</width>
    </LineStyle>
    <PolyStyle>
      <color>40ffffff</color>
      <fill>1</fill>
    </PolyStyle>
  </Style>
  <Placemark>
    <name>AgroCAD: 1A0DB</name>
    <styleUrl>FFFF4000</styleUrl>
    <Polygon>
      <outerBoundaryIs>
        <LinearRing>
          <coordinates>
           -36.44855607767013,-9.72225683770479 -36.44857409412022,-9.72226960985473 -36.44859488124023,-9.72225242695317 -36.44860561007622,-9.72221856406433 -36.44863058814762,-9.72224748163028 -36.44866361284623,-9.72227275306843 -36.44871273079874,-9.72229278581692 -36.44876478241733,-9.72230087435357 -36.44882253373023,-9.72231365675584 -36.44888263197593,-9.72233578498025 -36.44894314931684,-9.72235485380995 -36.44900341520064,-9.72237157570670 -36.44906426781775,-9.72238632785633 -36.44912419842535,-9.72240275638663 -36.44917407074924,-9.72241419768448 -36.44920902328545,-9.72242568089173 -36.44923215733824,-9.72243661927540 -36.44924171270785,-9.72245208388674 -36.44924129361264,-9.72247949271006 -36.44923869522275,-9.72251897147408 -36.44921841342285,-9.72258669206643 -36.44919195142735,-9.72266787277663 -36.44916390012744,-9.72275110003946 -36.44913890486335,-9.72283715273724 -36.44911292118244,-9.72292168349899 -36.44908961088255,-9.72300191820702 -36.44906876701964,-9.72308309954460 -36.44904844174115,-9.72316587653554 -36.44903102772814,-9.72324661420479 -36.44900877635214,-9.72332474495570 -36.44899031181154,-9.72340561122500 -36.44896829595604,-9.72348536675579 -36.44894785006104,-9.72355667701249 -36.44890506688294,-9.72369822913466 -36.44888311863794,-9.72376601543031 -36.44886547869044,-9.72383337955896 -36.44885033657414,-9.72389854028510 -36.44882893777083,-9.72396298647229 -36.44881131206633,-9.72402874059990 -36.44879944694993,-9.72408238605490 -36.44878585012303,-9.72413656857551 -36.44877033318343,-9.72418428732512 -36.44875976640444,-9.72422688032136 -36.44875338302903,-9.72423520805780 -36.44872874023374,-9.72423667489084 -36.44869437443074,-9.72423395077234 -36.44865338692422,-9.72422711952128 -36.44860988484682,-9.72422334766482 -36.44855900669452,-9.72421467239505 -36.44850544633323,-9.72420406928754 -36.44844694064922,-9.72419187361836 -36.44838575275603,-9.72417288860773 -36.44833177329962,-9.72415273013054 -36.44827444108191,-9.72413755888583 -36.44810319880011,-9.72408634545741 -36.44807696344321,-9.72407523943573 -36.44806455822652,-9.72406639652795 -36.44805873605271,-9.72406425888276 -36.44855607767013,-9.72225683770479 -36.44855607767013,-9.72225683770479 -36.44855607767013,-9.72225683770479
          </coordinates>
        </LinearRing>
      </outerBoundaryIs>
    </Polygon>
  </Placemark>
</Document>
</kml>
