<?xml version="1.0" encoding="UTF-8"?>
<kml xmlns="http://www.opengis.net/kml/2.2" xmlns:gx="http://www.google.com/kml/ext/2.2" xmlns:kml="http://www.opengis.net/kml/2.2" xmlns:atom="http://www.w3.org/2005/Atom">
<Document>
  <name>31.kml</name>
  <StyleMap id="FFFF4000">
    <Pair>
      <key>normal</key>
      <styleUrl>#s_FFFF4000</styleUrl>
    </Pair>
    <Pair>
      <key>highlight</key>
      <styleUrl>#s_FFFF4000_hl</styleUrl>
    </Pair>
  </StyleMap>
  <Style id="s_FFFF4000">
   <IconStyle>
      <scale>1.1</scale>
      <Icon>
        <href>http://maps.google.com/mapfiles/kml/pushpin/agrocad.png</href>
      </Icon>
      <hotSpot x="20" y="2" xunits="pixels" yunits="pixels"/>
    </IconStyle>
    <LineStyle>
      <color>FFFF4000</color>
      <width>1</width>
    </LineStyle>
    <PolyStyle>
      <color>40ffffff</color>
      <fill>1</fill>
    </PolyStyle>
  </Style>
  <Style id="s_FFFF4000_hl">
    <IconStyle>
      <scale>1.3</scale>
      <Icon>
        <href>http://maps.google.com/mapfiles/kml/pushpin/agrocad.png</href>
      </Icon>
      <hotSpot x="20" y="2" xunits="pixels" yunits="pixels"/>
    </IconStyle>
    <LineStyle>
      <color>ff000000</color>
      <width>1</width>
    </LineStyle>
    <PolyStyle>
      <color>40ffffff</color>
      <fill>1</fill>
    </PolyStyle>
  </Style>
  <Placemark>
    <name>AgroCAD: 1F72B</name>
    <styleUrl>FFFF4000</styleUrl>
    <Polygon>
      <outerBoundaryIs>
        <LinearRing>
          <coordinates>
           -36.45906136374242,-9.65522197042796 -36.45908818583257,-9.65517821689341 -36.45913294519550,-9.65519418441894 -36.45905189219183,-9.65517666624132 -36.45910453054375,-9.65519330431912 -36.45907779227263,-9.65519196321461 -36.45907485860653,-9.65519686662796 -36.45907544533975,-9.65520625435952 -36.45908215086228,-9.65521363043430 -36.45908676090903,-9.65520290159824 -36.45908433015711,-9.65521161877754 -36.45906622524626,-9.65521937203797 -36.45904317501254,-9.65523479473981 -36.45902439954944,-9.65524388910475 -36.45900964739984,-9.65525256437453 -36.45895793105728,-9.65527460877987 -36.45893136042424,-9.65528441560658 -36.45890202376313,-9.65529254605265 -36.45887830297716,-9.65530260433646 -36.45882247950204,-9.65533353355917 -36.45876724276015,-9.65536098429204 -36.45874167795547,-9.65537087493778 -36.45871695134112,-9.65537846056016 -36.45869264382192,-9.65538755492509 -36.45863723944196,-9.65541303591073 -36.45861016589472,-9.65542460293711 -36.45858233797619,-9.65543235619755 -36.45853565077553,-9.65544970673711 -36.45849768075417,-9.65546894320489 -36.45848091694782,-9.65547535536081 -36.45844277928840,-9.65548512027800 -36.45843624140392,-9.65548273143559 -36.45841436463664,-9.65545905255913 -36.45840095359157,-9.65543382303059 -36.45838670435618,-9.65540167843193 -36.45837128165435,-9.65536387604863 -36.45835552367639,-9.65533726350605 -36.45834487865935,-9.65532330763728 -36.45833062942397,-9.65531656020523 -36.45831177014184,-9.65532280472308 -36.45825955088508,-9.65535960127800 -36.45822996276689,-9.65537343141824 -36.45819433967841,-9.65538298678785 -36.45816869105470,-9.65539518245696 -36.45814941267740,-9.65540134315579 -36.45813767801298,-9.65540117551774 -36.45812627862466,-9.65538441171139 -36.45811437632216,-9.65536152911573 -36.45809618759228,-9.65533064180254 -36.45807615484371,-9.65529820383728 -36.45805913958026,-9.65526677170038 -36.45803902301266,-9.65523559102057 -36.45801932554020,-9.65520210531741 -36.45800381901933,-9.65517092463761 -36.45796685482634,-9.65511212558686 -36.45795034247710,-9.65508144782126 -36.45793190229012,-9.65505512864530 -36.45791379737927,-9.65502642062694 -36.45789409990681,-9.65499741924196 -36.45787524062468,-9.65496628047168 -36.45785931500866,-9.65493371677786 -36.45784431140199,-9.65489909951776 -36.45782872106209,-9.65486498517185 -36.45781329836025,-9.65483296630174 -36.45779527726844,-9.65480253999323 -36.45777859728113,-9.65477156886100 -36.45776292312220,-9.65474659078956 -36.45772579129115,-9.65469818529874 -36.45770852457062,-9.65466713034749 -36.45767960700468,-9.65459957220794 -36.45764457064942,-9.65453616311044 -36.45762923176663,-9.65450066575050 -36.45761162976996,-9.65446449783832 -36.45759771581070,-9.65442656972648 -36.45758002999502,-9.65438939598592 -36.45756351764575,-9.65435934686304 -36.45755069333391,-9.65433135130644 -36.45753728228883,-9.65430419394017 -36.45752470943409,-9.65427401908876 -36.45751473496930,-9.65424032383799 -36.45749269056396,-9.65417771102131 -36.45747064615863,-9.65412582704069 -36.45746243189353,-9.65410462082567 -36.45745413380939,-9.65407033884168 -36.45745061341004,-9.65406044819594 -36.45745698365645,-9.65404921644569 -36.45748430866080,-9.65403241072983 -36.45751406441705,-9.65402210098894 -36.45753275606112,-9.65401799385638 -36.45755748267549,-9.65400919285806 -36.45761171358900,-9.65398622644337 -36.45766887816861,-9.65395869189145 -36.45769813101069,-9.65394402356091 -36.45778731446043,-9.65390156922135 -36.45785470496192,-9.65386875407044 -36.45788789729848,-9.65385215790216 -36.45791916179731,-9.65383497500065 -36.45794925282969,-9.65382001330350 -36.45797892476691,-9.65380626698229 -36.45803382623268,-9.65377676268313 -36.45805461335255,-9.65376490229015 -36.45806986841632,-9.65375832249617 -36.45808378237558,-9.65376012460534 -36.45809719342067,-9.65377190117930 -36.45811756144537,-9.65380547070149 -36.45815452563834,-9.65384222534690 -36.45817480984403,-9.65385974352453 -36.45819073546005,-9.65387851898764 -36.45820330831481,-9.65389842600767 -36.45821831192149,-9.65391879403238 -36.45825712013316,-9.65395831470583 -36.45827287811112,-9.65397532996927 -36.45831948149275,-9.65403752369081 -36.45833591002297,-9.65405667633955 -36.45836415703665,-9.65410063942169 -36.45837899300528,-9.65412205518430 -36.45839282314550,-9.65414401577059 -36.45840707238089,-9.65416358751451 -36.45842241126369,-9.65418739211951 -36.45843842069875,-9.65420926888679 -36.45848007875751,-9.65427435436491 -36.45849860276352,-9.65429371656124 -36.45851737822662,-9.65431106710080 -36.45853632132779,-9.65433499743436 -36.45857554863463,-9.65438084644470 -36.45860304127702,-9.65442367796992 -36.45861812870273,-9.65444396217559 -36.45863472487101,-9.65446420447175 -36.45865517671474,-9.65448155501131 -36.45867537710140,-9.65450322223102 -36.45869373346933,-9.65452815839294 -36.45871292802759,-9.65455171154085 -36.45873480479488,-9.65458779563401 -36.45874352197417,-9.65460426607374 -36.45875483754346,-9.65462199379895 -36.45878367129036,-9.65467400350813 -36.45879867489703,-9.65469608982299 -36.45882826301523,-9.65473481421563 -36.45884091968902,-9.65475501460228 -36.45885156470605,-9.65477475398425 -36.45889657552607,-9.65487148114684 -36.45891878756949,-9.65491841980461 -36.45893211479552,-9.65494151194784 -36.45894753749735,-9.65496301152948 -36.45895960743792,-9.65498392437789 -36.45897033627397,-9.65500542395953 -36.45898207093842,-9.65502587580327 -36.45900713282890,-9.65507872370276 -36.45902071151205,-9.65510412086937 -36.45903009924360,-9.65512536899392 -36.45903957079417,-9.65513727129640 -36.45904518666930,-9.65514808395150 -36.45905029963023,-9.65516388383898 -36.45906136374242,-9.65522197042796 -36.45906136374242,-9.65522197042796 -36.45906136374242,-9.65522197042796
          </coordinates>
        </LinearRing>
      </outerBoundaryIs>
    </Polygon>
  </Placemark>
</Document>
</kml>
