<?xml version="1.0" encoding="UTF-8"?>
<kml xmlns="http://www.opengis.net/kml/2.2" xmlns:gx="http://www.google.com/kml/ext/2.2" xmlns:kml="http://www.opengis.net/kml/2.2" xmlns:atom="http://www.w3.org/2005/Atom">
<Document>
  <name>32.kml</name>
  <StyleMap id="FFFF4000">
    <Pair>
      <key>normal</key>
      <styleUrl>#s_FFFF4000</styleUrl>
    </Pair>
    <Pair>
      <key>highlight</key>
      <styleUrl>#s_FFFF4000_hl</styleUrl>
    </Pair>
  </StyleMap>
  <Style id="s_FFFF4000">
   <IconStyle>
      <scale>1.1</scale>
      <Icon>
        <href>http://maps.google.com/mapfiles/kml/pushpin/agrocad.png</href>
      </Icon>
      <hotSpot x="20" y="2" xunits="pixels" yunits="pixels"/>
    </IconStyle>
    <LineStyle>
      <color>FFFF4000</color>
      <width>1</width>
    </LineStyle>
    <PolyStyle>
      <color>40ffffff</color>
      <fill>1</fill>
    </PolyStyle>
  </Style>
  <Style id="s_FFFF4000_hl">
    <IconStyle>
      <scale>1.3</scale>
      <Icon>
        <href>http://maps.google.com/mapfiles/kml/pushpin/agrocad.png</href>
      </Icon>
      <hotSpot x="20" y="2" xunits="pixels" yunits="pixels"/>
    </IconStyle>
    <LineStyle>
      <color>ff000000</color>
      <width>1</width>
    </LineStyle>
    <PolyStyle>
      <color>40ffffff</color>
      <fill>1</fill>
    </PolyStyle>
  </Style>
  <Placemark>
    <name>AgroCAD: 1F72C</name>
    <styleUrl>FFFF4000</styleUrl>
    <Polygon>
      <outerBoundaryIs>
        <LinearRing>
          <coordinates>
           -36.45536142404468,-9.64787359782710 -36.45535111430378,-9.64788881098135 -36.45535756836923,-9.64789949790790 -36.45537667910846,-9.64795586620673 -36.45539436492415,-9.64799748235597 -36.45541012290212,-9.64804471438035 -36.45543032328875,-9.64809664027048 -36.45545220005603,-9.64814818897500 -36.45547650757521,-9.64819479235663 -36.45549687559993,-9.64824315593792 -36.45554213787705,-9.64833954782440 -36.45555898550243,-9.64839034215762 -36.45557742568942,-9.64843966965777 -36.45559418949575,-9.64848744650586 -36.45564322362929,-9.64860923555893 -36.45566292110175,-9.64865629994524 -36.45568354058355,-9.64870420252186 -36.45570223222762,-9.64874917143237 -36.45573542456418,-9.64883592413021 -36.45575428384631,-9.64888315615457 -36.45579191859155,-9.64898260743570 -36.45581245425431,-9.64902661242735 -36.45585629160790,-9.64911713698160 -36.45587431269972,-9.64915980086875 -36.45589241761057,-9.64920116556089 -36.45591228272108,-9.64924437427176 -36.45593315365998,-9.64928804398728 -36.45595100711374,-9.64932857048911 -36.45596651363460,-9.64937437758993 -36.45598419945029,-9.64941938840996 -36.45602325911907,-9.64950396181296 -36.45604186694411,-9.64954817635220 -36.45606173205461,-9.64959058878224 -36.45608235153642,-9.64963136674118 -36.45610045644727,-9.64967122269076 -36.45613138566998,-9.64974858765703 -36.45614454525795,-9.64978810833048 -36.45617555829968,-9.64987205309074 -36.45618846643056,-9.64991262150209 -36.45620422440853,-9.64995298036585 -36.45621880892004,-9.64999325541059 -36.45623523745026,-9.65003369809340 -36.45625384527530,-9.65007330258588 -36.45627060908164,-9.65011546355882 -36.45628762434507,-9.65015666061291 -36.45630916583623,-9.65019886349539 -36.45632752220418,-9.65024404195349 -36.45634638148630,-9.65028750212142 -36.45636431875909,-9.65033146520356 -36.45641746002520,-9.65044604581992 -36.45643665458346,-9.65048049544195 -36.45647143948162,-9.65055811186531 -36.45650186579013,-9.65063480627933 -36.45652768205189,-9.65070198723326 -36.45654276947760,-9.65073266499886 -36.45655131901883,-9.65075550568500 -36.45655869509363,-9.65077872355679 -36.45656548443520,-9.65080441409001 -36.45657738673769,-9.65083551095077 -36.45659096542084,-9.65086493143090 -36.45660378973269,-9.65089590256312 -36.45662348720515,-9.65095579126128 -36.45663446749829,-9.65098680430300 -36.45668568092667,-9.65111047928432 -36.45669741559110,-9.65114107323088 -36.45671149718843,-9.65117082898715 -36.45673966038309,-9.65123557918914 -36.45675147886656,-9.65126940016844 -36.45678039643250,-9.65132907931903 -36.45679347220145,-9.65135833216109 -36.45680478777072,-9.65138645344623 -36.45681736062547,-9.65141243734606 -36.45685734230362,-9.65149009567894 -36.45687821324251,-9.65153866880783 -36.45688164982280,-9.65156079703219 -36.45687494430027,-9.65157785420515 -36.45685952159843,-9.65158175179012 -36.45683739337406,-9.65158493691332 -36.45681266675970,-9.65158992414572 -36.45678316246055,-9.65159461801148 -36.45675214941880,-9.65160094634838 -36.45672549496673,-9.65161075317509 -36.45670437257074,-9.65162374512501 -36.45668903368794,-9.65163744953668 -36.45665952938877,-9.65166821112132 -36.45662700760446,-9.65169281200713 -36.45660538229428,-9.65169993662482 -36.45658576864087,-9.65171284475571 -36.45656808282518,-9.65172793218142 -36.45654444585824,-9.65174184614069 -36.45652047361516,-9.65175295216239 -36.45649901594304,-9.65175881949460 -36.45648334178412,-9.65177176953500 -36.45647236149097,-9.65179255665487 -36.45646749998712,-9.65181338568423 -36.45647319968129,-9.65185475037640 -36.45646967928195,-9.65187763297205 -36.45645786079847,-9.65190043174868 -36.45644101317311,-9.65192008731161 -36.45642022605325,-9.65193228298073 -36.45639491270566,-9.65193437845653 -36.45635602067496,-9.65193194770460 -36.45633372481251,-9.65193530046587 -36.45630866292203,-9.65194447864984 -36.45628485831703,-9.65195441120509 -36.45626122135010,-9.65196719360744 -36.45623280669834,-9.65197989219074 -36.45619793798114,-9.65199380614999 -36.45616533237781,-9.65200554081444 -36.45613775591638,-9.65201740120742 -36.45604228603926,-9.65205432349089 -36.45601110535946,-9.65206723162178 -36.45598042759385,-9.65207913392428 -36.45594731907634,-9.65208994657936 -36.45591479729203,-9.65210298043879 -36.45588286224094,-9.65211672675999 -36.45585034045665,-9.65212892242911 -36.45581823776750,-9.65214321357402 -36.45578571598319,-9.65215545115263 -36.45571924749105,-9.65217766319604 -36.45568454641192,-9.65218663183244 -36.45565638321727,-9.65219664820673 -36.45563383589774,-9.65219991714896 -36.45561723972946,-9.65219744448752 -36.45560600797921,-9.65218721856565 -36.45560039210407,-9.65217741173895 -36.45558773543030,-9.65217397515865 -36.45556334409207,-9.65217753746749 -36.45554129968673,-9.65218394962341 -36.45552545788973,-9.65219434318336 -36.45551037046402,-9.65220163543911 -36.45547105933815,-9.65220465292425 -36.45544893111379,-9.65220167734861 -36.45543258640260,-9.65219396599770 -36.45542051646203,-9.65218239897133 -36.45540601576955,-9.65216643144577 -36.45537525418490,-9.65212955107183 -36.45535748455018,-9.65210629129053 -36.45533954727741,-9.65207800236732 -36.45532186146172,-9.65204338510722 -36.45530476237925,-9.65200478644312 -36.45528489726873,-9.65196715169787 -36.45526209849210,-9.65193454609454 -36.45524407740028,-9.65189942592026 -36.45522630776556,-9.65186275509389 -36.45521013069245,-9.65182595853896 -36.45518875683935,-9.65179339484514 -36.45514869134220,-9.65172499851526 -36.45512765276524,-9.65168455583246 -36.45510368052216,-9.65164172430726 -36.45503721203002,-9.65150744621844 -36.45501131194922,-9.65146067519876 -36.45498574714455,-9.65141352699341 -36.45495699721668,-9.65136906099708 -36.45491031001601,-9.65127673433365 -36.45489513877127,-9.65122912512364 -36.45487929697428,-9.65113793001713 -36.45486756230985,-9.65108931497875 -36.45485314543639,-9.65103177321347 -36.45484141077194,-9.65097297416272 -36.45483051429783,-9.65091187008861 -36.45481525923406,-9.65084825144354 -36.45480042326545,-9.65078283068928 -36.45477200861370,-9.65064683431033 -36.45476127977764,-9.65058514350298 -36.45473403859232,-9.65045488872770 -36.45471643659566,-9.65038339109365 -36.45469883459901,-9.65031004944089 -36.45468416626846,-9.65023519904559 -36.45467117431854,-9.65015716352706 -36.45465717654025,-9.65007497896647 -36.45464343021905,-9.64998952546364 -36.45461157898700,-9.64982247413343 -36.45459749738968,-9.64973647580689 -36.45458349961139,-9.64965458461290 -36.45456857982373,-9.64957214859521 -36.45455273802674,-9.64949168232477 -36.45453630949653,-9.64941222188270 -36.45452298227049,-9.64933104315050 -36.45450848157800,-9.64925191798456 -36.45447989928819,-9.64910054081328 -36.45445508885482,-9.64895754554518 -36.45444301891425,-9.64888520972081 -36.45442759621240,-9.64881480173417 -36.45441242496766,-9.64874762078025 -36.45439666698970,-9.64868387640664 -36.45438174720206,-9.64862000630447 -36.45436934198536,-9.64855743539730 -36.45434344190455,-9.64843803518662 -36.45432827065984,-9.64838460055390 -36.45431745800474,-9.64833359667311 -36.45431100393930,-9.64828959168146 -36.45431108775833,-9.64825258557896 -36.45431469197669,-9.64821989615658 -36.45432709719339,-9.64818909266243 -36.45435132089355,-9.64816964664707 -36.45438057373562,-9.64815845680635 -36.45441611300506,-9.64814684787045 -36.45446313548186,-9.64813331109683 -36.45459347407616,-9.64809647263240 -36.45466648045279,-9.64807916400236 -36.45474024120068,-9.64805988562506 -36.45481081682539,-9.64803792503875 -36.45488256591653,-9.64801889811856 -36.45495079460834,-9.64799894918900 -36.45501667636726,-9.64797715624076 -36.45507828335557,-9.64796001524878 -36.45513435828779,-9.64795129806948 -36.45518674518260,-9.64793717456264 -36.45523703660163,-9.64792254814161 -36.45528330470714,-9.64791031056298 -36.45531850870046,-9.64789752816065 -36.45532999190779,-9.64788550012959 -36.45535396415086,-9.64788319510624 -36.45536142404468,-9.64787359782710 -36.45536142404468,-9.64787359782710 -36.45536142404468,-9.64787359782710
          </coordinates>
        </LinearRing>
      </outerBoundaryIs>
    </Polygon>
  </Placemark>
</Document>
</kml>
