<?xml version="1.0" encoding="utf-8" ?>
<kml xmlns="http://www.opengis.net/kml/2.2">
<Document id="root_doc">
<Schema name="SANTA_HELENA_TALHAO_1002_ID_108" id="SANTA_HELENA_TALHAO_1002_ID_108">
	<SimpleField name="ID" type="float"></SimpleField>
	<SimpleField name="AREA_TOTAL" type="float"></SimpleField>
	<SimpleField name="FAZENDA" type="float"></SimpleField>
	<SimpleField name="FAZ_NOME" type="string"></SimpleField>
	<SimpleField name="TALHAO" type="float"></SimpleField>
	<SimpleField name="ZONA" type="float"></SimpleField>
	<SimpleField name="ACIONISTA" type="string"></SimpleField>
	<SimpleField name="CODE" type="string"></SimpleField>
</Schema>
<Folder><name>SANTA_HELENA_TALHAO_1002_ID_108</name>
  <Placemark id="SANTA_HELENA_TALHAO_1002_ID_108.1">
	<Style><LineStyle><color>ff0000ff</color></LineStyle><PolyStyle><fill>0</fill></PolyStyle></Style>
	<ExtendedData><SchemaData schemaUrl="#SANTA_HELENA_TALHAO_1002_ID_108">
		<SimpleData name="ID">108</SimpleData>
		<SimpleData name="AREA_TOTAL">12.95</SimpleData>
		<SimpleData name="FAZ_NOME">SANTA HELENA</SimpleData>
		<SimpleData name="TALHAO">1002</SimpleData>
		<SimpleData name="ZONA">1</SimpleData>
		<SimpleData name="ACIONISTA">HENRIQUE TENÓRIO</SimpleData>
		<SimpleData name="CODE"></SimpleData>
	</SchemaData></ExtendedData>
      <MultiGeometry><Polygon><outerBoundaryIs><LinearRing><coordinates>-36.3438045238673,-9.74621912100731,0 -36.3428774255205,-9.747259118522,0 -36.342854378009,-9.7472859616095,0 -36.3428154970594,-9.74731054481712,0 -36.3428106171858,-9.74731333596358,0 -36.3435821153494,-9.74809997239893,0 -36.3436059243066,-9.74810044770915,0 -36.3436181231539,-9.74810283608594,0 -36.343665219775,-9.74811529393757,0 -36.3437791789735,-9.7481646981348,0 -36.3438653443169,-9.748197500652,0 -36.3440051423623,-9.74823867463345,0 -36.3449749667561,-9.74836860452904,0 -36.3450985858581,-9.7484056182732,0 -36.3451323915622,-9.74842604741318,0 -36.345306167136,-9.74854418739283,0 -36.3454466806158,-9.74860497659066,0 -36.346000796835,-9.74876821369227,0 -36.3462570048925,-9.74885031041931,0 -36.3464047012269,-9.74888973876872,0 -36.3468451726209,-9.74900717977975,0 -36.3473430783882,-9.74899013423519,0 -36.347412286245,-9.74897768857518,0 -36.3474980197943,-9.74895755818257,0 -36.3474924887155,-9.74890727684988,0 -36.3473311718206,-9.74858525303184,0 -36.3471576344863,-9.74827330233958,0 -36.3468924904021,-9.74778977995242,0 -36.3467070608211,-9.74740004824519,0 -36.3462516511395,-9.74650917091246,0 -36.3459454188728,-9.74572891531353,0 -36.3458799536248,-9.74545089114884,0 -36.3458335745084,-9.74508768186648,0 -36.345818230252,-9.74501177682592,0 -36.3458019180552,-9.74494542355974,0 -36.3457626344767,-9.7448273165135,0 -36.3457092212809,-9.7447149104747,0 -36.3456641584127,-9.74463686599703,0 -36.3456282447053,-9.74459380562172,0 -36.3455346337239,-9.74448519629476,0 -36.3452612818112,-9.74431712602329,0 -36.345168015179,-9.74424796597873,0 -36.3438045238673,-9.74621912100731,0</coordinates></LinearRing></outerBoundaryIs></Polygon></MultiGeometry>
  </Placemark>
</Folder>
</Document></kml>
