<?xml version="1.0" encoding="utf-8" ?>
<kml xmlns="http://www.opengis.net/kml/2.2">
<Document id="root_doc">
<Schema name="SANTA_HELENA_TALHAO_1008_ID_109" id="SANTA_HELENA_TALHAO_1008_ID_109">
	<SimpleField name="ID" type="float"></SimpleField>
	<SimpleField name="AREA_TOTAL" type="float"></SimpleField>
	<SimpleField name="FAZENDA" type="float"></SimpleField>
	<SimpleField name="FAZ_NOME" type="string"></SimpleField>
	<SimpleField name="TALHAO" type="float"></SimpleField>
	<SimpleField name="ZONA" type="float"></SimpleField>
	<SimpleField name="ACIONISTA" type="string"></SimpleField>
	<SimpleField name="CODE" type="string"></SimpleField>
</Schema>
<Folder><name>SANTA_HELENA_TALHAO_1008_ID_109</name>
  <Placemark id="SANTA_HELENA_TALHAO_1008_ID_109.1">
	<Style><LineStyle><color>ff0000ff</color></LineStyle><PolyStyle><fill>0</fill></PolyStyle></Style>
	<ExtendedData><SchemaData schemaUrl="#SANTA_HELENA_TALHAO_1008_ID_109">
		<SimpleData name="ID">109</SimpleData>
		<SimpleData name="AREA_TOTAL">31.67</SimpleData>
		<SimpleData name="FAZENDA">2789</SimpleData>
		<SimpleData name="FAZ_NOME">SANTA HELENA</SimpleData>
		<SimpleData name="TALHAO">1008</SimpleData>
		<SimpleData name="ZONA">1</SimpleData>
		<SimpleData name="ACIONISTA">HENRIQUE TENÓRIO</SimpleData>
		<SimpleData name="CODE"></SimpleData>
	</SchemaData></ExtendedData>
      <MultiGeometry><Polygon><outerBoundaryIs><LinearRing><coordinates>-36.3519319188622,-9.73517352006483,0 -36.3511994221644,-9.73508812341678,0 -36.3499944629636,-9.73496368825881,0 -36.3493804692065,-9.73485001388739,0 -36.3482857320454,-9.73466366009687,0 -36.3478235687532,-9.73456895196163,0 -36.3476523464947,-9.73453530552356,0 -36.3470938141949,-9.73442628816885,0 -36.346804620041,-9.73436985674263,0 -36.3472268324822,-9.7408444545163,0 -36.3473360374442,-9.74082513223065,0 -36.3485458276021,-9.74072426872261,0 -36.3496034890236,-9.74064141292867,0 -36.3504901526695,-9.74056799916084,0 -36.3509821929924,-9.74053312832084,0 -36.3519319188622,-9.73517352006483,0</coordinates></LinearRing></outerBoundaryIs></Polygon></MultiGeometry>
  </Placemark>
</Folder>
</Document></kml>
