<?xml version="1.0" encoding="utf-8" ?>
<kml xmlns="http://www.opengis.net/kml/2.2">
<Document id="root_doc">
<Schema name="SANTA_HELENA_TALHAO_1007_ID_110" id="SANTA_HELENA_TALHAO_1007_ID_110">
	<SimpleField name="ID" type="float"></SimpleField>
	<SimpleField name="AREA_TOTAL" type="float"></SimpleField>
	<SimpleField name="FAZENDA" type="float"></SimpleField>
	<SimpleField name="FAZ_NOME" type="string"></SimpleField>
	<SimpleField name="TALHAO" type="float"></SimpleField>
	<SimpleField name="ZONA" type="float"></SimpleField>
	<SimpleField name="ACIONISTA" type="string"></SimpleField>
	<SimpleField name="CODE" type="string"></SimpleField>
</Schema>
<Folder><name>SANTA_HELENA_TALHAO_1007_ID_110</name>
  <Placemark id="SANTA_HELENA_TALHAO_1007_ID_110.1">
	<Style><LineStyle><color>ff0000ff</color></LineStyle><PolyStyle><fill>0</fill></PolyStyle></Style>
	<ExtendedData><SchemaData schemaUrl="#SANTA_HELENA_TALHAO_1007_ID_110">
		<SimpleData name="ID">110</SimpleData>
		<SimpleData name="AREA_TOTAL">19.86</SimpleData>
		<SimpleData name="FAZ_NOME">SANTA HELENA</SimpleData>
		<SimpleData name="TALHAO">1007</SimpleData>
		<SimpleData name="ZONA">1</SimpleData>
		<SimpleData name="ACIONISTA">HENRIQUE TENÓRIO</SimpleData>
		<SimpleData name="CODE"></SimpleData>
	</SchemaData></ExtendedData>
      <MultiGeometry><Polygon><outerBoundaryIs><LinearRing><coordinates>-36.3377741384691,-9.73794256256195,0 -36.3380577207516,-9.73803750244907,0 -36.3382568181761,-9.73810309043727,0 -36.3384692010372,-9.73817195611764,0 -36.3388458900652,-9.73828972607449,0 -36.3389650465879,-9.73832971620029,0 -36.3390421943186,-9.73834883681381,0 -36.3391974206661,-9.73834204253993,0 -36.3392697203053,-9.73831896951816,0 -36.3393312150285,-9.73827395621149,0 -36.3393704990354,-9.73821247665617,0 -36.3394126249682,-9.73812939350339,0 -36.3394597045836,-9.73803586069689,0 -36.3395111554818,-9.73793355442571,0 -36.3395650611728,-9.73782777814756,0 -36.3396178362387,-9.73773038685094,0 -36.3396710199957,-9.73764851119574,0 -36.3397366506343,-9.73757526699916,0 -36.3398254641938,-9.73749202897595,0 -36.3399014883258,-9.73742233208203,0 -36.3399777701659,-9.73735437462629,0 -36.3400650867702,-9.73727239876659,0 -36.3401610959296,-9.73718435360325,0 -36.3402358849567,-9.73711876340204,0 -36.3402953055215,-9.73708132685881,0 -36.3403843127597,-9.73703698677246,0 -36.3404851050722,-9.73698740587581,0 -36.3405670804784,-9.73694908834568,0 -36.3406390200015,-9.73691662767869,0 -36.3407064608956,-9.73688522635082,0 -36.3407780824499,-9.7368514096658,0 -36.3408429087898,-9.73680952428148,0 -36.3408910745144,-9.73676334772704,0 -36.3409219246426,-9.73668960803122,0 -36.3409295693467,-9.73647848261986,0 -36.3409231205286,-9.73630566532532,0 -36.3409154440079,-9.73614433617385,0 -36.3409121985996,-9.73605376314977,0 -36.3409049857427,-9.73594996112155,0 -36.340892895883,-9.73584302092624,0 -36.3408714789967,-9.73574647176278,0 -36.3408444599757,-9.73566817778548,0 -36.3408104936556,-9.73558751490098,0 -36.3407637566724,-9.73548518700149,0 -36.3407211415976,-9.73538826780397,0 -36.3406865802203,-9.73530011678436,0 -36.3406219769605,-9.73508657379177,0 -36.340603848828,-9.73499246801228,0 -36.3405914918983,-9.73490019847108,0 -36.3405789839286,-9.73481156104258,0 -36.3405622966589,-9.73473181659575,0 -36.3405416003414,-9.73466010641172,0 -36.3405120312778,-9.73460708353268,0 -36.3404899176664,-9.73458400063493,0 -36.3404587762767,-9.73456248473365,0 -36.3404238186391,-9.73454596673522,0 -36.3403838052571,-9.73453279698726,0 -36.340264495537,-9.73448330925045,0 -36.340231143149,-9.73447459437366,0 -36.3401913315405,-9.7344761599364,0 -36.3401414610462,-9.73448252015248,0 -36.3401091313657,-9.73448935796675,0 -36.3400317381665,-9.73450482379304,0 -36.3399522160637,-9.73451788645794,0 -36.3398548989429,-9.73453020436494,0 -36.3397306657727,-9.73454385715461,0 -36.3395651540448,-9.73456172433529,0 -36.3393926318934,-9.73458030910258,0 -36.3392010473932,-9.73459987036732,0 -36.3389983637737,-9.73461759258002,0 -36.3387979196808,-9.73463536408247,0 -36.3386035059524,-9.73465071776403,0 -36.3384226462239,-9.73466667515149,0 -36.3383915261126,-9.73466907873784,0 -36.3382359273585,-9.73468109648632,0 -36.3380135661112,-9.73469751075447,0 -36.337768007969,-9.73471474963174,0 -36.3374969341666,-9.73473171606377,0 -36.3372129754445,-9.73474853662379,0 -36.3366602814662,-9.73478488437476,0 -36.3363845254227,-9.73480099301973,0 -36.3361143556782,-9.73481880631158,0 -36.3358822264268,-9.73483283057553,0 -36.3357106085441,-9.73484249940315,0 -36.3356138429174,-9.73484482691303,0 -36.3355942909006,-9.73484459925633,0 -36.3355842428077,-9.73492812926331,0 -36.3355081892364,-9.73535770302243,0 -36.3354601647594,-9.73563865968204,0 -36.3354132506462,-9.73592038615041,0 -36.3353949546311,-9.73604860239488,0 -36.3353822277138,-9.73616970595361,0 -36.3353707215323,-9.73630180099191,0 -36.3353594313279,-9.73646324082088,0 -36.3353460852187,-9.73665936987515,0 -36.335332328977,-9.73684355866117,0 -36.3353198822827,-9.73697647601196,0 -36.3353065285512,-9.73710060546447,0 -36.3352888801907,-9.73721569069349,0 -36.335274729721,-9.7373048479424,0 -36.3353320148255,-9.73732076010328,0 -36.33545899817,-9.73735272597261,0 -36.3356226902141,-9.73739460717988,0 -36.3357714384447,-9.73743515251924,0 -36.3359079270321,-9.73747279637012,0 -36.3360488088336,-9.7375125317361,0 -36.3361893279204,-9.73754569213015,0 -36.3363568567067,-9.73758550234815,0 -36.3365454519355,-9.73763112067644,0 -36.3367755506669,-9.73768991172847,0 -36.3370337437691,-9.73775907509339,0 -36.3373032937823,-9.73782867719753,0 -36.3375293808686,-9.73788572328991,0 -36.3376976040281,-9.73792348649544,0 -36.3377741384691,-9.73794256256195,0</coordinates></LinearRing></outerBoundaryIs></Polygon></MultiGeometry>
  </Placemark>
</Folder>
</Document></kml>
