<?xml version="1.0" encoding="UTF-8"?>
<kml xmlns="http://www.opengis.net/kml/2.2" xmlns:gx="http://www.google.com/kml/ext/2.2" xmlns:kml="http://www.opengis.net/kml/2.2" xmlns:atom="http://www.w3.org/2005/Atom">
<Document>
  <name>2037.kml</name>
  <StyleMap id="FFFF4000">
    <Pair>
      <key>normal</key>
      <styleUrl>#s_FFFF4000</styleUrl>
    </Pair>
    <Pair>
      <key>highlight</key>
      <styleUrl>#s_FFFF4000_hl</styleUrl>
    </Pair>
  </StyleMap>
  <Style id="s_FFFF4000">
   <IconStyle>
      <scale>1.1</scale>
      <Icon>
        <href>http://maps.google.com/mapfiles/kml/pushpin/agrocad.png</href>
      </Icon>
      <hotSpot x="20" y="2" xunits="pixels" yunits="pixels"/>
    </IconStyle>
    <LineStyle>
      <color>FFFF4000</color>
      <width>1</width>
    </LineStyle>
    <PolyStyle>
      <color>40ffffff</color>
      <fill>1</fill>
    </PolyStyle>
  </Style>
  <Style id="s_FFFF4000_hl">
    <IconStyle>
      <scale>1.3</scale>
      <Icon>
        <href>http://maps.google.com/mapfiles/kml/pushpin/agrocad.png</href>
      </Icon>
      <hotSpot x="20" y="2" xunits="pixels" yunits="pixels"/>
    </IconStyle>
    <LineStyle>
      <color>ff000000</color>
      <width>1</width>
    </LineStyle>
    <PolyStyle>
      <color>40ffffff</color>
      <fill>1</fill>
    </PolyStyle>
  </Style>
  <Placemark>
    <name>AgroCAD: 8F06</name>
    <styleUrl>FFFF4000</styleUrl>
    <Polygon>
      <outerBoundaryIs>
        <LinearRing>
          <coordinates>
           -36.34377697283839,-9.67674463061886 -36.34689639804797,-9.67936744222912 -36.34688610816452,-9.67938954018714 -36.34687094464702,-9.67941758626511 -36.34684671346454,-9.67945370040926 -36.34682504028194,-9.67948078022968 -36.34680227801935,-9.67950964855738 -36.34678033848103,-9.67953783102185 -36.34676058345039,-9.67956325283984 -36.34675718221405,-9.67956761150280 -36.34673751294330,-9.67959406908191 -36.34671803464445,-9.67962110149285 -36.34669792777517,-9.67964517355487 -36.34667731930682,-9.67966485491936 -36.34665418381552,-9.67968059084279 -36.34662484356202,-9.67969010261812 -36.34659477282748,-9.67969232517737 -36.34656154437641,-9.67968660301738 -36.34654703906833,-9.67968069197671 -36.34646054736251,-9.67964849301663 -36.34640225345942,-9.67963229490329 -36.34634112913341,-9.67963294761907 -36.34627188386036,-9.67964873858332 -36.34620185679163,-9.67967017098336 -36.34613547500904,-9.67968909669908 -36.34606957232347,-9.67970620344666 -36.34600235208667,-9.67972475785885 -36.34593637090258,-9.67974275358592 -36.34587096556535,-9.67976050083117 -36.34580664293272,-9.67978273397735 -36.34574990844367,-9.67980918257546 -36.34569320818381,-9.67984009234146 -36.34563611597555,-9.67987183984041 -36.34557203026745,-9.67990767370237 -36.34551170457454,-9.67994111189642 -36.34545401648377,-9.67997374166730 -36.34539451003340,-9.68000838593657 -36.34534264331205,-9.68003932868761 -36.34529989712186,-9.68006250966239 -36.34525524378239,-9.68008616080584 -36.34520965086021,-9.68010862440730 -36.34516810832773,-9.68012420712485 -36.34512739591861,-9.68013424182571 -36.34508597107500,-9.68013527036626 -36.34504934860322,-9.68011698952542 -36.34502319467098,-9.68008386530260 -36.34500585472113,-9.68004355327121 -36.34498727597172,-9.67999204478326 -36.34496472781652,-9.67994042314182 -36.34493566571241,-9.67988996593718 -36.34489694434478,-9.67983939016354 -36.34483383032392,-9.67977663855230 -36.34479972437705,-9.67974576014389 -36.34473766992318,-9.67969157019319 -36.34469309933312,-9.67965268700386 -36.34465530042296,-9.67961219153078 -36.34462966922406,-9.67957469752369 -36.34460602528981,-9.67953070873379 -36.34458441879716,-9.67948350742551 -36.34456068357055,-9.67943252567126 -36.34453444730475,-9.67938160429644 -36.34451156304302,-9.67934198279189 -36.34448261718608,-9.67930372227526 -36.34444984624180,-9.67926254148922 -36.34442428221035,-9.67922792607456 -36.34440209809642,-9.67919316502496 -36.34437424164689,-9.67914261435522 -36.34435051583596,-9.67907885451803 -36.34433262541849,-9.67901091618504 -36.34431494369413,-9.67894051279143 -36.34429653981169,-9.67887326488212 -36.34427619446928,-9.67880557046976 -36.34425326029275,-9.67873497263434 -36.34423037859995,-9.67866986885501 -36.34420374977688,-9.67860315057492 -36.34417459229883,-9.67853976320405 -36.34414279295114,-9.67848416828499 -36.34410756300554,-9.67843665382410 -36.34411468161219,-9.67844307130514 -36.34409369622087,-9.67841660306232 -36.34405828906630,-9.67837768879679 -36.34402517722353,-9.67834412788411 -36.34397767191641,-9.67830786559917 -36.34394007407425,-9.67828775485505 -36.34390676273277,-9.67827387678808 -36.34387394362621,-9.67826274748610 -36.34384408526742,-9.67824862490766 -36.34381690108290,-9.67823063947004 -36.34379539929416,-9.67820854830838 -36.34377477018956,-9.67818085796852 -36.34375649486450,-9.67815110152464 -36.34373888393291,-9.67811986369928 -36.34372044993609,-9.67808677756388 -36.34370359949131,-9.67805287102262 -36.34368790435240,-9.67801723875636 -36.34368316376394,-9.67800385822423 -36.34360685704379,-9.67783786360928 -36.34321337641708,-9.67700713391979 -36.34317049127247,-9.67690307181029 -36.34311487200319,-9.67678017938696 -36.34351772011528,-9.67675451687673 -36.34355184454359,-9.67675119863650 -36.34358635497983,-9.67674828733878 -36.34362140073866,-9.67674718460872 -36.34365531100936,-9.67674483362043 -36.34377697283839,-9.67674463061886 -36.34377697283839,-9.67674463061886
          </coordinates>
        </LinearRing>
      </outerBoundaryIs>
    </Polygon>
  </Placemark>
</Document>
</kml>
