<?xml version="1.0" encoding="UTF-8"?>
<kml xmlns="http://www.opengis.net/kml/2.2" xmlns:gx="http://www.google.com/kml/ext/2.2" xmlns:kml="http://www.opengis.net/kml/2.2" xmlns:atom="http://www.w3.org/2005/Atom">
<Document>
  <name>1001.kml</name>
  <StyleMap id="FF0040FF">
    <Pair>
      <key>normal</key>
      <styleUrl>#s_FF0040FF</styleUrl>
    </Pair>
    <Pair>
      <key>highlight</key>
      <styleUrl>#s_FF0040FF_hl</styleUrl>
    </Pair>
  </StyleMap>
  <Style id="s_FF0040FF">
   <IconStyle>
      <scale>1.1</scale>
      <Icon>
        <href>http://maps.google.com/mapfiles/kml/pushpin/agrocad.png</href>
      </Icon>
      <hotSpot x="20" y="2" xunits="pixels" yunits="pixels"/>
    </IconStyle>
    <LineStyle>
      <color>FF0040FF</color>
      <width>1</width>
    </LineStyle>
    <PolyStyle>
      <color>40ffffff</color>
      <fill>1</fill>
    </PolyStyle>
  </Style>
  <Style id="s_FF0040FF_hl">
    <IconStyle>
      <scale>1.3</scale>
      <Icon>
        <href>http://maps.google.com/mapfiles/kml/pushpin/agrocad.png</href>
      </Icon>
      <hotSpot x="20" y="2" xunits="pixels" yunits="pixels"/>
    </IconStyle>
    <LineStyle>
      <color>ff000000</color>
      <width>1</width>
    </LineStyle>
    <PolyStyle>
      <color>40ffffff</color>
      <fill>1</fill>
    </PolyStyle>
  </Style>
  <Placemark>
    <name>AgroCAD: 7E34</name>
    <styleUrl>FF0040FF</styleUrl>
    <Polygon>
      <outerBoundaryIs>
        <LinearRing>
          <coordinates>
           -36.33836882387893,-9.70880454609588 -36.33838085276781,-9.70881068942924 -36.33858140332324,-9.70891311720701 -36.33886616110081,-9.70904401831812 -36.33913895804507,-9.70916972720702 -36.33940022665600,-9.70929316942925 -36.33967145054472,-9.70942826220704 -36.33991337026676,-9.70957272692927 -36.34005381998890,-9.70970779220705 -36.34034198054423,-9.71001757998485 -36.34047700054416,-9.71017205859596 -36.34061332998849,-9.71033942609597 -36.34074763498840,-9.71051107026265 -36.34087293582164,-9.71068288026264 -36.34112259526591,-9.71102838165155 -36.34123117415472,-9.71118383915154 -36.34133999859911,-9.71136302692933 -36.34140746026570,-9.71152352915155 -36.34136919748796,-9.71161210859599 -36.34127581887692,-9.71171023054044 -36.34117218582143,-9.71179353665154 -36.34105986276594,-9.71182780026264 -36.34094339443269,-9.71179220359597 -36.34066764026620,-9.71167555526265 -36.34025214915538,-9.71150348442928 -36.33986372804454,-9.71134296387370 -36.33954283360032,-9.71121560137371 -36.33930560248936,-9.71111807109592 -36.33902222248956,-9.71100643304035 -36.33872922554532,-9.71089677081811 -36.33843454637885,-9.71078630665143 -36.33813868554572,-9.71067918526253 -36.33786638276813,-9.71057794276252 -36.33782099887927,-9.71055978748475 -36.33781878332371,-9.71055890109585 -36.33836882387893,-9.70880454609588
          </coordinates>
        </LinearRing>
      </outerBoundaryIs>
    </Polygon>
  </Placemark>
  <Placemark>
    <name>AgroCAD: 7E33</name>
    <styleUrl>FF0040FF</styleUrl>
    <Polygon>
      <outerBoundaryIs>
        <LinearRing>
          <coordinates>
           -36.33500060527011,-9.70947486304019 -36.33464363888146,-9.70933859831795 -36.33427724749282,-9.70919087054016 -36.33391129749309,-9.70904201470682 -36.33306861610478,-9.70869826859566 -36.33268418221617,-9.70854673526232 -36.33232922638307,-9.70841476776231 -36.33196254027222,-9.70825824637340 -36.33181952055010,-9.70820243026229 -36.33178231110568,-9.70818790859562 -36.33170241860573,-9.70815672887339 -36.33169190777241,-9.70815584137340 -36.33141033332816,-9.70804655970671 -36.33103040332842,-9.70789217220670 -36.33061138360650,-9.70773086165113 -36.33032657027337,-9.70760325470667 -36.33030006249561,-9.70758808776222 -36.33028211027339,-9.70740036831778 -36.33028931777339,-9.70707813054000 -36.33033990916227,-9.70637026331779 -36.33032220388451,-9.70606396720668 -36.33027720027344,-9.70592163637334 -36.33027788277344,-9.70591409887334 -36.33027744610677,-9.70589396387333 -36.33026919694010,-9.70576302831779 -36.33026100638455,-9.70567188915111 -36.33019284194017,-9.70554141776222 -36.33012822666244,-9.70542814692888 -36.33007500916248,-9.70533796026223 -36.32995950416255,-9.70514271026221 -36.32990621944037,-9.70505037665110 -36.32983431166265,-9.70492788137332 -36.32975125221827,-9.70478363609554 -36.32967481471832,-9.70464722526219 -36.32963465860723,-9.70454665720665 -36.32963580694057,-9.70448075331775 -36.32968071777388,-9.70448363915108 -36.32975245860715,-9.70448061998444 -36.32983782832932,-9.70448763831776 -36.32991824027372,-9.70448311553999 -36.32999201749588,-9.70447441498445 -36.33006591888471,-9.70446341137333 -36.33013219610690,-9.70445361304000 -36.33020070499573,-9.70444668692888 -36.33026996694013,-9.70444614915112 -36.33034477555121,-9.70445138554001 -36.33042014694003,-9.70446164804001 -36.33049441943998,-9.70447399526223 -36.33056884416215,-9.70448825248446 -36.33064061721765,-9.70450602804003 -36.33071089971761,-9.70452154137335 -36.33078249055089,-9.70453773998446 -36.33085134749528,-9.70455226387335 -36.33092036527301,-9.70456572304004 -36.33106549777291,-9.70458826054004 -36.33119534499505,-9.70460448804004 -36.33127041721722,-9.70462685137337 -36.33139763916157,-9.70467897887338 -36.33154697582814,-9.70475962859561 -36.33171362499469,-9.70484805081785 -36.33191002471676,-9.70492767831785 -36.33209664138330,-9.70500680276231 -36.33227636471652,-9.70507957248452 -36.33247286749414,-9.70516994887343 -36.33269093916067,-9.70527456054010 -36.33293989582717,-9.70539056748457 -36.33322514110475,-9.70551878081792 -36.33352594193786,-9.70565262692903 -36.33382502804876,-9.70579777415126 -36.33391660221536,-9.70583943915126 -36.33395174138201,-9.70585542720682 -36.33416389054853,-9.70595195248460 -36.33453906638159,-9.70613105192907 -36.33490921832579,-9.70632681276242 -36.33526295971444,-9.70652771692910 -36.33557938804754,-9.70674498165133 -36.33587219888067,-9.70697042831800 -36.33618826110269,-9.70720061581801 -36.33647607693581,-9.70741165304026 -36.33675767638006,-9.70763046137360 -36.33702606304654,-9.70784891748472 -36.33730272610189,-9.70805452942917 -36.33753755582396,-9.70822378915140 -36.33781054582377,-9.70841835304030 -36.33808621610137,-9.70862046470699 -36.33833960515929,-9.70879127227505 -36.33778912277897,-9.71054703578371 -36.33773194887933,-9.71052416415140 -36.33750183054616,-9.71043944387361 -36.33717592637972,-9.71030601970694 -36.33684178887995,-9.71017078248471 -36.33649053860241,-9.71003524192913 -36.33574203971404,-9.70975007720689 -36.33536114721430,-9.70961131998465 -36.33500060527011,-9.70947486304019
          </coordinates>
        </LinearRing>
      </outerBoundaryIs>
    </Polygon>
  </Placemark>
</Document>
</kml>
