<?xml version="1.0" encoding="UTF-8"?>
<kml xmlns="http://www.opengis.net/kml/2.2" xmlns:gx="http://www.google.com/kml/ext/2.2" xmlns:kml="http://www.opengis.net/kml/2.2" xmlns:atom="http://www.w3.org/2005/Atom">
<Document>
  <name>1014.kml</name>
  <StyleMap id="FFFF4000">
    <Pair>
      <key>normal</key>
      <styleUrl>#s_FFFF4000</styleUrl>
    </Pair>
    <Pair>
      <key>highlight</key>
      <styleUrl>#s_FFFF4000_hl</styleUrl>
    </Pair>
  </StyleMap>
  <Style id="s_FFFF4000">
   <IconStyle>
      <scale>1.1</scale>
      <Icon>
        <href>http://maps.google.com/mapfiles/kml/pushpin/agrocad.png</href>
      </Icon>
      <hotSpot x="20" y="2" xunits="pixels" yunits="pixels"/>
    </IconStyle>
    <LineStyle>
      <color>FFFF4000</color>
      <width>1</width>
    </LineStyle>
    <PolyStyle>
      <color>40ffffff</color>
      <fill>1</fill>
    </PolyStyle>
  </Style>
  <Style id="s_FFFF4000_hl">
    <IconStyle>
      <scale>1.3</scale>
      <Icon>
        <href>http://maps.google.com/mapfiles/kml/pushpin/agrocad.png</href>
      </Icon>
      <hotSpot x="20" y="2" xunits="pixels" yunits="pixels"/>
    </IconStyle>
    <LineStyle>
      <color>ff000000</color>
      <width>1</width>
    </LineStyle>
    <PolyStyle>
      <color>40ffffff</color>
      <fill>1</fill>
    </PolyStyle>
  </Style>
  <Placemark>
    <name>AgroCAD: 94F8</name>
    <styleUrl>FFFF4000</styleUrl>
    <Polygon>
      <outerBoundaryIs>
        <LinearRing>
          <coordinates>
           -36.33773036511091,-9.69161670068680 -36.33774862632640,-9.69162422877631 -36.33779409245322,-9.69164187416087 -36.33847658595532,-9.69201023689711 -36.33964221753354,-9.69266651188473 -36.34031103912958,-9.69302828204753 -36.34037604033422,-9.69309059696517 -36.33995272612295,-9.69458775204756 -36.33966553509821,-9.69562795606718 -36.33954265478200,-9.69613493943005 -36.33936116157312,-9.69680875047127 -36.33934785963324,-9.69684696470043 -36.33933634634721,-9.69687314377793 -36.33932476143485,-9.69687932382000 -36.33926437401127,-9.69688946758783 -36.33867782598733,-9.69675161727908 -36.33726518661967,-9.69645634604474 -36.33662927162715,-9.69630148033614 -36.33663058659405,-9.69629588572543 -36.33663167383487,-9.69629125998968 -36.33773036511091,-9.69161670068680
          </coordinates>
        </LinearRing>
      </outerBoundaryIs>
    </Polygon>
  </Placemark>
</Document>
</kml>
