<?xml version="1.0" encoding="UTF-8"?>
<kml xmlns="http://www.opengis.net/kml/2.2" xmlns:gx="http://www.google.com/kml/ext/2.2" xmlns:kml="http://www.opengis.net/kml/2.2" xmlns:atom="http://www.w3.org/2005/Atom">
<Document>
  <name>2031.kml</name>
  <StyleMap id="FFFF4000">
    <Pair>
      <key>normal</key>
      <styleUrl>#s_FFFF4000</styleUrl>
    </Pair>
    <Pair>
      <key>highlight</key>
      <styleUrl>#s_FFFF4000_hl</styleUrl>
    </Pair>
  </StyleMap>
  <Style id="s_FFFF4000">
   <IconStyle>
      <scale>1.1</scale>
      <Icon>
        <href>http://maps.google.com/mapfiles/kml/pushpin/agrocad.png</href>
      </Icon>
      <hotSpot x="20" y="2" xunits="pixels" yunits="pixels"/>
    </IconStyle>
    <LineStyle>
      <color>FFFF4000</color>
      <width>1</width>
    </LineStyle>
    <PolyStyle>
      <color>40ffffff</color>
      <fill>1</fill>
    </PolyStyle>
  </Style>
  <Style id="s_FFFF4000_hl">
    <IconStyle>
      <scale>1.3</scale>
      <Icon>
        <href>http://maps.google.com/mapfiles/kml/pushpin/agrocad.png</href>
      </Icon>
      <hotSpot x="20" y="2" xunits="pixels" yunits="pixels"/>
    </IconStyle>
    <LineStyle>
      <color>ff000000</color>
      <width>1</width>
    </LineStyle>
    <PolyStyle>
      <color>40ffffff</color>
      <fill>1</fill>
    </PolyStyle>
  </Style>
  <Placemark>
    <name>AgroCAD: 8EFF</name>
    <styleUrl>FFFF4000</styleUrl>
    <Polygon>
      <outerBoundaryIs>
        <LinearRing>
          <coordinates>
           -36.35690139975841,-9.67679160926664 -36.35691645812836,-9.67677270026576 -36.35693298931721,-9.67675283975631 -36.35694826745170,-9.67673347090453 -36.35696365567771,-9.67671329954269 -36.35698601314611,-9.67668538214087 -36.35699400772690,-9.67667670849713 -36.35701270154282,-9.67666552697263 -36.35703349012374,-9.67666511945784 -36.35706478592982,-9.67667636991808 -36.35708120899413,-9.67668301127051 -36.35708171195103,-9.67668291317824 -36.35726952515242,-9.67675415066950 -36.35737421876767,-9.67679651320135 -36.35749137278568,-9.67684322071947 -36.35760739581451,-9.67688942420741 -36.35771819519109,-9.67693402842126 -36.35782396580722,-9.67697553698009 -36.35792602681750,-9.67701416150932 -36.35806829989896,-9.67706532954724 -36.35815109342381,-9.67709474461533 -36.35822936299084,-9.67712248303862 -36.35830155120089,-9.67714827474251 -36.35836800465557,-9.67717333048796 -36.35843959438620,-9.67720240922233 -36.35851296823378,-9.67723383884879 -36.35858657506043,-9.67726567743469 -36.35865667037139,-9.67729564843287 -36.35871634772794,-9.67731959279465 -36.35875745283704,-9.67733541486672 -36.35885208310977,-9.67737844002154 -36.35893045063103,-9.67740988797870 -36.35892958820974,-9.67743283189290 -36.35891663351378,-9.67745523023238 -36.35889606829798,-9.67749324105946 -36.35887189703347,-9.67754007558493 -36.35884756282912,-9.67758868954262 -36.35882597730345,-9.67763574469347 -36.35880345071442,-9.67768330166952 -36.35877862634840,-9.67773419999617 -36.35875198604689,-9.67778981042253 -36.35872443816653,-9.67784953762360 -36.35869612930697,-9.67791141051176 -36.35866805341370,-9.67797356970314 -36.35864172097189,-9.67803813161521 -36.35861734103497,-9.67810321791825 -36.35859754359096,-9.67816355483560 -36.35858210091892,-9.67821599293652 -36.35856779226011,-9.67827301373670 -36.35855874728631,-9.67831898484153 -36.35855303069618,-9.67836123501971 -36.35854998860489,-9.67843677601791 -36.35856330859348,-9.67851844134927 -36.35858060592882,-9.67856330277606 -36.35863461136664,-9.67863567729094 -36.35872293926926,-9.67871547512454 -36.35884082357276,-9.67880013174106 -36.35899273296284,-9.67886089264804 -36.35918423939035,-9.67888457269976 -36.35936107884226,-9.67893447056491 -36.35950403253535,-9.67900260838372 -36.35959251040649,-9.67909212419661 -36.35964773219217,-9.67919890076846 -36.35969613266431,-9.67931397371326 -36.35975896473600,-9.67945337834682 -36.35982847881626,-9.67957674476051 -36.35988085027732,-9.67970533025688 -36.35992314075688,-9.67982873122135 -36.35997446609862,-9.67992868042328 -36.36003948060724,-9.68000215912792 -36.36011842650554,-9.68006590755859 -36.36021278638264,-9.68011360269143 -36.36032495385660,-9.68012886777877 -36.36044136811039,-9.68013080652835 -36.36055820757149,-9.68012910142028 -36.36064929829322,-9.68013030581898 -36.36069420494523,-9.68014832067663 -36.36071377605226,-9.68019804291354 -36.36075076315108,-9.68031361067585 -36.36080140739845,-9.68045102313004 -36.36081667859972,-9.68058678898641 -36.36073060695575,-9.68075112044203 -36.36067096938677,-9.68084205313537 -36.36053124411661,-9.68108335904893 -36.36048674148208,-9.68124206303618 -36.36041315599205,-9.68160609471561 -36.36029443415884,-9.68186804301653 -36.36015594193589,-9.68213781921153 -36.36005572438588,-9.68238565377788 -36.36000414126809,-9.68260783559950 -36.35997044759768,-9.68280239723213 -36.35993665233995,-9.68296215961461 -36.35988120377819,-9.68312704470048 -36.35979094947717,-9.68329156143072 -36.35966917001548,-9.68344347342759 -36.35954209620932,-9.68358697612580 -36.35941000053290,-9.68372477325185 -36.35930059649981,-9.68383396068839 -36.35921994898350,-9.68389067682731 -36.35918813197675,-9.68391065311716 -36.35902608420096,-9.68377441569863 -36.35432679288426,-9.67982354110866 -36.35441276902703,-9.67972488594302 -36.35690139975841,-9.67679160926664
          </coordinates>
        </LinearRing>
      </outerBoundaryIs>
    </Polygon>
  </Placemark>
</Document>
</kml>
