<?xml version="1.0" encoding="UTF-8"?>
<kml xmlns="http://www.opengis.net/kml/2.2" xmlns:gx="http://www.google.com/kml/ext/2.2" xmlns:kml="http://www.opengis.net/kml/2.2" xmlns:atom="http://www.w3.org/2005/Atom">
<Document>
  <name>2026.kml</name>
  <StyleMap id="FFFF4000">
    <Pair>
      <key>normal</key>
      <styleUrl>#s_FFFF4000</styleUrl>
    </Pair>
    <Pair>
      <key>highlight</key>
      <styleUrl>#s_FFFF4000_hl</styleUrl>
    </Pair>
  </StyleMap>
  <Style id="s_FFFF4000">
   <IconStyle>
      <scale>1.1</scale>
      <Icon>
        <href>http://maps.google.com/mapfiles/kml/pushpin/agrocad.png</href>
      </Icon>
      <hotSpot x="20" y="2" xunits="pixels" yunits="pixels"/>
    </IconStyle>
    <LineStyle>
      <color>FFFF4000</color>
      <width>1</width>
    </LineStyle>
    <PolyStyle>
      <color>40ffffff</color>
      <fill>1</fill>
    </PolyStyle>
  </Style>
  <Style id="s_FFFF4000_hl">
    <IconStyle>
      <scale>1.3</scale>
      <Icon>
        <href>http://maps.google.com/mapfiles/kml/pushpin/agrocad.png</href>
      </Icon>
      <hotSpot x="20" y="2" xunits="pixels" yunits="pixels"/>
    </IconStyle>
    <LineStyle>
      <color>ff000000</color>
      <width>1</width>
    </LineStyle>
    <PolyStyle>
      <color>40ffffff</color>
      <fill>1</fill>
    </PolyStyle>
  </Style>
  <Placemark>
    <name>AgroCAD: 8F0A</name>
    <styleUrl>FFFF4000</styleUrl>
    <Polygon>
      <outerBoundaryIs>
        <LinearRing>
          <coordinates>
           -36.34895895350986,-9.68957479511804 -36.34902873871353,-9.68950306839926 -36.34912445881941,-9.68940352034683 -36.34916938517819,-9.68935526226201 -36.34925176444589,-9.68926971417560 -36.34931843787152,-9.68920695639305 -36.34938959392172,-9.68914583800218 -36.34946315627302,-9.68909315533022 -36.34954307814846,-9.68904795548552 -36.34963291069420,-9.68901111981702 -36.34973258231284,-9.68897507076254 -36.34982998600457,-9.68894185493295 -36.34992050567354,-9.68891318926290 -36.35000557825109,-9.68888525334122 -36.35009017417107,-9.68885696102695 -36.35017741887018,-9.68883143811078 -36.35026169151813,-9.68881663726417 -36.35034638220268,-9.68880977878909 -36.35043140791223,-9.68881202559900 -36.35051558965642,-9.68881799878862 -36.35060255176037,-9.68882483463626 -36.35069580388048,-9.68883455508147 -36.35078670049042,-9.68884519496656 -36.35089837700938,-9.68885502972597 -36.35097370406108,-9.68885671666464 -36.35104254543306,-9.68884905598605 -36.35110213586756,-9.68883222156203 -36.35115679139460,-9.68880948179377 -36.35121418562081,-9.68878221168219 -36.35127535908078,-9.68875257746435 -36.35133625352363,-9.68872637330711 -36.35139997264764,-9.68870399540884 -36.35147116335617,-9.68868721399545 -36.35153685686445,-9.68867579666003 -36.35159511637538,-9.68866804572875 -36.35164961093234,-9.68866448031622 -36.35170148614863,-9.68866288099184 -36.35174804790948,-9.68865896284302 -36.35179472980497,-9.68865156450435 -36.35183794927434,-9.68863722033497 -36.35185756389571,-9.68864385852384 -36.35184094148057,-9.68869763210423 -36.35183072493207,-9.68874160780385 -36.35182258698839,-9.68880198165110 -36.35181453623171,-9.68886740854517 -36.35180781755755,-9.68892633647213 -36.35180330062850,-9.68897374399466 -36.35177399982447,-9.68931032807803 -36.35177261975135,-9.68934379405753 -36.35177116600601,-9.68937733960089 -36.35176861599759,-9.68941151789692 -36.35176710078088,-9.68944596389665 -36.35176585733675,-9.68949168858945 -36.35176350293760,-9.68952632378032 -36.35176207996082,-9.68956275514090 -36.35176159199965,-9.68959903688673 -36.35176034626617,-9.68963424576108 -36.35175971678580,-9.68966947481076 -36.35175994988606,-9.68970409553634 -36.35176009763858,-9.68973817030208 -36.35175762838603,-9.68979634010553 -36.35175973734174,-9.68983981798019 -36.35175951017894,-9.68987421118321 -36.35176110988953,-9.68990855099412 -36.35176429277497,-9.68994074616248 -36.35176729970275,-9.68997436114649 -36.35177075888659,-9.69000825281066 -36.35177135025620,-9.69001861924648 -36.35177332956100,-9.69005892840956 -36.35173210473670,-9.69003479361252 -36.35165744498521,-9.69002216811191 -36.35154403011959,-9.69005845939946 -36.35146162205373,-9.69010694987082 -36.35138286622009,-9.69015692840012 -36.35131305845352,-9.69019452053126 -36.35124316064007,-9.69021914512572 -36.35115847885835,-9.69023609258931 -36.35106422910002,-9.69024792695021 -36.35097200519530,-9.69025161013711 -36.35087319964942,-9.69024625225878 -36.35076278314361,-9.69023669997672 -36.35065455610419,-9.69022547849683 -36.35055631555086,-9.69021112464498 -36.35046527282575,-9.69019180695584 -36.35038112294655,-9.69016999602095 -36.35030124353379,-9.69014729692200 -36.35021110288330,-9.69012024918702 -36.35010925611582,-9.69008987923658 -36.35000189412149,-9.69007643557322 -36.34990039935774,-9.69008360818302 -36.34980359685498,-9.69010570004668 -36.34971071676977,-9.69013133388349 -36.34961626567093,-9.69015720131630 -36.34951728898269,-9.69018290022434 -36.34941745678452,-9.69021006050177 -36.34931375164668,-9.69023741369731 -36.34921081453259,-9.69025967754529 -36.34911834743319,-9.69027325666763 -36.34903390626313,-9.69027947805183 -36.34895347201957,-9.69027425962883 -36.34887479162811,-9.69025380487500 -36.34880713229175,-9.69021865918381 -36.34875084644992,-9.69017197681669 -36.34871545016898,-9.69011345100108 -36.34870388250378,-9.69005094956450 -36.34871160216806,-9.68998066648557 -36.34874018162982,-9.68989395138463 -36.34878256154320,-9.68980624885577 -36.34883540081837,-9.68972265766466 -36.34889352778380,-9.68964637739672 -36.34895895350986,-9.68957479511804
          </coordinates>
        </LinearRing>
      </outerBoundaryIs>
    </Polygon>
  </Placemark>
</Document>
</kml>
