<?xml version="1.0" encoding="UTF-8"?>
<kml xmlns="http://www.opengis.net/kml/2.2" xmlns:gx="http://www.google.com/kml/ext/2.2" xmlns:kml="http://www.opengis.net/kml/2.2" xmlns:atom="http://www.w3.org/2005/Atom">
<Document>
  <name>2039.kml</name>
  <StyleMap id="FFFF4000">
    <Pair>
      <key>normal</key>
      <styleUrl>#s_FFFF4000</styleUrl>
    </Pair>
    <Pair>
      <key>highlight</key>
      <styleUrl>#s_FFFF4000_hl</styleUrl>
    </Pair>
  </StyleMap>
  <Style id="s_FFFF4000">
   <IconStyle>
      <scale>1.1</scale>
      <Icon>
        <href>http://maps.google.com/mapfiles/kml/pushpin/agrocad.png</href>
      </Icon>
      <hotSpot x="20" y="2" xunits="pixels" yunits="pixels"/>
    </IconStyle>
    <LineStyle>
      <color>FFFF4000</color>
      <width>1</width>
    </LineStyle>
    <PolyStyle>
      <color>40ffffff</color>
      <fill>1</fill>
    </PolyStyle>
  </Style>
  <Style id="s_FFFF4000_hl">
    <IconStyle>
      <scale>1.3</scale>
      <Icon>
        <href>http://maps.google.com/mapfiles/kml/pushpin/agrocad.png</href>
      </Icon>
      <hotSpot x="20" y="2" xunits="pixels" yunits="pixels"/>
    </IconStyle>
    <LineStyle>
      <color>ff000000</color>
      <width>1</width>
    </LineStyle>
    <PolyStyle>
      <color>40ffffff</color>
      <fill>1</fill>
    </PolyStyle>
  </Style>
  <Placemark>
    <name>AgroCAD: 8F07</name>
    <styleUrl>FFFF4000</styleUrl>
    <Polygon>
      <outerBoundaryIs>
        <LinearRing>
          <coordinates>
           -36.34199576094180,-9.67990407548293 -36.34194983794901,-9.67971938885261 -36.34182945595615,-9.67921164316459 -36.34177050175813,-9.67893234609805 -36.34172634895193,-9.67872456567436 -36.34168307961572,-9.67852250881606 -36.34163649772376,-9.67832259016332 -36.34158794694495,-9.67812269835518 -36.34153784169561,-9.67792514424827 -36.34149131056305,-9.67773524691942 -36.34144402282333,-9.67755126098464 -36.34137163102089,-9.67723796531450 -36.34136316129125,-9.67720628040363 -36.34135576322868,-9.67717240792644 -36.34134780014263,-9.67713832208127 -36.34134033091676,-9.67710395781009 -36.34133461602273,-9.67707055402563 -36.34133078612808,-9.67703792940647 -36.34133220256646,-9.67700423084008 -36.34133970695489,-9.67697243530795 -36.34135663184384,-9.67694532229391 -36.34137956173648,-9.67692170770684 -36.34140712372699,-9.67690403899386 -36.34143689372392,-9.67689346827073 -36.34146949334132,-9.67688760407817 -36.34150382536473,-9.67688325012754 -36.34153703544917,-9.67688079810057 -36.34157047971160,-9.67687871852135 -36.34160610299009,-9.67687633270364 -36.34162466519562,-9.67687517166285 -36.34180119994214,-9.67686757654374 -36.34249966904962,-9.67681828098158 -36.34292052934546,-9.67679012779293 -36.34306775788811,-9.67678345650733 -36.34312474524455,-9.67689183054340 -36.34317935197031,-9.67701844955782 -36.34344679388541,-9.67758089363388 -36.34346507463396,-9.67761454173586 -36.34348255809267,-9.67764850614877 -36.34349951707243,-9.67768299441678 -36.34351627178328,-9.67771762112806 -36.34353157210787,-9.67775302866538 -36.34354763659294,-9.67778790472121 -36.34356271041597,-9.67782392241802 -36.34357821994742,-9.67786095189380 -36.34359466492131,-9.67789774309944 -36.34361138086116,-9.67793472456616 -36.34362718522289,-9.67797077783703 -36.34364354183035,-9.67800780802160 -36.34366191314753,-9.67804608903199 -36.34367962963801,-9.67808507723809 -36.34369821237747,-9.67812421187158 -36.34371798820620,-9.67816083632502 -36.34374003247317,-9.67819896568465 -36.34375732040165,-9.67823410465696 -36.34377604165704,-9.67827968651162 -36.34367680043512,-9.67837938327420 -36.34363972552839,-9.67844973716267 -36.34362266992362,-9.67855015338514 -36.34361568408702,-9.67866281613787 -36.34361214988790,-9.67878180702052 -36.34361671179697,-9.67889136202138 -36.34362996692923,-9.67899689388049 -36.34364382344726,-9.67910271607416 -36.34366225106906,-9.67921286983192 -36.34367815502991,-9.67932205730422 -36.34369264738436,-9.67943072797411 -36.34370326616355,-9.67954117717372 -36.34371009228948,-9.67969435425755 -36.34370622667795,-9.67981076096102 -36.34369227130550,-9.67993317797963 -36.34365757508617,-9.68005956717145 -36.34361532239319,-9.68017852822448 -36.34357878966858,-9.68029212930103 -36.34354384180471,-9.68040068687106 -36.34351310962591,-9.68050685745746 -36.34350509485183,-9.68060948454117 -36.34350980361299,-9.68071396011329 -36.34352205368650,-9.68082419825016 -36.34353920253857,-9.68093225056549 -36.34356039757749,-9.68104579376417 -36.34358084397983,-9.68115835783138 -36.34359809158972,-9.68127175630899 -36.34361256126209,-9.68139456359845 -36.34362245550465,-9.68151621014553 -36.34363267695769,-9.68163544705156 -36.34364848676753,-9.68175140708548 -36.34366602159702,-9.68186767871630 -36.34368338371739,-9.68198263862967 -36.34369285583497,-9.68209462207466 -36.34369642498716,-9.68220592020686 -36.34369920482593,-9.68230804426215 -36.34370297077726,-9.68239976133795 -36.34371228471171,-9.68248260161868 -36.34372627995058,-9.68257223518406 -36.34374200434412,-9.68265930666426 -36.34375601838346,-9.68274211499499 -36.34377422020627,-9.68281911129739 -36.34379655343172,-9.68288786801929 -36.34382115859885,-9.68295360177952 -36.34384947994165,-9.68301993339915 -36.34387758849249,-9.68308097712318 -36.34390687106495,-9.68314581309967 -36.34393636187361,-9.68321547367910 -36.34396596035144,-9.68328483390227 -36.34400388223843,-9.68336171856833 -36.34403983707796,-9.68342697371241 -36.34407529257182,-9.68348558939919 -36.34411015687302,-9.68353491182840 -36.34414812745259,-9.68358179485546 -36.34419087250182,-9.68362863416412 -36.34424601997022,-9.68368555433368 -36.34429043577871,-9.68372681000819 -36.34433215839732,-9.68376825791613 -36.34437526795601,-9.68380955329432 -36.34441782045070,-9.68385298931310 -36.34445985974877,-9.68389715556104 -36.34450115303491,-9.68394123479132 -36.34454497647713,-9.68399081129016 -36.34459211566517,-9.68404349607705 -36.34464172817085,-9.68410155558307 -36.34468099584694,-9.68415305385783 -36.34471288556738,-9.68420371725268 -36.34473935640180,-9.68425308871831 -36.34475888009554,-9.68430420694749 -36.34477340059881,-9.68436553147615 -36.34478349898068,-9.68443148586520 -36.34478545123891,-9.68450853864373 -36.34478538043984,-9.68459705937062 -36.34478948617047,-9.68468498461062 -36.34479890227732,-9.68476996269531 -36.34481120168436,-9.68484986306953 -36.34481979015776,-9.68492099306011 -36.34482736614433,-9.68498574918271 -36.34482810192165,-9.68504940876966 -36.34482137935158,-9.68510509315488 -36.34480708642000,-9.68514907617094 -36.34478886646423,-9.68518571130945 -36.34476444639262,-9.68521610809104 -36.34473447722668,-9.68524695634190 -36.34470475475710,-9.68526988556426 -36.34466516776688,-9.68529750369939 -36.34461509339752,-9.68532784446134 -36.34456457781429,-9.68535892871745 -36.34451692979524,-9.68538595628483 -36.34446348184636,-9.68541169703660 -36.34441365365866,-9.68542968472514 -36.34438628097457,-9.68543832443599 -36.34413205915481,-9.68550497336664 -36.34404497842676,-9.68552861244420 -36.34395843970568,-9.68555038032891 -36.34387490226627,-9.68557247067226 -36.34378967808096,-9.68559525127067 -36.34371208552190,-9.68561585225876 -36.34355049544665,-9.68566349741509 -36.34351569749275,-9.68567553647094 -36.34347981754093,-9.68568716875462 -36.34344160517473,-9.68569811980107 -36.34340478519620,-9.68570821418764 -36.34336885138834,-9.68571603849777 -36.34336042966618,-9.68571786405801 -36.34330706000151,-9.68552295631389 -36.34328108838549,-9.68541671619757 -36.34325413955585,-9.68530510808365 -36.34322760729796,-9.68518866285917 -36.34290696295064,-9.68384386124278 -36.34287680236394,-9.68372504671670 -36.34284919139592,-9.68360686348820 -36.34282270997220,-9.68348138439690 -36.34279520020519,-9.68335246428205 -36.34276789457029,-9.68322009069582 -36.34274119692432,-9.68308684346085 -36.34271115315058,-9.68294059000758 -36.34267902936361,-9.68279080174387 -36.34263150292488,-9.68259481290548 -36.34259663877118,-9.68244690740475 -36.34240066359416,-9.68159292780722 -36.34237435736223,-9.68147701755555 -36.34233663028729,-9.68130078319830 -36.34228019929230,-9.68105713219187 -36.34223498981504,-9.68086460579650 -36.34218777523021,-9.68066701038057 -36.34213909353799,-9.68047038049612 -36.34209177617490,-9.68027686014889 -36.34204323870818,-9.68008866524908 -36.34199576094180,-9.67990407548293
          </coordinates>
        </LinearRing>
      </outerBoundaryIs>
    </Polygon>
  </Placemark>
</Document>
</kml>
