<?xml version="1.0" encoding="UTF-8"?>
<kml xmlns="http://www.opengis.net/kml/2.2" xmlns:gx="http://www.google.com/kml/ext/2.2" xmlns:kml="http://www.opengis.net/kml/2.2" xmlns:atom="http://www.w3.org/2005/Atom">
<Document>
  <name>2038.kml</name>
  <StyleMap id="FFFF4000">
    <Pair>
      <key>normal</key>
      <styleUrl>#s_FFFF4000</styleUrl>
    </Pair>
    <Pair>
      <key>highlight</key>
      <styleUrl>#s_FFFF4000_hl</styleUrl>
    </Pair>
  </StyleMap>
  <Style id="s_FFFF4000">
   <IconStyle>
      <scale>1.1</scale>
      <Icon>
        <href>http://maps.google.com/mapfiles/kml/pushpin/agrocad.png</href>
      </Icon>
      <hotSpot x="20" y="2" xunits="pixels" yunits="pixels"/>
    </IconStyle>
    <LineStyle>
      <color>FFFF4000</color>
      <width>1</width>
    </LineStyle>
    <PolyStyle>
      <color>40ffffff</color>
      <fill>1</fill>
    </PolyStyle>
  </Style>
  <Style id="s_FFFF4000_hl">
    <IconStyle>
      <scale>1.3</scale>
      <Icon>
        <href>http://maps.google.com/mapfiles/kml/pushpin/agrocad.png</href>
      </Icon>
      <hotSpot x="20" y="2" xunits="pixels" yunits="pixels"/>
    </IconStyle>
    <LineStyle>
      <color>ff000000</color>
      <width>1</width>
    </LineStyle>
    <PolyStyle>
      <color>40ffffff</color>
      <fill>1</fill>
    </PolyStyle>
  </Style>
  <Placemark>
    <name>AgroCAD: 90D6</name>
    <styleUrl>FFFF4000</styleUrl>
    <Polygon>
      <outerBoundaryIs>
        <LinearRing>
          <coordinates>
           -36.34879444817967,-9.67616787555892 -36.34866336556580,-9.67603203585138 -36.34864843111554,-9.67601451457551 -36.34859825625027,-9.67596200255569 -36.34853237324362,-9.67588607164110 -36.34844842245232,-9.67577555191071 -36.34831184633503,-9.67557217936441 -36.34824416438076,-9.67546576809620 -36.34816735603653,-9.67535103351425 -36.34810091308758,-9.67524671382723 -36.34804315621436,-9.67515207289207 -36.34799172977626,-9.67506109351649 -36.34794017203179,-9.67496613750320 -36.34789267821562,-9.67487748560034 -36.34784628973617,-9.67478906188793 -36.34779249511675,-9.67468342579216 -36.34774761395664,-9.67457790030623 -36.34770505532620,-9.67447526736669 -36.34767069607246,-9.67438056890900 -36.34764172201194,-9.67429674465339 -36.34760290996658,-9.67418123017030 -36.34756334533363,-9.67404000964999 -36.34753427325608,-9.67390199218234 -36.34752238739099,-9.67380524397379 -36.34751229022731,-9.67371709846493 -36.34749926756791,-9.67358786442725 -36.34748980868311,-9.67344713002827 -36.34747414452762,-9.67318481364054 -36.34747300597625,-9.67311305896303 -36.34747175852119,-9.67300440107494 -36.34745885798233,-9.67284274693390 -36.34745456094009,-9.67281978780282 -36.34745797572410,-9.67277256151308 -36.34749704196032,-9.67278506787839 -36.34830118625276,-9.67318267625806 -36.34884211253751,-9.67343998712733 -36.34947961669274,-9.67370665037365 -36.34965313458005,-9.67377111321687 -36.35044300538938,-9.67409152966996 -36.35099321064859,-9.67430009552825 -36.35103022068802,-9.67431487865353 -36.35114551857297,-9.67436645486325 -36.35123468575595,-9.67440666495554 -36.35131867007408,-9.67444349984617 -36.35135804928375,-9.67446033723610 -36.35140317371623,-9.67448994053311 -36.35141033985816,-9.67450626226431 -36.35034818576686,-9.67520971735725 -36.34963181075827,-9.67568420193748 -36.34917853451688,-9.67600008368736 -36.34889354562329,-9.67617730164192 -36.34886675283130,-9.67619591057731 -36.34883207015753,-9.67620666220431 -36.34881937187569,-9.67619836010278 -36.34879444817967,-9.67616787555892
          </coordinates>
        </LinearRing>
      </outerBoundaryIs>
    </Polygon>
  </Placemark>
  <Placemark>
    <name>AgroCAD: 90D5</name>
    <styleUrl>FFFF4000</styleUrl>
    <Polygon>
      <outerBoundaryIs>
        <LinearRing>
          <coordinates>
           -36.34742863194377,-9.67284429863152 -36.34746660494661,-9.67340640956572 -36.34746791552414,-9.67343336011647 -36.34747210277966,-9.67350212105864 -36.34747805322414,-9.67359992333964 -36.34748897597276,-9.67371389592385 -36.34749798458589,-9.67379733769338 -36.34751204113042,-9.67388734979001 -36.34753059614476,-9.67399036467269 -36.34754866370009,-9.67407236022432 -36.34757586488849,-9.67416843775645 -36.34761182531315,-9.67427592694988 -36.34764424815262,-9.67436844829583 -36.34767759369762,-9.67446200633309 -36.34771918302601,-9.67456747826033 -36.34776066894644,-9.67466810204562 -36.34780462153638,-9.67475853306137 -36.34784539678739,-9.67484134838441 -36.34789415929599,-9.67493077551564 -36.34794261178703,-9.67501901075860 -36.34798889136369,-9.67510762738920 -36.34804110233556,-9.67519545176032 -36.34810319710580,-9.67529357744192 -36.34816282068536,-9.67538498844684 -36.34824350941663,-9.67550488066358 -36.34833286421185,-9.67564317952582 -36.34839423627199,-9.67573283791334 -36.34845339291386,-9.67582174655031 -36.34853744769837,-9.67592890144864 -36.34862379138128,-9.67602122896933 -36.34875788568900,-9.67618139504884 -36.34876953632057,-9.67620124256028 -36.34875867023052,-9.67623883308097 -36.34873946961484,-9.67626010259179 -36.34858099853651,-9.67634469679501 -36.34856167037600,-9.67634541657829 -36.34852650695665,-9.67635840013574 -36.34848531434889,-9.67636991581210 -36.34844760597859,-9.67637986104112 -36.34840629539441,-9.67638828751459 -36.34836694248071,-9.67639594254877 -36.34832829810469,-9.67640387637559 -36.34828736112640,-9.67640898268333 -36.34824926819028,-9.67641408697463 -36.34820974466417,-9.67641901547571 -36.34743431238830,-9.67646951263726 -36.34551774047136,-9.67656751658036 -36.34464588257671,-9.67662614907695 -36.34313624794487,-9.67671787744440 -36.34250939728890,-9.67676295329502 -36.34248644990397,-9.67676578484019 -36.34246125201679,-9.67676406452351 -36.34247202018795,-9.67675029992867 -36.34248790494519,-9.67674059983752 -36.34267674250938,-9.67661855116847 -36.34268057183363,-9.67661616552581 -36.34271572240886,-9.67659123623196 -36.34278327515521,-9.67653846878301 -36.34288783550079,-9.67644800960863 -36.34293473098496,-9.67638980219935 -36.34301691176590,-9.67629226208797 -36.34310299571826,-9.67621383097481 -36.34317572806678,-9.67612786879731 -36.34324160105766,-9.67605411971559 -36.34329793040856,-9.67599082476176 -36.34334995509239,-9.67591924622012 -36.34339763620510,-9.67585281209118 -36.34351433840571,-9.67568731348599 -36.34358657737483,-9.67558079468207 -36.34366938187580,-9.67547799477625 -36.34372731967741,-9.67541699243857 -36.34382419914661,-9.67535376375539 -36.34391396238235,-9.67530551914442 -36.34419348843439,-9.67517540616749 -36.34419426337589,-9.67517391590776 -36.34423432682444,-9.67514185993192 -36.34429503103363,-9.67508375605639 -36.34435273279466,-9.67501183813157 -36.34441774312658,-9.67492194956177 -36.34450003559443,-9.67482677661968 -36.34459641072886,-9.67474140679012 -36.34467653692313,-9.67467647800619 -36.34474296036215,-9.67462776836006 -36.34485100977893,-9.67455073179246 -36.34496660551161,-9.67447226633325 -36.34508427726130,-9.67438865545432 -36.34518848629279,-9.67431868668842 -36.34528733167752,-9.67425173598725 -36.34538724143143,-9.67418348079787 -36.34548444138418,-9.67409222536736 -36.34557676852564,-9.67399423060958 -36.34567818625444,-9.67388937567550 -36.34576574065846,-9.67380905893906 -36.34583319171853,-9.67375239391164 -36.34589992794481,-9.67369833366930 -36.34597888271515,-9.67363741801625 -36.34606662113744,-9.67357210448649 -36.34617478857109,-9.67349941165874 -36.34626896616439,-9.67344866915363 -36.34636541713818,-9.67340155849553 -36.34646332372923,-9.67333666749672 -36.34656704137409,-9.67326144183575 -36.34666271128084,-9.67318973554018 -36.34672990733926,-9.67313090905071 -36.34681537951750,-9.67306006730558 -36.34691229912038,-9.67297503743757 -36.34726247820692,-9.67266867445776 -36.34728675973174,-9.67267262866028 -36.34741656870564,-9.67275079954944 -36.34742245959799,-9.67278571837849 -36.34742863194377,-9.67284429863152
          </coordinates>
        </LinearRing>
      </outerBoundaryIs>
    </Polygon>
  </Placemark>
</Document>
</kml>
