<?xml version="1.0" encoding="UTF-8"?>
<kml xmlns="http://www.opengis.net/kml/2.2" xmlns:gx="http://www.google.com/kml/ext/2.2" xmlns:kml="http://www.opengis.net/kml/2.2" xmlns:atom="http://www.w3.org/2005/Atom">
<Document>
  <name>23.kml</name>
  <StyleMap id="FF0000FF">
    <Pair>
      <key>normal</key>
      <styleUrl>#s_FF0000FF</styleUrl>
    </Pair>
    <Pair>
      <key>highlight</key>
      <styleUrl>#s_FF0000FF_hl</styleUrl>
    </Pair>
  </StyleMap>
  <Style id="s_FF0000FF">
   <IconStyle>
      <scale>1.1</scale>
      <Icon>
        <href>http://maps.google.com/mapfiles/kml/pushpin/agrocad.png</href>
      </Icon>
      <hotSpot x="20" y="2" xunits="pixels" yunits="pixels"/>
    </IconStyle>
    <LineStyle>
      <color>FF0000FF</color>
      <width>1</width>
    </LineStyle>
    <PolyStyle>
      <color>40ffffff</color>
      <fill>1</fill>
    </PolyStyle>
  </Style>
  <Style id="s_FF0000FF_hl">
    <IconStyle>
      <scale>1.3</scale>
      <Icon>
        <href>http://maps.google.com/mapfiles/kml/pushpin/agrocad.png</href>
      </Icon>
      <hotSpot x="20" y="2" xunits="pixels" yunits="pixels"/>
    </IconStyle>
    <LineStyle>
      <color>ff000000</color>
      <width>1</width>
    </LineStyle>
    <PolyStyle>
      <color>40ffffff</color>
      <fill>1</fill>
    </PolyStyle>
  </Style>
  <Placemark>
    <name>AgroCAD: BF4C</name>
    <styleUrl>FF0000FF</styleUrl>
    <Polygon>
      <outerBoundaryIs>
        <LinearRing>
          <coordinates>
           -36.37894598922817,-9.72403299981819 -36.37845276467096,-9.72363742710285 -36.37847014338856,-9.72362501373311 -36.37997298868361,-9.72278421482369 -36.38094950710222,-9.72218506284490 -36.38143806390412,-9.72244828561031 -36.38170509714337,-9.72259670518115 -36.38194056333306,-9.72272778261464 -36.38249869564438,-9.72305565384183 -36.38287937231600,-9.72326419845324 -36.38321039550881,-9.72351246584777 -36.38425973902983,-9.72423575152388 -36.38436388379898,-9.72430245099332 -36.38441737557946,-9.72433964952245 -36.38447324898915,-9.72439133242449 -36.38447324898915,-9.72442608985972 -36.38445835294544,-9.72445091659916 -36.38407602115782,-9.72467104702229 -36.38368210355841,-9.72487462628582 -36.38290254393949,-9.72530164620441 -36.38260793329799,-9.72545557198902 -36.38210974339287,-9.72575183774643 -36.38161486371976,-9.72602162164851 -36.38126728936735,-9.72620864975238 -36.37984140696451,-9.72476290595815 -36.37941935239380,-9.72441202137384 -36.37894598922817,-9.72403299981819 -36.37894598922817,-9.72403299981819
          </coordinates>
        </LinearRing>
      </outerBoundaryIs>
    </Polygon>
  </Placemark>
</Document>
</kml>
