<?xml version="1.0" encoding="utf-8" ?>
<kml xmlns="http://www.opengis.net/kml/2.2">
<Document id="root_doc">
<Schema name="NOVO_TALHAO_1092_ID_1268" id="NOVO_TALHAO_1092_ID_1268">
	<SimpleField name="TALHAO" type="string"></SimpleField>
	<SimpleField name="FAZENDA" type="string"></SimpleField>
	<SimpleField name="ZONA" type="string"></SimpleField>
	<SimpleField name="ID" type="float"></SimpleField>
	<SimpleField name="AREA_TOTAL" type="float"></SimpleField>
	<SimpleField name="FAZ_NOME" type="string"></SimpleField>
	<SimpleField name="CODE" type="string"></SimpleField>
</Schema>
<Folder><name>NOVO_TALHAO_1092_ID_1268</name>
  <Placemark id="NOVO_TALHAO_1092_ID_1268.1">
	<Style><LineStyle><color>ff0000ff</color></LineStyle><PolyStyle><fill>0</fill></PolyStyle></Style>
	<ExtendedData><SchemaData schemaUrl="#NOVO_TALHAO_1092_ID_1268">
		<SimpleData name="TALHAO">1092</SimpleData>
		<SimpleData name="FAZENDA">2578</SimpleData>
		<SimpleData name="ZONA">1</SimpleData>
		<SimpleData name="ID">1268</SimpleData>
		<SimpleData name="AREA_TOTAL">4.31</SimpleData>
		<SimpleData name="FAZ_NOME">NOVO</SimpleData>
		<SimpleData name="CODE"></SimpleData>
	</SchemaData></ExtendedData>
      <MultiGeometry><Polygon><outerBoundaryIs><LinearRing><coordinates>-36.1455092863324,-9.97133927933454,0 -36.145183365673,-9.97438196399283,0 -36.1464354726062,-9.9741569545842,0 -36.1467170961473,-9.97138155033824,0 -36.1455092863324,-9.97133927933454,0</coordinates></LinearRing></outerBoundaryIs></Polygon></MultiGeometry>
  </Placemark>
</Folder>
</Document></kml>
