<?xml version="1.0" encoding="utf-8" ?>
<kml xmlns="http://www.opengis.net/kml/2.2">
<Document id="root_doc">
<Schema name="NOVO_TALHAO_1095_ID_906" id="NOVO_TALHAO_1095_ID_906">
	<SimpleField name="TALHAO" type="string"></SimpleField>
	<SimpleField name="FAZENDA" type="string"></SimpleField>
	<SimpleField name="ZONA" type="string"></SimpleField>
	<SimpleField name="ID" type="float"></SimpleField>
	<SimpleField name="AREA_TOTAL" type="float"></SimpleField>
	<SimpleField name="FAZ_NOME" type="string"></SimpleField>
	<SimpleField name="CODE" type="string"></SimpleField>
</Schema>
<Folder><name>NOVO_TALHAO_1095_ID_906</name>
  <Placemark id="NOVO_TALHAO_1095_ID_906.1">
	<Style><LineStyle><color>ff0000ff</color></LineStyle><PolyStyle><fill>0</fill></PolyStyle></Style>
	<ExtendedData><SchemaData schemaUrl="#NOVO_TALHAO_1095_ID_906">
		<SimpleData name="TALHAO">1095</SimpleData>
		<SimpleData name="FAZENDA">2578</SimpleData>
		<SimpleData name="ZONA">1</SimpleData>
		<SimpleData name="ID">906</SimpleData>
		<SimpleData name="AREA_TOTAL">5.69</SimpleData>
		<SimpleData name="FAZ_NOME">NOVO</SimpleData>
		<SimpleData name="CODE"></SimpleData>
	</SchemaData></ExtendedData>
      <MultiGeometry><Polygon><outerBoundaryIs><LinearRing><coordinates>-36.1486225889774,-9.97376390701366,0 -36.1493581011934,-9.97363172420272,0 -36.1497366769273,-9.96957301701392,0 -36.14966907453,-9.96953989661704,0 -36.1495455701508,-9.96949316638202,0 -36.1494852339559,-9.96947266817767,0 -36.1493385038277,-9.96944572199651,0 -36.1492348721393,-9.9694334177139,0 -36.1490908995529,-9.96942076861903,0 -36.1489440709577,-9.96940524005943,0 -36.1488694020688,-9.96937605528693,0 -36.148814729129,-9.9693670236662,0 -36.1487600569236,-9.96935799238245,0 -36.1487083941841,-9.96936744278343,0 -36.1485716627403,-9.96936216788424,0 -36.1484473281121,-9.96936110501355,0 -36.1483891981947,-9.9693729260583,0 -36.1483434665337,-9.96938895919139,0 -36.1482602550967,-9.96942520175053,0 -36.1481645754157,-9.969465443792,0 -36.1481352068416,-9.96950625274699,0 -36.1480807924403,-9.96956737741104,0 -36.1480306300826,-9.96961622043746,0 -36.1479514920305,-9.96966070959426,0 -36.1479139065086,-9.96969323638693,0 -36.147889003558,-9.9696971292191,0 -36.1477815328164,-9.9696633624383,0 -36.1477444116954,-9.9696425151706,0 -36.1476906759785,-9.96962563159244,0 -36.147611966607,-9.96962085242349,0 -36.1475787038704,-9.96963288595369,0 -36.1475203238252,-9.96967344673682,0 -36.1474827375434,-9.96970597312341,0 -36.1474820587192,-9.96978398126018,0 -36.1474854890654,-9.96986613064203,0 -36.147501530572,-9.96992785769353,0 -36.1475426186955,-9.96996926909969,0 -36.1475756313788,-9.96998597549636,0 -36.1476252936865,-9.96999461206406,0 -36.1476583421058,-9.97000721265541,0 -36.1477410178545,-9.9700325556024,0 -36.1478318390765,-9.97007439226635,0 -36.1478812513467,-9.97011176872203,0 -36.1479512073695,-9.97016985068894,0 -36.1480126599881,-9.97025249623301,0 -36.1480016916354,-9.97056035223231,0 -36.147951279003,-9.97063793478138,0 -36.1478717476692,-9.97072758662411,0 -36.1478257299802,-9.97077646500407,0 -36.1477461628468,-9.97087022259633,0 -36.1477166154118,-9.97093155977905,0 -36.1477007407543,-9.97102114496352,0 -36.1477160936783,-9.97100101471796,0 -36.1477624491939,-9.97098655741832,0 -36.1478623895272,-9.97095538812511,0 -36.1479830364598,-9.97089732269563,0 -36.1481090077558,-9.97084101465473,0 -36.1482756209583,-9.97082636104353,0 -36.1484592891496,-9.97083773797318,0 -36.1486082763073,-9.97088732406108,0 -36.1487365975144,-9.97096321700494,0 -36.1488467724282,-9.97107908904418,0 -36.1488957062262,-9.97128160090059,0 -36.1486225889774,-9.97376390701366,0</coordinates></LinearRing></outerBoundaryIs></Polygon></MultiGeometry>
  </Placemark>
</Folder>
</Document></kml>
