<?xml version="1.0" encoding="utf-8" ?>
<kml xmlns="http://www.opengis.net/kml/2.2">
<Document id="root_doc">
<Schema name="NOVO_TALHAO_1096_ID_905" id="NOVO_TALHAO_1096_ID_905">
	<SimpleField name="TALHAO" type="string"></SimpleField>
	<SimpleField name="FAZENDA" type="string"></SimpleField>
	<SimpleField name="ZONA" type="string"></SimpleField>
	<SimpleField name="ID" type="float"></SimpleField>
	<SimpleField name="AREA_TOTAL" type="float"></SimpleField>
	<SimpleField name="FAZ_NOME" type="string"></SimpleField>
	<SimpleField name="CODE" type="string"></SimpleField>
</Schema>
<Folder><name>NOVO_TALHAO_1096_ID_905</name>
  <Placemark id="NOVO_TALHAO_1096_ID_905.1">
	<Style><LineStyle><color>ff0000ff</color></LineStyle><PolyStyle><fill>0</fill></PolyStyle></Style>
	<ExtendedData><SchemaData schemaUrl="#NOVO_TALHAO_1096_ID_905">
		<SimpleData name="TALHAO">1096</SimpleData>
		<SimpleData name="FAZENDA">2578</SimpleData>
		<SimpleData name="ZONA">1</SimpleData>
		<SimpleData name="ID">905</SimpleData>
		<SimpleData name="AREA_TOTAL">16.36</SimpleData>
		<SimpleData name="FAZ_NOME">NOVO</SimpleData>
		<SimpleData name="CODE"></SimpleData>
	</SchemaData></ExtendedData>
      <MultiGeometry><Polygon><outerBoundaryIs><LinearRing><coordinates>-36.1515152648176,-9.97328872417413,0 -36.1493910272656,-9.97367049250495,0 -36.1487938712411,-9.98007208108128,0 -36.1507163009797,-9.98026309605734,0 -36.1515152648176,-9.97328872417413,0</coordinates></LinearRing></outerBoundaryIs></Polygon></MultiGeometry>
  </Placemark>
</Folder>
</Document></kml>
