<?xml version="1.0" encoding="utf-8" ?>
<kml xmlns="http://www.opengis.net/kml/2.2">
<Document id="root_doc">
<Schema name="NOVO_TALHAO_1090_ID_902" id="NOVO_TALHAO_1090_ID_902">
	<SimpleField name="TALHAO" type="string"></SimpleField>
	<SimpleField name="FAZENDA" type="string"></SimpleField>
	<SimpleField name="ZONA" type="string"></SimpleField>
	<SimpleField name="ID" type="float"></SimpleField>
	<SimpleField name="AREA_TOTAL" type="float"></SimpleField>
	<SimpleField name="FAZ_NOME" type="string"></SimpleField>
	<SimpleField name="CODE" type="string"></SimpleField>
</Schema>
<Folder><name>NOVO_TALHAO_1090_ID_902</name>
  <Placemark id="NOVO_TALHAO_1090_ID_902.1">
	<Style><LineStyle><color>ff0000ff</color></LineStyle><PolyStyle><fill>0</fill></PolyStyle></Style>
	<ExtendedData><SchemaData schemaUrl="#NOVO_TALHAO_1090_ID_902">
		<SimpleData name="TALHAO">1090</SimpleData>
		<SimpleData name="FAZENDA">2578</SimpleData>
		<SimpleData name="ZONA">1</SimpleData>
		<SimpleData name="ID">902</SimpleData>
		<SimpleData name="AREA_TOTAL">13.95</SimpleData>
		<SimpleData name="FAZ_NOME">NOVO</SimpleData>
		<SimpleData name="CODE"></SimpleData>
	</SchemaData></ExtendedData>
      <MultiGeometry><Polygon><outerBoundaryIs><LinearRing><coordinates>-36.1414080977586,-9.97794948307816,0 -36.1414214792169,-9.97794442121084,0 -36.141441193517,-9.97793591311888,0 -36.1414672080618,-9.97792698765872,0 -36.1414959849304,-9.97791783617302,0 -36.1415227990988,-9.97790885742979,0 -36.1415518849331,-9.97789850000556,0 -36.1415846496013,-9.97788580189232,0 -36.1417712886274,-9.97782307726674,0 -36.1418125762726,-9.97781408300752,0 -36.1418522297834,-9.9778044539694,0 -36.1418931947492,-9.97779552522073,0 -36.1422408350449,-9.97774467528749,0 -36.1422858365693,-9.97773680605737,0 -36.1423304027007,-9.97773111524851,0 -36.1423748094395,-9.97772882123619,0 -36.1424198055084,-9.97772811788407,0 -36.142463643078,-9.97772649557347,0 -36.1425038309511,-9.97772473178142,0 -36.1425429705461,-9.97772324285679,0 -36.142585250871,-9.97772108702048,0 -36.142629281932,-9.97771939062859,0 -36.1427650676399,-9.97771352485688,0 -36.1430590155658,-9.97771710744042,0 -36.143108469733,-9.97771938769571,0 -36.143336817853,-9.9777214410865,0 -36.1433635221842,-9.97772505698032,0 -36.1433836896367,-9.97772585030234,0 -36.1433998136063,-9.97772575146934,0 -36.1434126547691,-9.97772595484749,0 -36.1434230126302,-9.97772596138597,0 -36.1434336231635,-9.97772653890901,0 -36.1433149500853,-9.97180308949811,0 -36.1425679067462,-9.97200010006615,0 -36.1421553168429,-9.97210317858724,0 -36.1416835428714,-9.97219544909738,0 -36.1413362227764,-9.97218496496576,0 -36.1414080977586,-9.97794948307816,0</coordinates></LinearRing></outerBoundaryIs></Polygon></MultiGeometry>
  </Placemark>
</Folder>
</Document></kml>
