<?xml version="1.0" encoding="UTF-8"?>
<kml xmlns="http://www.opengis.net/kml/2.2" xmlns:gx="http://www.google.com/kml/ext/2.2" xmlns:kml="http://www.opengis.net/kml/2.2" xmlns:atom="http://www.w3.org/2005/Atom">
<Document>
  <name>22.kml</name>
  <StyleMap id="FF0000FF">
    <Pair>
      <key>normal</key>
      <styleUrl>#s_FF0000FF</styleUrl>
    </Pair>
    <Pair>
      <key>highlight</key>
      <styleUrl>#s_FF0000FF_hl</styleUrl>
    </Pair>
  </StyleMap>
  <Style id="s_FF0000FF">
   <IconStyle>
      <scale>1.1</scale>
      <Icon>
        <href>http://maps.google.com/mapfiles/kml/pushpin/agrocad.png</href>
      </Icon>
      <hotSpot x="20" y="2" xunits="pixels" yunits="pixels"/>
    </IconStyle>
    <LineStyle>
      <color>FF0000FF</color>
      <width>1</width>
    </LineStyle>
    <PolyStyle>
      <color>40ffffff</color>
      <fill>1</fill>
    </PolyStyle>
  </Style>
  <Style id="s_FF0000FF_hl">
    <IconStyle>
      <scale>1.3</scale>
      <Icon>
        <href>http://maps.google.com/mapfiles/kml/pushpin/agrocad.png</href>
      </Icon>
      <hotSpot x="20" y="2" xunits="pixels" yunits="pixels"/>
    </IconStyle>
    <LineStyle>
      <color>ff000000</color>
      <width>1</width>
    </LineStyle>
    <PolyStyle>
      <color>40ffffff</color>
      <fill>1</fill>
    </PolyStyle>
  </Style>
  <Placemark>
    <name>AgroCAD: E701</name>
    <styleUrl>FF0000FF</styleUrl>
    <Polygon>
      <outerBoundaryIs>
        <LinearRing>
          <coordinates>
           -36.32431964411600,-9.79698190904492 -36.32432500002341,-9.79700333267408 -36.32433666669000,-9.79703999934074 -36.32435000002331,-9.79708833267403 -36.32436500002330,-9.79714833267409 -36.32437666669001,-9.79720666600739 -36.32438666669000,-9.79726999934073 -36.32439833335670,-9.79733166600740 -36.32441833335671,-9.79738666600741 -36.32442363350331,-9.79740415649224 -36.32441572847310,-9.79754889479685 -36.32431279870230,-9.79766419955518 -36.32357653232767,-9.79796518112817 -36.32339816542818,-9.79729185424555 -36.32431964411600,-9.79698190904492 -36.32431964411600,-9.79698190904492
          </coordinates>
        </LinearRing>
      </outerBoundaryIs>
    </Polygon>
  </Placemark>
</Document>
</kml>
