<?xml version="1.0" encoding="UTF-8"?>
<kml xmlns="http://www.opengis.net/kml/2.2" xmlns:gx="http://www.google.com/kml/ext/2.2" xmlns:kml="http://www.opengis.net/kml/2.2" xmlns:atom="http://www.w3.org/2005/Atom">
<Document>
  <name>1020.kml</name>
  <StyleMap id="FF0040FF">
    <Pair>
      <key>normal</key>
      <styleUrl>#s_FF0040FF</styleUrl>
    </Pair>
    <Pair>
      <key>highlight</key>
      <styleUrl>#s_FF0040FF_hl</styleUrl>
    </Pair>
  </StyleMap>
  <Style id="s_FF0040FF">
   <IconStyle>
      <scale>1.1</scale>
      <Icon>
        <href>http://maps.google.com/mapfiles/kml/pushpin/agrocad.png</href>
      </Icon>
      <hotSpot x="20" y="2" xunits="pixels" yunits="pixels"/>
    </IconStyle>
    <LineStyle>
      <color>FF0040FF</color>
      <width>1</width>
    </LineStyle>
    <PolyStyle>
      <color>40ffffff</color>
      <fill>1</fill>
    </PolyStyle>
  </Style>
  <Style id="s_FF0040FF_hl">
    <IconStyle>
      <scale>1.3</scale>
      <Icon>
        <href>http://maps.google.com/mapfiles/kml/pushpin/agrocad.png</href>
      </Icon>
      <hotSpot x="20" y="2" xunits="pixels" yunits="pixels"/>
    </IconStyle>
    <LineStyle>
      <color>ff000000</color>
      <width>1</width>
    </LineStyle>
    <PolyStyle>
      <color>40ffffff</color>
      <fill>1</fill>
    </PolyStyle>
  </Style>
  <Placemark>
    <name>AgroCAD: 842A</name>
    <styleUrl>FF0040FF</styleUrl>
    <Polygon>
      <outerBoundaryIs>
        <LinearRing>
          <coordinates>
           -36.37000256377012,-9.76074004323344 -36.36999890495480,-9.76074089987423 -36.36991406539165,-9.76075968626589 -36.36974190695462,-9.76080294246948 -36.36953886154432,-9.76085674035574 -36.36932304034962,-9.76091664094582 -36.36909997050329,-9.76097652766560 -36.36886414492908,-9.76104066461462 -36.36861372476437,-9.76110780503311 -36.36836015332234,-9.76117658365230 -36.36810384107320,-9.76124413854479 -36.36785353934165,-9.76131281432751 -36.36759644447689,-9.76138228085091 -36.36732518212273,-9.76145463223160 -36.36706548621540,-9.76152738184952 -36.36683496122888,-9.76159035018946 -36.36662403125052,-9.76164790150121 -36.36646417681754,-9.76168846685285 -36.36633762836134,-9.76172264846265 -36.36613246139456,-9.76177982190877 -36.36591333561641,-9.76183920053106 -36.36569458185152,-9.76189951332441 -36.36547701597571,-9.76195791131125 -36.36526285627932,-9.76201646415163 -36.36505462305886,-9.76207370485660 -36.36473069194907,-9.76216270035778 -36.36459252040432,-9.76220061296865 -36.36459404849906,-9.76218502588887 -36.36460378671265,-9.76199733659982 -36.36461171566362,-9.76184613914286 -36.36463970021056,-9.76132873553924 -36.36467709689987,-9.76076222715282 -36.36471951317072,-9.76011539002450 -36.36475174777525,-9.75972678015411 -36.36476714089608,-9.75972316310284 -36.36510192900552,-9.75965784657856 -36.36531250475151,-9.75961543105857 -36.36551359717557,-9.75957055819566 -36.36571721439403,-9.75952450064813 -36.36594429062159,-9.75947518868399 -36.36619281668539,-9.75942372731745 -36.36645189434898,-9.75936854707900 -36.36669307227732,-9.75931545841363 -36.36720540785037,-9.75920417504744 -36.36744513498712,-9.75915202925664 -36.36768215136604,-9.75909907924639 -36.36790387383165,-9.75904890077314 -36.36823398529255,-9.75897386444750 -36.36847603229935,-9.75891789932351 -36.36870761593682,-9.75886850241124 -36.36892594018344,-9.75882224751958 -36.36914896895273,-9.75877161014417 -36.36939511373923,-9.75871402976550 -36.36961872114241,-9.75866026808533 -36.36982435749557,-9.75861028547950 -36.37000789148581,-9.75856261317438 -36.37012542514344,-9.75853503757449 -36.37017340589492,-9.75852649689674 -36.37018337028908,-9.75852465056979 -36.37016377505419,-9.75882727837344 -36.37004386359246,-9.76021345804873 -36.37000256377012,-9.76074004323344 -36.37000256377012,-9.76074004323344
          </coordinates>
        </LinearRing>
      </outerBoundaryIs>
    </Polygon>
  </Placemark>
</Document>
</kml>
