<?xml version="1.0" encoding="UTF-8"?>
<kml xmlns="http://www.opengis.net/kml/2.2" xmlns:gx="http://www.google.com/kml/ext/2.2" xmlns:kml="http://www.opengis.net/kml/2.2" xmlns:atom="http://www.w3.org/2005/Atom">
<Document>
  <name>1022.kml</name>
  <StyleMap id="FFFF4000">
    <Pair>
      <key>normal</key>
      <styleUrl>#s_FFFF4000</styleUrl>
    </Pair>
    <Pair>
      <key>highlight</key>
      <styleUrl>#s_FFFF4000_hl</styleUrl>
    </Pair>
  </StyleMap>
  <Style id="s_FFFF4000">
   <IconStyle>
      <scale>1.1</scale>
      <Icon>
        <href>http://maps.google.com/mapfiles/kml/pushpin/agrocad.png</href>
      </Icon>
      <hotSpot x="20" y="2" xunits="pixels" yunits="pixels"/>
    </IconStyle>
    <LineStyle>
      <color>FFFF4000</color>
      <width>1</width>
    </LineStyle>
    <PolyStyle>
      <color>40ffffff</color>
      <fill>1</fill>
    </PolyStyle>
  </Style>
  <Style id="s_FFFF4000_hl">
    <IconStyle>
      <scale>1.3</scale>
      <Icon>
        <href>http://maps.google.com/mapfiles/kml/pushpin/agrocad.png</href>
      </Icon>
      <hotSpot x="20" y="2" xunits="pixels" yunits="pixels"/>
    </IconStyle>
    <LineStyle>
      <color>ff000000</color>
      <width>1</width>
    </LineStyle>
    <PolyStyle>
      <color>40ffffff</color>
      <fill>1</fill>
    </PolyStyle>
  </Style>
  <Placemark>
    <name>AgroCAD: 9351</name>
    <styleUrl>FFFF4000</styleUrl>
    <Polygon>
      <outerBoundaryIs>
        <LinearRing>
          <coordinates>
           -36.36512065597833,-9.74893476721526 -36.36856779601421,-9.74903404284654 -36.36822861070199,-9.75281890667735 -36.36820717178486,-9.75281148409448 -36.36815826324409,-9.75280903995303 -36.36807594772579,-9.75280494840823 -36.36795505024140,-9.75278665205129 -36.36788805939016,-9.75277564815356 -36.36780830769360,-9.75276243877566 -36.36739529716792,-9.75267579772005 -36.36732495506735,-9.75265932407708 -36.36726305889645,-9.75263842139711 -36.36719318191332,-9.75260777085712 -36.36705689384957,-9.75253260368081 -36.36699756172221,-9.75249165139979 -36.36680530725071,-9.75236170949929 -36.36674896802563,-9.75234480879139 -36.36635222900473,-9.75224950958655 -36.36632083838710,-9.75224435703834 -36.36627700922112,-9.75223743120604 -36.36622707505607,-9.75223379879881 -36.36617792864222,-9.75223507313653 -36.36610639955058,-9.75223243990059 -36.36602490079299,-9.75222997724774 -36.36595746059064,-9.75223199229729 -36.36589211289128,-9.75222743304394 -36.36582474131050,-9.75221533421289 -36.36577240715467,-9.75221417054859 -36.36547027674764,-9.75218226145485 -36.36543356199973,-9.75218717017727 -36.36539214548193,-9.75218102817511 -36.36535395809064,-9.75216802000560 -36.36532046092047,-9.75214583765913 -36.36528982417271,-9.75211396388271 -36.36525863662069,-9.75208458178927 -36.36522355651164,-9.75204231620747 -36.36518783694376,-9.75197306098078 -36.36517263005317,-9.75191356661730 -36.36533314068037,-9.75144768510914 -36.36534234216623,-9.75143820377602 -36.36536901667631,-9.75139288695848 -36.36539131175546,-9.75134946283437 -36.36541950824421,-9.75130353813286 -36.36545766721288,-9.75124710979563 -36.36547592855682,-9.75119914382251 -36.36548809385522,-9.75115017048404 -36.36550221519438,-9.75108307325906 -36.36551252697504,-9.75103174098988 -36.36552854712249,-9.75097199809947 -36.36554360725951,-9.75086960430984 -36.36554239406645,-9.75083964934321 -36.36553333208379,-9.75066991582963 -36.36549984971346,-9.75060888655686 -36.36548710660205,-9.75059826032468 -36.36544941631149,-9.75057094026393 -36.36539699146819,-9.75054670812515 -36.36534722365340,-9.75052385334402 -36.36529342753393,-9.75050401095978 -36.36522576166320,-9.75047705406518 -36.36516545777289,-9.75045189350301 -36.36506954242468,-9.75040219434021 -36.36503748575180,-9.75037830247118 -36.36500179104920,-9.75034969299698 -36.36497147895016,-9.75031970275826 -36.36493929940233,-9.75027389833951 -36.36491068111992,-9.75023991284060 -36.36488340169135,-9.75019677755019 -36.36483522738124,-9.75007276340704 -36.36482666162608,-9.75002924656739 -36.36482094126122,-9.74997911322742 -36.36482098625510,-9.74993535623808 -36.36482749025438,-9.74987763881295 -36.36484097604162,-9.74983815599991 -36.36485853124763,-9.74979778845622 -36.36488845781776,-9.74974255565301 -36.36491206054039,-9.74970388779618 -36.36494746529689,-9.74965384622364 -36.36498363095196,-9.74960864259458 -36.36501107506074,-9.74957429264041 -36.36504700033837,-9.74952559659991 -36.36507103417185,-9.74948460247300 -36.36509735989550,-9.74942269129092 -36.36510862225200,-9.74937168111699 -36.36511433271024,-9.74930311105192 -36.36511896298004,-9.74911911685089 -36.36512182045539,-9.74905726308030 -36.36512130713664,-9.74901123623742 -36.36512646541591,-9.74896037737990 -36.36512065597833,-9.74893476721526
          </coordinates>
        </LinearRing>
      </outerBoundaryIs>
    </Polygon>
  </Placemark>
</Document>
</kml>
