<?xml version="1.0" encoding="UTF-8"?>
<kml xmlns="http://www.opengis.net/kml/2.2" xmlns:gx="http://www.google.com/kml/ext/2.2" xmlns:kml="http://www.opengis.net/kml/2.2" xmlns:atom="http://www.w3.org/2005/Atom">
<Document>
  <name>1028.kml</name>
  <StyleMap id="FFFF4000">
    <Pair>
      <key>normal</key>
      <styleUrl>#s_FFFF4000</styleUrl>
    </Pair>
    <Pair>
      <key>highlight</key>
      <styleUrl>#s_FFFF4000_hl</styleUrl>
    </Pair>
  </StyleMap>
  <Style id="s_FFFF4000">
   <IconStyle>
      <scale>1.1</scale>
      <Icon>
        <href>http://maps.google.com/mapfiles/kml/pushpin/agrocad.png</href>
      </Icon>
      <hotSpot x="20" y="2" xunits="pixels" yunits="pixels"/>
    </IconStyle>
    <LineStyle>
      <color>FFFF4000</color>
      <width>1</width>
    </LineStyle>
    <PolyStyle>
      <color>40ffffff</color>
      <fill>1</fill>
    </PolyStyle>
  </Style>
  <Style id="s_FFFF4000_hl">
    <IconStyle>
      <scale>1.3</scale>
      <Icon>
        <href>http://maps.google.com/mapfiles/kml/pushpin/agrocad.png</href>
      </Icon>
      <hotSpot x="20" y="2" xunits="pixels" yunits="pixels"/>
    </IconStyle>
    <LineStyle>
      <color>ff000000</color>
      <width>1</width>
    </LineStyle>
    <PolyStyle>
      <color>40ffffff</color>
      <fill>1</fill>
    </PolyStyle>
  </Style>
  <Placemark>
    <name>AgroCAD: 95AF</name>
    <styleUrl>FFFF4000</styleUrl>
    <Polygon>
      <outerBoundaryIs>
        <LinearRing>
          <coordinates>
           -36.37716618851108,-9.74361751882880 -36.37423638169499,-9.74502732556117 -36.37427585210814,-9.74505900871206 -36.37561852738727,-9.74621215339263 -36.37704103782262,-9.74743035120403 -36.37904080820000,-9.74914632105682 -36.37909864348724,-9.74918801821786 -36.37918893240075,-9.74923781774529 -36.37927026473850,-9.74925496564033 -36.37938329777610,-9.74924617294032 -36.37945495376729,-9.74923264035779 -36.37957345510313,-9.74919633101348 -36.37966044208170,-9.74915277475293 -36.37974261860822,-9.74910960693177 -36.37978724341683,-9.74907566987514 -36.38004174975262,-9.74891495546917 -36.38001295706604,-9.74876719828898 -36.37944481613630,-9.74773871199610 -36.37915302385931,-9.74719621771417 -36.37878476876640,-9.74655168780537 -36.37852189063237,-9.74608578627925 -36.37799983398548,-9.74513785434969 -36.37729889078767,-9.74386535744958 -36.37716618851108,-9.74361751882880
          </coordinates>
        </LinearRing>
      </outerBoundaryIs>
    </Polygon>
  </Placemark>
  <Placemark>
    <name>AgroCAD: 95AE</name>
    <styleUrl>FFFF4000</styleUrl>
    <Polygon>
      <outerBoundaryIs>
        <LinearRing>
          <coordinates>
           -36.37372053512887,-9.74464643716128 -36.37399820805522,-9.74484035576717 -36.37406185708269,-9.74488671076880 -36.37415648637924,-9.74496319305711 -36.37420509481755,-9.74500221137989 -36.37714908668247,-9.74358557893553 -36.37699336879387,-9.74329475525569 -36.37676422788205,-9.74286096980655 -36.37669479880427,-9.74273522121658 -36.37666515461786,-9.74268372247591 -36.37661717512093,-9.74261092157336 -36.37656590465964,-9.74256673591525 -36.37652415868376,-9.74255452931795 -36.37644489845067,-9.74256291763403 -36.37636707078223,-9.74258926256846 -36.37630277052537,-9.74261877197494 -36.37622862169498,-9.74266045508032 -36.37616432615690,-9.74269706448506 -36.37608906377346,-9.74274165627101 -36.37601512634527,-9.74279006915823 -36.37595715363910,-9.74283247085863 -36.37588960681629,-9.74288412502753 -36.37582876289739,-9.74294761653344 -36.37578367287076,-9.74300365926970 -36.37574169150905,-9.74306039263804 -36.37564421716234,-9.74319442656865 -36.37540983798872,-9.74349123305712 -36.37533107334541,-9.74356202772048 -36.37526484694936,-9.74361622303068 -36.37517687864507,-9.74367400610106 -36.37500519243440,-9.74376872707114 -36.37491120961569,-9.74381010930564 -36.37479131636473,-9.74386351416510 -36.37467641983390,-9.74391348722174 -36.37453945089168,-9.74397823759389 -36.37443313927386,-9.74403071857337 -36.37431865153893,-9.74409370769524 -36.37424179609082,-9.74415082370020 -36.37414426917155,-9.74422691397936 -36.37406469715954,-9.74429941996761 -36.37399120316360,-9.74437817698548 -36.37392542176375,-9.74444850023239 -36.37385265020733,-9.74451097751652 -36.37376799713953,-9.74457863753502 -36.37372586645548,-9.74462206139333 -36.37372053512887,-9.74464643716128
          </coordinates>
        </LinearRing>
      </outerBoundaryIs>
    </Polygon>
  </Placemark>
</Document>
</kml>
