<?xml version="1.0" encoding="UTF-8"?>
<kml xmlns="http://www.opengis.net/kml/2.2" xmlns:gx="http://www.google.com/kml/ext/2.2" xmlns:kml="http://www.opengis.net/kml/2.2" xmlns:atom="http://www.w3.org/2005/Atom">
<Document>
  <name>1013.kml</name>
  <StyleMap id="FF0040FF">
    <Pair>
      <key>normal</key>
      <styleUrl>#s_FF0040FF</styleUrl>
    </Pair>
    <Pair>
      <key>highlight</key>
      <styleUrl>#s_FF0040FF_hl</styleUrl>
    </Pair>
  </StyleMap>
  <Style id="s_FF0040FF">
   <IconStyle>
      <scale>1.1</scale>
      <Icon>
        <href>http://maps.google.com/mapfiles/kml/pushpin/agrocad.png</href>
      </Icon>
      <hotSpot x="20" y="2" xunits="pixels" yunits="pixels"/>
    </IconStyle>
    <LineStyle>
      <color>FF0040FF</color>
      <width>1</width>
    </LineStyle>
    <PolyStyle>
      <color>40ffffff</color>
      <fill>1</fill>
    </PolyStyle>
  </Style>
  <Style id="s_FF0040FF_hl">
    <IconStyle>
      <scale>1.3</scale>
      <Icon>
        <href>http://maps.google.com/mapfiles/kml/pushpin/agrocad.png</href>
      </Icon>
      <hotSpot x="20" y="2" xunits="pixels" yunits="pixels"/>
    </IconStyle>
    <LineStyle>
      <color>ff000000</color>
      <width>1</width>
    </LineStyle>
    <PolyStyle>
      <color>40ffffff</color>
      <fill>1</fill>
    </PolyStyle>
  </Style>
  <Placemark>
    <name>AgroCAD: 8437</name>
    <styleUrl>FF0040FF</styleUrl>
    <Polygon>
      <outerBoundaryIs>
        <LinearRing>
          <coordinates>
           -36.37300800765485,-9.77356021048947 -36.37301740106826,-9.77359018147171 -36.37306018503726,-9.77370522012859 -36.37312347187041,-9.77388213600818 -36.37321991565502,-9.77415331347291 -36.37327617944616,-9.77431307787769 -36.37332684707906,-9.77446504977508 -36.37334950332453,-9.77454293379005 -36.37335355668206,-9.77455778731313 -36.37320791841568,-9.77460096396066 -36.37247902245602,-9.77482153847943 -36.37179500025315,-9.77502645734673 -36.37118874132639,-9.77519893622496 -36.37076757716682,-9.77532419251727 -36.37054915242656,-9.77538465743023 -36.37053909191776,-9.77533034635765 -36.37048796172851,-9.77511276078427 -36.37039171472642,-9.77470885300607 -36.37033013059261,-9.77440034509307 -36.37032129564833,-9.77435967050522 -36.37032268368893,-9.77431635525333 -36.37033753146845,-9.77428044491709 -36.37037059534824,-9.77425523815407 -36.37044057400642,-9.77423060602960 -36.37054444700441,-9.77417363785790 -36.37300800765485,-9.77356021048947
          </coordinates>
        </LinearRing>
      </outerBoundaryIs>
    </Polygon>
  </Placemark>
  <Placemark>
    <name>AgroCAD: 8434</name>
    <styleUrl>FF0040FF</styleUrl>
    <Polygon>
      <outerBoundaryIs>
        <LinearRing>
          <coordinates>
           -36.37051391389547,-9.77539441223711 -36.37050341201331,-9.77533771840193 -36.37045249027690,-9.77512101979936 -36.37035644667385,-9.77471796540972 -36.37026918940686,-9.77450245557748 -36.37023715008357,-9.77442861231815 -36.37021703546252,-9.77439290141797 -36.37016414612118,-9.77433286601458 -36.37012768648913,-9.77431842512382 -36.37009688125036,-9.77431759048997 -36.37003775987851,-9.77432785850031 -36.36996695542443,-9.77434629471567 -36.36970273519864,-9.77438321945332 -36.36917977211137,-9.77451343311794 -36.36923465847421,-9.77458561937868 -36.36928639265267,-9.77467124818723 -36.36936630825128,-9.77480063155816 -36.36945567616527,-9.77492691767970 -36.36955483083300,-9.77506402335104 -36.36975292780389,-9.77532425146252 -36.36982861501961,-9.77542185549189 -36.36992971354784,-9.77555979461977 -36.37025693048141,-9.77546555080842 -36.37051391389547,-9.77539441223711 -36.37051391389547,-9.77539441223711
          </coordinates>
        </LinearRing>
      </outerBoundaryIs>
    </Polygon>
  </Placemark>
</Document>
</kml>
