<?xml version="1.0" encoding="UTF-8"?>
<kml xmlns="http://www.opengis.net/kml/2.2" xmlns:gx="http://www.google.com/kml/ext/2.2" xmlns:kml="http://www.opengis.net/kml/2.2" xmlns:atom="http://www.w3.org/2005/Atom">
<Document>
  <name>1012.kml</name>
  <StyleMap id="FF0040FF">
    <Pair>
      <key>normal</key>
      <styleUrl>#s_FF0040FF</styleUrl>
    </Pair>
    <Pair>
      <key>highlight</key>
      <styleUrl>#s_FF0040FF_hl</styleUrl>
    </Pair>
  </StyleMap>
  <Style id="s_FF0040FF">
   <IconStyle>
      <scale>1.1</scale>
      <Icon>
        <href>http://maps.google.com/mapfiles/kml/pushpin/agrocad.png</href>
      </Icon>
      <hotSpot x="20" y="2" xunits="pixels" yunits="pixels"/>
    </IconStyle>
    <LineStyle>
      <color>FF0040FF</color>
      <width>1</width>
    </LineStyle>
    <PolyStyle>
      <color>40ffffff</color>
      <fill>1</fill>
    </PolyStyle>
  </Style>
  <Style id="s_FF0040FF_hl">
    <IconStyle>
      <scale>1.3</scale>
      <Icon>
        <href>http://maps.google.com/mapfiles/kml/pushpin/agrocad.png</href>
      </Icon>
      <hotSpot x="20" y="2" xunits="pixels" yunits="pixels"/>
    </IconStyle>
    <LineStyle>
      <color>ff000000</color>
      <width>1</width>
    </LineStyle>
    <PolyStyle>
      <color>40ffffff</color>
      <fill>1</fill>
    </PolyStyle>
  </Style>
  <Placemark>
    <name>AgroCAD: 842E</name>
    <styleUrl>FF0040FF</styleUrl>
    <Polygon>
      <outerBoundaryIs>
        <LinearRing>
          <coordinates>
           -36.37239525272591,-9.77071864525417 -36.37239478318408,-9.77089711463728 -36.37239306218150,-9.77146316098153 -36.37239141628361,-9.77191640036979 -36.37239334863912,-9.77253951291052 -36.37240282426479,-9.77291361578194 -36.37240058291433,-9.77344817867724 -36.37239682977064,-9.77361295641967 -36.37239652422614,-9.77365285136939 -36.36919345309647,-9.77445040629608 -36.36905003406757,-9.77445591412586 -36.36902312460537,-9.77442709902164 -36.36900761277122,-9.77439454099992 -36.36899751832752,-9.77435535659006 -36.36900273218877,-9.77431669724571 -36.36902351349266,-9.77428603173245 -36.36906216185931,-9.77425276907833 -36.36908846670237,-9.77423941709090 -36.36917583821726,-9.77421573736369 -36.36924149014101,-9.77419668266576 -36.36929733415923,-9.77417513924585 -36.36935063575764,-9.77414334764821 -36.36939663426677,-9.77410233362409 -36.36943239094363,-9.77405195764086 -36.36945425600968,-9.77400086050187 -36.36946584202387,-9.77395017912896 -36.36947435345256,-9.77388979072508 -36.36948345819289,-9.77375738755987 -36.36950870515722,-9.77305310069897 -36.36956534193915,-9.77172172688315 -36.36957755567550,-9.77146619787439 -36.37091190432848,-9.77111174363044 -36.37239525272591,-9.77071864525417 -36.37239525272591,-9.77071864525417
          </coordinates>
        </LinearRing>
      </outerBoundaryIs>
    </Polygon>
  </Placemark>
</Document>
</kml>
