<?xml version="1.0" encoding="UTF-8"?>
<kml xmlns="http://www.opengis.net/kml/2.2" xmlns:gx="http://www.google.com/kml/ext/2.2" xmlns:kml="http://www.opengis.net/kml/2.2" xmlns:atom="http://www.w3.org/2005/Atom">
<Document>
  <name>07.kml</name>
  <StyleMap id="FFFF0000">
    <Pair>
      <key>normal</key>
      <styleUrl>#s_FFFF0000</styleUrl>
    </Pair>
    <Pair>
      <key>highlight</key>
      <styleUrl>#s_FFFF0000_hl</styleUrl>
    </Pair>
  </StyleMap>
  <Style id="s_FFFF0000">
   <IconStyle>
      <scale>1.1</scale>
      <Icon>
        <href>http://maps.google.com/mapfiles/kml/pushpin/agrocad.png</href>
      </Icon>
      <hotSpot x="20" y="2" xunits="pixels" yunits="pixels"/>
    </IconStyle>
    <LineStyle>
      <color>FFFF0000</color>
      <width>1</width>
    </LineStyle>
    <PolyStyle>
      <color>40ffffff</color>
      <fill>1</fill>
    </PolyStyle>
  </Style>
  <Style id="s_FFFF0000_hl">
    <IconStyle>
      <scale>1.3</scale>
      <Icon>
        <href>http://maps.google.com/mapfiles/kml/pushpin/agrocad.png</href>
      </Icon>
      <hotSpot x="20" y="2" xunits="pixels" yunits="pixels"/>
    </IconStyle>
    <LineStyle>
      <color>ff000000</color>
      <width>1</width>
    </LineStyle>
    <PolyStyle>
      <color>40ffffff</color>
      <fill>1</fill>
    </PolyStyle>
  </Style>
  <Placemark>
    <name>AgroCAD: 1B23E</name>
    <styleUrl>FFFF0000</styleUrl>
    <Polygon>
      <outerBoundaryIs>
        <LinearRing>
          <coordinates>
           -36.43298560395742,-9.71790607612582 -36.43290742407029,-9.71788603213859 -36.43267214229219,-9.71782723948700 -36.43246644002979,-9.71777458696086 -36.43226057792335,-9.71772317918942 -36.43205761271104,-9.71767026059959 -36.43189155845406,-9.71762832623090 -36.43167473956907,-9.71757376965481 -36.43162864520690,-9.71774079608048 -36.43152738341116,-9.71810709268191 -36.43139658362502,-9.71861117339831 -36.43130426613124,-9.71895436955393 -36.43125931847398,-9.71912157740611 -36.43117804862167,-9.71941511281580 -36.43110709643711,-9.71965910945143 -36.43103699139128,-9.71992643517973 -36.43100835294180,-9.72005471037997 -36.43099294625945,-9.72014941806961 -36.43098266313288,-9.72022116154506 -36.43097412253955,-9.72030208547020 -36.43096706362301,-9.72039154994352 -36.43096610470420,-9.72048772094104 -36.43096856991307,-9.72060235613909 -36.43097624813214,-9.72072013588139 -36.43100282990599,-9.72098965967297 -36.43103569859018,-9.72136293736553 -36.43107777714841,-9.72175263593180 -36.43111247717401,-9.72213741772968 -36.43114828151489,-9.72253263171231 -36.43116866944634,-9.72272022705545 -36.43119297491428,-9.72291047679360 -36.43121457016281,-9.72308511597677 -36.43123563077446,-9.72323984729886 -36.43125118904855,-9.72334874145176 -36.43126662613283,-9.72344418114631 -36.43127863894235,-9.72350252309665 -36.43127820576307,-9.72362776245127 -36.43127076406294,-9.72366559557893 -36.43125057295050,-9.72371672390881 -36.43124168802317,-9.72373118635326 -36.43127295834439,-9.72372076305010 -36.43131281415636,-9.72371445911777 -36.43134527955530,-9.72370613451642 -36.43139385696160,-9.72369016257343 -36.43143116945939,-9.72367373858941 -36.43147515044939,-9.72365129683287 -36.43153742630393,-9.72361161063835 -36.43160300684495,-9.72356463532423 -36.43166685024600,-9.72351993048964 -36.43172396534014,-9.72348069115835 -36.43178397414433,-9.72344459015488 -36.43183510181266,-9.72341347455459 -36.43189447664396,-9.72337203288015 -36.43197059710520,-9.72331796245667 -36.43203678415119,-9.72326992836574 -36.43212476333458,-9.72320850011023 -36.43215928440053,-9.72318724236446 -36.43219679198399,-9.72316159644368 -36.43223816417222,-9.72313402640328 -36.43227901609143,-9.72310911510430 -36.43236715244453,-9.72305969208645 -36.43240931000747,-9.72303326221008 -36.43242333426038,-9.72302505403428 -36.43245338395190,-9.72300746641629 -36.43249425710664,-9.72298031655234 -36.43253090569094,-9.72295137424332 -36.43256293405786,-9.72292289255738 -36.43267577086912,-9.72280919137104 -36.43273586627245,-9.72274805954693 -36.43279729060625,-9.72268393501369 -36.43286689702302,-9.72261118756487 -36.43292730948623,-9.72254915205623 -36.43299366240857,-9.72248253004932 -36.43306277356789,-9.72241036747804 -36.43312109732101,-9.72234946855955 -36.43318879409461,-9.72227628763293 -36.43324530158127,-9.72221406892393 -36.43330152148541,-9.72215122313288 -36.43335370781814,-9.72209596873703 -36.43339912896651,-9.72205009799014 -36.43344340017532,-9.72200590310757 -36.43349498162468,-9.72196097008920 -36.43354873426721,-9.72191599233650 -36.43359368855325,-9.72187661655817 -36.43362628709730,-9.72183999604661 -36.43365854119321,-9.72179684060515 -36.43368736234207,-9.72175980556609 -36.43372133954017,-9.72172158869832 -36.43375672746539,-9.72168233819184 -36.43379694846166,-9.72164071497736 -36.43383261006196,-9.72160427584714 -36.43386824129604,-9.72156833405316 -36.43390888784408,-9.72152773662493 -36.43394581084351,-9.72149002719971 -36.43398962408636,-9.72144791504117 -36.43403899317742,-9.72139958264869 -36.43412878712872,-9.72130820978459 -36.43417773439815,-9.72126167419727 -36.43428471806121,-9.72115757832721 -36.43437552874440,-9.72106770930749 -36.43441256421982,-9.72103100381464 -36.43447414957606,-9.72097102263034 -36.43451804505191,-9.72092624072651 -36.43456152150688,-9.72087936757223 -36.43460065141745,-9.72083492914821 -36.43462998499103,-9.72079691299617 -36.43465269775678,-9.72076360055740 -36.43467061336958,-9.72073061537716 -36.43468166703821,-9.72069683195238 -36.43468606279555,-9.72066211091640 -36.43468336900955,-9.72062936441155 -36.43467583248179,-9.72059424164404 -36.43466309774470,-9.72055970469757 -36.43463803382911,-9.72051093285467 -36.43461053150886,-9.72046473722036 -36.43457859640248,-9.72041531420411 -36.43454684391807,-9.72036761553653 -36.43447752597868,-9.72026521221711 -36.43444531754806,-9.72021998018712 -36.43441330352827,-9.72017231405932 -36.43437895002722,-9.72012223421624 -36.43435172065069,-9.72008204753425 -36.43431219751022,-9.72002371699113 -36.43426969225391,-9.71996136223308 -36.43422749923004,-9.71989891920078 -36.43419406043675,-9.71984013321003 -36.43417337465322,-9.71980153462927 -36.43415519486926,-9.71976682271540 -36.43413690665000,-9.71972967322564 -36.43409959811900,-9.71965843124168 -36.43405898156529,-9.71958496284949 -36.43401398654827,-9.71951332836628 -36.43393836139070,-9.71939690502498 -36.43389919281079,-9.71933875067079 -36.43385755940248,-9.71927512534355 -36.43380499811334,-9.71919382889615 -36.43374339227007,-9.71909324230585 -36.43370737829293,-9.71903941531142 -36.43362064626795,-9.71890486750492 -36.43358442195344,-9.71884706294950 -36.43354880222594,-9.71878707258435 -36.43351268266509,-9.71873185217462 -36.43347722634774,-9.71867660703364 -36.43339942768893,-9.71855566946671 -36.43332936042816,-9.71845036880651 -36.43322874123729,-9.71829266017624 -36.43314786714667,-9.71816641867681 -36.43306916247663,-9.71804448140673 -36.43300729235178,-9.71795303638422 -36.43298993619946,-9.71791786857535 -36.43298560395742,-9.71790607612582 -36.43298560395742,-9.71790607612582 -36.43298560395742,-9.71790607612582
          </coordinates>
        </LinearRing>
      </outerBoundaryIs>
    </Polygon>
  </Placemark>
</Document>
</kml>
