<?xml version="1.0" encoding="UTF-8"?>
<kml xmlns="http://www.opengis.net/kml/2.2" xmlns:gx="http://www.google.com/kml/ext/2.2" xmlns:kml="http://www.opengis.net/kml/2.2" xmlns:atom="http://www.w3.org/2005/Atom">
<Document>
  <name>12.kml</name>
  <StyleMap id="FFFF0000">
    <Pair>
      <key>normal</key>
      <styleUrl>#s_FFFF0000</styleUrl>
    </Pair>
    <Pair>
      <key>highlight</key>
      <styleUrl>#s_FFFF0000_hl</styleUrl>
    </Pair>
  </StyleMap>
  <Style id="s_FFFF0000">
   <IconStyle>
      <scale>1.1</scale>
      <Icon>
        <href>http://maps.google.com/mapfiles/kml/pushpin/agrocad.png</href>
      </Icon>
      <hotSpot x="20" y="2" xunits="pixels" yunits="pixels"/>
    </IconStyle>
    <LineStyle>
      <color>FFFF0000</color>
      <width>1</width>
    </LineStyle>
    <PolyStyle>
      <color>40ffffff</color>
      <fill>1</fill>
    </PolyStyle>
  </Style>
  <Style id="s_FFFF0000_hl">
    <IconStyle>
      <scale>1.3</scale>
      <Icon>
        <href>http://maps.google.com/mapfiles/kml/pushpin/agrocad.png</href>
      </Icon>
      <hotSpot x="20" y="2" xunits="pixels" yunits="pixels"/>
    </IconStyle>
    <LineStyle>
      <color>ff000000</color>
      <width>1</width>
    </LineStyle>
    <PolyStyle>
      <color>40ffffff</color>
      <fill>1</fill>
    </PolyStyle>
  </Style>
  <Placemark>
    <name>AgroCAD: 1B242</name>
    <styleUrl>FFFF0000</styleUrl>
    <Polygon>
      <outerBoundaryIs>
        <LinearRing>
          <coordinates>
           -36.42598575190416,-9.71557918122659 -36.42599920221230,-9.71555811577603 -36.42602716301514,-9.71550263381070 -36.42605434835650,-9.71543222925921 -36.42608454080014,-9.71536812913266 -36.42610781072021,-9.71530182380631 -36.42617446838406,-9.71514966554807 -36.42619256270207,-9.71509891003091 -36.42621132417050,-9.71503737387374 -36.42623071691469,-9.71496486827352 -36.42628031049601,-9.71478503782213 -36.42630785079067,-9.71470824113976 -36.42632354335213,-9.71463841745258 -36.42636859047414,-9.71451530678309 -36.42641774341513,-9.71439518733001 -36.42647619120296,-9.71426479494435 -36.42653279637916,-9.71415010024148 -36.42658476805598,-9.71403847165683 -36.42662375682221,-9.71396187164257 -36.42670445012398,-9.71381887624954 -36.42674572028395,-9.71374683987938 -36.42679037723190,-9.71366801188163 -36.42683262511359,-9.71359244806680 -36.42684135503372,-9.71357935885620 -36.42683277647128,-9.71357205866548 -36.42677037899428,-9.71351081449926 -36.42670559198323,-9.71344552859605 -36.42667330210664,-9.71341337556241 -36.42663271937614,-9.71337403064849 -36.42660712833870,-9.71334350066643 -36.42658834162358,-9.71329176975170 -36.42660628807803,-9.71324198321864 -36.42663203563753,-9.71320023895675 -36.42666194829974,-9.71316220229132 -36.42669112790691,-9.71312753109354 -36.42671773762725,-9.71308964499562 -36.42674734053707,-9.71305068432552 -36.42677735200056,-9.71301348476640 -36.42680275837675,-9.71297781011669 -36.42681741351602,-9.71294169666374 -36.42681945114734,-9.71290403048501 -36.42680391882787,-9.71286618625650 -36.42677648095862,-9.71282824337966 -36.42674756335998,-9.71279672056034 -36.42671223397406,-9.71276827001307 -36.42667814008687,-9.71273523381480 -36.42665276624652,-9.71269030312442 -36.42665657241018,-9.71265922417122 -36.42666239081771,-9.71264140948664 -36.42667131245337,-9.71262023298526 -36.42667129185048,-9.71262022464400 -36.42662266668033,-9.71258645317336 -36.42658209187076,-9.71254057160616 -36.42653878072625,-9.71248254139583 -36.42643847881833,-9.71236077517047 -36.42639535934874,-9.71231629259995 -36.42636213261286,-9.71229632711135 -36.42632924393497,-9.71228874867336 -36.42629140326941,-9.71228903958595 -36.42618939180510,-9.71232866049102 -36.42614531514628,-9.71237031577003 -36.42610152975779,-9.71241869328770 -36.42605655060580,-9.71246815708421 -36.42600046970901,-9.71253241769804 -36.42593067131062,-9.71261525942702 -36.42585776419456,-9.71270260962480 -36.42579076043288,-9.71278327912944 -36.42571608482155,-9.71287361943610 -36.42562385166733,-9.71297502271881 -36.42551417636032,-9.71308641824115 -36.42541176553493,-9.71319988326606 -36.42531825608017,-9.71331321731691 -36.42529305132099,-9.71334492512357 -36.42514930103693,-9.71350436052986 -36.42505300790331,-9.71361646729444 -36.42494539900425,-9.71373308690805 -36.42484772156802,-9.71384475472416 -36.42475882272802,-9.71395294348030 -36.42469100703864,-9.71403438187416 -36.42465157710471,-9.71407748820553 -36.42461859100038,-9.71410955772041 -36.42459700950808,-9.71414650040167 -36.42459619346537,-9.71417671696350 -36.42461350781202,-9.71420944848726 -36.42462439708812,-9.71422705186106 -36.42463809229732,-9.71424599245393 -36.42468336324509,-9.71429201234129 -36.42472762213011,-9.71433682971747 -36.42481457344956,-9.71442083320237 -36.42493576415612,-9.71453835593657 -36.42501067043996,-9.71461546213343 -36.42504843392991,-9.71465537546495 -36.42509201189366,-9.71469994322874 -36.42513432329454,-9.71474325299525 -36.42520404945241,-9.71481201745463 -36.42523431488199,-9.71483706172772 -36.42527605963721,-9.71488415422616 -36.42533199941887,-9.71494302468327 -36.42538634607195,-9.71500024227551 -36.42542861256537,-9.71504474154046 -36.42546982574919,-9.71508928104281 -36.42550528453816,-9.71512421738977 -36.42553787705474,-9.71515420431120 -36.42561415945289,-9.71522533349363 -36.42568871910896,-9.71530186676024 -36.42577583826410,-9.71538462941060 -36.42582071933284,-9.71542474339991 -36.42587072535893,-9.71546944595739 -36.42594141022348,-9.71553597364266 -36.42597411864470,-9.71556828311831 -36.42598575190416,-9.71557918122659 -36.42598575190416,-9.71557918122659 -36.42598575190416,-9.71557918122659
          </coordinates>
        </LinearRing>
      </outerBoundaryIs>
    </Polygon>
  </Placemark>
</Document>
</kml>
