<?xml version="1.0" encoding="UTF-8"?>
<kml xmlns="http://www.opengis.net/kml/2.2" xmlns:gx="http://www.google.com/kml/ext/2.2" xmlns:kml="http://www.opengis.net/kml/2.2" xmlns:atom="http://www.w3.org/2005/Atom">
<Document>
  <name>06.kml</name>
  <StyleMap id="FFFF0000">
    <Pair>
      <key>normal</key>
      <styleUrl>#s_FFFF0000</styleUrl>
    </Pair>
    <Pair>
      <key>highlight</key>
      <styleUrl>#s_FFFF0000_hl</styleUrl>
    </Pair>
  </StyleMap>
  <Style id="s_FFFF0000">
   <IconStyle>
      <scale>1.1</scale>
      <Icon>
        <href>http://maps.google.com/mapfiles/kml/pushpin/agrocad.png</href>
      </Icon>
      <hotSpot x="20" y="2" xunits="pixels" yunits="pixels"/>
    </IconStyle>
    <LineStyle>
      <color>FFFF0000</color>
      <width>1</width>
    </LineStyle>
    <PolyStyle>
      <color>40ffffff</color>
      <fill>1</fill>
    </PolyStyle>
  </Style>
  <Style id="s_FFFF0000_hl">
    <IconStyle>
      <scale>1.3</scale>
      <Icon>
        <href>http://maps.google.com/mapfiles/kml/pushpin/agrocad.png</href>
      </Icon>
      <hotSpot x="20" y="2" xunits="pixels" yunits="pixels"/>
    </IconStyle>
    <LineStyle>
      <color>ff000000</color>
      <width>1</width>
    </LineStyle>
    <PolyStyle>
      <color>40ffffff</color>
      <fill>1</fill>
    </PolyStyle>
  </Style>
  <Placemark>
    <name>AgroCAD: 1B25E</name>
    <styleUrl>FFFF0000</styleUrl>
    <Polygon>
      <outerBoundaryIs>
        <LinearRing>
          <coordinates>
           -36.42861336938677,-9.72120314534033 -36.42856128131061,-9.72114498474937 -36.42874410415580,-9.72100672788332 -36.42876254751446,-9.72102584837463 -36.42883817885808,-9.72110523356987 -36.42888778269885,-9.72115609880353 -36.42894412400941,-9.72121395601586 -36.42898471218258,-9.72125514275617 -36.42907520687629,-9.72134826029681 -36.42912021233748,-9.72139555964680 -36.42917147003325,-9.72144541341771 -36.42919708296230,-9.72147193072832 -36.42925041950788,-9.72152789502212 -36.42927870129743,-9.72155481834376 -36.42926265019209,-9.72157171459129 -36.42923261636844,-9.72159724912085 -36.42920184013978,-9.72162488579555 -36.42916900093950,-9.72165652360306 -36.42913715508704,-9.72168711505621 -36.42910554058953,-9.72171646170752 -36.42908686722192,-9.72173285223562 -36.42908232913723,-9.72172757341902 -36.42896727083894,-9.72159789880979 -36.42885130374563,-9.72146517144828 -36.42879184235507,-9.72139870385395 -36.42873142067244,-9.72133342794994 -36.42867138665434,-9.72126896210758 -36.42861336938677,-9.72120314534033 -36.42861336938677,-9.72120314534033
          </coordinates>
        </LinearRing>
      </outerBoundaryIs>
    </Polygon>
  </Placemark>
  <Placemark>
    <name>AgroCAD: 1B25C</name>
    <styleUrl>FFFF0000</styleUrl>
    <Polygon>
      <outerBoundaryIs>
        <LinearRing>
          <coordinates>
           -36.42827985811720,-9.72198069979160 -36.42767491156073,-9.72134956540035 -36.42757867736108,-9.72124811763261 -36.42795397440842,-9.72093540270927 -36.42831981600688,-9.72132758866816 -36.42853222570628,-9.72116695756517 -36.42858603998671,-9.72122704561218 -36.42864429023465,-9.72129312668871 -36.42870462440738,-9.72135791485169 -36.42876479988464,-9.72142292477846 -36.42882391463140,-9.72148900489310 -36.42893983314738,-9.72162167667365 -36.42905479500182,-9.72175124260409 -36.42908153935290,-9.72178235232111 -36.42910856837181,-9.72181334258052 -36.42913148716734,-9.72184028347308 -36.42915842525708,-9.72187089136833 -36.42918899148939,-9.72190467075235 -36.42928359953346,-9.72200406078968 -36.42937730720263,-9.72210863884686 -36.42947322908278,-9.72221150359150 -36.42956490479603,-9.72230861340737 -36.42965643332099,-9.72240769970826 -36.42974764289340,-9.72250742606036 -36.42983751438525,-9.72260892142178 -36.42989715757849,-9.72267730251551 -36.42995730799340,-9.72274345092432 -36.43001756398031,-9.72280843455669 -36.43007526362260,-9.72286859397783 -36.43010456824790,-9.72290223652770 -36.43016560562573,-9.72296711819984 -36.43022613168729,-9.72303079954471 -36.43028683631334,-9.72309372361521 -36.43034543302563,-9.72315871999163 -36.43044274589032,-9.72327140770698 -36.43050287664034,-9.72333517779081 -36.43053695952988,-9.72336705442278 -36.43057126686003,-9.72339550684393 -36.43061162545934,-9.72342162249970 -36.43065155456087,-9.72344515846441 -36.43069440146257,-9.72346508504117 -36.43072790005307,-9.72347417640304 -36.43071678086106,-9.72347979938310 -36.43067790562546,-9.72350979273089 -36.43064174295764,-9.72353725076085 -36.43060457092133,-9.72356814014922 -36.43056688812431,-9.72359435680892 -36.43052834052548,-9.72362256840689 -36.43049097044988,-9.72365176031996 -36.43045748522615,-9.72367716759921 -36.43041860765414,-9.72370322445633 -36.43037614809112,-9.72373033106190 -36.43033811493108,-9.72375593322560 -36.43029723272597,-9.72378191135229 -36.43025639581990,-9.72380863681680 -36.43021831831339,-9.72383569528940 -36.43018181759755,-9.72385761608728 -36.43012971435658,-9.72388343545718 -36.43010976015608,-9.72388393280253 -36.43005523446903,-9.72382281725688 -36.42992079087494,-9.72366878537667 -36.42983695919483,-9.72358284096887 -36.42977923172122,-9.72352365861518 -36.42972329020913,-9.72346492345077 -36.42966760172013,-9.72340900648086 -36.42964289688598,-9.72338785367165 -36.42962906872565,-9.72337552150821 -36.42956955380848,-9.72332951923579 -36.42949199429538,-9.72327247784117 -36.42940852908002,-9.72320499101421 -36.42931038552587,-9.72311260878363 -36.42923869107017,-9.72302760100516 -36.42910470048234,-9.72285472662818 -36.42903321906756,-9.72277275831954 -36.42878719333681,-9.72251195039313 -36.42853534079278,-9.72224702377166 -36.42827985811720,-9.72198069979160 -36.42827985811720,-9.72198069979160
          </coordinates>
        </LinearRing>
      </outerBoundaryIs>
    </Polygon>
  </Placemark>
  <Placemark>
    <name>AgroCAD: 1B244</name>
    <styleUrl>FFFF0000</styleUrl>
    <Polygon>
      <outerBoundaryIs>
        <LinearRing>
          <coordinates>
           -36.43076620430016,-9.72348269238553 -36.43073613658039,-9.72349197149682 -36.43070158681127,-9.72351865095727 -36.43066444367950,-9.72354717649081 -36.43062724832680,-9.72357555739452 -36.43059087907766,-9.72360422990951 -36.43055350850596,-9.72363211320928 -36.43051993262287,-9.72365923947183 -36.43048609032266,-9.72368527465455 -36.43044898502472,-9.72371161891534 -36.43040875195708,-9.72373680737165 -36.43036818316495,-9.72376303135487 -36.43032875404108,-9.72379076165617 -36.43028856376761,-9.72381563208481 -36.43024783783559,-9.72384363979619 -36.43020829964538,-9.72387207509774 -36.43017132351122,-9.72390220309082 -36.43015400662564,-9.72392106044254 -36.43014638227541,-9.72392498097910 -36.43020901414461,-9.72399518235202 -36.43031545927878,-9.72410739170347 -36.43040347569535,-9.72419674729916 -36.43043304390996,-9.72422885460306 -36.43043438351661,-9.72422788639307 -36.43050742139202,-9.72417245752721 -36.43057087093635,-9.72413268949616 -36.43060604458018,-9.72410732202371 -36.43068223152515,-9.72405952567397 -36.43079715079430,-9.72399041877166 -36.43090654966487,-9.72392169057589 -36.43101148304686,-9.72385154072003 -36.43108248389019,-9.72380677276847 -36.43114769281828,-9.72376345851598 -36.43115936527108,-9.72375513261326 -36.43118019279789,-9.72372711326410 -36.43120142952013,-9.72369254519041 -36.43121231714063,-9.72366497535586 -36.43118350672324,-9.72364740922031 -36.43114241451876,-9.72362120705380 -36.43110860799208,-9.72360132985749 -36.43107195440033,-9.72357610426152 -36.43103542469837,-9.72355382380305 -36.43099815739565,-9.72353459582466 -36.43095941133879,-9.72351867203771 -36.43091722360674,-9.72350782335182 -36.43087331514421,-9.72350038034621 -36.43082923553409,-9.72349325598351 -36.43078398843445,-9.72348626006265 -36.43076620430019,-9.72348269238553 -36.43076620430016,-9.72348269238553 -36.43076620430016,-9.72348269238553
          </coordinates>
        </LinearRing>
      </outerBoundaryIs>
    </Polygon>
  </Placemark>
  <Placemark>
    <name>AgroCAD: 1B23C</name>
    <styleUrl>FFFF0000</styleUrl>
    <Polygon>
      <outerBoundaryIs>
        <LinearRing>
          <coordinates>
           -36.43122234931751,-9.72362866861675 -36.43122357645434,-9.72362242993568 -36.43122397256963,-9.72350791178516 -36.43121285255120,-9.72345390575960 -36.43119715269313,-9.72335684136702 -36.43118149899571,-9.72324727920712 -36.43116036989284,-9.72309204449293 -36.43113874755946,-9.72291718604086 -36.43111439174656,-9.72272654198155 -36.43109389712153,-9.72253796463091 -36.43105804938548,-9.72214227092099 -36.43102339001346,-9.72175793926641 -36.43098130542683,-9.72136818427008 -36.43094841497077,-9.72099465861866 -36.43094828081841,-9.72099329838889 -36.43094619041988,-9.72099075044853 -36.43090954907190,-9.72095425610443 -36.43086004354051,-9.72090384243892 -36.43079139189517,-9.72082881161344 -36.43072034240770,-9.72074847473745 -36.43064906903326,-9.72066961554400 -36.43058097988073,-9.72059160080511 -36.43051596414590,-9.72051649837539 -36.43045628010809,-9.72045349235882 -36.43044051634947,-9.72043701431900 -36.43040963991840,-9.72046831980671 -36.43038228849562,-9.72049589443824 -36.43034937954693,-9.72052777378299 -36.43031755771023,-9.72055936863233 -36.43028435052380,-9.72059339481447 -36.43025556330237,-9.72062057323991 -36.43021877250332,-9.72065830250164 -36.43018685118489,-9.72069186876479 -36.43015470672387,-9.72072656795572 -36.43012054700189,-9.72076080186218 -36.43008760193169,-9.72079548043216 -36.43005426923008,-9.72082868575713 -36.43002184021986,-9.72086464505560 -36.42995225867450,-9.72093062704845 -36.42992067074172,-9.72096485986386 -36.42985831782937,-9.72103022705454 -36.42979777134255,-9.72108873427840 -36.42973424586025,-9.72115124969291 -36.42970105071294,-9.72118205976132 -36.42967512986257,-9.72120696121697 -36.42963526916820,-9.72124348822427 -36.42961003793543,-9.72127015029989 -36.42957043802083,-9.72130755067761 -36.42954057556472,-9.72133959661075 -36.42950768163993,-9.72137209907514 -36.42944311691348,-9.72143958453265 -36.42941048729492,-9.72147172189287 -36.42937888655984,-9.72150252963862 -36.42934808746689,-9.72153447625878 -36.42928783080849,-9.72159790564044 -36.42925669798856,-9.72162437452900 -36.42922676196218,-9.72165125671302 -36.42919436224274,-9.72168247111858 -36.42916227348783,-9.72171329590727 -36.42913006101535,-9.72174319763895 -36.42911052317659,-9.72176034695600 -36.42913626476775,-9.72178986110453 -36.42915913094820,-9.72181674014489 -36.42918570281997,-9.72184693192804 -36.42921579431560,-9.72188018666641 -36.42931046327183,-9.72197964068253 -36.42940429517195,-9.72208435736889 -36.42949989577469,-9.72218687756930 -36.42959163019766,-9.72228404956313 -36.42968335306042,-9.72238334623665 -36.42977481995365,-9.72248335392466 -36.42986497456429,-9.72258516901014 -36.42992446042038,-9.72265336970762 -36.42998424004111,-9.72271911033967 -36.43004416833121,-9.72278374055643 -36.43010225793635,-9.72284430655745 -36.43013167754045,-9.72287808110200 -36.43019217579201,-9.72294238968443 -36.43025254484463,-9.72300590582769 -36.43031358101081,-9.72306917355225 -36.43037284678834,-9.72313491205790 -36.43046989466425,-9.72324729290349 -36.43052869999779,-9.72330965734426 -36.43056115945326,-9.72334001562717 -36.43059297734831,-9.72336640345914 -36.43063088985669,-9.72339093627107 -36.43066863147750,-9.72341318283681 -36.43070703215157,-9.72343104162908 -36.43074807700632,-9.72344218100993 -36.43079040706947,-9.72345067284899 -36.43083496964743,-9.72345756293060 -36.43087931218579,-9.72346472978777 -36.43092487573849,-9.72347245334944 -36.43097100941283,-9.72348431674332 -36.43101356261978,-9.72350180518470 -36.43105339264378,-9.72352235539146 -36.43109189255685,-9.72354583753322 -36.43112830312631,-9.72357089587526 -36.43116155698203,-9.72359044811626 -36.43120289542098,-9.72361680729031 -36.43122234931752,-9.72362866861675 -36.43122234931751,-9.72362866861675 -36.43122234931751,-9.72362866861675
          </coordinates>
        </LinearRing>
      </outerBoundaryIs>
    </Polygon>
  </Placemark>
</Document>
</kml>
