<?xml version="1.0" encoding="UTF-8"?>
<kml xmlns="http://www.opengis.net/kml/2.2" xmlns:gx="http://www.google.com/kml/ext/2.2" xmlns:kml="http://www.opengis.net/kml/2.2" xmlns:atom="http://www.w3.org/2005/Atom">
<Document>
  <name>11.kml</name>
  <StyleMap id="FFFF0000">
    <Pair>
      <key>normal</key>
      <styleUrl>#s_FFFF0000</styleUrl>
    </Pair>
    <Pair>
      <key>highlight</key>
      <styleUrl>#s_FFFF0000_hl</styleUrl>
    </Pair>
  </StyleMap>
  <Style id="s_FFFF0000">
   <IconStyle>
      <scale>1.1</scale>
      <Icon>
        <href>http://maps.google.com/mapfiles/kml/pushpin/agrocad.png</href>
      </Icon>
      <hotSpot x="20" y="2" xunits="pixels" yunits="pixels"/>
    </IconStyle>
    <LineStyle>
      <color>FFFF0000</color>
      <width>1</width>
    </LineStyle>
    <PolyStyle>
      <color>40ffffff</color>
      <fill>1</fill>
    </PolyStyle>
  </Style>
  <Style id="s_FFFF0000_hl">
    <IconStyle>
      <scale>1.3</scale>
      <Icon>
        <href>http://maps.google.com/mapfiles/kml/pushpin/agrocad.png</href>
      </Icon>
      <hotSpot x="20" y="2" xunits="pixels" yunits="pixels"/>
    </IconStyle>
    <LineStyle>
      <color>ff000000</color>
      <width>1</width>
    </LineStyle>
    <PolyStyle>
      <color>40ffffff</color>
      <fill>1</fill>
    </PolyStyle>
  </Style>
  <Placemark>
    <name>AgroCAD: 1B23A</name>
    <styleUrl>FFFF0000</styleUrl>
    <Polygon>
      <outerBoundaryIs>
        <LinearRing>
          <coordinates>
           -36.43299021056881,-9.71447882043897 -36.43292615926841,-9.71437143753523 -36.43287253377486,-9.71427641753205 -36.43280858759470,-9.71417758515621 -36.43271212589684,-9.71402792281710 -36.43264361885235,-9.71390843297773 -36.43251365605213,-9.71368077497336 -36.43240029482729,-9.71348920485962 -36.43221216757086,-9.71317477327332 -36.43212793582925,-9.71304047211111 -36.43202067522708,-9.71286370984633 -36.43189707112715,-9.71266262423162 -36.43181783652829,-9.71252890382284 -36.43177443597485,-9.71245590204714 -36.43172889811110,-9.71237825573543 -36.43168002541279,-9.71228471445909 -36.43161911104435,-9.71217424313477 -36.43155417640848,-9.71205204170655 -36.43144496509162,-9.71185412169453 -36.43138460596676,-9.71173342135932 -36.43135175233248,-9.71166777653753 -36.43132264440594,-9.71161114884343 -36.43129349791225,-9.71155671495400 -36.43125160535852,-9.71147616174487 -36.43122514878584,-9.71142292298287 -36.43119499237970,-9.71136480867563 -36.43116600775706,-9.71130930904070 -36.43111696133515,-9.71121074459155 -36.43110376101884,-9.71118347418648 -36.43106485486956,-9.71110934350712 -36.43103014076925,-9.71104367972085 -36.43099440395764,-9.71097593047644 -36.43095923024535,-9.71090907818607 -36.43093232003983,-9.71085645823133 -36.43090237145296,-9.71080196107917 -36.43086705470395,-9.71073534503593 -36.43083647672930,-9.71067761277403 -36.43080912927937,-9.71061997793284 -36.43077835354543,-9.71055884855793 -36.43075093129241,-9.71050892295535 -36.43070416075025,-9.71042701745361 -36.43069515421481,-9.71041608183805 -36.43067456046154,-9.71040566527431 -36.43065353714915,-9.71040541548340 -36.43062515443360,-9.71041677870606 -36.43058810461885,-9.71043977814294 -36.43054754194351,-9.71047325314369 -36.43050987176064,-9.71050693870748 -36.43047797453543,-9.71053924564111 -36.43044491056909,-9.71057469055694 -36.43041924084055,-9.71060111056801 -36.43038020382414,-9.71069457254204 -36.43035648993027,-9.71078386682174 -36.43034648162922,-9.71082391184888 -36.43033900849953,-9.71086067520617 -36.43032794235303,-9.71090424719487 -36.43031407760759,-9.71095038191463 -36.43029933438707,-9.71098919245293 -36.43027022509301,-9.71103256220065 -36.43024203086512,-9.71106969326699 -36.43020815006634,-9.71110583086841 -36.43016938173481,-9.71113538705486 -36.43007575074918,-9.71118616551413 -36.43003044753700,-9.71120863289675 -36.42999187862083,-9.71122998253462 -36.42995030575768,-9.71125879231002 -36.42990892535828,-9.71129403673289 -36.42986941422176,-9.71132934358813 -36.42983952341288,-9.71135975833371 -36.42980788712092,-9.71140503670317 -36.42978116069227,-9.71145387099934 -36.42975658630709,-9.71150096362155 -36.42973347481271,-9.71154811519038 -36.42971622186078,-9.71158720321580 -36.42968722841362,-9.71162440091902 -36.42965089391856,-9.71165990734679 -36.42961333597493,-9.71170181244297 -36.42957408229107,-9.71175355861253 -36.42953906526270,-9.71179937522797 -36.42950153205296,-9.71184630272755 -36.42946524095287,-9.71189384243428 -36.42945835829615,-9.71190586218332 -36.42945063407928,-9.71193779864776 -36.42945607693665,-9.71203679531130 -36.42942797104291,-9.71215653147827 -36.42940385368270,-9.71220954717791 -36.42938247748631,-9.71225492391991 -36.42935969955098,-9.71230082354934 -36.42933267736025,-9.71235095298285 -36.42930187100774,-9.71240205641303 -36.42926699510012,-9.71245521120363 -36.42923096314732,-9.71250588264522 -36.42919510320867,-9.71255361762264 -36.42915245661167,-9.71260248212547 -36.42907140756014,-9.71267282851473 -36.42897772676208,-9.71275453743630 -36.42893427119344,-9.71278880277755 -36.42889180872594,-9.71281841072987 -36.42884575416287,-9.71284325277098 -36.42873541291554,-9.71287595754032 -36.42868416567875,-9.71287508404031 -36.42863917680427,-9.71286935806267 -36.42858904124941,-9.71286084406621 -36.42853116921149,-9.71285437565412 -36.42847047665007,-9.71284719037315 -36.42841901148525,-9.71283734817115 -36.42836854902824,-9.71282586852632 -36.42831192682750,-9.71281219685493 -36.42819214660774,-9.71278115325380 -36.42814755515966,-9.71276611006575 -36.42810705751614,-9.71275130729196 -36.42806219938626,-9.71272798968344 -36.42801954819367,-9.71269581101584 -36.42798109276144,-9.71266222099137 -36.42789048683908,-9.71256963130876 -36.42785308345749,-9.71254554370333 -36.42781069876438,-9.71253376759725 -36.42774992851859,-9.71253284638782 -36.42769578338747,-9.71253788813257 -36.42764618535653,-9.71255012611230 -36.42759860048799,-9.71256768420264 -36.42754781036146,-9.71258679723480 -36.42749167609885,-9.71260673182201 -36.42743356813812,-9.71262251215737 -36.42736112788595,-9.71263798773100 -36.42720871280990,-9.71266626400853 -36.42711484477374,-9.71268071845370 -36.42702123959115,-9.71268706503500 -36.42693815150202,-9.71268314486968 -36.42686282790258,-9.71267385018299 -36.42678606287397,-9.71265893193255 -36.42672796124612,-9.71264316775330 -36.42670504361698,-9.71263388934850 -36.42669658332828,-9.71265397079549 -36.42669231262590,-9.71266704675100 -36.42669036631089,-9.71268293925946 -36.42670735354816,-9.71271301937839 -36.42673649163630,-9.71274125351710 -36.42677265597949,-9.71277037644733 -36.42680484773755,-9.71280546839475 -36.42683603294834,-9.71284859333316 -36.42685626604718,-9.71289789091561 -36.42685346726008,-9.71294962737277 -36.42683496472928,-9.71299522164607 -36.42680647539401,-9.71303522527157 -36.42677611279359,-9.71307286007179 -36.42674723800466,-9.71311086245809 -36.42672010955132,-9.71314948711520 -36.42669029926156,-9.71318490769222 -36.42666203019266,-9.71322085438239 -36.42663932467288,-9.71325766662004 -36.42662704797561,-9.71329172428720 -36.42663923191191,-9.71332527384403 -36.42665952650598,-9.71334948519161 -36.42669893765004,-9.71338769424924 -36.42673147594859,-9.71342009464833 -36.42679617089620,-9.71348528777173 -36.42685747743421,-9.71354546115642 -36.42686150820067,-9.71354889126039 -36.42691142124764,-9.71347255644930 -36.42694839446293,-9.71341636388220 -36.42697924573829,-9.71337516814683 -36.42700945254464,-9.71333807371683 -36.42704249671669,-9.71330291889798 -36.42708258692346,-9.71327360190378 -36.42711985210555,-9.71325238643175 -36.42717545601005,-9.71323764893323 -36.42722469609843,-9.71323793941579 -36.42727096697193,-9.71324964698304 -36.42732354833670,-9.71327152246391 -36.42740336199086,-9.71330184325542 -36.42759547099963,-9.71338310944534 -36.42805697263410,-9.71358859583319 -36.42870047395734,-9.71387327460630 -36.42935565119388,-9.71416235720028 -36.42989831108858,-9.71440556543703 -36.43039371005672,-9.71461918012663 -36.43079281048864,-9.71480108493989 -36.43115976648918,-9.71496979217822 -36.43162068795684,-9.71517629272849 -36.43184722113906,-9.71527557902430 -36.43204697869637,-9.71536177137364 -36.43218230283135,-9.71541769929128 -36.43225077824345,-9.71544809091818 -36.43230318515369,-9.71536094968491 -36.43241591842274,-9.71519584051210 -36.43256545426851,-9.71499771978561 -36.43272231006296,-9.71480348191953 -36.43285398685310,-9.71464000371339 -36.43296601001146,-9.71450739508342 -36.43299021056882,-9.71447882043897 -36.43299021056881,-9.71447882043897 -36.43299021056881,-9.71447882043897
          </coordinates>
        </LinearRing>
      </outerBoundaryIs>
    </Polygon>
  </Placemark>
</Document>
</kml>
