<?xml version="1.0" encoding="UTF-8"?>
<kml xmlns="http://www.opengis.net/kml/2.2" xmlns:gx="http://www.google.com/kml/ext/2.2" xmlns:kml="http://www.opengis.net/kml/2.2" xmlns:atom="http://www.w3.org/2005/Atom">
<Document>
  <name>02.kml</name>
  <StyleMap id="FFFF0000">
    <Pair>
      <key>normal</key>
      <styleUrl>#s_FFFF0000</styleUrl>
    </Pair>
    <Pair>
      <key>highlight</key>
      <styleUrl>#s_FFFF0000_hl</styleUrl>
    </Pair>
  </StyleMap>
  <Style id="s_FFFF0000">
   <IconStyle>
      <scale>1.1</scale>
      <Icon>
        <href>http://maps.google.com/mapfiles/kml/pushpin/agrocad.png</href>
      </Icon>
      <hotSpot x="20" y="2" xunits="pixels" yunits="pixels"/>
    </IconStyle>
    <LineStyle>
      <color>FFFF0000</color>
      <width>1</width>
    </LineStyle>
    <PolyStyle>
      <color>40ffffff</color>
      <fill>1</fill>
    </PolyStyle>
  </Style>
  <Style id="s_FFFF0000_hl">
    <IconStyle>
      <scale>1.3</scale>
      <Icon>
        <href>http://maps.google.com/mapfiles/kml/pushpin/agrocad.png</href>
      </Icon>
      <hotSpot x="20" y="2" xunits="pixels" yunits="pixels"/>
    </IconStyle>
    <LineStyle>
      <color>ff000000</color>
      <width>1</width>
    </LineStyle>
    <PolyStyle>
      <color>40ffffff</color>
      <fill>1</fill>
    </PolyStyle>
  </Style>
  <Placemark>
    <name>AgroCAD: 1B24C</name>
    <styleUrl>FFFF0000</styleUrl>
    <Polygon>
      <outerBoundaryIs>
        <LinearRing>
          <coordinates>
           -36.42352746600394,-9.72397158530304 -36.42342378191069,-9.72388421228111 -36.42315971132136,-9.72367170393943 -36.42294277690165,-9.72349847085284 -36.42248178850076,-9.72310919403123 -36.42206449962779,-9.72276379777112 -36.42181203103104,-9.72255329034739 -36.42148300854855,-9.72227540523514 -36.42100641486806,-9.72187713029509 -36.42062878574679,-9.72156056230886 -36.42036415563173,-9.72134607498737 -36.42024006148228,-9.72125172461771 -36.42018380603449,-9.72120128390018 -36.42014298635533,-9.72113704416462 -36.42012186711026,-9.72106456803246 -36.42011469668960,-9.72089503278143 -36.42013145241889,-9.72081330383299 -36.42016440956026,-9.72073250217973 -36.42021070688892,-9.72065788029223 -36.42032398212392,-9.72050209640451 -36.42037221091386,-9.72042039712796 -36.42040662153944,-9.72033682586982 -36.42043941428732,-9.72024996385693 -36.42047469622889,-9.72015956986365 -36.42051247704163,-9.72007470033116 -36.42055387386219,-9.71999041968112 -36.42059527795083,-9.71991160193841 -36.42063338005215,-9.71983464686288 -36.42067177508785,-9.71975514464659 -36.42070146586434,-9.71968137695201 -36.42072259891036,-9.71962001949854 -36.42073788111809,-9.71953142530096 -36.42075271916051,-9.71944024989730 -36.42076358204286,-9.71933403125660 -36.42077487953229,-9.71917424101386 -36.42078479238961,-9.71908055115912 -36.42078529867435,-9.71904210687398 -36.42097141668322,-9.71911600938089 -36.42222088519134,-9.71964245187824 -36.42357283365921,-9.72021023686656 -36.42396714146310,-9.72038411579126 -36.42394235002694,-9.72055935475884 -36.42389305707420,-9.72099209898973 -36.42382831259738,-9.72153236600315 -36.42375872497793,-9.72203137372809 -36.42370336752564,-9.72248235108682 -36.42366955674488,-9.72277419209867 -36.42363671444993,-9.72303655084601 -36.42360522186378,-9.72329266736930 -36.42356456015980,-9.72362381214952 -36.42352746600394,-9.72397158530304 -36.42352746600394,-9.72397158530304 -36.42352746600394,-9.72397158530304
          </coordinates>
        </LinearRing>
      </outerBoundaryIs>
    </Polygon>
  </Placemark>
</Document>
</kml>
