<?xml version="1.0" encoding="utf-8" ?>
<kml xmlns="http://www.opengis.net/kml/2.2">
<Document id="root_doc">
<Schema name="BAIXA_SECA_TALHAO_1002_ID_306" id="BAIXA_SECA_TALHAO_1002_ID_306">
	<SimpleField name="ID" type="float"></SimpleField>
	<SimpleField name="AREA_TOTAL" type="float"></SimpleField>
	<SimpleField name="FAZENDA" type="float"></SimpleField>
	<SimpleField name="FAZ_NOME" type="string"></SimpleField>
	<SimpleField name="TALHAO" type="float"></SimpleField>
	<SimpleField name="ZONA" type="float"></SimpleField>
	<SimpleField name="ACIONISTA" type="string"></SimpleField>
	<SimpleField name="CODE" type="string"></SimpleField>
</Schema>
<Folder><name>BAIXA_SECA_TALHAO_1002_ID_306</name>
  <Placemark id="BAIXA_SECA_TALHAO_1002_ID_306.1">
	<Style><LineStyle><color>ff0000ff</color></LineStyle><PolyStyle><fill>0</fill></PolyStyle></Style>
	<ExtendedData><SchemaData schemaUrl="#BAIXA_SECA_TALHAO_1002_ID_306">
		<SimpleData name="ID">306</SimpleData>
		<SimpleData name="AREA_TOTAL">2.77</SimpleData>
		<SimpleData name="FAZ_NOME">BAIXA SECA</SimpleData>
		<SimpleData name="TALHAO">1002</SimpleData>
		<SimpleData name="ZONA">1</SimpleData>
		<SimpleData name="ACIONISTA">HENRIQUE TENÓRIO</SimpleData>
		<SimpleData name="CODE"></SimpleData>
	</SchemaData></ExtendedData>
      <MultiGeometry><Polygon><outerBoundaryIs><LinearRing><coordinates>-36.3821377038305,-9.71749002586773,0 -36.3825959249849,-9.71781880956295,0 -36.3833104525739,-9.71833837520707,0 -36.384646218463,-9.71758620662255,0 -36.3843621994937,-9.71726223059487,0 -36.384341037373,-9.7172598674738,0 -36.384296707396,-9.71725484596993,0 -36.3842623778065,-9.71724703937767,0 -36.3842270565683,-9.71723671686498,0 -36.3841809192928,-9.71722415153787,0 -36.3841347539497,-9.71720797527594,0 -36.3840508660405,-9.71718087106533,0 -36.3840139241332,-9.71717056285616,0 -36.3839557397296,-9.71715163631914,0 -36.3839020390165,-9.71713225502693,0 -36.3836725914155,-9.71704507170141,0 -36.3836434890217,-9.71702538342607,0 -36.3836144230295,-9.71700394969354,0 -36.3835743433716,-9.71697536361717,0 -36.3835189838204,-9.71693848170346,0 -36.3834320488445,-9.71686488533569,0 -36.3833451983912,-9.71677218249919,0 -36.3833247468413,-9.71674966897577,0 -36.3832883221651,-9.71671012929112,0 -36.3832139766487,-9.71666325549318,0 -36.383199872647,-9.71665883366355,0 -36.3831241409143,-9.71666795234675,0 -36.3830898249527,-9.71667931106974,0 -36.3830438460809,-9.71670126820717,0 -36.3829477511287,-9.71675412686324,0 -36.3829070279854,-9.71677244013936,0 -36.382808778961,-9.71681792037172,0 -36.3827933192121,-9.71682597239742,0 -36.3827502315789,-9.71685192265614,0 -36.3827002091511,-9.71688302393223,0 -36.3826600992144,-9.71691220018091,0 -36.3826204799457,-9.71693669518731,0 -36.3825730194034,-9.71696755675636,0 -36.3825332492722,-9.71699866745004,0 -36.3822666406493,-9.71718234852127,0 -36.3822619436496,-9.71718517239177,0 -36.3822357009692,-9.71720208248503,0 -36.3821930733625,-9.71723173006612,0 -36.3821489925996,-9.71725970167569,0 -36.3821152774622,-9.71729450089984,0 -36.3820935874799,-9.71732381660494,0 -36.3820721834528,-9.71736330013708,0 -36.3820645892357,-9.71740776266147,0 -36.3820801803062,-9.71744381862795,0 -36.3821377038305,-9.71749002586773,0</coordinates></LinearRing></outerBoundaryIs></Polygon></MultiGeometry>
  </Placemark>
</Folder>
</Document></kml>
