<?xml version="1.0" encoding="UTF-8"?>
<kml xmlns="http://www.opengis.net/kml/2.2" xmlns:gx="http://www.google.com/kml/ext/2.2" xmlns:kml="http://www.opengis.net/kml/2.2" xmlns:atom="http://www.w3.org/2005/Atom">
<Document>
  <name>1016.kml</name>
  <StyleMap id="FFFF4000">
    <Pair>
      <key>normal</key>
      <styleUrl>#s_FFFF4000</styleUrl>
    </Pair>
    <Pair>
      <key>highlight</key>
      <styleUrl>#s_FFFF4000_hl</styleUrl>
    </Pair>
  </StyleMap>
  <Style id="s_FFFF4000">
   <IconStyle>
      <scale>1.1</scale>
      <Icon>
        <href>http://maps.google.com/mapfiles/kml/pushpin/agrocad.png</href>
      </Icon>
      <hotSpot x="20" y="2" xunits="pixels" yunits="pixels"/>
    </IconStyle>
    <LineStyle>
      <color>FFFF4000</color>
      <width>1</width>
    </LineStyle>
    <PolyStyle>
      <color>40ffffff</color>
      <fill>1</fill>
    </PolyStyle>
  </Style>
  <Style id="s_FFFF4000_hl">
    <IconStyle>
      <scale>1.3</scale>
      <Icon>
        <href>http://maps.google.com/mapfiles/kml/pushpin/agrocad.png</href>
      </Icon>
      <hotSpot x="20" y="2" xunits="pixels" yunits="pixels"/>
    </IconStyle>
    <LineStyle>
      <color>ff000000</color>
      <width>1</width>
    </LineStyle>
    <PolyStyle>
      <color>40ffffff</color>
      <fill>1</fill>
    </PolyStyle>
  </Style>
  <Placemark>
    <name>AgroCAD: 90FC</name>
    <styleUrl>FFFF4000</styleUrl>
    <Polygon>
      <outerBoundaryIs>
        <LinearRing>
          <coordinates>
           -36.43360431812599,-9.75337451854888 -36.43355430627280,-9.75338401492619 -36.43354617356231,-9.75334903659663 -36.43353866076690,-9.75331502745069 -36.43353605215404,-9.75329995231694 -36.43338878061850,-9.75279467504778 -36.43337807674221,-9.75275959890303 -36.43336857678546,-9.75272556161245 -36.43335765253464,-9.75269095941687 -36.43334707053952,-9.75265326121507 -36.43333574599526,-9.75261638471227 -36.43332422194863,-9.75258060925112 -36.43331278899884,-9.75254591961833 -36.43330145367617,-9.75251100542667 -36.43328837320349,-9.75247570646355 -36.43327697466763,-9.75244276614784 -36.43326672210263,-9.75241208842194 -36.43325462745365,-9.75237834838127 -36.43324208994749,-9.75234179663974 -36.43322991471813,-9.75230577976671 -36.43321674770958,-9.75227203067953 -36.43320721253095,-9.75224473921589 -36.43319625554412,-9.75221311324863 -36.43318448033035,-9.75218340391489 -36.43316934536220,-9.75215187461325 -36.43315623530171,-9.75211652467907 -36.43314289107961,-9.75208614191378 -36.43313101829562,-9.75205263891006 -36.43311924913140,-9.75201817645637 -36.43310983359943,-9.75198651279303 -36.43310332689548,-9.75196495471799 -36.43309421942532,-9.75194538917390 -36.43308995907568,-9.75192488529259 -36.43308569542076,-9.75189967646517 -36.43308520753961,-9.75187323775389 -36.43308611319196,-9.75184987005556 -36.43309415165900,-9.75182604492098 -36.43310202009467,-9.75181187379118 -36.43311587403701,-9.75179713049103 -36.43312341871183,-9.75177904118378 -36.43313992560410,-9.75176118221064 -36.43315719855796,-9.75174412768659 -36.43317140948155,-9.75172783057240 -36.43318105697947,-9.75171771722011 -36.43320211460784,-9.75169704291017 -36.43323105558402,-9.75166517289495 -36.43326436548400,-9.75162813795319 -36.43329465125638,-9.75159361050934 -36.43334788638783,-9.75153345875079 -36.43335521737656,-9.75152596042332 -36.43337406593382,-9.75151107631970 -36.43339811097904,-9.75149906343474 -36.43342336730548,-9.75148882067745 -36.43343944841979,-9.75148217407445 -36.43346167227122,-9.75147330600359 -36.43348244935540,-9.75146567723045 -36.43350233072697,-9.75146034498715 -36.43353458340612,-9.75145473168241 -36.43357653581588,-9.75145118263439 -36.43362142172064,-9.75144853640913 -36.43366703047057,-9.75144684925233 -36.43371466277784,-9.75144734668701 -36.43375888504186,-9.75145094389795 -36.43381006215407,-9.75145591682008 -36.43386824684845,-9.75146477684039 -36.43392824946638,-9.75146693797186 -36.43398304502787,-9.75146253360324 -36.43403443414488,-9.75145643514827 -36.43408964430110,-9.75144836962520 -36.43413803971731,-9.75144147096595 -36.43418657523837,-9.75143557830892 -36.43423586255256,-9.75143086618843 -36.43428724191026,-9.75143318115116 -36.43433696136972,-9.75144109893759 -36.43438683085014,-9.75145279420991 -36.43443572105887,-9.75146334539780 -36.43448454727183,-9.75147333527454 -36.43452970334931,-9.75148303680592 -36.43457187336513,-9.75149251074984 -36.43461642868977,-9.75150090074252 -36.43465641632607,-9.75150723180177 -36.43470220087286,-9.75151447267597 -36.43474474590564,-9.75152159915586 -36.43479100174367,-9.75152791940734 -36.43483977931125,-9.75153312048788 -36.43488928556563,-9.75153656281506 -36.43492973949691,-9.75153656971679 -36.43496894225130,-9.75153711071851 -36.43501442709593,-9.75153737093744 -36.43506442200290,-9.75153029356772 -36.43511856569745,-9.75151626404645 -36.43517495611326,-9.75150168138389 -36.43522926313655,-9.75148619343015 -36.43528755232464,-9.75147220044785 -36.43534851701584,-9.75145846223477 -36.43541970853796,-9.75144024612361 -36.43545251362338,-9.75143216439048 -36.43550150647693,-9.75142085990934 -36.43556539417564,-9.75140574911903 -36.43561818087027,-9.75139302723682 -36.43565191443652,-9.75138439868578 -36.43571765633377,-9.75136471284388 -36.43577469846551,-9.75134087692338 -36.43582549015003,-9.75131859857244 -36.43587821047488,-9.75129151845716 -36.43593813386566,-9.75126120094734 -36.43600131251846,-9.75122344739115 -36.43606647311661,-9.75118555582484 -36.43612939267510,-9.75114914821338 -36.43618941343042,-9.75111572154028 -36.43624626198310,-9.75108437844935 -36.43630552945970,-9.75104817251851 -36.43636448858231,-9.75100968287686 -36.43641718310362,-9.75096407008486 -36.43646790833977,-9.75091007234269 -36.43651772521549,-9.75085285494735 -36.43657276673064,-9.75079055982358 -36.43662987636299,-9.75072721740670 -36.43668092436310,-9.75066883940760 -36.43672544463817,-9.75061793426251 -36.43676831317411,-9.75059086252470 -36.43680248226246,-9.75058585551711 -36.43682809903146,-9.75059385550266 -36.43683793217216,-9.75060061660640 -36.43685144937435,-9.75061647615005 -36.43687090524382,-9.75065002747311 -36.43689142247069,-9.75069595526296 -36.43691899106001,-9.75075173377412 -36.43692982342208,-9.75078005584189 -36.43694977661565,-9.75082538033931 -36.43696869476445,-9.75086674021300 -36.43698569119813,-9.75090905239643 -36.43700564683622,-9.75095715113810 -36.43703405001509,-9.75103369093218 -36.43704958260522,-9.75106987253276 -36.43707420146951,-9.75112673595180 -36.43711051185264,-9.75121223838081 -36.43713921138483,-9.75127328503184 -36.43715756467551,-9.75131495396262 -36.43719221378610,-9.75139117064284 -36.43722167519651,-9.75145878661817 -36.43725237100050,-9.75152483193162 -36.43728112648186,-9.75158942930724 -36.43730680040573,-9.75165513744962 -36.43733742619633,-9.75172952065478 -36.43737222702676,-9.75181111070979 -36.43740584916755,-9.75188633524456 -36.43743460270446,-9.75195287640424 -36.43745900806298,-9.75201356027128 -36.43748903196158,-9.75208713749394 -36.43752533828287,-9.75216706054816 -36.43755796702233,-9.75223999704574 -36.43758628106728,-9.75230726798779 -36.43761442084252,-9.75237246235417 -36.43764353664382,-9.75244395667083 -36.43767433888793,-9.75252090952914 -36.43769893568235,-9.75259389940049 -36.43771184373964,-9.75264967641899 -36.43771662907024,-9.75267030579243 -36.43763597014010,-9.75268120423656 -36.43360431812599,-9.75337451854888
          </coordinates>
        </LinearRing>
      </outerBoundaryIs>
    </Polygon>
  </Placemark>
</Document>
</kml>
