<?xml version="1.0" encoding="UTF-8"?>
<kml xmlns="http://www.opengis.net/kml/2.2" xmlns:gx="http://www.google.com/kml/ext/2.2" xmlns:kml="http://www.opengis.net/kml/2.2" xmlns:atom="http://www.w3.org/2005/Atom">
<Document>
  <name>1048.kml</name>
  <StyleMap id="FF0040FF">
    <Pair>
      <key>normal</key>
      <styleUrl>#s_FF0040FF</styleUrl>
    </Pair>
    <Pair>
      <key>highlight</key>
      <styleUrl>#s_FF0040FF_hl</styleUrl>
    </Pair>
  </StyleMap>
  <Style id="s_FF0040FF">
   <IconStyle>
      <scale>1.1</scale>
      <Icon>
        <href>http://maps.google.com/mapfiles/kml/pushpin/agrocad.png</href>
      </Icon>
      <hotSpot x="20" y="2" xunits="pixels" yunits="pixels"/>
    </IconStyle>
    <LineStyle>
      <color>FF0040FF</color>
      <width>1</width>
    </LineStyle>
    <PolyStyle>
      <color>40ffffff</color>
      <fill>1</fill>
    </PolyStyle>
  </Style>
  <Style id="s_FF0040FF_hl">
    <IconStyle>
      <scale>1.3</scale>
      <Icon>
        <href>http://maps.google.com/mapfiles/kml/pushpin/agrocad.png</href>
      </Icon>
      <hotSpot x="20" y="2" xunits="pixels" yunits="pixels"/>
    </IconStyle>
    <LineStyle>
      <color>ff000000</color>
      <width>1</width>
    </LineStyle>
    <PolyStyle>
      <color>40ffffff</color>
      <fill>1</fill>
    </PolyStyle>
  </Style>
  <Placemark>
    <name>AgroCAD: 849D</name>
    <styleUrl>FF0040FF</styleUrl>
    <Polygon>
      <outerBoundaryIs>
        <LinearRing>
          <coordinates>
           -36.42035498034774,-9.72138954265918 -36.42035179154201,-9.72139673653273 -36.42031890999855,-9.72146777173715 -36.42027379182680,-9.72156356625868 -36.42022928691353,-9.72167033702916 -36.42017705180550,-9.72178733662690 -36.42012916555320,-9.72189783930620 -36.42008341517986,-9.72200210080103 -36.42003866350024,-9.72210516891959 -36.41999689163137,-9.72220133142544 -36.41995746912038,-9.72229127062431 -36.41992197359148,-9.72237265661114 -36.41987985450176,-9.72247619730315 -36.41985285937491,-9.72256996100404 -36.41984473665963,-9.72259206292489 -36.41985277508469,-9.72259985765354 -36.41989498370107,-9.72263246850690 -36.41996651789479,-9.72268518127083 -36.42006095292920,-9.72275709238074 -36.42016943137250,-9.72284637771752 -36.42027034228046,-9.72293008636256 -36.42038288254483,-9.72302438108767 -36.42051964900240,-9.72313979618874 -36.42065750857948,-9.72324907006452 -36.42078813666632,-9.72335929644147 -36.42090415559954,-9.72346810736782 -36.42101414381694,-9.72356715811472 -36.42113958013003,-9.72367721907493 -36.42128666659885,-9.72380468711428 -36.42143533639518,-9.72393384931723 -36.42158442342053,-9.72405948879374 -36.42173257303543,-9.72418530262093 -36.42188846649992,-9.72431827907306 -36.42204503595968,-9.72445294665508 -36.42220251839408,-9.72458671926165 -36.42235810090058,-9.72471839616576 -36.42251384034591,-9.72484638584889 -36.42266284037922,-9.72497303345920 -36.42280229804207,-9.72509184519531 -36.42293256178828,-9.72520652556764 -36.42317025406692,-9.72541197513739 -36.42327852981105,-9.72550418095754 -36.42332056204573,-9.72553839010968 -36.42332281987796,-9.72551944322316 -36.42332876677612,-9.72544246256024 -36.42333779771488,-9.72534414158546 -36.42335264400760,-9.72525185625420 -36.42336765641717,-9.72516672666903 -36.42339252777052,-9.72503581281352 -36.42342690144348,-9.72488009673356 -36.42345605995037,-9.72474455710362 -36.42348006748507,-9.72462550163329 -36.42349126201253,-9.72449790566000 -36.42349940062220,-9.72435188710488 -36.42350199076543,-9.72421002013311 -36.42350981571774,-9.72407975076570 -36.42351547497759,-9.72401490361113 -36.42341883922484,-9.72393638240998 -36.42328546631831,-9.72382842472152 -36.42315274979127,-9.72371478872353 -36.42302177345179,-9.72360739223777 -36.42289533235332,-9.72350287434148 -36.42277527699283,-9.72340308081528 -36.42266020820847,-9.72330732058837 -36.42254106301900,-9.72320885692504 -36.42242207835094,-9.72311162413483 -36.42231194501005,-9.72302286560873 -36.42211106846748,-9.72285063041997 -36.42200898401617,-9.72276620053840 -36.42190115932040,-9.72267680896242 -36.42179326130435,-9.72258648864951 -36.42168920180769,-9.72249758222518 -36.42149470530470,-9.72233311981784 -36.42140082429863,-9.72225629503008 -36.42119146914748,-9.72208059422040 -36.42109707611672,-9.72200094673729 -36.42100545878145,-9.72192390863125 -36.42091784893608,-9.72185041560992 -36.42083427859740,-9.72177830495479 -36.42073558161253,-9.72169766682832 -36.42064226162882,-9.72162201262227 -36.42056394947333,-9.72156137527744 -36.42049403649473,-9.72150408404688 -36.42041706982302,-9.72144253255123 -36.42036435226782,-9.72139782465002 -36.42035498034775,-9.72138954265918 -36.42035498034774,-9.72138954265918
          </coordinates>
        </LinearRing>
      </outerBoundaryIs>
    </Polygon>
  </Placemark>
</Document>
</kml>
