<?xml version="1.0" encoding="UTF-8"?>
<kml xmlns="http://www.opengis.net/kml/2.2" xmlns:gx="http://www.google.com/kml/ext/2.2" xmlns:kml="http://www.opengis.net/kml/2.2" xmlns:atom="http://www.w3.org/2005/Atom">
<Document>
  <name>1020.kml</name>
  <StyleMap id="FF0040FF">
    <Pair>
      <key>normal</key>
      <styleUrl>#s_FF0040FF</styleUrl>
    </Pair>
    <Pair>
      <key>highlight</key>
      <styleUrl>#s_FF0040FF_hl</styleUrl>
    </Pair>
  </StyleMap>
  <Style id="s_FF0040FF">
   <IconStyle>
      <scale>1.1</scale>
      <Icon>
        <href>http://maps.google.com/mapfiles/kml/pushpin/agrocad.png</href>
      </Icon>
      <hotSpot x="20" y="2" xunits="pixels" yunits="pixels"/>
    </IconStyle>
    <LineStyle>
      <color>FF0040FF</color>
      <width>1</width>
    </LineStyle>
    <PolyStyle>
      <color>40ffffff</color>
      <fill>1</fill>
    </PolyStyle>
  </Style>
  <Style id="s_FF0040FF_hl">
    <IconStyle>
      <scale>1.3</scale>
      <Icon>
        <href>http://maps.google.com/mapfiles/kml/pushpin/agrocad.png</href>
      </Icon>
      <hotSpot x="20" y="2" xunits="pixels" yunits="pixels"/>
    </IconStyle>
    <LineStyle>
      <color>ff000000</color>
      <width>1</width>
    </LineStyle>
    <PolyStyle>
      <color>40ffffff</color>
      <fill>1</fill>
    </PolyStyle>
  </Style>
  <Placemark>
    <name>AgroCAD: 84A6</name>
    <styleUrl>FF0040FF</styleUrl>
    <Polygon>
      <outerBoundaryIs>
        <LinearRing>
          <coordinates>
           -36.42822340348468,-9.74641089207007 -36.42821867755370,-9.74639481726771 -36.42819640871420,-9.74633038289135 -36.42811328803818,-9.74610247000422 -36.42806150735193,-9.74596031052549 -36.42801436005068,-9.74583195473918 -36.42796502187441,-9.74569778894994 -36.42787203187854,-9.74543864831481 -36.42782442964832,-9.74530926300077 -36.42774229125402,-9.74507641158556 -36.42766287058041,-9.74485055494358 -36.42762158454516,-9.74473894005130 -36.42754640063390,-9.74452011286611 -36.42749042239529,-9.74432572440034 -36.42743682815827,-9.74414208652788 -36.42738258608286,-9.74394756564431 -36.42731447149981,-9.74370870383427 -36.42725931615127,-9.74350812848184 -36.42719881589329,-9.74329582718844 -36.42715429081532,-9.74314717059889 -36.42710968305444,-9.74296100754465 -36.42706884275931,-9.74277792551046 -36.42703336425356,-9.74259898562283 -36.42700561639745,-9.74244751079895 -36.42699298499510,-9.74235233403575 -36.42698264402958,-9.74226407192620 -36.42697703770861,-9.74217339180398 -36.42698291974129,-9.74211471802450 -36.42700204355840,-9.74204328877510 -36.42702784025894,-9.74196930592624 -36.42706210570015,-9.74188672186697 -36.42710554039794,-9.74180364862690 -36.42715540818302,-9.74172142551644 -36.42721675325699,-9.74163601514060 -36.42737415828309,-9.74143040919337 -36.42748196030125,-9.74129698046581 -36.42765392009382,-9.74108674153041 -36.42782644241735,-9.74087385781309 -36.42790970949955,-9.74078258862889 -36.42799644394072,-9.74068863169355 -36.42820767670434,-9.74053648429472 -36.42830247363669,-9.74050303211719 -36.42839352486023,-9.74048110729582 -36.42848655727672,-9.74046663324032 -36.42857047755513,-9.74045359013563 -36.42866221707106,-9.74044355787058 -36.42874165976872,-9.74043989989407 -36.42880381172848,-9.74044236713445 -36.42883443377880,-9.74044584904012 -36.42883241790488,-9.74043319109895 -36.42881827074615,-9.74035035896593 -36.42881725396616,-9.74031880444100 -36.42878585699833,-9.74035678116258 -36.42874752497679,-9.74037823830897 -36.42871692317154,-9.74038581173020 -36.42865624976977,-9.74038723993233 -36.42863710218883,-9.74038393485187 -36.42855205669343,-9.74037450983160 -36.42846265407263,-9.74036074774257 -36.42817126803465,-9.74032556657400 -36.42809771605343,-9.74033083789704 -36.42802106373209,-9.74035190848302 -36.42794645579558,-9.74039109523317 -36.42786791786047,-9.74045168918309 -36.42775469156886,-9.74056484267298 -36.42761910710628,-9.74071032327167 -36.42748569831198,-9.74082420807535 -36.42739834335511,-9.74087757042971 -36.42729605097630,-9.74092065029774 -36.42713284492249,-9.74098044996498 -36.42702873223213,-9.74102152669801 -36.42697393811202,-9.74105568299266 -36.42695211084070,-9.74108352469207 -36.42694288329589,-9.74110926593854 -36.42693355736124,-9.74119034314080 -36.42692064205325,-9.74126539240911 -36.42690042672142,-9.74130202164982 -36.42686298412176,-9.74133491199438 -36.42677486068770,-9.74136357179651 -36.42665331286102,-9.74139111175044 -36.42652297027353,-9.74142540154178 -36.42637713311487,-9.74148986180260 -36.42623197611188,-9.74156931472724 -36.42615171924594,-9.74162675806875 -36.42610901675666,-9.74168367701440 -36.42607288232131,-9.74175951263209 -36.42605184838483,-9.74183993171275 -36.42604999228709,-9.74192055893905 -36.42606534607425,-9.74202460703612 -36.42609271851404,-9.74214342929404 -36.42614831301267,-9.74231575442472 -36.42626511901251,-9.74267045277113 -36.42633194602681,-9.74282994478048 -36.42640128896142,-9.74297951638232 -36.42646721497572,-9.74317893782032 -36.42652635243093,-9.74338390408334 -36.42656286195608,-9.74347927032627 -36.42663019925926,-9.74365516819596 -36.42666458555406,-9.74374188538812 -36.42669380776698,-9.74382787993290 -36.42670708836849,-9.74392281596038 -36.42670732376775,-9.74402839700925 -36.42670341056351,-9.74413292220432 -36.42669319493103,-9.74424958636463 -36.42667895980185,-9.74440302585161 -36.42666373504443,-9.74458606908824 -36.42665225470736,-9.74478786160223 -36.42664582790458,-9.74499491619373 -36.42664113638012,-9.74518873739294 -36.42664525769587,-9.74529762407118 -36.42665549128099,-9.74536469208912 -36.42667639000467,-9.74542524937765 -36.42672396069158,-9.74547019311349 -36.42679109023308,-9.74548020327828 -36.42686819199565,-9.74547157089157 -36.42696160515290,-9.74545255011096 -36.42705735037925,-9.74543531812724 -36.42714776202045,-9.74542383974424 -36.42724137691831,-9.74543458253620 -36.42733623911339,-9.74546053024871 -36.42741379562040,-9.74550548225508 -36.42748583240683,-9.74556851949219 -36.42762430826214,-9.74574760079341 -36.42766992865320,-9.74583749717415 -36.42769347696532,-9.74591788550412 -36.42771090106819,-9.74601621306561 -36.42772604646458,-9.74612653526257 -36.42773667156832,-9.74623986630540 -36.42772901624033,-9.74636114626112 -36.42770768677194,-9.74648559838823 -36.42767727687151,-9.74659828386755 -36.42765004493277,-9.74667918082096 -36.42762319150623,-9.74675428039024 -36.42760339717444,-9.74681256512335 -36.42767242496591,-9.74677080417736 -36.42787746877908,-9.74664433077769 -36.42805459381199,-9.74652595945823 -36.42822340348468,-9.74641089207007 -36.42822340348468,-9.74641089207007
          </coordinates>
        </LinearRing>
      </outerBoundaryIs>
    </Polygon>
  </Placemark>
  <Placemark>
    <name>AgroCAD: 84A5</name>
    <styleUrl>FF0040FF</styleUrl>
    <Polygon>
      <outerBoundaryIs>
        <LinearRing>
          <coordinates>
           -36.42825501955421,-9.74638934127879 -36.42825341709796,-9.74638389067902 -36.42823077384387,-9.74631837296407 -36.42814754868475,-9.74609017366006 -36.42809575629945,-9.74594798209799 -36.42804859217880,-9.74581958056126 -36.42799929814884,-9.74568553485345 -36.42790630721127,-9.74542639167540 -36.42785873851621,-9.74529709755144 -36.42777668033528,-9.74506447360466 -36.42769717508413,-9.74483837646069 -36.42765593391221,-9.74472688288852 -36.42758118158613,-9.74450931192895 -36.42752543692814,-9.74431573466423 -36.42747188515262,-9.74413224235485 -36.42741767282166,-9.74393782821814 -36.42734957588422,-9.74369902838166 -36.42729442134635,-9.74349845605938 -36.42723380952510,-9.74328576336369 -36.42718950313228,-9.74313783695771 -36.42714519468212,-9.74295292311355 -36.42710450852340,-9.74277053214599 -36.42706916367037,-9.74259226645186 -36.42704162202497,-9.74244191741894 -36.42702914294667,-9.74234788848621 -36.42701894848202,-9.74226087687203 -36.42701358213075,-9.74217407832299 -36.42701888447438,-9.74212118693564 -36.42703691275997,-9.74205384957431 -36.42706192981642,-9.74198210266255 -36.42709518617013,-9.74190195061533 -36.42713735229739,-9.74182130363196 -36.42718589911189,-9.74174125855760 -36.42724610322422,-9.74165743672810 -36.42740288483248,-9.74145264508732 -36.42751032080268,-9.74131966941548 -36.42768226347708,-9.74110945139483 -36.42785416989332,-9.74089732766213 -36.42793665053613,-9.74080692049065 -36.42802082754490,-9.74071573394544 -36.42822483387135,-9.74056879162882 -36.42831290377333,-9.74053771330421 -36.42840065638183,-9.74051658278034 -36.42849220211966,-9.74050234002581 -36.42857529568295,-9.74048942541414 -36.42866506055315,-9.74047960909100 -36.42874177623769,-9.74047607668325 -36.42880100511692,-9.74047842788802 -36.42884033440497,-9.74048289985783 -36.42886052721235,-9.74060969317363 -36.42889687831835,-9.74079849823197 -36.42896918039157,-9.74113335896842 -36.42907075120120,-9.74162041592947 -36.42914894456481,-9.74200420475326 -36.42928959272330,-9.74272791857202 -36.42945347377245,-9.74353947842632 -36.42952844356707,-9.74392391547807 -36.42959638437760,-9.74427169826213 -36.42965558565572,-9.74457214170338 -36.42970897128706,-9.74482472907718 -36.42975411197660,-9.74504121586114 -36.42978046670683,-9.74516956675772 -36.42979712847734,-9.74524894595774 -36.42980307072950,-9.74527318208612 -36.42968221452348,-9.74536066098721 -36.42944543005683,-9.74552754493885 -36.42926278422705,-9.74565817629417 -36.42891882354295,-9.74591273457398 -36.42873628400194,-9.74605082121732 -36.42850622599721,-9.74621520675097 -36.42825976873139,-9.74638610404704 -36.42825501955421,-9.74638934127879 -36.42825501955421,-9.74638934127879
          </coordinates>
        </LinearRing>
      </outerBoundaryIs>
    </Polygon>
  </Placemark>
</Document>
</kml>
