<?xml version="1.0" encoding="UTF-8"?>
<kml xmlns="http://www.opengis.net/kml/2.2" xmlns:gx="http://www.google.com/kml/ext/2.2" xmlns:kml="http://www.opengis.net/kml/2.2" xmlns:atom="http://www.w3.org/2005/Atom">
<Document>
  <name>1006.kml</name>
  <StyleMap id="FFFF4000">
    <Pair>
      <key>normal</key>
      <styleUrl>#s_FFFF4000</styleUrl>
    </Pair>
    <Pair>
      <key>highlight</key>
      <styleUrl>#s_FFFF4000_hl</styleUrl>
    </Pair>
  </StyleMap>
  <Style id="s_FFFF4000">
   <IconStyle>
      <scale>1.1</scale>
      <Icon>
        <href>http://maps.google.com/mapfiles/kml/pushpin/agrocad.png</href>
      </Icon>
      <hotSpot x="20" y="2" xunits="pixels" yunits="pixels"/>
    </IconStyle>
    <LineStyle>
      <color>FFFF4000</color>
      <width>1</width>
    </LineStyle>
    <PolyStyle>
      <color>40ffffff</color>
      <fill>1</fill>
    </PolyStyle>
  </Style>
  <Style id="s_FFFF4000_hl">
    <IconStyle>
      <scale>1.3</scale>
      <Icon>
        <href>http://maps.google.com/mapfiles/kml/pushpin/agrocad.png</href>
      </Icon>
      <hotSpot x="20" y="2" xunits="pixels" yunits="pixels"/>
    </IconStyle>
    <LineStyle>
      <color>ff000000</color>
      <width>1</width>
    </LineStyle>
    <PolyStyle>
      <color>40ffffff</color>
      <fill>1</fill>
    </PolyStyle>
  </Style>
  <Placemark>
    <name>AgroCAD: 8F91</name>
    <styleUrl>FFFF4000</styleUrl>
    <Polygon>
      <outerBoundaryIs>
        <LinearRing>
          <coordinates>
           -36.42588324918997,-9.75497131646725 -36.42580555253830,-9.75482707454744 -36.42564367177455,-9.75424762408163 -36.42560671379416,-9.75404777307008 -36.42556408473558,-9.75369434927067 -36.42555983931314,-9.75353346121724 -36.42557732619944,-9.75336217473688 -36.42557827328156,-9.75332525232328 -36.42559980494092,-9.75322935759960 -36.42562776066855,-9.75312911815544 -36.42565579469641,-9.75303670090918 -36.42568353978685,-9.75296133483398 -36.42575998044263,-9.75276746230802 -36.42579845768358,-9.75270449973971 -36.42589371784367,-9.75261957050804 -36.42601457464696,-9.75254367616469 -36.42614629609435,-9.75249813589181 -36.42620711299752,-9.75248611455277 -36.42634424194038,-9.75246494411783 -36.42644484651397,-9.75245699246981 -36.42654049767268,-9.75244903490796 -36.42663413014074,-9.75243706031180 -36.42672995224047,-9.75241472203564 -36.42681299190389,-9.75240321828333 -36.42689781014946,-9.75240846561983 -36.42698209165653,-9.75241425364749 -36.42705325202636,-9.75241875149996 -36.42712712036758,-9.75242364345598 -36.42720020934539,-9.75242160237211 -36.42727447250980,-9.75241912256659 -36.42734669275173,-9.75241551170552 -36.42742222074674,-9.75241353891569 -36.42748978508072,-9.75240988063923 -36.42754913397701,-9.75240703444255 -36.42760867981762,-9.75240221442889 -36.42766901031318,-9.75239603107038 -36.42771574876621,-9.75238593555186 -36.42776711453116,-9.75236576396759 -36.42781939840280,-9.75233511431085 -36.42786344437599,-9.75230548042149 -36.42796604046863,-9.75223784381591 -36.42797628344465,-9.75223164867996 -36.42803304201316,-9.75218517524211 -36.42812053650354,-9.75212142469761 -36.42819407758619,-9.75209621168450 -36.42826207431465,-9.75209741358039 -36.42831049665075,-9.75211494663648 -36.42839867394936,-9.75217566111728 -36.42865500295017,-9.75242227356302 -36.42878018069831,-9.75251614824713 -36.42903479359512,-9.75270367663697 -36.42935555486729,-9.75296657846731 -36.42940813030403,-9.75303638441794 -36.42588324918997,-9.75497131646725
          </coordinates>
        </LinearRing>
      </outerBoundaryIs>
    </Polygon>
  </Placemark>
</Document>
</kml>
