<?xml version="1.0" encoding="UTF-8"?>
<kml xmlns="http://www.opengis.net/kml/2.2" xmlns:gx="http://www.google.com/kml/ext/2.2" xmlns:kml="http://www.opengis.net/kml/2.2" xmlns:atom="http://www.w3.org/2005/Atom">
<Document>
  <name>1018.kml</name>
  <StyleMap id="FF0040FF">
    <Pair>
      <key>normal</key>
      <styleUrl>#s_FF0040FF</styleUrl>
    </Pair>
    <Pair>
      <key>highlight</key>
      <styleUrl>#s_FF0040FF_hl</styleUrl>
    </Pair>
  </StyleMap>
  <Style id="s_FF0040FF">
   <IconStyle>
      <scale>1.1</scale>
      <Icon>
        <href>http://maps.google.com/mapfiles/kml/pushpin/agrocad.png</href>
      </Icon>
      <hotSpot x="20" y="2" xunits="pixels" yunits="pixels"/>
    </IconStyle>
    <LineStyle>
      <color>FF0040FF</color>
      <width>1</width>
    </LineStyle>
    <PolyStyle>
      <color>40ffffff</color>
      <fill>1</fill>
    </PolyStyle>
  </Style>
  <Style id="s_FF0040FF_hl">
    <IconStyle>
      <scale>1.3</scale>
      <Icon>
        <href>http://maps.google.com/mapfiles/kml/pushpin/agrocad.png</href>
      </Icon>
      <hotSpot x="20" y="2" xunits="pixels" yunits="pixels"/>
    </IconStyle>
    <LineStyle>
      <color>ff000000</color>
      <width>1</width>
    </LineStyle>
    <PolyStyle>
      <color>40ffffff</color>
      <fill>1</fill>
    </PolyStyle>
  </Style>
  <Placemark>
    <name>AgroCAD: 84A7</name>
    <styleUrl>FF0040FF</styleUrl>
    <Polygon>
      <outerBoundaryIs>
        <LinearRing>
          <coordinates>
           -36.43041713163170,-9.74878921164964 -36.43061039866330,-9.74865034091786 -36.43089356228121,-9.74844741852274 -36.43105529448903,-9.74833240088944 -36.43147907032958,-9.74802805989168 -36.43179207250955,-9.74780384877666 -36.43216584165656,-9.74753748210219 -36.43239620248765,-9.74737080246898 -36.43280382675317,-9.74708043140782 -36.43327562345047,-9.74674454192232 -36.43335507447234,-9.74668786686141 -36.43347611535368,-9.74660020001353 -36.43352675937101,-9.74656295074513 -36.43357636974303,-9.74652696105778 -36.43360176665305,-9.74650692407084 -36.43387990564405,-9.74674099857497 -36.43422418920291,-9.74703961055847 -36.43439487437603,-9.74718696230007 -36.43455290124561,-9.74732072747366 -36.43466598880676,-9.74742120986772 -36.43473112557992,-9.74747947156861 -36.43479478639287,-9.74753410996645 -36.43486574130147,-9.74759306642739 -36.43492562056308,-9.74764167526810 -36.43498284435363,-9.74768315646241 -36.43502661579164,-9.74771500309653 -36.43506719523054,-9.74774749025467 -36.43511461392107,-9.74778733479679 -36.43516670472015,-9.74783305083252 -36.43520551240711,-9.74787060239993 -36.43520752836322,-9.74787256364897 -36.43511708579517,-9.74797127550819 -36.43505928009009,-9.74801355204268 -36.43500489663211,-9.74804028909311 -36.43493566436366,-9.74805741745992 -36.43485485794134,-9.74806846826720 -36.43477731917602,-9.74808276646826 -36.43470563284848,-9.74809950369809 -36.43463589373880,-9.74811820114839 -36.43456650087145,-9.74813748858922 -36.43440940848254,-9.74818897448259 -36.43433391231687,-9.74822089260892 -36.43426427975888,-9.74825109581585 -36.43419384254695,-9.74828097718384 -36.43411923179129,-9.74830788002434 -36.43405455737776,-9.74832528057739 -36.43399266714098,-9.74833134001959 -36.43392791497433,-9.74831991002690 -36.43385815959398,-9.74829765166960 -36.43378157131630,-9.74827887455011 -36.43370414926216,-9.74827677108901 -36.43363322475032,-9.74830422405328 -36.43357245549754,-9.74835120936596 -36.43351306712224,-9.74841595497544 -36.43346091320898,-9.74849014466036 -36.43341749619904,-9.74855786598124 -36.43337988318249,-9.74861440199427 -36.43334090627364,-9.74867137796512 -36.43325690115768,-9.74877175828332 -36.43314424864767,-9.74889263072944 -36.43309372402683,-9.74894247116655 -36.43304254400032,-9.74898243206492 -36.43298400453998,-9.74901583343268 -36.43293088558119,-9.74904166067263 -36.43286444019655,-9.74906462932664 -36.43279090398838,-9.74909073099857 -36.43271837851076,-9.74910871651160 -36.43257913129394,-9.74913658456188 -36.43251381156801,-9.74915017462663 -36.43237000167913,-9.74917646952377 -36.43230470918170,-9.74917714461630 -36.43224163573354,-9.74916464529407 -36.43218134078241,-9.74914093485788 -36.43212263303774,-9.74910446746419 -36.43206427172984,-9.74906301222081 -36.43200318842450,-9.74901878871384 -36.43193392350545,-9.74898128707376 -36.43185529553534,-9.74895750693085 -36.43176731913533,-9.74895062354963 -36.43168056159519,-9.74896928580111 -36.43154564772439,-9.74902735197766 -36.43147667318057,-9.74906093004374 -36.43139586220624,-9.74909928553308 -36.43131222359793,-9.74914120546306 -36.43124002238064,-9.74917878884210 -36.43109042100129,-9.74925395602012 -36.43088856271145,-9.74935153508145 -36.43082620291258,-9.74938557023618 -36.43076260677339,-9.74941466999466 -36.43070461215990,-9.74944147020136 -36.43054182477979,-9.74906428914399 -36.43041713163170,-9.74878921164964 -36.43041713163170,-9.74878921164964
          </coordinates>
        </LinearRing>
      </outerBoundaryIs>
    </Polygon>
  </Placemark>
  <Placemark>
    <name>AgroCAD: 84A4</name>
    <styleUrl>FF0040FF</styleUrl>
    <Polygon>
      <outerBoundaryIs>
        <LinearRing>
          <coordinates>
           -36.43357344442836,-9.74648308880047 -36.43355426815638,-9.74649821799133 -36.43350515600011,-9.74653384624961 -36.43345452324973,-9.74657108723109 -36.43333369690091,-9.74665859869869 -36.43325435284643,-9.74671519745639 -36.43278258362228,-9.74705106736500 -36.43237484145053,-9.74734152241598 -36.43214447765423,-9.74750820419530 -36.43177077916549,-9.74777452051606 -36.43145772294760,-9.74799877034057 -36.43103399770290,-9.74830307500332 -36.43087228055551,-9.74841808192665 -36.43058904459508,-9.74862105616503 -36.43040187181052,-9.74875554792077 -36.43023735813316,-9.74839262434663 -36.42997417899710,-9.74780344131793 -36.42972255759189,-9.74725294318591 -36.42951118372653,-9.74674747675041 -36.42934850636003,-9.74642431903433 -36.42924469124991,-9.74618680278778 -36.42913480480051,-9.74594354888641 -36.42909617707156,-9.74586039198110 -36.42930049360136,-9.74570918138791 -36.42948253830203,-9.74557897997093 -36.42971947055522,-9.74541199186155 -36.43000126331587,-9.74520802269289 -36.43032671585504,-9.74497166622567 -36.43068199356718,-9.74471065052239 -36.43134918127042,-9.74423071926002 -36.43154307062782,-9.74409168770426 -36.43167562414588,-9.74398838961377 -36.43176520328579,-9.74392148924763 -36.43176731571133,-9.74392001358234 -36.43177010796050,-9.74392409133054 -36.43180266725275,-9.74396895567479 -36.43182641432430,-9.74400517021605 -36.43185097862200,-9.74404884847532 -36.43188219369348,-9.74412649880396 -36.43192313945924,-9.74425066457365 -36.43199059858638,-9.74445163734765 -36.43206620204491,-9.74466341791929 -36.43215047734909,-9.74487265333844 -36.43223159901786,-9.74506823157010 -36.43230783880623,-9.74524647214861 -36.43236690030354,-9.74537515286609 -36.43242486039677,-9.74547335482139 -36.43249576605704,-9.74556349710829 -36.43258096766749,-9.74564694142736 -36.43270749921350,-9.74575044972069 -36.43287659686169,-9.74588213616865 -36.43303513269265,-9.74601422809170 -36.43320064087733,-9.74615874864942 -36.43336837801944,-9.74630795332853 -36.43353952149208,-9.74645454010592 -36.43357344442838,-9.74648308880047 -36.43357344442836,-9.74648308880047
          </coordinates>
        </LinearRing>
      </outerBoundaryIs>
    </Polygon>
  </Placemark>
</Document>
</kml>
