<?xml version="1.0" encoding="UTF-8"?>
<kml xmlns="http://www.opengis.net/kml/2.2" xmlns:gx="http://www.google.com/kml/ext/2.2" xmlns:kml="http://www.opengis.net/kml/2.2" xmlns:atom="http://www.w3.org/2005/Atom">
<Document>
  <name>1028.kml</name>
  <StyleMap id="FFFF4000">
    <Pair>
      <key>normal</key>
      <styleUrl>#s_FFFF4000</styleUrl>
    </Pair>
    <Pair>
      <key>highlight</key>
      <styleUrl>#s_FFFF4000_hl</styleUrl>
    </Pair>
  </StyleMap>
  <Style id="s_FFFF4000">
   <IconStyle>
      <scale>1.1</scale>
      <Icon>
        <href>http://maps.google.com/mapfiles/kml/pushpin/agrocad.png</href>
      </Icon>
      <hotSpot x="20" y="2" xunits="pixels" yunits="pixels"/>
    </IconStyle>
    <LineStyle>
      <color>FFFF4000</color>
      <width>1</width>
    </LineStyle>
    <PolyStyle>
      <color>40ffffff</color>
      <fill>1</fill>
    </PolyStyle>
  </Style>
  <Style id="s_FFFF4000_hl">
    <IconStyle>
      <scale>1.3</scale>
      <Icon>
        <href>http://maps.google.com/mapfiles/kml/pushpin/agrocad.png</href>
      </Icon>
      <hotSpot x="20" y="2" xunits="pixels" yunits="pixels"/>
    </IconStyle>
    <LineStyle>
      <color>ff000000</color>
      <width>1</width>
    </LineStyle>
    <PolyStyle>
      <color>40ffffff</color>
      <fill>1</fill>
    </PolyStyle>
  </Style>
  <Placemark>
    <name>AgroCAD: 935D</name>
    <styleUrl>FFFF4000</styleUrl>
    <Polygon>
      <outerBoundaryIs>
        <LinearRing>
          <coordinates>
           -36.42595759976013,-9.73412799027540 -36.42595471059649,-9.73418702482880 -36.42595938623358,-9.73427918628081 -36.42592110110984,-9.73453523346498 -36.42589544943274,-9.73465375149421 -36.42583729262089,-9.73477801028238 -36.42573760527589,-9.73487687205495 -36.42557540749539,-9.73495859367258 -36.42540429994821,-9.73503463263930 -36.42526383261551,-9.73509319666964 -36.42513129334707,-9.73514302223865 -36.42499314317918,-9.73518624785993 -36.42485554128452,-9.73519414605437 -36.42470791179741,-9.73518575191155 -36.42457513788250,-9.73515308313308 -36.42447151614637,-9.73513707797511 -36.42442210509867,-9.73515292258291 -36.42437461325302,-9.73518744272091 -36.42431271274084,-9.73530056095995 -36.42412684499011,-9.73573090705548 -36.42394063054677,-9.73602909700862 -36.42387044129969,-9.73617125396552 -36.42379169639042,-9.73637727433235 -36.42374856844597,-9.73646760720584 -36.42348827529908,-9.73673680416277 -36.42324101761321,-9.73701841845985 -36.42318896880500,-9.73711091988803 -36.42316915560503,-9.73719792696724 -36.42319722155895,-9.73730623961562 -36.42324962711235,-9.73740350268265 -36.42332858800506,-9.73749772751344 -36.42350922351275,-9.73762158718020 -36.42370398052951,-9.73773534452762 -36.42375772128635,-9.73778619339247 -36.42377301144932,-9.73781134886726 -36.42378192140164,-9.73784852031877 -36.42377980995898,-9.73788384470302 -36.42377590484556,-9.73791996294161 -36.42372058510360,-9.73801462488925 -36.42362472455675,-9.73805066007224 -36.42352144398109,-9.73802962828254 -36.42343220907279,-9.73798522051177 -36.42331321233820,-9.73791243727116 -36.42326501078748,-9.73788469988124 -36.42317172908582,-9.73784751099061 -36.42311015171748,-9.73783676903050 -36.42303768855184,-9.73783775928627 -36.42295629486592,-9.73785107748933 -36.42290279218496,-9.73786500124913 -36.42285773554628,-9.73788561101224 -36.42275430877094,-9.73795216674775 -36.42261527463548,-9.73806046460487 -36.42249903843782,-9.73815002420999 -36.42240502921222,-9.73822138272757 -36.42237032001674,-9.73824038383892 -36.42232635438779,-9.73825833617754 -36.42224922664242,-9.73827234788127 -36.42221237809365,-9.73826947710199 -36.42218230504186,-9.73825818247665 -36.42216055961955,-9.73824294689398 -36.42213958971172,-9.73822023708178 -36.42210923213515,-9.73817105762938 -36.42194573088735,-9.73781711823357 -36.42190797294720,-9.73776327024889 -36.42186274859285,-9.73771665695863 -36.42128172452546,-9.73727447290684 -36.42093644750808,-9.73703104251732 -36.42088384166510,-9.73699352391736 -36.42326969902478,-9.73463860555618 -36.42465051984998,-9.73326981185379 -36.42477661587753,-9.73314163558672 -36.42595759976013,-9.73412799027540
          </coordinates>
        </LinearRing>
      </outerBoundaryIs>
    </Polygon>
  </Placemark>
</Document>
</kml>
