<?xml version="1.0" encoding="UTF-8"?>
<kml xmlns="http://www.opengis.net/kml/2.2" xmlns:gx="http://www.google.com/kml/ext/2.2" xmlns:kml="http://www.opengis.net/kml/2.2" xmlns:atom="http://www.w3.org/2005/Atom">
<Document>
  <name>1017.kml</name>
  <StyleMap id="FF0040FF">
    <Pair>
      <key>normal</key>
      <styleUrl>#s_FF0040FF</styleUrl>
    </Pair>
    <Pair>
      <key>highlight</key>
      <styleUrl>#s_FF0040FF_hl</styleUrl>
    </Pair>
  </StyleMap>
  <Style id="s_FF0040FF">
   <IconStyle>
      <scale>1.1</scale>
      <Icon>
        <href>http://maps.google.com/mapfiles/kml/pushpin/agrocad.png</href>
      </Icon>
      <hotSpot x="20" y="2" xunits="pixels" yunits="pixels"/>
    </IconStyle>
    <LineStyle>
      <color>FF0040FF</color>
      <width>1</width>
    </LineStyle>
    <PolyStyle>
      <color>40ffffff</color>
      <fill>1</fill>
    </PolyStyle>
  </Style>
  <Style id="s_FF0040FF_hl">
    <IconStyle>
      <scale>1.3</scale>
      <Icon>
        <href>http://maps.google.com/mapfiles/kml/pushpin/agrocad.png</href>
      </Icon>
      <hotSpot x="20" y="2" xunits="pixels" yunits="pixels"/>
    </IconStyle>
    <LineStyle>
      <color>ff000000</color>
      <width>1</width>
    </LineStyle>
    <PolyStyle>
      <color>40ffffff</color>
      <fill>1</fill>
    </PolyStyle>
  </Style>
  <Placemark>
    <name>AgroCAD: 84A8</name>
    <styleUrl>FF0040FF</styleUrl>
    <Polygon>
      <outerBoundaryIs>
        <LinearRing>
          <coordinates>
           -36.42906632379711,-9.74588248576988 -36.42910163492962,-9.74595850279826 -36.42921135241977,-9.74620138273783 -36.42931547091248,-9.74643959314733 -36.42947801871841,-9.74676249356586 -36.42968913093630,-9.74726733444797 -36.42994093198035,-9.74781822573110 -36.43020408806554,-9.74840735730381 -36.43044843249743,-9.74894639054664 -36.43042567773330,-9.74895557674767 -36.43038408240235,-9.74897224222721 -36.43036181970331,-9.74897789256374 -36.43031272289734,-9.74898374569252 -36.43019959452530,-9.74898194865489 -36.43012218861330,-9.74897733073300 -36.43004616596906,-9.74897103164358 -36.42997405921155,-9.74896451625029 -36.42985647737224,-9.74894461548609 -36.42980424105662,-9.74893703633219 -36.42966319020207,-9.74891229843582 -36.42958494697708,-9.74890093398739 -36.42951152260778,-9.74888989677184 -36.42944336574212,-9.74888250091595 -36.42936835642125,-9.74888130626000 -36.42929914793486,-9.74887874902328 -36.42922172775355,-9.74887813814941 -36.42915604492915,-9.74887296463521 -36.42909277547746,-9.74886958454974 -36.42903491920917,-9.74886783917629 -36.42897709292777,-9.74886187190401 -36.42892180013084,-9.74885450828381 -36.42879919387076,-9.74882768468372 -36.42868451295293,-9.74879711622370 -36.42857092655252,-9.74875736297956 -36.42839092218320,-9.74868593497998 -36.42828946741907,-9.74862589556284 -36.42819285657694,-9.74855100198823 -36.42810232904048,-9.74847650714910 -36.42801561014518,-9.74839621781270 -36.42793955666114,-9.74831662966488 -36.42787176522620,-9.74821715837316 -36.42779696828174,-9.74808296675288 -36.42774408961873,-9.74798050184147 -36.42768630935933,-9.74785914675734 -36.42766286348156,-9.74780049691199 -36.42765229240425,-9.74774515649584 -36.42764449521265,-9.74762426408200 -36.42764642036599,-9.74746060664673 -36.42764876535666,-9.74739920711367 -36.42766324938301,-9.74727879895089 -36.42767903421744,-9.74717998972803 -36.42769708850210,-9.74706460152456 -36.42771088519157,-9.74700509034393 -36.42772344308030,-9.74694830074291 -36.42774972427018,-9.74687291736687 -36.42776200505497,-9.74685202348274 -36.42780908605097,-9.74681370902280 -36.42787098957817,-9.74677190922857 -36.42792739713313,-9.74672129264825 -36.42795090912873,-9.74669174186869 -36.42797382158933,-9.74665890460368 -36.42797741734837,-9.74665380029714 -36.42809046036858,-9.74657825448015 -36.42810868564029,-9.74656583141910 -36.42813907613008,-9.74654511606276 -36.42829608761605,-9.74643809074632 -36.42854312443880,-9.74626679157850 -36.42877425447451,-9.74610164003716 -36.42895721851278,-9.74596323227228 -36.42906632379712,-9.74588248576988 -36.42906632379711,-9.74588248576988
          </coordinates>
        </LinearRing>
      </outerBoundaryIs>
    </Polygon>
  </Placemark>
  <Placemark>
    <name>AgroCAD: 84A3</name>
    <styleUrl>FF0040FF</styleUrl>
    <Polygon>
      <outerBoundaryIs>
        <LinearRing>
          <coordinates>
           -36.43064765369987,-9.74946187605298 -36.43060860943084,-9.74947180381970 -36.43056384898381,-9.74948094849697 -36.43048819515762,-9.74948593847542 -36.43041753338837,-9.74948440181889 -36.43034640285580,-9.74947476844627 -36.43027405795296,-9.74946110695787 -36.43009824488103,-9.74941868676890 -36.42996253460902,-9.74937214126559 -36.42978835331177,-9.74930688909498 -36.42970607267007,-9.74928204160800 -36.42963710530872,-9.74926701209581 -36.42956206117805,-9.74925597031851 -36.42948860296508,-9.74924714975053 -36.42933745689357,-9.74923011496640 -36.42926246096420,-9.74922470830481 -36.42918681878775,-9.74922748048278 -36.42911096959605,-9.74923544158334 -36.42903270782839,-9.74925257562433 -36.42895190063960,-9.74927237613362 -36.42887335306544,-9.74929080994441 -36.42880180628625,-9.74930948549537 -36.42866258878449,-9.74934411725502 -36.42859642123538,-9.74935884703087 -36.42849906199450,-9.74938058329872 -36.42838742960633,-9.74940886443831 -36.42835621012659,-9.74941804358512 -36.42817791193575,-9.74944829211312 -36.42810677657790,-9.74946096764875 -36.42806518987777,-9.74946385104579 -36.42804470848317,-9.74945614223613 -36.42802104341433,-9.74944392555388 -36.42800350569601,-9.74942797923112 -36.42798943294514,-9.74940962611063 -36.42797866711582,-9.74938691667108 -36.42787567658320,-9.74916506492320 -36.42776581910846,-9.74889585178909 -36.42767586314079,-9.74864560226370 -36.42758938446696,-9.74838165774462 -36.42755670967475,-9.74825329185081 -36.42751893072832,-9.74814801106740 -36.42748607181914,-9.74804590486887 -36.42746314629178,-9.74796185182506 -36.42741840753774,-9.74785730876385 -36.42736775219218,-9.74772455082144 -36.42734451532040,-9.74767407414003 -36.42733731787603,-9.74763686577944 -36.42733515067745,-9.74759234566551 -36.42734152495387,-9.74756785943765 -36.42734895243988,-9.74750766789997 -36.42736420781241,-9.74744673936211 -36.42740228642974,-9.74736291451571 -36.42741928258347,-9.74727536061840 -36.42741995235761,-9.74716275653421 -36.42742534919579,-9.74714286393018 -36.42743893034020,-9.74712483565181 -36.42745595246069,-9.74710845799752 -36.42763010940331,-9.74694425261576 -36.42765525996121,-9.74692762421672 -36.42768753577661,-9.74690711941375 -36.42770322215744,-9.74689572241047 -36.42768831255473,-9.74693848819519 -36.42767533678526,-9.74699716752120 -36.42766128699257,-9.74705777042074 -36.42764304013877,-9.74717438929261 -36.42762715485929,-9.74727382721264 -36.42761241320354,-9.74739637698523 -36.42760999430741,-9.74745971142736 -36.42760804749638,-9.74762520845296 -36.42761607630478,-9.74774969220804 -36.42762771365408,-9.74781061467716 -36.42765286920510,-9.74787354128686 -36.42771139352819,-9.74799645914693 -36.42776480213951,-9.74809995098108 -36.42784066915142,-9.74823606241394 -36.42791105237848,-9.74833933669408 -36.42798993551402,-9.74842188601464 -36.42807824801209,-9.74850365080895 -36.42817000390501,-9.74857915646654 -36.42826883637371,-9.74865577227255 -36.42837472338486,-9.74871843463267 -36.42855809439125,-9.74879119856335 -36.42867370894815,-9.74883166163034 -36.42879053882086,-9.74886280290282 -36.42891544182618,-9.74889012898465 -36.42897278325510,-9.74889776543315 -36.42903247734798,-9.74890392545223 -36.42909124188789,-9.74890569822768 -36.42915362299851,-9.74890903085644 -36.42922013894882,-9.74891426999356 -36.42929832479503,-9.74891488691118 -36.42936738580232,-9.74891743870040 -36.42944108750157,-9.74891861253244 -36.42950681038015,-9.74892574427262 -36.42957957850179,-9.74893668284242 -36.42965737827742,-9.74894798288419 -36.42979843181845,-9.74897272125551 -36.42985077631573,-9.74898031610741 -36.42996933570727,-9.74900038232568 -36.43004299713223,-9.74900703819720 -36.43011957835707,-9.74901338357158 -36.43019820859305,-9.74901807453694 -36.43031461353710,-9.74901992362570 -36.43036853742507,-9.74901349503262 -36.43039547055169,-9.74900665932895 -36.43043936671568,-9.74898907200477 -36.43046338477559,-9.74897937580606 -36.43050846059066,-9.74907881463320 -36.43067037059625,-9.74945396289844 -36.43064765369987,-9.74946187605298
          </coordinates>
        </LinearRing>
      </outerBoundaryIs>
    </Polygon>
  </Placemark>
</Document>
</kml>
