<?xml version="1.0" encoding="UTF-8"?>
<kml xmlns="http://www.opengis.net/kml/2.2" xmlns:gx="http://www.google.com/kml/ext/2.2" xmlns:kml="http://www.opengis.net/kml/2.2" xmlns:atom="http://www.w3.org/2005/Atom">
<Document>
  <name>1031.kml</name>
  <StyleMap id="FF0040FF">
    <Pair>
      <key>normal</key>
      <styleUrl>#s_FF0040FF</styleUrl>
    </Pair>
    <Pair>
      <key>highlight</key>
      <styleUrl>#s_FF0040FF_hl</styleUrl>
    </Pair>
  </StyleMap>
  <Style id="s_FF0040FF">
   <IconStyle>
      <scale>1.1</scale>
      <Icon>
        <href>http://maps.google.com/mapfiles/kml/pushpin/agrocad.png</href>
      </Icon>
      <hotSpot x="20" y="2" xunits="pixels" yunits="pixels"/>
    </IconStyle>
    <LineStyle>
      <color>FF0040FF</color>
      <width>1</width>
    </LineStyle>
    <PolyStyle>
      <color>40ffffff</color>
      <fill>1</fill>
    </PolyStyle>
  </Style>
  <Style id="s_FF0040FF_hl">
    <IconStyle>
      <scale>1.3</scale>
      <Icon>
        <href>http://maps.google.com/mapfiles/kml/pushpin/agrocad.png</href>
      </Icon>
      <hotSpot x="20" y="2" xunits="pixels" yunits="pixels"/>
    </IconStyle>
    <LineStyle>
      <color>ff000000</color>
      <width>1</width>
    </LineStyle>
    <PolyStyle>
      <color>40ffffff</color>
      <fill>1</fill>
    </PolyStyle>
  </Style>
  <Placemark>
    <name>AgroCAD: 849B</name>
    <styleUrl>FF0040FF</styleUrl>
    <Polygon>
      <outerBoundaryIs>
        <LinearRing>
          <coordinates>
           -36.42215710110266,-9.73838120710795 -36.42217316398060,-9.73842160458699 -36.42219457841053,-9.73846225473235 -36.42224224997006,-9.73853403213598 -36.42228010573855,-9.73859651216820 -36.42231733852531,-9.73866386771277 -36.42234963355635,-9.73873698640993 -36.42237469859347,-9.73880715716606 -36.42239788993573,-9.73887963479398 -36.42242374147063,-9.73894268028900 -36.42244518870412,-9.73901137470763 -36.42246712698376,-9.73907879351666 -36.42248475027758,-9.73914799421327 -36.42248952703035,-9.73921415774966 -36.42247608705425,-9.73926323356272 -36.42244572886263,-9.73929673974643 -36.42240756849395,-9.73931175520074 -36.42235929363949,-9.73930828374107 -36.42231066038102,-9.73928422859346 -36.42225021166217,-9.73924775595355 -36.42218464576785,-9.73921206859491 -36.42211646459015,-9.73918332507071 -36.42204584934925,-9.73917131858707 -36.42197321607672,-9.73917998723761 -36.42190216384541,-9.73920614107458 -36.42183292212863,-9.73924177220952 -36.42177268525862,-9.73927948728265 -36.42171154743211,-9.73932325767273 -36.42163619326399,-9.73938142522795 -36.42155910323341,-9.73944291981530 -36.42148403123800,-9.73950316564141 -36.42141297947522,-9.73955823162815 -36.42133848982949,-9.73961407822054 -36.42127367237504,-9.73965448350758 -36.42121623737081,-9.73968885853623 -36.42115521292228,-9.73971674359783 -36.42108715525098,-9.73973412418399 -36.42101416247911,-9.73974560120005 -36.42093400456236,-9.73975660187222 -36.42072987859215,-9.73977374756653 -36.42064076642006,-9.73976886581931 -36.42056859668189,-9.73976542902024 -36.42048636092221,-9.73975880851165 -36.42039590937124,-9.73975188306429 -36.42031545133901,-9.73974510447119 -36.42024500822442,-9.73974048435767 -36.42020025558379,-9.73974155228242 -36.42016578473052,-9.73975306611962 -36.42012505553008,-9.73976854071738 -36.42009421394430,-9.73979472878146 -36.42007203171612,-9.73982534110312 -36.42006063215221,-9.73987377146425 -36.42006562422766,-9.73991298200043 -36.42008491781736,-9.73995273518977 -36.42013559527585,-9.74000853731177 -36.42019324544930,-9.74005275098934 -36.42031718576403,-9.74013547597717 -36.42036855294494,-9.74018412859956 -36.42041614458672,-9.74024477990226 -36.42044313467923,-9.74028076476146 -36.42043870549982,-9.74028447543719 -36.42040116078915,-9.74031262247345 -36.42035673054341,-9.74035270934664 -36.42031549789122,-9.74038785108789 -36.42023063415050,-9.74045054225759 -36.42012205600706,-9.74052375999638 -36.41987866230394,-9.74069053379241 -36.41974079805955,-9.74077981814102 -36.41941645873977,-9.74098068049636 -36.41923870776054,-9.74109750132840 -36.41907887777915,-9.74120054826965 -36.41884776822172,-9.74135056617157 -36.41872753707898,-9.74142831646304 -36.41868463873995,-9.74136197896948 -36.41858695102341,-9.74120867035287 -36.41845378875715,-9.74101698127251 -36.41833231976007,-9.74083774089223 -36.41814941477278,-9.74057503639468 -36.41798721323453,-9.74034683624508 -36.41781276559118,-9.74009003367564 -36.41777158073030,-9.74002925888671 -36.41779330728808,-9.74001059800612 -36.41790135920081,-9.73991040283728 -36.41808515544208,-9.73974207647861 -36.41830444508642,-9.73952937926287 -36.41858838127984,-9.73925293635049 -36.41889174395923,-9.73895342295832 -36.41918304377357,-9.73866928152026 -36.41946287082048,-9.73839196256111 -36.41972950523861,-9.73812792780800 -36.41996742231440,-9.73789208526227 -36.42039298278597,-9.73747652938414 -36.42057685776936,-9.73729635574631 -36.42081384841974,-9.73706537893081 -36.42085182397983,-9.73703041473158 -36.42086682209248,-9.73704007146970 -36.42100397384265,-9.73713836952445 -36.42114672684813,-9.73723931041742 -36.42125097872686,-9.73731525428664 -36.42135027385910,-9.73739003349980 -36.42141391574045,-9.73743893668155 -36.42150955863431,-9.73751791462356 -36.42157252608698,-9.73756655823617 -36.42167379658233,-9.73764273250181 -36.42177006816041,-9.73771855590859 -36.42179954338919,-9.73774220290619 -36.42185692542106,-9.73779993100418 -36.42190825502726,-9.73786258047307 -36.42195029156456,-9.73793412951950 -36.42198359188011,-9.73800829442940 -36.42204912319293,-9.73815963789988 -36.42210291148900,-9.73826895674594 -36.42212096938365,-9.73830387689600 -36.42213536864688,-9.73833413587910 -36.42214434203352,-9.73835625403702 -36.42215710110266,-9.73838120710795 -36.42215710110266,-9.73838120710795
          </coordinates>
        </LinearRing>
      </outerBoundaryIs>
    </Polygon>
  </Placemark>
</Document>
</kml>
