<?xml version="1.0" encoding="UTF-8"?>
<kml xmlns="http://www.opengis.net/kml/2.2" xmlns:gx="http://www.google.com/kml/ext/2.2" xmlns:kml="http://www.opengis.net/kml/2.2" xmlns:atom="http://www.w3.org/2005/Atom">
<Document>
  <name>1019.kml</name>
  <StyleMap id="FF0040FF">
    <Pair>
      <key>normal</key>
      <styleUrl>#s_FF0040FF</styleUrl>
    </Pair>
    <Pair>
      <key>highlight</key>
      <styleUrl>#s_FF0040FF_hl</styleUrl>
    </Pair>
  </StyleMap>
  <Style id="s_FF0040FF">
   <IconStyle>
      <scale>1.1</scale>
      <Icon>
        <href>http://maps.google.com/mapfiles/kml/pushpin/agrocad.png</href>
      </Icon>
      <hotSpot x="20" y="2" xunits="pixels" yunits="pixels"/>
    </IconStyle>
    <LineStyle>
      <color>FF0040FF</color>
      <width>1</width>
    </LineStyle>
    <PolyStyle>
      <color>40ffffff</color>
      <fill>1</fill>
    </PolyStyle>
  </Style>
  <Style id="s_FF0040FF_hl">
    <IconStyle>
      <scale>1.3</scale>
      <Icon>
        <href>http://maps.google.com/mapfiles/kml/pushpin/agrocad.png</href>
      </Icon>
      <hotSpot x="20" y="2" xunits="pixels" yunits="pixels"/>
    </IconStyle>
    <LineStyle>
      <color>ff000000</color>
      <width>1</width>
    </LineStyle>
    <PolyStyle>
      <color>40ffffff</color>
      <fill>1</fill>
    </PolyStyle>
  </Style>
  <Placemark>
    <name>AgroCAD: 8488</name>
    <styleUrl>FF0040FF</styleUrl>
    <Polygon>
      <outerBoundaryIs>
        <LinearRing>
          <coordinates>
           -36.43166060594751,-9.74392043451720 -36.43163675264178,-9.74393824886966 -36.43150468624957,-9.74404116734592 -36.43131179137554,-9.74417948579113 -36.43064430518274,-9.74465963176953 -36.43028891093372,-9.74492073309110 -36.42996364106960,-9.74515695689328 -36.42983491542093,-9.74525013204390 -36.42983267366816,-9.74524098881293 -36.42981615170359,-9.74516227571185 -36.42978980175203,-9.74503394815801 -36.42974463989713,-9.74481735998543 -36.42969129511254,-9.74456496600711 -36.42963214710430,-9.74426479307867 -36.42956421185968,-9.74391703898568 -36.42948922141517,-9.74353249625455 -36.42932534256371,-9.74272094773480 -36.42918468837930,-9.74199720332686 -36.42910644609270,-9.74161317459079 -36.42900483249956,-9.74112591273457 -36.42897818207529,-9.74100248371789 -36.42900297241600,-9.74097648557421 -36.42908365506729,-9.74088600989538 -36.42916616670145,-9.74079151510206 -36.42924108649858,-9.74071027013302 -36.42929171470631,-9.74064210084348 -36.42933831544112,-9.74057116341929 -36.42938231827191,-9.74048997117059 -36.42941804238624,-9.74040374330684 -36.42944772395769,-9.74031174605199 -36.42947339235603,-9.74021652898036 -36.42949305856100,-9.74011736396234 -36.42950879652303,-9.74001382589687 -36.42952333061428,-9.73990541198429 -36.42953132257186,-9.73980789969181 -36.42953315581151,-9.73974898570770 -36.42954169864749,-9.73974187643341 -36.42972907076720,-9.73958302035109 -36.42994487667686,-9.73939993896760 -36.43017984066288,-9.73920603773040 -36.43041418976127,-9.73900882618753 -36.43061425106927,-9.73885168319337 -36.43073468312118,-9.73876705557435 -36.43074320919700,-9.73885773008863 -36.43076079864121,-9.73894026792924 -36.43078602738868,-9.73903158352496 -36.43081281079779,-9.73916081610990 -36.43090393621761,-9.73960546618748 -36.43101586455329,-9.74014742682150 -36.43109729053648,-9.74057110769298 -36.43120374162610,-9.74108179380719 -36.43127273363070,-9.74142441035623 -36.43134062976743,-9.74175702133890 -36.43140268652923,-9.74207781014497 -36.43146422988988,-9.74237596392772 -36.43156899580198,-9.74289020323005 -36.43162019340206,-9.74312227498895 -36.43168627727776,-9.74344142051234 -36.43170323892777,-9.74352574291450 -36.43171742445926,-9.74360187324447 -36.43172598883209,-9.74365397540166 -36.43172910533876,-9.74369800222552 -36.43172892521516,-9.74374239869091 -36.43172783213448,-9.74375946488577 -36.43172516617414,-9.74376725859950 -36.43171742115967,-9.74381163976000 -36.43170280263503,-9.74385555349498 -36.43168263672527,-9.74389115742869 -36.43166060594751,-9.74392043451720 -36.43166060594751,-9.74392043451720
          </coordinates>
        </LinearRing>
      </outerBoundaryIs>
    </Polygon>
  </Placemark>
  <Placemark>
    <name>AgroCAD: 84A2</name>
    <styleUrl>FF0040FF</styleUrl>
    <Polygon>
      <outerBoundaryIs>
        <LinearRing>
          <coordinates>
           -36.42896892262214,-9.74095959939407 -36.42893258867171,-9.74079132193077 -36.42889642318163,-9.74060348105775 -36.42886837323908,-9.74042735186684 -36.42885460630554,-9.74034674601924 -36.42885169570753,-9.74025641952565 -36.42884825958879,-9.74023029047202 -36.42885983904646,-9.74022445464048 -36.42887073851485,-9.74022011668415 -36.42892708189562,-9.74019908871358 -36.42898298032778,-9.74017445719236 -36.42902982911426,-9.74015238124976 -36.42908718564419,-9.74011538829151 -36.42925563408443,-9.73997816588012 -36.42938170377848,-9.73987502268177 -36.42949573612976,-9.73978012603650 -36.42949493484931,-9.73980587631793 -36.42948709254378,-9.73990156253663 -36.42947272306319,-9.74000874848820 -36.42945715362570,-9.74011117778282 -36.42943788015190,-9.74020836244090 -36.42941275551113,-9.74030156240705 -36.42938378854918,-9.74039134472253 -36.42934933639630,-9.74047450241519 -36.42930695320298,-9.74055270616279 -36.42926176220559,-9.74062149762341 -36.42921290048803,-9.74068728838426 -36.42913895158073,-9.74076748049070 -36.42905624121920,-9.74086220286749 -36.42897608710674,-9.74095208585034 -36.42896892262214,-9.74095959939407 -36.42896892262214,-9.74095959939407
          </coordinates>
        </LinearRing>
      </outerBoundaryIs>
    </Polygon>
  </Placemark>
</Document>
</kml>
