<?xml version="1.0" encoding="UTF-8"?>
<kml xmlns="http://www.opengis.net/kml/2.2" xmlns:gx="http://www.google.com/kml/ext/2.2" xmlns:kml="http://www.opengis.net/kml/2.2" xmlns:atom="http://www.w3.org/2005/Atom">
<Document>
  <name>1043.kml</name>
  <StyleMap id="FF0040FF">
    <Pair>
      <key>normal</key>
      <styleUrl>#s_FF0040FF</styleUrl>
    </Pair>
    <Pair>
      <key>highlight</key>
      <styleUrl>#s_FF0040FF_hl</styleUrl>
    </Pair>
  </StyleMap>
  <Style id="s_FF0040FF">
   <IconStyle>
      <scale>1.1</scale>
      <Icon>
        <href>http://maps.google.com/mapfiles/kml/pushpin/agrocad.png</href>
      </Icon>
      <hotSpot x="20" y="2" xunits="pixels" yunits="pixels"/>
    </IconStyle>
    <LineStyle>
      <color>FF0040FF</color>
      <width>1</width>
    </LineStyle>
    <PolyStyle>
      <color>40ffffff</color>
      <fill>1</fill>
    </PolyStyle>
  </Style>
  <Style id="s_FF0040FF_hl">
    <IconStyle>
      <scale>1.3</scale>
      <Icon>
        <href>http://maps.google.com/mapfiles/kml/pushpin/agrocad.png</href>
      </Icon>
      <hotSpot x="20" y="2" xunits="pixels" yunits="pixels"/>
    </IconStyle>
    <LineStyle>
      <color>ff000000</color>
      <width>1</width>
    </LineStyle>
    <PolyStyle>
      <color>40ffffff</color>
      <fill>1</fill>
    </PolyStyle>
  </Style>
  <Placemark>
    <name>AgroCAD: 8497</name>
    <styleUrl>FF0040FF</styleUrl>
    <Polygon>
      <outerBoundaryIs>
        <LinearRing>
          <coordinates>
           -36.40479604257163,-9.72788046273542 -36.40485500319908,-9.72782127974540 -36.40499336252298,-9.72768084453544 -36.40501756389308,-9.72766221330229 -36.40516036956585,-9.72754546879153 -36.40520712872114,-9.72747553384389 -36.40525912518120,-9.72740797639434 -36.40531135764101,-9.72734492206080 -36.40540296695388,-9.72724424355684 -36.40545489240816,-9.72718961522343 -36.40550825894756,-9.72713612340589 -36.40555608905871,-9.72709649683251 -36.40560095635268,-9.72704900652149 -36.40565321700511,-9.72699031060823 -36.40569694516128,-9.72694526553622 -36.40574323693975,-9.72690098508949 -36.40579075939406,-9.72685469923716 -36.40583128196422,-9.72681478152613 -36.40585835065536,-9.72678383659984 -36.40586253526463,-9.72677951009675 -36.40588575045991,-9.72680145865902 -36.40593833848823,-9.72685635451199 -36.40625838946315,-9.72707845388187 -36.40637813744473,-9.72717006865547 -36.40649184464967,-9.72727350839956 -36.40667679014184,-9.72743766959434 -36.40681938206909,-9.72756612670408 -36.40687505417338,-9.72762539757037 -36.40686160906761,-9.72763604427425 -36.40681307741693,-9.72767975686370 -36.40673907712645,-9.72775201954376 -36.40664366106623,-9.72784757637915 -36.40650576782357,-9.72798814626272 -36.40635620240768,-9.72813903461183 -36.40622183052294,-9.72827731942122 -36.40610942127813,-9.72839066637126 -36.40597507334045,-9.72852758913379 -36.40584608951246,-9.72866433557742 -36.40577051529229,-9.72874012500665 -36.40574476952192,-9.72876704866540 -36.40568121121532,-9.72870939089475 -36.40556967153265,-9.72859891102378 -36.40544354018392,-9.72848082444759 -36.40541119908056,-9.72845419428274 -36.40535303239968,-9.72839690701807 -36.40529694611267,-9.72834281094351 -36.40523877527044,-9.72828186590141 -36.40520805517855,-9.72825113475110 -36.40517952628983,-9.72821735496087 -36.40508623605346,-9.72811987734877 -36.40502709573209,-9.72806087803546 -36.40495295874160,-9.72801050061595 -36.40489171165207,-9.72796175381701 -36.40483404061869,-9.72791751968930 -36.40480946538144,-9.72789493074045 -36.40479604257162,-9.72788046273543 -36.40479604257163,-9.72788046273542
          </coordinates>
        </LinearRing>
      </outerBoundaryIs>
    </Polygon>
  </Placemark>
</Document>
</kml>
