<?xml version="1.0" encoding="UTF-8"?>
<kml xmlns="http://www.opengis.net/kml/2.2" xmlns:gx="http://www.google.com/kml/ext/2.2" xmlns:kml="http://www.opengis.net/kml/2.2" xmlns:atom="http://www.w3.org/2005/Atom">
<Document>
  <name>1021.kml</name>
  <StyleMap id="FF0040FF">
    <Pair>
      <key>normal</key>
      <styleUrl>#s_FF0040FF</styleUrl>
    </Pair>
    <Pair>
      <key>highlight</key>
      <styleUrl>#s_FF0040FF_hl</styleUrl>
    </Pair>
  </StyleMap>
  <Style id="s_FF0040FF">
   <IconStyle>
      <scale>1.1</scale>
      <Icon>
        <href>http://maps.google.com/mapfiles/kml/pushpin/agrocad.png</href>
      </Icon>
      <hotSpot x="20" y="2" xunits="pixels" yunits="pixels"/>
    </IconStyle>
    <LineStyle>
      <color>FF0040FF</color>
      <width>1</width>
    </LineStyle>
    <PolyStyle>
      <color>40ffffff</color>
      <fill>1</fill>
    </PolyStyle>
  </Style>
  <Style id="s_FF0040FF_hl">
    <IconStyle>
      <scale>1.3</scale>
      <Icon>
        <href>http://maps.google.com/mapfiles/kml/pushpin/agrocad.png</href>
      </Icon>
      <hotSpot x="20" y="2" xunits="pixels" yunits="pixels"/>
    </IconStyle>
    <LineStyle>
      <color>ff000000</color>
      <width>1</width>
    </LineStyle>
    <PolyStyle>
      <color>40ffffff</color>
      <fill>1</fill>
    </PolyStyle>
  </Style>
  <Placemark>
    <name>AgroCAD: 84A1</name>
    <styleUrl>FF0040FF</styleUrl>
    <Polygon>
      <outerBoundaryIs>
        <LinearRing>
          <coordinates>
           -36.42778783201269,-9.73490278586813 -36.42776058379955,-9.73496617300836 -36.42774591580512,-9.73504837708869 -36.42774553704886,-9.73513250212116 -36.42775408290098,-9.73521780724393 -36.42776863408631,-9.73530450389748 -36.42778275255923,-9.73539098025874 -36.42779804001075,-9.73548499335333 -36.42781381468893,-9.73558276474334 -36.42782195944174,-9.73566399264872 -36.42781701412788,-9.73573329484123 -36.42780842312188,-9.73581699516675 -36.42779604292044,-9.73599536541706 -36.42780153659911,-9.73606841503684 -36.42781698773669,-9.73613077629145 -36.42785144286804,-9.73620490736131 -36.42789686602639,-9.73629098966749 -36.42793625745115,-9.73636838564024 -36.42796027423178,-9.73643997591480 -36.42797345851124,-9.73652500648755 -36.42798327701534,-9.73661415829266 -36.42799120867124,-9.73669833974683 -36.42799814366983,-9.73677117033554 -36.42801052616969,-9.73685513004907 -36.42802613188158,-9.73696005674692 -36.42804170994284,-9.73706346985432 -36.42805352520314,-9.73715618842537 -36.42805469615846,-9.73725164620318 -36.42803927471381,-9.73734195908695 -36.42801989107196,-9.73740971963673 -36.42798792227290,-9.73746851424577 -36.42795911340179,-9.73749760344599 -36.42791533610398,-9.73752799535439 -36.42787251360286,-9.73754952252160 -36.42782337367279,-9.73756860688235 -36.42777381819952,-9.73758108451859 -36.42770243130162,-9.73760067341286 -36.42759966004579,-9.73762757934492 -36.42749100487268,-9.73765460481375 -36.42739892716484,-9.73767658051482 -36.42731908768292,-9.73769338768933 -36.42722817030971,-9.73770568887161 -36.42713137914304,-9.73771286029051 -36.42704389283273,-9.73771362018622 -36.42695779927539,-9.73770903164861 -36.42687077319390,-9.73770798759604 -36.42679646914081,-9.73770533896612 -36.42672107035234,-9.73770414467542 -36.42665333617880,-9.73770779162502 -36.42659198542491,-9.73772479336524 -36.42654125060945,-9.73776171362633 -36.42651215530391,-9.73781279675358 -36.42650305180099,-9.73787270774819 -36.42650875192807,-9.73793221768307 -36.42653677648830,-9.73798419002621 -36.42658360903255,-9.73802182036346 -36.42667376460944,-9.73805065854604 -36.42681086717710,-9.73808421396189 -36.42698936202356,-9.73812414912770 -36.42710677998385,-9.73815263916012 -36.42718230310097,-9.73818236784087 -36.42730694393878,-9.73823748069481 -36.42736654259797,-9.73826029515941 -36.42744444229489,-9.73827723912015 -36.42752279159214,-9.73828078761780 -36.42760600666735,-9.73826892458927 -36.42778652782498,-9.73821892375664 -36.42787201435548,-9.73820582399068 -36.42794672793654,-9.73819718018823 -36.42802835811592,-9.73819978892214 -36.42811049297396,-9.73821567176651 -36.42817686561248,-9.73823560350635 -36.42824040706369,-9.73826566932682 -36.42829602418341,-9.73831183199919 -36.42834874624302,-9.73836985052110 -36.42839954599167,-9.73842955122576 -36.42844951949918,-9.73849495353875 -36.42847856565058,-9.73854096569682 -36.42845915376576,-9.73841887826795 -36.42843600605346,-9.73828373170467 -36.42841584995835,-9.73816176749622 -36.42836353151242,-9.73791485558501 -36.42833645024730,-9.73778080564743 -36.42830916763328,-9.73765244092590 -36.42826107383348,-9.73740096851238 -36.42821350372975,-9.73715522687065 -36.42817744362184,-9.73698903012472 -36.42813090103910,-9.73675054978354 -36.42808828635663,-9.73652496441890 -36.42805042787206,-9.73631190489509 -36.42801449701610,-9.73611251848670 -36.42797498782640,-9.73591319995779 -36.42792790321701,-9.73566488203051 -36.42787569261050,-9.73539348516970 -36.42783326380978,-9.73516153063224 -36.42779900033224,-9.73497139682399 -36.42778783201269,-9.73490278586813 -36.42778783201269,-9.73490278586813
          </coordinates>
        </LinearRing>
      </outerBoundaryIs>
    </Polygon>
  </Placemark>
  <Placemark>
    <name>AgroCAD: 84A0</name>
    <styleUrl>FF0040FF</styleUrl>
    <Polygon>
      <outerBoundaryIs>
        <LinearRing>
          <coordinates>
           -36.42849931861814,-9.73865772501287 -36.42846737534681,-9.73870509715682 -36.42842145313429,-9.73875919449609 -36.42835686596473,-9.73883136629147 -36.42830860057602,-9.73890250142647 -36.42827087732063,-9.73897831846749 -36.42825109715234,-9.73904362481804 -36.42824730411460,-9.73911525113838 -36.42826161659030,-9.73919814885734 -36.42828108784892,-9.73928506105588 -36.42830469010766,-9.73937315121589 -36.42833221021830,-9.73946354890319 -36.42835595927186,-9.73955261425816 -36.42837088301567,-9.73965447167431 -36.42839232186439,-9.73977205876582 -36.42842382072981,-9.73985202979513 -36.42846462047481,-9.73990113101711 -36.42852739078469,-9.73995187034450 -36.42860433816436,-9.74000031715766 -36.42868437455960,-9.74004862041977 -36.42875311064177,-9.74008492517519 -36.42879185772715,-9.74010340711230 -36.42875612795066,-9.73995356506909 -36.42871540447863,-9.73973701812578 -36.42866322228238,-9.73947610666423 -36.42861660160315,-9.73925130965749 -36.42856661010763,-9.73900549624487 -36.42852243964924,-9.73878106063659 -36.42849931861813,-9.73865772501287 -36.42849931861814,-9.73865772501287
          </coordinates>
        </LinearRing>
      </outerBoundaryIs>
    </Polygon>
  </Placemark>
</Document>
</kml>
