<?xml version="1.0" encoding="UTF-8"?>
<kml xmlns="http://www.opengis.net/kml/2.2" xmlns:gx="http://www.google.com/kml/ext/2.2" xmlns:kml="http://www.opengis.net/kml/2.2" xmlns:atom="http://www.w3.org/2005/Atom">
<Document>
  <name>1022.kml</name>
  <StyleMap id="FF0040FF">
    <Pair>
      <key>normal</key>
      <styleUrl>#s_FF0040FF</styleUrl>
    </Pair>
    <Pair>
      <key>highlight</key>
      <styleUrl>#s_FF0040FF_hl</styleUrl>
    </Pair>
  </StyleMap>
  <Style id="s_FF0040FF">
   <IconStyle>
      <scale>1.1</scale>
      <Icon>
        <href>http://maps.google.com/mapfiles/kml/pushpin/agrocad.png</href>
      </Icon>
      <hotSpot x="20" y="2" xunits="pixels" yunits="pixels"/>
    </IconStyle>
    <LineStyle>
      <color>FF0040FF</color>
      <width>1</width>
    </LineStyle>
    <PolyStyle>
      <color>40ffffff</color>
      <fill>1</fill>
    </PolyStyle>
  </Style>
  <Style id="s_FF0040FF_hl">
    <IconStyle>
      <scale>1.3</scale>
      <Icon>
        <href>http://maps.google.com/mapfiles/kml/pushpin/agrocad.png</href>
      </Icon>
      <hotSpot x="20" y="2" xunits="pixels" yunits="pixels"/>
    </IconStyle>
    <LineStyle>
      <color>ff000000</color>
      <width>1</width>
    </LineStyle>
    <PolyStyle>
      <color>40ffffff</color>
      <fill>1</fill>
    </PolyStyle>
  </Style>
  <Placemark>
    <name>AgroCAD: 848B</name>
    <styleUrl>FF0040FF</styleUrl>
    <Polygon>
      <outerBoundaryIs>
        <LinearRing>
          <coordinates>
           -36.43073441889460,-9.73872239670454 -36.43073008635449,-9.73872607186082 -36.43072554149761,-9.73872918737610 -36.43059239784801,-9.73882274744200 -36.43039109098945,-9.73898086878315 -36.43015640618772,-9.73917836282780 -36.42992138628233,-9.73937231020909 -36.42970539181758,-9.73955555155279 -36.42951815554774,-9.73971429245533 -36.42935840545520,-9.73984723500122 -36.42923248308697,-9.73995025766457 -36.42906562925595,-9.74008618106604 -36.42901200499898,-9.74012076683918 -36.42896776700592,-9.74014161253241 -36.42891326098557,-9.74016563049172 -36.42885753975674,-9.74018642626956 -36.42884477582317,-9.74019150627781 -36.42884325972860,-9.74019227036137 -36.42883437387226,-9.74012470022352 -36.42879178346773,-9.73994608645683 -36.42875118166801,-9.73973018663425 -36.42869893397212,-9.73946894782043 -36.42865230145895,-9.73924409387419 -36.42860234629769,-9.73899845925647 -36.42855822890350,-9.73877429340184 -36.42852081735767,-9.73857472730620 -36.42849510829858,-9.73841303509134 -36.42847194209027,-9.73827778062859 -36.42845167137025,-9.73815512290962 -36.42839922061013,-9.73790758668560 -36.42837213712342,-9.73777352582580 -36.42834489319693,-9.73764534319684 -36.42829686075359,-9.73739419175054 -36.42824920640469,-9.73714801505050 -36.42821314046361,-9.73698179150635 -36.42816669050212,-9.73674378588546 -36.42812413203414,-9.73651849823194 -36.42808629993385,-9.73630558732731 -36.42805030595202,-9.73610585074692 -36.42801076500421,-9.73590637211550 -36.42796369918354,-9.73565815342417 -36.42791151048019,-9.73538687057666 -36.42786911962465,-9.73515512362385 -36.42783491835049,-9.73496533511067 -36.42781647310375,-9.73485201947996 -36.42782651173872,-9.73483507945657 -36.42786520207013,-9.73475264303010 -36.42791595016045,-9.73466338867990 -36.42798344845247,-9.73455164891451 -36.42805378083663,-9.73444028243662 -36.42812428515656,-9.73434574182223 -36.42818418648430,-9.73427378509040 -36.42823662169894,-9.73422048524394 -36.42829053591891,-9.73418055543005 -36.42835236132368,-9.73413480465418 -36.42841707842307,-9.73409113435513 -36.42847993923707,-9.73405819217916 -36.42854551887893,-9.73403773759480 -36.42861685389833,-9.73402497323526 -36.42869114619560,-9.73402198889194 -36.42881966925284,-9.73403317897637 -36.42899050758293,-9.73404916491161 -36.42915467131258,-9.73405451880530 -36.42927654351620,-9.73405310114300 -36.42936467645796,-9.73405388015809 -36.42943355256579,-9.73406556056298 -36.42950653425300,-9.73409083422048 -36.42958175513465,-9.73412923917981 -36.42965696637641,-9.73417160431357 -36.42973179287793,-9.73421299194916 -36.42980524841052,-9.73424151985432 -36.42987960140542,-9.73425032650314 -36.42995749596515,-9.73424404474855 -36.43003117467222,-9.73423365956678 -36.43011112757182,-9.73422304784804 -36.43019317117153,-9.73421089826117 -36.43026988612862,-9.73419975675390 -36.43034097901877,-9.73419256040936 -36.43042208515915,-9.73419072584045 -36.43049351578866,-9.73419146061736 -36.43055589719939,-9.73419426849759 -36.43058764590304,-9.73419645491231 -36.43061137756716,-9.73419924597388 -36.43062597998671,-9.73420156948726 -36.43065215816396,-9.73420877099125 -36.43065139971796,-9.73421438861781 -36.43065447582930,-9.73428369373107 -36.43065599212775,-9.73435947706805 -36.43064915865012,-9.73446955178735 -36.43064645623640,-9.73459842477110 -36.43064326132110,-9.73472404787987 -36.43063712753397,-9.73482244946467 -36.43063785437008,-9.73491542874829 -36.43064772903633,-9.73507746707853 -36.43065267328779,-9.73520017955092 -36.43065804209737,-9.73534601356527 -36.43066331094078,-9.73548517097497 -36.43066539442131,-9.73558225042798 -36.43067241934565,-9.73566774201132 -36.43067448489126,-9.73586225440834 -36.43068478139071,-9.73617341058444 -36.43069269641458,-9.73644587500177 -36.43070180255365,-9.73677861055639 -36.43070992809200,-9.73701420538981 -36.43071042897362,-9.73726022528511 -36.43070979385381,-9.73747688421478 -36.43071313148284,-9.73754346650823 -36.43071211762423,-9.73761424537359 -36.43071730182219,-9.73779490369932 -36.43072520524976,-9.73799853668198 -36.43073120036320,-9.73813233117415 -36.43073452760278,-9.73824172051988 -36.43073792068843,-9.73839150947657 -36.43073863579428,-9.73847928877912 -36.43073679632138,-9.73854993931801 -36.43073441889460,-9.73872239670454 -36.43073441889460,-9.73872239670454
          </coordinates>
        </LinearRing>
      </outerBoundaryIs>
    </Polygon>
  </Placemark>
</Document>
</kml>
