<?xml version="1.0" encoding="UTF-8"?>
<kml xmlns="http://www.opengis.net/kml/2.2" xmlns:gx="http://www.google.com/kml/ext/2.2" xmlns:kml="http://www.opengis.net/kml/2.2" xmlns:atom="http://www.w3.org/2005/Atom">
<Document>
  <name>1045.kml</name>
  <StyleMap id="FF0040FF">
    <Pair>
      <key>normal</key>
      <styleUrl>#s_FF0040FF</styleUrl>
    </Pair>
    <Pair>
      <key>highlight</key>
      <styleUrl>#s_FF0040FF_hl</styleUrl>
    </Pair>
  </StyleMap>
  <Style id="s_FF0040FF">
   <IconStyle>
      <scale>1.1</scale>
      <Icon>
        <href>http://maps.google.com/mapfiles/kml/pushpin/agrocad.png</href>
      </Icon>
      <hotSpot x="20" y="2" xunits="pixels" yunits="pixels"/>
    </IconStyle>
    <LineStyle>
      <color>FF0040FF</color>
      <width>1</width>
    </LineStyle>
    <PolyStyle>
      <color>40ffffff</color>
      <fill>1</fill>
    </PolyStyle>
  </Style>
  <Style id="s_FF0040FF_hl">
    <IconStyle>
      <scale>1.3</scale>
      <Icon>
        <href>http://maps.google.com/mapfiles/kml/pushpin/agrocad.png</href>
      </Icon>
      <hotSpot x="20" y="2" xunits="pixels" yunits="pixels"/>
    </IconStyle>
    <LineStyle>
      <color>ff000000</color>
      <width>1</width>
    </LineStyle>
    <PolyStyle>
      <color>40ffffff</color>
      <fill>1</fill>
    </PolyStyle>
  </Style>
  <Placemark>
    <name>AgroCAD: 849F</name>
    <styleUrl>FF0040FF</styleUrl>
    <Polygon>
      <outerBoundaryIs>
        <LinearRing>
          <coordinates>
           -36.41999309199734,-9.72624990215370 -36.41999600392291,-9.72625227724672 -36.42003070474896,-9.72628397783156 -36.42005673256645,-9.72631053067032 -36.42011296258564,-9.72636429512689 -36.42014144926797,-9.72639203488653 -36.42019867852142,-9.72644737236708 -36.42025829615380,-9.72650292000858 -36.42031830129162,-9.72655933387876 -36.42034752917584,-9.72658712576219 -36.42040720394091,-9.72664286160304 -36.42046597125541,-9.72669781176746 -36.42052448112198,-9.72675396916783 -36.42058386765460,-9.72680870663513 -36.42064233969517,-9.72686633260129 -36.42070285564557,-9.72692381434636 -36.42076220086089,-9.72698025072023 -36.42082199580752,-9.72703710481964 -36.42088153117081,-9.72709404755447 -36.42094222686452,-9.72715043054732 -36.42097239813265,-9.72717902618549 -36.42103212653468,-9.72723658871811 -36.42109077870716,-9.72729317940895 -36.42118972760632,-9.72739265766699 -36.42124881925913,-9.72744205620789 -36.42130833415951,-9.72749593353673 -36.42136667680225,-9.72755049458144 -36.42142425466534,-9.72760669505431 -36.42148151563868,-9.72765849948882 -36.42148760478448,-9.72766563091129 -36.42145891885256,-9.72767271245799 -36.42142265753782,-9.72768429278125 -36.42138412450091,-9.72769777562873 -36.42134534426431,-9.72771275159888 -36.42130506352039,-9.72772891689200 -36.42126716217044,-9.72774678133670 -36.42122853578573,-9.72776695512829 -36.42119161751597,-9.72779109984754 -36.42115796189726,-9.72781839993450 -36.42112606231689,-9.72784783611851 -36.42109500494282,-9.72787738379672 -36.42106401325224,-9.72790917862857 -36.42103353313803,-9.72793945151106 -36.42097041471313,-9.72800166093594 -36.42093855586271,-9.72803236757615 -36.42087494884976,-9.72809611514778 -36.42081248590507,-9.72815767602412 -36.42078132417026,-9.72818908544606 -36.42071991152695,-9.72825092635682 -36.42069026655041,-9.72828283111161 -36.42066072328786,-9.72831604050562 -36.42063238067091,-9.72834934700884 -36.42060519376749,-9.72838036457267 -36.42058710845423,-9.72840227486851 -36.42051716577582,-9.72833578303156 -36.42043985035186,-9.72826355917360 -36.42033847109203,-9.72817114921358 -36.42022362815963,-9.72806163946758 -36.42010986221992,-9.72795649263786 -36.42000801859325,-9.72785860381983 -36.41991274474160,-9.72777030440405 -36.41980717133907,-9.72767332030906 -36.41968403858722,-9.72756248504935 -36.41956314087243,-9.72744940221147 -36.41945322006511,-9.72734340116298 -36.41934341814561,-9.72724479933152 -36.41923913865206,-9.72714933830605 -36.41914355598852,-9.72705858833167 -36.41905743601505,-9.72696499773169 -36.41897518344916,-9.72687565894329 -36.41880164773532,-9.72670237803801 -36.41871118727446,-9.72661076474800 -36.41861355902630,-9.72651438513294 -36.41841113850995,-9.72632271688084 -36.41830986528944,-9.72622428117276 -36.41820764815006,-9.72612693933014 -36.41811137143029,-9.72604445355123 -36.41805066937526,-9.72598447420745 -36.41800328608161,-9.72593088409259 -36.41795742222753,-9.72588940881935 -36.41796114164371,-9.72588548089754 -36.41799406262542,-9.72585746607520 -36.41802141556239,-9.72583888638959 -36.41805079872491,-9.72582291345616 -36.41808925172697,-9.72581504352687 -36.41816716355476,-9.72581215028480 -36.41820522502130,-9.72581530281072 -36.41824345270677,-9.72582350462234 -36.41828155141775,-9.72583551433796 -36.41831641927980,-9.72585014429348 -36.41835639386897,-9.72587023904256 -36.41839605329050,-9.72589027416743 -36.41843258529217,-9.72591272133707 -36.41846528876281,-9.72593680534090 -36.41849866544327,-9.72596232440340 -36.41853296652338,-9.72598893682127 -36.41856347184457,-9.72601841873650 -36.41859462942009,-9.72604689043882 -36.41865512712347,-9.72610584563732 -36.41868399734419,-9.72613397974991 -36.41874380686993,-9.72619089398581 -36.41877335277177,-9.72622038255830 -36.41880339612145,-9.72624778496328 -36.41883299386015,-9.72627486784397 -36.41886259538508,-9.72630273800066 -36.41889166137128,-9.72633162475152 -36.41892257052415,-9.72635983661079 -36.41895199265487,-9.72638853598683 -36.41898233209295,-9.72641702103429 -36.41901138378174,-9.72644531964225 -36.41907221407958,-9.72650091213173 -36.41913297200269,-9.72655848070434 -36.41916370299339,-9.72658621345672 -36.41919310215617,-9.72661501696051 -36.41922242583529,-9.72664139747146 -36.41924973808849,-9.72667162912282 -36.41927745342119,-9.72670119538302 -36.41930456290817,-9.72672978691772 -36.41933038000829,-9.72675655984178 -36.41934435197167,-9.72676519582175 -36.41936707235668,-9.72674762889186 -36.41939383059798,-9.72672588635650 -36.41942864140624,-9.72668996233407 -36.41946394783352,-9.72665833819120 -36.41949835199239,-9.72663462573446 -36.41953302093033,-9.72661134141134 -36.41956932382555,-9.72658666119185 -36.41960207342298,-9.72656354545501 -36.41969361027809,-9.72649395437957 -36.41972336519210,-9.72647140745409 -36.41979083660568,-9.72642316020594 -36.41982289553561,-9.72639740976026 -36.41985458738323,-9.72637066129376 -36.41988555252095,-9.72634303353146 -36.41991674085359,-9.72631607463508 -36.41994654230881,-9.72629018451256 -36.41997481851725,-9.72626556010436 -36.41999309199734,-9.72624990215370 -36.41999309199734,-9.72624990215370
          </coordinates>
        </LinearRing>
      </outerBoundaryIs>
    </Polygon>
  </Placemark>
</Document>
</kml>
