<?xml version="1.0" encoding="UTF-8"?>
<kml xmlns="http://www.opengis.net/kml/2.2" xmlns:gx="http://www.google.com/kml/ext/2.2" xmlns:kml="http://www.opengis.net/kml/2.2" xmlns:atom="http://www.w3.org/2005/Atom">
<Document>
  <name>33.kml</name>
  <StyleMap id="FFFF0000">
    <Pair>
      <key>normal</key>
      <styleUrl>#s_FFFF0000</styleUrl>
    </Pair>
    <Pair>
      <key>highlight</key>
      <styleUrl>#s_FFFF0000_hl</styleUrl>
    </Pair>
  </StyleMap>
  <Style id="s_FFFF0000">
   <IconStyle>
      <scale>1.1</scale>
      <Icon>
        <href>http://maps.google.com/mapfiles/kml/pushpin/agrocad.png</href>
      </Icon>
      <hotSpot x="20" y="2" xunits="pixels" yunits="pixels"/>
    </IconStyle>
    <LineStyle>
      <color>FFFF0000</color>
      <width>1</width>
    </LineStyle>
    <PolyStyle>
      <color>40ffffff</color>
      <fill>1</fill>
    </PolyStyle>
  </Style>
  <Style id="s_FFFF0000_hl">
    <IconStyle>
      <scale>1.3</scale>
      <Icon>
        <href>http://maps.google.com/mapfiles/kml/pushpin/agrocad.png</href>
      </Icon>
      <hotSpot x="20" y="2" xunits="pixels" yunits="pixels"/>
    </IconStyle>
    <LineStyle>
      <color>ff000000</color>
      <width>1</width>
    </LineStyle>
    <PolyStyle>
      <color>40ffffff</color>
      <fill>1</fill>
    </PolyStyle>
  </Style>
  <Placemark>
    <name>AgroCAD: 1899A</name>
    <styleUrl>FFFF0000</styleUrl>
    <Polygon>
      <outerBoundaryIs>
        <LinearRing>
          <coordinates>
           -36.42457201147510,-9.79074766328480 -36.42457544805540,-9.79073529997762 -36.42458114774961,-9.79072482259866 -36.42458466814890,-9.79071208210582 -36.42460193486942,-9.79067532746043 -36.42461385087770,-9.79064700197813 -36.42462548801732,-9.79064800245608 -36.42463236117791,-9.79064615843737 -36.42464191654760,-9.79064846346075 -36.42466915773291,-9.79066606545743 -36.42471534201931,-9.79068848704841 -36.42473344693021,-9.79069808432754 -36.42476856710452,-9.79072180511354 -36.42478130759732,-9.79072846872652 -36.42482422294150,-9.79075730247345 -36.42485615799261,-9.79077536547477 -36.42488809304373,-9.79078948898162 -36.42491684297161,-9.79080880926844 -36.42492614688412,-9.79081744262869 -36.42494676636593,-9.79082976402637 -36.42501046883001,-9.79086421364840 -36.42504198478593,-9.79088236046876 -36.42505254598392,-9.79089158056224 -36.42509873027042,-9.79092137822804 -36.42510811800191,-9.79092950867411 -36.42514097506243,-9.79094979287979 -36.42518573442532,-9.79097326220867 -36.42522236334223,-9.79099677344702 -36.42527332531353,-9.79102296689445 -36.42529335806202,-9.79103533020164 -36.42530458981233,-9.79104459220464 -36.42532009633323,-9.79105213591748 -36.42535312103162,-9.79107535378932 -36.42539000140564,-9.79109945176090 -36.42541338691553,-9.79111533546745 -36.42543911935823,-9.79112908178862 -36.42546133140163,-9.79114266047177 -36.42547373661834,-9.79114877926109 -36.42549536192854,-9.79116411814386 -36.42550734805003,-9.79117061411880 -36.42553081737894,-9.79118691692051 -36.42555311324134,-9.79120049560368 -36.42559535803334,-9.79122715005575 -36.42561622897213,-9.79123720833954 -36.42563785428244,-9.79125355305071 -36.42566283235384,-9.79126721555288 -36.42568588258764,-9.79128456609249 -36.42573131250273,-9.79130891552118 -36.42575344072704,-9.79132488304671 -36.42576433720113,-9.79133104374554 -36.42577615568465,-9.79134001238192 -36.42580088229904,-9.79135204041303 -36.42583541574003,-9.79137098351417 -36.42588428223554,-9.79140090690848 -36.42591990532404,-9.79142550779430 -36.42595603132674,-9.79144755219965 -36.42599634828094,-9.79146691439597 -36.42603071408395,-9.79148921025841 -36.42606776209605,-9.79151058411149 -36.42611612567735,-9.79154126187709 -36.42614571379555,-9.79156280336825 -36.42618133688394,-9.79158405149279 -36.42618284562655,-9.79159503178594 -36.42618167216015,-9.79160865237859 -36.42617597246595,-9.79163660602566 -36.42617538573274,-9.79164620330482 -36.42615937629765,-9.79167926991281 -36.42614898273775,-9.79170408034618 -36.42613691279715,-9.79172876505101 -36.42612375320915,-9.79175135428006 -36.42611361110635,-9.79177654189908 -36.42610422337485,-9.79178727073516 -36.42609768549034,-9.79179980168040 -36.42609517091935,-9.79181602066302 -36.42608377153105,-9.79184225601995 -36.42607362942825,-9.79186773700561 -36.42606709154375,-9.79188001649376 -36.42606315204925,-9.79189376281494 -36.42604353839585,-9.79192708088006 -36.42603482121656,-9.79193718107337 -36.42601906323854,-9.79197443863296 -36.42599986868034,-9.79201085800224 -36.42599483953844,-9.79202376613313 -36.42598025502684,-9.79204375697220 -36.42597271131404,-9.79205716801728 -36.42596550287734,-9.79208600176415 -36.42596080901154,-9.79209853270940 -36.42595334911775,-9.79211085410709 -36.42595033163255,-9.79212267259053 -36.42593625003524,-9.79214601619090 -36.42592971215074,-9.79216018160723 -36.42592116260954,-9.79217132953847 -36.42591462472504,-9.79218339947899 -36.42590523699354,-9.79221227513543 -36.42589928584224,-9.79222576999954 -36.42589174212944,-9.79223700174978 -36.42588051037914,-9.79226512303491 -36.42585955562124,-9.79230116521858 -36.42585184427035,-9.79231197787366 -36.42583977432984,-9.79233766840687 -36.42583189534074,-9.79234760096214 -36.42582066359055,-9.79237224375744 -36.42581714319114,-9.79238670254044 -36.42580448651735,-9.79241101005964 -36.42579023728193,-9.79243221627465 -36.42577380875174,-9.79246813272975 -36.42576291227773,-9.79250861732205 -36.42573198305493,-9.79255895065057 -36.42571505161053,-9.79257889958009 -36.42570097001323,-9.79261502558279 -36.42568705605403,-9.79264113521116 -36.42567607576084,-9.79266996895809 -36.42567004079062,-9.79268111688928 -36.42567297445664,-9.79269528230564 -36.42567825505575,-9.79270622068930 -36.42568965444404,-9.79271435113537 -36.42570792699284,-9.79273501252670 -36.42572066748564,-9.79274440025823 -36.42572795974144,-9.79275647019882 -36.42573324034054,-9.79276929451066 -36.42575897278323,-9.79280332503754 -36.42576475629635,-9.79281355095944 -36.42576986925734,-9.79282708773301 -36.42577875407465,-9.79283873857845 -36.42578386703555,-9.79285105997607 -36.42579191366264,-9.79286103444090 -36.42580331305094,-9.79287167945787 -36.42581110822084,-9.79288450376974 -36.42582024449533,-9.79289560979146 -36.42583264971204,-9.79291849238712 -36.42584882678514,-9.79294036915440 -36.42585796305965,-9.79295478602783 -36.42586575822955,-9.79296429948794 -36.42587858254144,-9.79297544741914 -36.42588771881584,-9.79298714017411 -36.42590347679384,-9.79302485873835 -36.42592208461884,-9.79304799279113 -36.42593725586364,-9.79307054011063 -36.42594748178544,-9.79309543436305 -36.42595552841254,-9.79312229836270 -36.42596064137345,-9.79315201220945 -36.42596382649665,-9.79318218706086 -36.42596416177284,-9.79321018261744 -36.42595393585094,-9.79325066720980 -36.42595158891804,-9.79326428780243 -36.42594706269034,-9.79327753120946 -36.42594102772005,-9.79328767331229 -36.42593088561725,-9.79329651622014 -36.42591688783895,-9.79331885399206 -36.42589936966124,-9.79334026975466 -36.42589023338684,-9.79335321979508 -36.42588042656014,-9.79338050288990 -36.42587673852275,-9.79339550649655 -36.42586014235443,-9.79341851482078 -36.42585368828904,-9.79342907601878 -36.42584287563394,-9.79345489228052 -36.42582862639864,-9.79348003799004 -36.42581370661083,-9.79350258530958 -36.42580951565924,-9.79351578680707 -36.42579576933804,-9.79353975905016 -36.42578613014943,-9.79356779651624 -36.42577950844593,-9.79358162665648 -36.42577230000924,-9.79359063720240 -36.42576651649604,-9.79360379679039 -36.42575779931674,-9.79361331025044 -36.42574581319513,-9.79363820450290 -36.42572871411274,-9.79367424668649 -36.42572108658084,-9.79368510125110 -36.42570742407862,-9.79371028887016 -36.42570130528933,-9.79372441237700 -36.42568705605395,-9.79374796552491 -36.42568076962663,-9.79376078983674 -36.42567607576074,-9.79377646399568 -36.42566350290604,-9.79380031051022 -36.42565797084993,-9.79381351200770 -36.42564011739624,-9.79383681369851 -36.42562486233244,-9.79385873237529 -36.42560164446065,-9.79390973625613 -36.42559502275723,-9.79393563633689 -36.42558286899762,-9.79396182978433 -36.42557457091344,-9.79397176233955 -36.42554867083263,-9.79401417476960 -36.42553559506373,-9.79404124831687 -36.42553257757863,-9.79405822167077 -36.42551204191583,-9.79409669460630 -36.42550366001263,-9.79410813590419 -36.42548446545433,-9.79414786612519 -36.42546853983833,-9.79418667433685 -36.42545060256553,-9.79421127522266 -36.42544582488073,-9.79422875149080 -36.42543157564533,-9.79425192745304 -36.42541254872514,-9.79429119666942 -36.42540475355524,-9.79429899183937 -36.42539888622304,-9.79431022358959 -36.42538103276923,-9.79433482447539 -36.42536737026702,-9.79436315530812 -36.42534591259492,-9.79439693437790 -36.42533937471043,-9.79441466210311 -36.42533141190244,-9.79442673204368 -36.42531213352513,-9.79446679754083 -36.42529855484203,-9.79449043450777 -36.42528782600592,-9.79451784333114 -36.42527156511383,-9.79454106120294 -36.42524021679593,-9.79460660768569 -36.42523401418762,-9.79461834235017 -36.42522487791313,-9.79463083138588 -36.42522169278993,-9.79464399097387 -36.42520819792583,-9.79466360462727 -36.42519637944232,-9.79469118108874 -36.42518799753922,-9.79470383776251 -36.42517634669383,-9.79473149804297 -36.42516603695292,-9.79474377753108 -36.42515128480332,-9.79476800123128 -36.42514374109043,-9.79477613167733 -36.42513058150242,-9.79480324713414 -36.42512178050412,-9.79481804119321 -36.42511188985843,-9.79482843475313 -36.42509554514722,-9.79486535703659 -36.42507475802732,-9.79489980665864 -36.42506444828642,-9.79491154132307 -36.42505288126004,-9.79492059377851 -36.42502874137892,-9.79493492683292 -36.42500418240262,-9.79494171617450 -36.42498155126412,-9.79494552994044 -36.42495288515523,-9.79495236119150 -36.42493813300561,-9.79495169063925 -36.42492639834121,-9.79494268009332 -36.42490024680331,-9.79493132261455 -36.42487736420761,-9.79491820493606 -36.42486839557122,-9.79491003258051 -36.42484484242331,-9.79489536424994 -36.42483562232981,-9.79488840727031 -36.42482732424571,-9.79487914526731 -36.42480737531621,-9.79484762931138 -36.42480301672652,-9.79481975948333 -36.42479295844271,-9.79479603869737 -36.42478642055823,-9.79473200095714 -36.42478449272052,-9.79471699735045 -36.42477150077061,-9.79469235455513 -36.42475917937291,-9.79467139979717 -36.42475926319191,-9.79465727629036 -36.42475314440261,-9.79463292686166 -36.42474928872721,-9.79460610477152 -36.42473839225301,-9.79458200679989 -36.42473177054951,-9.79455556189537 -36.42471726985711,-9.79451666986467 -36.42470042223171,-9.79446700708838 -36.42470033841262,-9.79445690689502 -36.42468717882471,-9.79442052943528 -36.42467896455961,-9.79438411006600 -36.42466521823841,-9.79434869652512 -36.42466312276261,-9.79433478256588 -36.42465574668781,-9.79432321553950 -36.42463898288141,-9.79427208593014 -36.42463361846341,-9.79424714976818 -36.42463252881601,-9.79423449309439 -36.42461383717191,-9.79418524941327 -36.42461107114391,-9.79415930742297 -36.42459413969952,-9.79411144675584 -36.42458274031120,-9.79407611703399 -36.42458173448281,-9.79406589111213 -36.42456782052350,-9.79402004210177 -36.42455809751581,-9.79399548312550 -36.42455223018361,-9.79396857721633 -36.42453974114790,-9.79393668407474 -36.42453094014960,-9.79390118671479 -36.42452239060830,-9.79387926803803 -36.42451970839930,-9.79386715618795 -36.42450495624971,-9.79382868325240 -36.42450395042131,-9.79380714176123 -36.42449623907040,-9.79378551645106 -36.42449070701430,-9.79377407515324 -36.42448366621571,-9.79375198883837 -36.42447897234990,-9.79374084090713 -36.42447846943570,-9.79372763940967 -36.42447561958860,-9.79371565328812 -36.42446153799131,-9.79368304768477 -36.42445064151721,-9.79364880761031 -36.42443857157660,-9.79362353617223 -36.42443496735821,-9.79360870020366 -36.42442910002599,-9.79359717508678 -36.42442055048480,-9.79357068827276 -36.42440957019160,-9.79354822477226 -36.42439900899359,-9.79350845264170 -36.42439397985170,-9.79348259447044 -36.42438978890009,-9.79346796804943 -36.42438375392990,-9.79345568856126 -36.42437931152121,-9.79344114595923 -36.42435961404870,-9.79339726669615 -36.42435852440130,-9.79338507102703 -36.42434947194590,-9.79336097305544 -36.42433371396791,-9.79332539187644 -36.42432776281669,-9.79331416012620 -36.42431921327539,-9.79328909823571 -36.42430932262970,-9.79325213404275 -36.42429423520400,-9.79321760060168 -36.42428820023371,-9.79319170052088 -36.42428099179700,-9.79316533943543 -36.42426883803740,-9.79314249874926 -36.42425693573490,-9.79310813294625 -36.42425148749780,-9.79309874521471 -36.42424226740430,-9.79306282875964 -36.42423128711120,-9.79302775049485 -36.42422500068380,-9.79300205996162 -36.42421024853419,-9.79297050209619 -36.42419775949860,-9.79293345408418 -36.42419164070930,-9.79290876937934 -36.42418686302450,-9.79289632225316 -36.42418518664369,-9.79288316266517 -36.42416716555200,-9.79283999586381 -36.42416079530550,-9.79281602362076 -36.42414428295629,-9.79276992315333 -36.42413715833859,-9.79275990677903 -36.42413263211079,-9.79274670528151 -36.42413045281610,-9.79273346187449 -36.42411578448559,-9.79270035335702 -36.42410195434519,-9.79266477217804 -36.42409323716599,-9.79262730507085 -36.42409063877610,-9.79261234337370 -36.42408636400539,-9.79259922569526 -36.42408443616759,-9.79258661093096 -36.42408418471058,-9.79254859900006 -36.42408628018639,-9.79252160927187 -36.42408804038598,-9.79248158568422 -36.42409080641409,-9.79244231646787 -36.42409918831719,-9.79239307278675 -36.42410279253569,-9.79237936837505 -36.42410480419239,-9.79236436476838 -36.42410681584920,-9.79233628539276 -36.42411402428590,-9.79231143304987 -36.42411888578959,-9.79229869255705 -36.42411796378039,-9.79228456905021 -36.42412173563680,-9.79226931398643 -36.42413129100640,-9.79224282717239 -36.42413397321539,-9.79222874557508 -36.42415484415429,-9.79218168118879 -36.42416289078129,-9.79215335035605 -36.42416825519929,-9.79212589962318 -36.42417680474069,-9.79209853270934 -36.42418149860630,-9.79207095624791 -36.42418661156739,-9.79205834148359 -36.42419289799460,-9.79203047165557 -36.42420563848760,-9.79198923269198 -36.42421318220029,-9.79194694599049 -36.42421611586650,-9.79193420549766 -36.42422634178831,-9.79190847305491 -36.42423220912050,-9.79188362071201 -36.42424528488949,-9.79184041200116 -36.42425182277389,-9.79181338036343 -36.42425618136360,-9.79180340589868 -36.42426121050550,-9.79176669316277 -36.42427101733220,-9.79173823660152 -36.42427613029308,-9.79171015722592 -36.42428711058640,-9.79166669705796 -36.42429255882339,-9.79163828240620 -36.42430135982169,-9.79161451971070 -36.42430940644870,-9.79157416084695 -36.42431334594319,-9.79156271954913 -36.42431695016160,-9.79153464017348 -36.42431753689480,-9.79151925938118 -36.42432298513190,-9.79149528713809 -36.42433421688210,-9.79145702375014 -36.42434519717530,-9.79141750307667 -36.42434829847939,-9.79140400821257 -36.42436288299100,-9.79136469708672 -36.42436883414230,-9.79133925801057 -36.42437503675060,-9.79132609842258 -36.42438995653820,-9.79126838901927 -36.42439582387040,-9.79125657053580 -36.42440420577360,-9.79122979035517 -36.42442105339900,-9.79118888666771 -36.42444603147040,-9.79111717948605 -36.42445667648749,-9.79108029911211 -36.42446153799131,-9.79106839680962 -36.42446472311450,-9.79105544676921 -36.42446983607540,-9.79104346064769 -36.42447712833119,-9.79103122306904 -36.42448701897690,-9.79100385615520 -36.42449850218432,-9.79097757888876 -36.42450755463971,-9.79095163689844 -36.42452515663641,-9.79091169712983 -36.42453261653021,-9.79088470740164 -36.42454351300430,-9.79085817867810 -36.42455575058291,-9.79080528886910 -36.42456438394320,-9.79078265773053 -36.42457201147510,-9.79074766328480 -36.42457201147510,-9.79074766328480 -36.42457201147510,-9.79074766328480
          </coordinates>
        </LinearRing>
      </outerBoundaryIs>
    </Polygon>
  </Placemark>
</Document>
</kml>
