<?xml version="1.0" encoding="UTF-8"?>
<kml xmlns="http://www.opengis.net/kml/2.2" xmlns:gx="http://www.google.com/kml/ext/2.2" xmlns:kml="http://www.opengis.net/kml/2.2" xmlns:atom="http://www.w3.org/2005/Atom">
<Document>
  <name>05.kml</name>
  <StyleMap id="FFFF4000">
    <Pair>
      <key>normal</key>
      <styleUrl>#s_FFFF4000</styleUrl>
    </Pair>
    <Pair>
      <key>highlight</key>
      <styleUrl>#s_FFFF4000_hl</styleUrl>
    </Pair>
  </StyleMap>
  <Style id="s_FFFF4000">
   <IconStyle>
      <scale>1.1</scale>
      <Icon>
        <href>http://maps.google.com/mapfiles/kml/pushpin/agrocad.png</href>
      </Icon>
      <hotSpot x="20" y="2" xunits="pixels" yunits="pixels"/>
    </IconStyle>
    <LineStyle>
      <color>FFFF4000</color>
      <width>1</width>
    </LineStyle>
    <PolyStyle>
      <color>40ffffff</color>
      <fill>1</fill>
    </PolyStyle>
  </Style>
  <Style id="s_FFFF4000_hl">
    <IconStyle>
      <scale>1.3</scale>
      <Icon>
        <href>http://maps.google.com/mapfiles/kml/pushpin/agrocad.png</href>
      </Icon>
      <hotSpot x="20" y="2" xunits="pixels" yunits="pixels"/>
    </IconStyle>
    <LineStyle>
      <color>ff000000</color>
      <width>1</width>
    </LineStyle>
    <PolyStyle>
      <color>40ffffff</color>
      <fill>1</fill>
    </PolyStyle>
  </Style>
  <Placemark>
    <name>AgroCAD: 17DBC</name>
    <styleUrl>FFFF4000</styleUrl>
    <Polygon>
      <outerBoundaryIs>
        <LinearRing>
          <coordinates>
           -36.14419823197597,-9.78849963014270 -36.14609750343323,-9.78753332288901 -36.14504591491539,-9.78577127090934 -36.14501641913989,-9.78575716423409 -36.14471889653478,-9.78560583808150 -36.14457141765728,-9.78551991560498 -36.14437648905396,-9.78544938222882 -36.14419053742575,-9.78539552037791 -36.14403279914815,-9.78529420880120 -36.14392379302124,-9.78521854572487 -36.14367884984214,-9.78511338687311 -36.14335439631162,-9.78494025949519 -36.14299531730550,-9.78469659874103 -36.14263623829939,-9.78442215978637 -36.14242463817078,-9.78423620815827 -36.14222201501737,-9.78408103473063 -36.14202067428897,-9.78391175462772 -36.14190140876185,-9.78378864182566 -36.14173725835905,-9.78361487323523 -36.14161414555694,-9.78349240164561 -36.14135766055264,-9.78305060622565 -36.14126019625092,-9.78282489942186 -36.14105308460992,-9.78239785188966 -36.14102935974703,-9.78229910516296 -36.14098832214631,-9.78217406872335 -36.14097870395871,-9.78210097049712 -36.14096459728341,-9.78204454379619 -36.14092484210780,-9.78191501886899 -36.14090432330741,-9.78177651696666 -36.14080621779319,-9.78157004653816 -36.14075107351729,-9.78154311561269 -36.14068566984119,-9.78157068775067 -36.14048240547518,-9.78167520538991 -36.14026824049658,-9.78176048665382 -36.14011434949397,-9.78179831819200 -36.14020924894558,-9.78194194979441 -36.14058884675199,-9.78256520835496 -36.14098896335881,-9.78322180996603 -36.14150706306763,-9.78409514140576 -36.14414757618755,-9.78849065316759 -36.14419823197597,-9.78849963014270 -36.14419823197597,-9.78849963014270 -36.14419823197597,-9.78849963014270
          </coordinates>
        </LinearRing>
      </outerBoundaryIs>
    </Polygon>
  </Placemark>
</Document>
</kml>
