<?xml version="1.0" encoding="utf-8" ?>
<kml xmlns="http://www.opengis.net/kml/2.2">
<Document id="root_doc">
<Schema name="RIACHÃO_TALHAO_1056_ID_133" id="RIACHÃO_TALHAO_1056_ID_133">
	<SimpleField name="CODE" type="string"></SimpleField>
	<SimpleField name="TALHAO" type="float"></SimpleField>
	<SimpleField name="AREA_TOTAL" type="float"></SimpleField>
	<SimpleField name="FAZENDA" type="float"></SimpleField>
	<SimpleField name="ZONA" type="float"></SimpleField>
	<SimpleField name="FAZ_NOME" type="string"></SimpleField>
</Schema>
<Folder><name>RIACHÃO_TALHAO_1056_ID_133</name>
  <Placemark id="RIACHÃO_TALHAO_1056_ID_133.1">
	<Style><LineStyle><color>ff0000ff</color></LineStyle><PolyStyle><fill>0</fill></PolyStyle></Style>
	<ExtendedData><SchemaData schemaUrl="#RIACHÃO_TALHAO_1056_ID_133">
		<SimpleData name="CODE">134</SimpleData>
		<SimpleData name="TALHAO">1056</SimpleData>
		<SimpleData name="AREA_TOTAL">7.649</SimpleData>
		<SimpleData name="FAZENDA">2183</SimpleData>
		<SimpleData name="ZONA">1</SimpleData>
		<SimpleData name="FAZ_NOME">RIACHÃO</SimpleData>
	</SchemaData></ExtendedData>
      <MultiGeometry><Polygon><outerBoundaryIs><LinearRing><coordinates>-36.1051051186467,-9.69848754486288 -36.1051561430489,-9.69873939967744 -36.1051505989854,-9.69895285896152 -36.1052102547741,-9.69913970309181 -36.1051940242815,-9.69934696068564 -36.1052846342447,-9.69949632957688 -36.105304190188,-9.69955193573341 -36.1052850621687,-9.69963285875801 -36.1053568117178,-9.69973188738995 -36.1053782726155,-9.69975125896792 -36.1053924042893,-9.69975537258349 -36.1053925108032,-9.69975978910757 -36.105509109167,-9.69980846832812 -36.1056476652757,-9.69998277788507 -36.1057211816002,-9.70001655886925 -36.1058762390036,-9.70015512454539 -36.1059810758117,-9.70028281764098 -36.1061200665259,-9.70038113735322 -36.1062232319977,-9.70041272262901 -36.1063541433917,-9.70044994580159 -36.1065026191514,-9.70045438121041 -36.1066254684801,-9.70038094821079 -36.1067292375135,-9.70025059535729 -36.1068973089441,-9.69997961054174 -36.1069796097394,-9.69981619062232 -36.1071427861282,-9.69944909338736 -36.107143132707,-9.69935757848309 -36.1070395448098,-9.6990793083563 -36.1066574112326,-9.69701474401153 -36.1052236663703,-9.69725666907429 -36.1049893299005,-9.69729603104616 -36.1043093313439,-9.69739347104426 -36.1037666718797,-9.69747862929267 -36.103461211112,-9.69757155557321 -36.1034135117043,-9.69772593732912 -36.1033904493032,-9.69786397010931 -36.1033902231671,-9.69790558110699 -36.1034416388443,-9.69795518343014 -36.1035388202674,-9.69790738927847 -36.1036945651367,-9.69783732127692 -36.1038553688575,-9.69780161426511 -36.1041145578426,-9.69778295199734 -36.1043790288624,-9.69784133342108 -36.1046288819763,-9.69792490336145 -36.1048944470641,-9.69809495567495 -36.1050250708753,-9.69828373685715 -36.1051051186467,-9.69848754486288</coordinates></LinearRing></outerBoundaryIs></Polygon></MultiGeometry>
  </Placemark>
</Folder>
</Document></kml>
