<?xml version="1.0" encoding="utf-8" ?>
<kml xmlns="http://www.opengis.net/kml/2.2">
<Document id="root_doc">
<Schema name="RIACHÃO_TALHAO_1062_ID_124" id="RIACHÃO_TALHAO_1062_ID_124">
	<SimpleField name="CODE" type="string"></SimpleField>
	<SimpleField name="TALHAO" type="float"></SimpleField>
	<SimpleField name="AREA_TOTAL" type="float"></SimpleField>
	<SimpleField name="FAZENDA" type="float"></SimpleField>
	<SimpleField name="ZONA" type="float"></SimpleField>
	<SimpleField name="FAZ_NOME" type="string"></SimpleField>
</Schema>
<Folder><name>RIACHÃO_TALHAO_1062_ID_124</name>
  <Placemark id="RIACHÃO_TALHAO_1062_ID_124.1">
	<Style><LineStyle><color>ff0000ff</color></LineStyle><PolyStyle><fill>0</fill></PolyStyle></Style>
	<ExtendedData><SchemaData schemaUrl="#RIACHÃO_TALHAO_1062_ID_124">
		<SimpleData name="CODE">125</SimpleData>
		<SimpleData name="TALHAO">1062</SimpleData>
		<SimpleData name="AREA_TOTAL">13.537</SimpleData>
		<SimpleData name="FAZENDA">2183</SimpleData>
		<SimpleData name="ZONA">1</SimpleData>
		<SimpleData name="FAZ_NOME">RIACHÃO</SimpleData>
	</SchemaData></ExtendedData>
      <MultiGeometry><Polygon><outerBoundaryIs><LinearRing><coordinates>-36.0926133350693,-9.68980129542113 -36.0895645913401,-9.69020000486092 -36.0895714040047,-9.6902466955706 -36.0895624486333,-9.69038208178936 -36.0895225902275,-9.6906710101764 -36.0894412535226,-9.69117526941534 -36.0893829963442,-9.69150599957199 -36.0893632484353,-9.69171764263132 -36.0894556970614,-9.69181512922883 -36.0895928389983,-9.69188355260864 -36.0899367969945,-9.69178943008643 -36.0904595709814,-9.69139069618741 -36.0907261242126,-9.69114287972343 -36.0909683837448,-9.69072875476292 -36.0912373580702,-9.69060355528438 -36.0914882159413,-9.69058646963165 -36.0916829258619,-9.69062571713549 -36.0918910255461,-9.69067791277248 -36.0920681905361,-9.69080033128365 -36.0922355754255,-9.69100613935766 -36.0923669883926,-9.69134439136854 -36.0924259971426,-9.69153683979053 -36.0925357015973,-9.69160204053886 -36.0926888221677,-9.69151537417197 -36.0928237815068,-9.69148700855109 -36.0930854074392,-9.69155019259571 -36.0933031721228,-9.69172840325959 -36.0934465705349,-9.6919159630865 -36.0934951518977,-9.69200739409639 -36.094011123497,-9.69193650817216 -36.096208309442,-9.69157320918298 -36.0959092432882,-9.69044638733875 -36.0956224077721,-9.6893475731373 -36.0950661729318,-9.68944519531769 -36.0926133350693,-9.68980129542113</coordinates></LinearRing></outerBoundaryIs></Polygon></MultiGeometry>
  </Placemark>
</Folder>
</Document></kml>
