<?xml version="1.0" encoding="utf-8" ?>
<kml xmlns="http://www.opengis.net/kml/2.2">
<Document id="root_doc">
<Schema name="RIACHÃO_TALHAO_1016_ID_56" id="RIACHÃO_TALHAO_1016_ID_56">
	<SimpleField name="CODE" type="string"></SimpleField>
	<SimpleField name="TALHAO" type="float"></SimpleField>
	<SimpleField name="AREA_TOTAL" type="float"></SimpleField>
	<SimpleField name="FAZENDA" type="float"></SimpleField>
	<SimpleField name="ZONA" type="float"></SimpleField>
	<SimpleField name="FAZ_NOME" type="string"></SimpleField>
</Schema>
<Folder><name>RIACHÃO_TALHAO_1016_ID_56</name>
  <Placemark id="RIACHÃO_TALHAO_1016_ID_56.1">
	<Style><LineStyle><color>ff0000ff</color></LineStyle><PolyStyle><fill>0</fill></PolyStyle></Style>
	<ExtendedData><SchemaData schemaUrl="#RIACHÃO_TALHAO_1016_ID_56">
		<SimpleData name="CODE">57</SimpleData>
		<SimpleData name="TALHAO">1016</SimpleData>
		<SimpleData name="AREA_TOTAL">5.754</SimpleData>
		<SimpleData name="FAZENDA">2183</SimpleData>
		<SimpleData name="ZONA">1</SimpleData>
		<SimpleData name="FAZ_NOME">RIACHÃO</SimpleData>
	</SchemaData></ExtendedData>
      <MultiGeometry><Polygon><outerBoundaryIs><LinearRing><coordinates>-36.1326588427997,-9.68718073472946 -36.1325703170188,-9.68722997957228 -36.132413896713,-9.6872746970937 -36.1321724415074,-9.68729444079445 -36.1319227027427,-9.68730517405272 -36.1317151108616,-9.68729436471187 -36.1315951993266,-9.68728225592847 -36.1314888330001,-9.68728798162514 -36.1313012364291,-9.68731783997562 -36.1310830458954,-9.68736103265732 -36.1309121263903,-9.68738805257482 -36.1307431522004,-9.68743704582791 -36.1305855493566,-9.68750539458398 -36.1303958672749,-9.68756984011809 -36.1302313394216,-9.68760339142064 -36.1300580538188,-9.68764107983269 -36.1297850452855,-9.68772632862719 -36.1294832334404,-9.68777402896121 -36.1292245611229,-9.687780810981 -36.1291423806482,-9.68780320434169 -36.1290635528729,-9.68785299111179 -36.1290664302415,-9.68792808288129 -36.1294477357551,-9.68906823833132 -36.1320351747829,-9.6886786890158 -36.1322188523963,-9.68858218480264 -36.1324964361356,-9.68820394968565 -36.1328651397057,-9.68751222459229 -36.1327813677593,-9.68731347459095 -36.132685945509,-9.68717379509648 -36.1326588427997,-9.68718073472946</coordinates></LinearRing></outerBoundaryIs></Polygon></MultiGeometry>
  </Placemark>
</Folder>
</Document></kml>
