<?xml version="1.0" encoding="utf-8" ?>
<kml xmlns="http://www.opengis.net/kml/2.2">
<Document id="root_doc">
<Schema name="RIACHÃO_TALHAO_1036_ID_114" id="RIACHÃO_TALHAO_1036_ID_114">
	<SimpleField name="CODE" type="string"></SimpleField>
	<SimpleField name="TALHAO" type="float"></SimpleField>
	<SimpleField name="AREA_TOTAL" type="float"></SimpleField>
	<SimpleField name="FAZENDA" type="float"></SimpleField>
	<SimpleField name="ZONA" type="float"></SimpleField>
	<SimpleField name="FAZ_NOME" type="string"></SimpleField>
</Schema>
<Folder><name>RIACHÃO_TALHAO_1036_ID_114</name>
  <Placemark id="RIACHÃO_TALHAO_1036_ID_114.1">
	<Style><LineStyle><color>ff0000ff</color></LineStyle><PolyStyle><fill>0</fill></PolyStyle></Style>
	<ExtendedData><SchemaData schemaUrl="#RIACHÃO_TALHAO_1036_ID_114">
		<SimpleData name="CODE">115</SimpleData>
		<SimpleData name="TALHAO">1036</SimpleData>
		<SimpleData name="AREA_TOTAL">6.317</SimpleData>
		<SimpleData name="FAZENDA">2183</SimpleData>
		<SimpleData name="ZONA">1</SimpleData>
		<SimpleData name="FAZ_NOME">RIACHÃO</SimpleData>
	</SchemaData></ExtendedData>
      <MultiGeometry><Polygon><outerBoundaryIs><LinearRing><coordinates>-36.1161629627068,-9.69784792857525 -36.1163589460455,-9.69922124718624 -36.1164201513882,-9.69921587512542 -36.1164956275396,-9.69920985622811 -36.1166337151978,-9.69917586063235 -36.1168313402277,-9.69911486422919 -36.1170184683227,-9.6990647636759 -36.1171669209711,-9.69907149419195 -36.1172344078508,-9.69908190652502 -36.1174490927661,-9.69911938489268 -36.1176023729986,-9.69911846347162 -36.1180225063437,-9.69904786403036 -36.1186432487502,-9.69894487853519 -36.1188092054567,-9.6989301075714 -36.1194496022627,-9.69891826935662 -36.1198211700007,-9.6989076365112 -36.1198838056033,-9.69889984208045 -36.1199326008783,-9.6988814175452 -36.1199656010216,-9.69884968507217 -36.1199805367732,-9.69881106498002 -36.1199639095752,-9.69876384385065 -36.1198835769733,-9.69862091711294 -36.1198088290044,-9.69848520396548 -36.119768550109,-9.69837731072161 -36.1197519254493,-9.69828236600098 -36.1197271658935,-9.69794091049801 -36.1196987695656,-9.69756791221816 -36.1196541109883,-9.69735216024607 -36.1161629627068,-9.69784792857525</coordinates></LinearRing></outerBoundaryIs></Polygon></MultiGeometry>
  </Placemark>
</Folder>
</Document></kml>
