<?xml version="1.0" encoding="utf-8" ?>
<kml xmlns="http://www.opengis.net/kml/2.2">
<Document id="root_doc">
<Schema name="RIACHÃO_TALHAO_1001_ID_32" id="RIACHÃO_TALHAO_1001_ID_32">
	<SimpleField name="CODE" type="string"></SimpleField>
	<SimpleField name="TALHAO" type="float"></SimpleField>
	<SimpleField name="AREA_TOTAL" type="float"></SimpleField>
	<SimpleField name="FAZENDA" type="float"></SimpleField>
	<SimpleField name="ZONA" type="float"></SimpleField>
	<SimpleField name="FAZ_NOME" type="string"></SimpleField>
</Schema>
<Folder><name>RIACHÃO_TALHAO_1001_ID_32</name>
  <Placemark id="RIACHÃO_TALHAO_1001_ID_32.1">
	<Style><LineStyle><color>ff0000ff</color></LineStyle><PolyStyle><fill>0</fill></PolyStyle></Style>
	<ExtendedData><SchemaData schemaUrl="#RIACHÃO_TALHAO_1001_ID_32">
		<SimpleData name="CODE">33</SimpleData>
		<SimpleData name="TALHAO">1001</SimpleData>
		<SimpleData name="AREA_TOTAL">1.217</SimpleData>
		<SimpleData name="FAZENDA">2183</SimpleData>
		<SimpleData name="ZONA">1</SimpleData>
		<SimpleData name="FAZ_NOME">RIACHÃO</SimpleData>
	</SchemaData></ExtendedData>
      <MultiGeometry><Polygon><outerBoundaryIs><LinearRing><coordinates>-36.1319249025579,-9.67882387152362 -36.1322296463959,-9.67855082484629 -36.1330513789516,-9.67792216127184 -36.1335526686443,-9.67755475022623 -36.1331766824162,-9.67702478800882 -36.1331293887461,-9.67708091401695 -36.1330566548204,-9.67717979648569 -36.1329804523195,-9.67724045491358 -36.1328144196636,-9.6773397745052 -36.1326980238225,-9.67739049931449 -36.1326030967676,-9.67747118489875 -36.132383967256,-9.67779996558718 -36.1320256190103,-9.67832668011445 -36.131836251954,-9.67868028814098 -36.1319249025579,-9.67882387152362</coordinates></LinearRing></outerBoundaryIs></Polygon></MultiGeometry>
  </Placemark>
</Folder>
</Document></kml>
