<?xml version="1.0" encoding="utf-8" ?>
<kml xmlns="http://www.opengis.net/kml/2.2">
<Document id="root_doc">
<Schema name="RIACHÃO_TALHAO_1040_ID_168" id="RIACHÃO_TALHAO_1040_ID_168">
	<SimpleField name="CODE" type="string"></SimpleField>
	<SimpleField name="TALHAO" type="float"></SimpleField>
	<SimpleField name="AREA_TOTAL" type="float"></SimpleField>
	<SimpleField name="FAZENDA" type="float"></SimpleField>
	<SimpleField name="ZONA" type="float"></SimpleField>
	<SimpleField name="FAZ_NOME" type="string"></SimpleField>
</Schema>
<Folder><name>RIACHÃO_TALHAO_1040_ID_168</name>
  <Placemark id="RIACHÃO_TALHAO_1040_ID_168.1">
	<Style><LineStyle><color>ff0000ff</color></LineStyle><PolyStyle><fill>0</fill></PolyStyle></Style>
	<ExtendedData><SchemaData schemaUrl="#RIACHÃO_TALHAO_1040_ID_168">
		<SimpleData name="CODE">169</SimpleData>
		<SimpleData name="TALHAO">1040</SimpleData>
		<SimpleData name="AREA_TOTAL">12.242</SimpleData>
		<SimpleData name="FAZENDA">2183</SimpleData>
		<SimpleData name="ZONA">1</SimpleData>
		<SimpleData name="FAZ_NOME">RIACHÃO</SimpleData>
	</SchemaData></ExtendedData>
      <MultiGeometry><Polygon><outerBoundaryIs><LinearRing><coordinates>-36.1154644578189,-9.69345696213331 -36.1116869531479,-9.69401967253252 -36.1109773754172,-9.69412536865624 -36.1112797442157,-9.69628344643466 -36.1157931694789,-9.69559416136883 -36.1154644578189,-9.69345696213331</coordinates></LinearRing></outerBoundaryIs></Polygon></MultiGeometry>
  </Placemark>
</Folder>
</Document></kml>
