<?xml version="1.0" encoding="utf-8" ?>
<kml xmlns="http://www.opengis.net/kml/2.2">
<Document id="root_doc">
<Schema name="RIACHÃO_TALHAO_1060_ID_128" id="RIACHÃO_TALHAO_1060_ID_128">
	<SimpleField name="CODE" type="string"></SimpleField>
	<SimpleField name="TALHAO" type="float"></SimpleField>
	<SimpleField name="AREA_TOTAL" type="float"></SimpleField>
	<SimpleField name="FAZENDA" type="float"></SimpleField>
	<SimpleField name="ZONA" type="float"></SimpleField>
	<SimpleField name="FAZ_NOME" type="string"></SimpleField>
</Schema>
<Folder><name>RIACHÃO_TALHAO_1060_ID_128</name>
  <Placemark id="RIACHÃO_TALHAO_1060_ID_128.1">
	<Style><LineStyle><color>ff0000ff</color></LineStyle><PolyStyle><fill>0</fill></PolyStyle></Style>
	<ExtendedData><SchemaData schemaUrl="#RIACHÃO_TALHAO_1060_ID_128">
		<SimpleData name="CODE">129</SimpleData>
		<SimpleData name="TALHAO">1060</SimpleData>
		<SimpleData name="AREA_TOTAL">10.305</SimpleData>
		<SimpleData name="FAZENDA">2183</SimpleData>
		<SimpleData name="ZONA">1</SimpleData>
		<SimpleData name="FAZ_NOME">RIACHÃO</SimpleData>
	</SchemaData></ExtendedData>
      <MultiGeometry><Polygon><outerBoundaryIs><LinearRing><coordinates>-36.0996085968334,-9.69586993060585 -36.099794738692,-9.69594341889076 -36.1000061298447,-9.69611005077588 -36.1000876855796,-9.69636670409718 -36.1001792995748,-9.69667105034427 -36.1003096360837,-9.69681747482092 -36.1004409017144,-9.69683623014066 -36.1005613061469,-9.69681332211422 -36.1006793253886,-9.69677090842597 -36.1008361156765,-9.69666084629923 -36.100956736423,-9.69639406860735 -36.1011443393756,-9.69607044466207 -36.1012617912653,-9.6957573588918 -36.1014196031864,-9.69538417957467 -36.101629124442,-9.69507925647729 -36.1018151013648,-9.69490790947231 -36.1013525824292,-9.693239643352 -36.1013184888721,-9.69320388089432 -36.0991364864161,-9.6935188824678 -36.0981468893958,-9.69364138142718 -36.0981277620557,-9.6937322619322 -36.0984326885724,-9.69381531489875 -36.0986759246765,-9.69398842798376 -36.0988859416619,-9.69412494612714 -36.0989302872491,-9.69426614105211 -36.0988713436787,-9.69448975052245 -36.0987177113236,-9.69473459429606 -36.0985656320279,-9.69499207387769 -36.0984582933786,-9.69525710853056 -36.098294035893,-9.69552410484398 -36.0982151991617,-9.69578090127494 -36.098244103857,-9.69595519901663 -36.0983269028335,-9.69595431525222 -36.0984186425545,-9.69600812696711 -36.0985760854298,-9.69601184559208 -36.0987252720858,-9.69593010264107 -36.0989237901335,-9.69587164442416 -36.0991025778335,-9.69583317346616 -36.0993338577164,-9.69582761517568 -36.0996085968334,-9.69586993060585</coordinates></LinearRing></outerBoundaryIs></Polygon></MultiGeometry>
  </Placemark>
</Folder>
</Document></kml>
