<?xml version="1.0" encoding="utf-8" ?>
<kml xmlns="http://www.opengis.net/kml/2.2">
<Document id="root_doc">
<Schema name="RIACHÃO_TALHAO_1058_ID_131" id="RIACHÃO_TALHAO_1058_ID_131">
	<SimpleField name="CODE" type="string"></SimpleField>
	<SimpleField name="TALHAO" type="float"></SimpleField>
	<SimpleField name="AREA_TOTAL" type="float"></SimpleField>
	<SimpleField name="FAZENDA" type="float"></SimpleField>
	<SimpleField name="ZONA" type="float"></SimpleField>
	<SimpleField name="FAZ_NOME" type="string"></SimpleField>
</Schema>
<Folder><name>RIACHÃO_TALHAO_1058_ID_131</name>
  <Placemark id="RIACHÃO_TALHAO_1058_ID_131.1">
	<Style><LineStyle><color>ff0000ff</color></LineStyle><PolyStyle><fill>0</fill></PolyStyle></Style>
	<ExtendedData><SchemaData schemaUrl="#RIACHÃO_TALHAO_1058_ID_131">
		<SimpleData name="CODE">132</SimpleData>
		<SimpleData name="TALHAO">1058</SimpleData>
		<SimpleData name="AREA_TOTAL">11.909</SimpleData>
		<SimpleData name="FAZENDA">2183</SimpleData>
		<SimpleData name="ZONA">1</SimpleData>
		<SimpleData name="FAZ_NOME">RIACHÃO</SimpleData>
	</SchemaData></ExtendedData>
      <MultiGeometry><Polygon><outerBoundaryIs><LinearRing><coordinates>-36.098837430531,-9.68893362396426 -36.095690814334,-9.68935450318828 -36.0962554246104,-9.69156499689134 -36.0974973132459,-9.69139730231865 -36.1007516522079,-9.69090698808011 -36.1006067312377,-9.69031283798021 -36.100426422821,-9.68965241182705 -36.0989489933667,-9.68894584134994 -36.098837430531,-9.68893362396426</coordinates></LinearRing></outerBoundaryIs></Polygon></MultiGeometry>
  </Placemark>
</Folder>
</Document></kml>
