<?xml version="1.0" encoding="utf-8" ?>
<kml xmlns="http://www.opengis.net/kml/2.2">
<Document id="root_doc">
<Schema name="RIACHÃO_TALHAO_1052_ID_140" id="RIACHÃO_TALHAO_1052_ID_140">
	<SimpleField name="CODE" type="string"></SimpleField>
	<SimpleField name="TALHAO" type="float"></SimpleField>
	<SimpleField name="AREA_TOTAL" type="float"></SimpleField>
	<SimpleField name="FAZENDA" type="float"></SimpleField>
	<SimpleField name="ZONA" type="float"></SimpleField>
	<SimpleField name="FAZ_NOME" type="string"></SimpleField>
</Schema>
<Folder><name>RIACHÃO_TALHAO_1052_ID_140</name>
  <Placemark id="RIACHÃO_TALHAO_1052_ID_140.1">
	<Style><LineStyle><color>ff0000ff</color></LineStyle><PolyStyle><fill>0</fill></PolyStyle></Style>
	<ExtendedData><SchemaData schemaUrl="#RIACHÃO_TALHAO_1052_ID_140">
		<SimpleData name="CODE">141</SimpleData>
		<SimpleData name="TALHAO">1052</SimpleData>
		<SimpleData name="AREA_TOTAL">11.935</SimpleData>
		<SimpleData name="FAZENDA">2183</SimpleData>
		<SimpleData name="ZONA">1</SimpleData>
		<SimpleData name="FAZ_NOME">RIACHÃO</SimpleData>
	</SchemaData></ExtendedData>
      <MultiGeometry><Polygon><outerBoundaryIs><LinearRing><coordinates>-36.1002637075621,-9.68871244071271 -36.1004634752151,-9.6895433560391 -36.1014470005609,-9.69000070206731 -36.1028175362782,-9.69062405121134 -36.1055753332442,-9.69019320306593 -36.1054269855347,-9.68937290773115 -36.1051605447224,-9.68799447317957 -36.1036948288444,-9.68820938786365 -36.1008426191906,-9.68861090954867 -36.1002637075621,-9.68871244071271</coordinates></LinearRing></outerBoundaryIs></Polygon></MultiGeometry>
  </Placemark>
</Folder>
</Document></kml>
