<?xml version="1.0" encoding="utf-8" ?>
<kml xmlns="http://www.opengis.net/kml/2.2">
<Document id="root_doc">
<Schema name="RIACHÃO_TALHAO_1001_ID_34" id="RIACHÃO_TALHAO_1001_ID_34">
	<SimpleField name="CODE" type="string"></SimpleField>
	<SimpleField name="TALHAO" type="float"></SimpleField>
	<SimpleField name="AREA_TOTAL" type="float"></SimpleField>
	<SimpleField name="FAZENDA" type="float"></SimpleField>
	<SimpleField name="ZONA" type="float"></SimpleField>
	<SimpleField name="FAZ_NOME" type="string"></SimpleField>
</Schema>
<Folder><name>RIACHÃO_TALHAO_1001_ID_34</name>
  <Placemark id="RIACHÃO_TALHAO_1001_ID_34.1">
	<Style><LineStyle><color>ff0000ff</color></LineStyle><PolyStyle><fill>0</fill></PolyStyle></Style>
	<ExtendedData><SchemaData schemaUrl="#RIACHÃO_TALHAO_1001_ID_34">
		<SimpleData name="CODE">35</SimpleData>
		<SimpleData name="TALHAO">1001</SimpleData>
		<SimpleData name="AREA_TOTAL">9.884</SimpleData>
		<SimpleData name="FAZENDA">2183</SimpleData>
		<SimpleData name="ZONA">1</SimpleData>
		<SimpleData name="FAZ_NOME">RIACHÃO</SimpleData>
	</SchemaData></ExtendedData>
      <MultiGeometry><Polygon><outerBoundaryIs><LinearRing><coordinates>-36.133543232972,-9.68144498957347 -36.1360595484769,-9.68108822120857 -36.1335841213766,-9.67759908358636 -36.1330842887293,-9.67796542671268 -36.1322646824954,-9.67859246355401 -36.1319539331678,-9.67887089106928 -36.133543232972,-9.68144498957347</coordinates></LinearRing></outerBoundaryIs></Polygon></MultiGeometry>
  </Placemark>
</Folder>
</Document></kml>
