<?xml version="1.0" encoding="utf-8" ?>
<kml xmlns="http://www.opengis.net/kml/2.2">
<Document id="root_doc">
<Schema name="RIACHÃO_TALHAO_1028_ID_121" id="RIACHÃO_TALHAO_1028_ID_121">
	<SimpleField name="CODE" type="string"></SimpleField>
	<SimpleField name="TALHAO" type="float"></SimpleField>
	<SimpleField name="AREA_TOTAL" type="float"></SimpleField>
	<SimpleField name="FAZENDA" type="float"></SimpleField>
	<SimpleField name="ZONA" type="float"></SimpleField>
	<SimpleField name="FAZ_NOME" type="string"></SimpleField>
</Schema>
<Folder><name>RIACHÃO_TALHAO_1028_ID_121</name>
  <Placemark id="RIACHÃO_TALHAO_1028_ID_121.1">
	<Style><LineStyle><color>ff0000ff</color></LineStyle><PolyStyle><fill>0</fill></PolyStyle></Style>
	<ExtendedData><SchemaData schemaUrl="#RIACHÃO_TALHAO_1028_ID_121">
		<SimpleData name="CODE">122</SimpleData>
		<SimpleData name="TALHAO">1028</SimpleData>
		<SimpleData name="AREA_TOTAL">8.872</SimpleData>
		<SimpleData name="FAZENDA">2183</SimpleData>
		<SimpleData name="ZONA">1</SimpleData>
		<SimpleData name="FAZ_NOME">RIACHÃO</SimpleData>
	</SchemaData></ExtendedData>
      <MultiGeometry><Polygon><outerBoundaryIs><LinearRing><coordinates>-36.1262354977514,-9.69589370611191 -36.1264650338074,-9.6957986404016 -36.1265577352649,-9.69574592708067 -36.1266032545662,-9.69569126326687 -36.1269448766896,-9.69524144204241 -36.1270894148376,-9.69512234634961 -36.1273558839593,-9.69497721804133 -36.127655916778,-9.69483355518685 -36.1277774412157,-9.6947524074786 -36.1278949384955,-9.69464857603682 -36.1279833129368,-9.69454151018674 -36.1280907402162,-9.69444104339317 -36.1282077778615,-9.69434593653588 -36.1282753402336,-9.69425343140627 -36.1283363839509,-9.69412779561222 -36.1283683716852,-9.69402273593698 -36.1283980833609,-9.69386149309438 -36.1283853444585,-9.6937919522812 -36.1238237786228,-9.69447858520038 -36.1237618631522,-9.69450307405661 -36.1237365054557,-9.69455259381121 -36.1237608889769,-9.69465596674101 -36.1237993318608,-9.69479115229205 -36.1238256727137,-9.69489979217061 -36.1238405488947,-9.69505096777256 -36.1238626683226,-9.69529054144639 -36.1239070062626,-9.6954997895879 -36.1239456757203,-9.6956391633809 -36.1240240331716,-9.69590055272258 -36.1241373606097,-9.69618805187465 -36.1242492790423,-9.69641988122724 -36.1243036181285,-9.69651224035867 -36.124349959862,-9.69658412834159 -36.1244301728008,-9.69659913670194 -36.1245603673813,-9.69660290088966 -36.1248224358937,-9.6965651145924 -36.1250942532542,-9.69650608892107 -36.1252524962689,-9.69645317086326 -36.1256097221846,-9.69628853026964 -36.1260747810424,-9.69598638492273 -36.1262354977514,-9.69589370611191</coordinates></LinearRing></outerBoundaryIs></Polygon></MultiGeometry>
  </Placemark>
</Folder>
</Document></kml>
