<?xml version="1.0" encoding="utf-8" ?>
<kml xmlns="http://www.opengis.net/kml/2.2">
<Document id="root_doc">
<Schema name="RIACHÃO_TALHAO_1061_ID_125" id="RIACHÃO_TALHAO_1061_ID_125">
	<SimpleField name="CODE" type="string"></SimpleField>
	<SimpleField name="TALHAO" type="float"></SimpleField>
	<SimpleField name="AREA_TOTAL" type="float"></SimpleField>
	<SimpleField name="FAZENDA" type="float"></SimpleField>
	<SimpleField name="ZONA" type="float"></SimpleField>
	<SimpleField name="FAZ_NOME" type="string"></SimpleField>
</Schema>
<Folder><name>RIACHÃO_TALHAO_1061_ID_125</name>
  <Placemark id="RIACHÃO_TALHAO_1061_ID_125.1">
	<Style><LineStyle><color>ff0000ff</color></LineStyle><PolyStyle><fill>0</fill></PolyStyle></Style>
	<ExtendedData><SchemaData schemaUrl="#RIACHÃO_TALHAO_1061_ID_125">
		<SimpleData name="CODE">126</SimpleData>
		<SimpleData name="TALHAO">1061</SimpleData>
		<SimpleData name="AREA_TOTAL">3.058</SimpleData>
		<SimpleData name="FAZENDA">2183</SimpleData>
		<SimpleData name="ZONA">1</SimpleData>
		<SimpleData name="FAZ_NOME">RIACHÃO</SimpleData>
	</SchemaData></ExtendedData>
      <MultiGeometry><Polygon><outerBoundaryIs><LinearRing><coordinates>-36.0934287486116,-9.68726611489793 -36.0934124904579,-9.68747311894657 -36.0933982122141,-9.68766380766585 -36.0934230585041,-9.68768023359088 -36.0934950251065,-9.68766654058071 -36.0951365719023,-9.68739300159133 -36.0950626535562,-9.68713844673905 -36.0947124031788,-9.68573510533169 -36.0946980874946,-9.6856860058911 -36.0941571886308,-9.68582624164342 -36.0936876186066,-9.68597756374654 -36.0935999645548,-9.68606617520122 -36.0935345062574,-9.68618803225558 -36.0935082055138,-9.68649626625248 -36.0934936898384,-9.68678605058016 -36.0934600341425,-9.68708172859632 -36.0934287486116,-9.68726611489793</coordinates></LinearRing></outerBoundaryIs></Polygon></MultiGeometry>
  </Placemark>
</Folder>
</Document></kml>
