<?xml version="1.0" encoding="utf-8" ?>
<kml xmlns="http://www.opengis.net/kml/2.2">
<Document id="root_doc">
<Schema name="RIACHÃO_TALHAO_1045_ID_152" id="RIACHÃO_TALHAO_1045_ID_152">
	<SimpleField name="CODE" type="string"></SimpleField>
	<SimpleField name="TALHAO" type="float"></SimpleField>
	<SimpleField name="AREA_TOTAL" type="float"></SimpleField>
	<SimpleField name="FAZENDA" type="float"></SimpleField>
	<SimpleField name="ZONA" type="float"></SimpleField>
	<SimpleField name="FAZ_NOME" type="string"></SimpleField>
</Schema>
<Folder><name>RIACHÃO_TALHAO_1045_ID_152</name>
  <Placemark id="RIACHÃO_TALHAO_1045_ID_152.1">
	<Style><LineStyle><color>ff0000ff</color></LineStyle><PolyStyle><fill>0</fill></PolyStyle></Style>
	<ExtendedData><SchemaData schemaUrl="#RIACHÃO_TALHAO_1045_ID_152">
		<SimpleData name="CODE">153</SimpleData>
		<SimpleData name="TALHAO">1045</SimpleData>
		<SimpleData name="AREA_TOTAL">12.655</SimpleData>
		<SimpleData name="FAZENDA">2183</SimpleData>
		<SimpleData name="ZONA">1</SimpleData>
		<SimpleData name="FAZ_NOME">RIACHÃO</SimpleData>
	</SchemaData></ExtendedData>
      <MultiGeometry><Polygon><outerBoundaryIs><LinearRing><coordinates>-36.1056297998856,-9.69026678318762 -36.1057225603198,-9.690946419634 -36.1058648512055,-9.69179463425102 -36.1059623561583,-9.69187703789449 -36.1065092316937,-9.69237952068825 -36.1105865885915,-9.69180465354175 -36.1102902567461,-9.68960594641911 -36.1056297998856,-9.69026678318762</coordinates></LinearRing></outerBoundaryIs></Polygon></MultiGeometry>
  </Placemark>
</Folder>
</Document></kml>
