<?xml version="1.0" encoding="utf-8" ?>
<kml xmlns="http://www.opengis.net/kml/2.2">
<Document id="root_doc">
<Schema name="CHÃ_DOS_LEÕES_TALHAO_1002_ID_66" id="CHÃ_DOS_LEÕES_TALHAO_1002_ID_66">
	<SimpleField name="CODE" type="string"></SimpleField>
	<SimpleField name="TALHAO" type="float"></SimpleField>
	<SimpleField name="AREA_TOTAL" type="float"></SimpleField>
	<SimpleField name="FAZENDA" type="float"></SimpleField>
	<SimpleField name="ZONA" type="float"></SimpleField>
	<SimpleField name="FAZ_NOME" type="string"></SimpleField>
</Schema>
<Folder><name>CHÃ_DOS_LEÕES_TALHAO_1002_ID_66</name>
  <Placemark id="CHÃ_DOS_LEÕES_TALHAO_1002_ID_66.1">
	<Style><LineStyle><color>ff0000ff</color></LineStyle><PolyStyle><fill>0</fill></PolyStyle></Style>
	<ExtendedData><SchemaData schemaUrl="#CHÃ_DOS_LEÕES_TALHAO_1002_ID_66">
		<SimpleData name="CODE">67</SimpleData>
		<SimpleData name="TALHAO">1002</SimpleData>
		<SimpleData name="AREA_TOTAL">3.077</SimpleData>
		<SimpleData name="FAZENDA">2077</SimpleData>
		<SimpleData name="ZONA">1</SimpleData>
		<SimpleData name="FAZ_NOME">CHÃ DOS LEÕES</SimpleData>
	</SchemaData></ExtendedData>
      <MultiGeometry><Polygon><outerBoundaryIs><LinearRing><coordinates>-36.1310959013429,-9.667499681429 -36.1311209134725,-9.66743666967829 -36.1313060017389,-9.66698380645849 -36.1313802378139,-9.66676570856972 -36.1313790555617,-9.66658815874712 -36.131853027318,-9.66541014099063 -36.1294406156788,-9.66563528986716 -36.1310733035159,-9.66755661092296 -36.1310959013429,-9.667499681429</coordinates></LinearRing></outerBoundaryIs></Polygon></MultiGeometry>
  </Placemark>
</Folder>
</Document></kml>
