<?xml version="1.0" encoding="utf-8" ?>
<kml xmlns="http://www.opengis.net/kml/2.2">
<Document id="root_doc">
<Schema name="CHÃ_DOS_LEÕES_TALHAO_1086_ID_222" id="CHÃ_DOS_LEÕES_TALHAO_1086_ID_222">
	<SimpleField name="CODE" type="string"></SimpleField>
	<SimpleField name="TALHAO" type="float"></SimpleField>
	<SimpleField name="AREA_TOTAL" type="float"></SimpleField>
	<SimpleField name="FAZENDA" type="float"></SimpleField>
	<SimpleField name="ZONA" type="float"></SimpleField>
	<SimpleField name="FAZ_NOME" type="string"></SimpleField>
</Schema>
<Folder><name>CHÃ_DOS_LEÕES_TALHAO_1086_ID_222</name>
  <Placemark id="CHÃ_DOS_LEÕES_TALHAO_1086_ID_222.1">
	<Style><LineStyle><color>ff0000ff</color></LineStyle><PolyStyle><fill>0</fill></PolyStyle></Style>
	<ExtendedData><SchemaData schemaUrl="#CHÃ_DOS_LEÕES_TALHAO_1086_ID_222">
		<SimpleData name="CODE">223</SimpleData>
		<SimpleData name="TALHAO">1086</SimpleData>
		<SimpleData name="AREA_TOTAL">0.013</SimpleData>
		<SimpleData name="FAZENDA">2077</SimpleData>
		<SimpleData name="ZONA">1</SimpleData>
		<SimpleData name="FAZ_NOME">CHÃ DOS LEÕES</SimpleData>
	</SchemaData></ExtendedData>
      <MultiGeometry><Polygon><outerBoundaryIs><LinearRing><coordinates>-36.0982065078705,-9.67969568421621 -36.0983092211555,-9.67969275734065 -36.0980798322086,-9.67948930343932 -36.0982065078705,-9.67969568421621</coordinates></LinearRing></outerBoundaryIs></Polygon></MultiGeometry>
  </Placemark>
</Folder>
</Document></kml>
