<?xml version="1.0" encoding="utf-8" ?>
<kml xmlns="http://www.opengis.net/kml/2.2">
<Document id="root_doc">
<Schema name="CHÃ_DOS_LEÕES_TALHAO_1089_ID_201" id="CHÃ_DOS_LEÕES_TALHAO_1089_ID_201">
	<SimpleField name="CODE" type="string"></SimpleField>
	<SimpleField name="TALHAO" type="float"></SimpleField>
	<SimpleField name="AREA_TOTAL" type="float"></SimpleField>
	<SimpleField name="FAZENDA" type="float"></SimpleField>
	<SimpleField name="ZONA" type="float"></SimpleField>
	<SimpleField name="FAZ_NOME" type="string"></SimpleField>
</Schema>
<Folder><name>CHÃ_DOS_LEÕES_TALHAO_1089_ID_201</name>
  <Placemark id="CHÃ_DOS_LEÕES_TALHAO_1089_ID_201.1">
	<Style><LineStyle><color>ff0000ff</color></LineStyle><PolyStyle><fill>0</fill></PolyStyle></Style>
	<ExtendedData><SchemaData schemaUrl="#CHÃ_DOS_LEÕES_TALHAO_1089_ID_201">
		<SimpleData name="CODE">202</SimpleData>
		<SimpleData name="TALHAO">1089</SimpleData>
		<SimpleData name="AREA_TOTAL">1.890</SimpleData>
		<SimpleData name="FAZENDA">2077</SimpleData>
		<SimpleData name="ZONA">1</SimpleData>
		<SimpleData name="FAZ_NOME">CHÃ DOS LEÕES</SimpleData>
	</SchemaData></ExtendedData>
      <MultiGeometry><Polygon><outerBoundaryIs><LinearRing><coordinates>-36.103647182166,-9.6700527590272 -36.1054227557937,-9.67158602609561 -36.1054770296593,-9.67145358573602 -36.105427806913,-9.67124879995607 -36.1049276358736,-9.67016738755847 -36.1045497559484,-9.66927533009227 -36.1036537695512,-9.6700470853197 -36.103647182166,-9.6700527590272</coordinates></LinearRing></outerBoundaryIs></Polygon></MultiGeometry>
  </Placemark>
</Folder>
</Document></kml>
