<?xml version="1.0" encoding="utf-8" ?>
<kml xmlns="http://www.opengis.net/kml/2.2">
<Document id="root_doc">
<Schema name="CHÃ_DOS_LEÕES_TALHAO_1021_ID_228" id="CHÃ_DOS_LEÕES_TALHAO_1021_ID_228">
	<SimpleField name="CODE" type="string"></SimpleField>
	<SimpleField name="TALHAO" type="float"></SimpleField>
	<SimpleField name="AREA_TOTAL" type="float"></SimpleField>
	<SimpleField name="FAZENDA" type="float"></SimpleField>
	<SimpleField name="ZONA" type="float"></SimpleField>
	<SimpleField name="FAZ_NOME" type="string"></SimpleField>
</Schema>
<Folder><name>CHÃ_DOS_LEÕES_TALHAO_1021_ID_228</name>
  <Placemark id="CHÃ_DOS_LEÕES_TALHAO_1021_ID_228.1">
	<Style><LineStyle><color>ff0000ff</color></LineStyle><PolyStyle><fill>0</fill></PolyStyle></Style>
	<ExtendedData><SchemaData schemaUrl="#CHÃ_DOS_LEÕES_TALHAO_1021_ID_228">
		<SimpleData name="CODE">229</SimpleData>
		<SimpleData name="TALHAO">1021</SimpleData>
		<SimpleData name="AREA_TOTAL">2.784</SimpleData>
		<SimpleData name="FAZENDA">2077</SimpleData>
		<SimpleData name="ZONA">1</SimpleData>
		<SimpleData name="FAZ_NOME">CHÃ DOS LEÕES</SimpleData>
	</SchemaData></ExtendedData>
      <MultiGeometry><Polygon><outerBoundaryIs><LinearRing><coordinates>-36.1194316733464,-9.66595533232141 -36.1192996295931,-9.66369221474131 -36.1184851673505,-9.6637474044254 -36.1185132823355,-9.66408498120421 -36.1184226595744,-9.66443065930322 -36.1183989384265,-9.66461524981826 -36.1184650616321,-9.66490371664242 -36.1185095782958,-9.66533092585497 -36.1186794208627,-9.66648061521382 -36.1187393802932,-9.66656156626006 -36.1188481212249,-9.6665449964278 -36.1194316733464,-9.66595533232141</coordinates></LinearRing></outerBoundaryIs></Polygon></MultiGeometry>
  </Placemark>
</Folder>
</Document></kml>
