<?xml version="1.0" encoding="utf-8" ?>
<kml xmlns="http://www.opengis.net/kml/2.2">
<Document id="root_doc">
<Schema name="CHÃ_DOS_LEÕES_TALHAO_1088_ID_100" id="CHÃ_DOS_LEÕES_TALHAO_1088_ID_100">
	<SimpleField name="CODE" type="string"></SimpleField>
	<SimpleField name="TALHAO" type="float"></SimpleField>
	<SimpleField name="AREA_TOTAL" type="float"></SimpleField>
	<SimpleField name="FAZENDA" type="float"></SimpleField>
	<SimpleField name="ZONA" type="float"></SimpleField>
	<SimpleField name="FAZ_NOME" type="string"></SimpleField>
</Schema>
<Folder><name>CHÃ_DOS_LEÕES_TALHAO_1088_ID_100</name>
  <Placemark id="CHÃ_DOS_LEÕES_TALHAO_1088_ID_100.1">
	<Style><LineStyle><color>ff0000ff</color></LineStyle><PolyStyle><fill>0</fill></PolyStyle></Style>
	<ExtendedData><SchemaData schemaUrl="#CHÃ_DOS_LEÕES_TALHAO_1088_ID_100">
		<SimpleData name="CODE">101</SimpleData>
		<SimpleData name="TALHAO">1088</SimpleData>
		<SimpleData name="AREA_TOTAL">6.618</SimpleData>
		<SimpleData name="FAZENDA">2077</SimpleData>
		<SimpleData name="ZONA">1</SimpleData>
		<SimpleData name="FAZ_NOME">CHÃ DOS LEÕES</SimpleData>
	</SchemaData></ExtendedData>
      <MultiGeometry><Polygon><outerBoundaryIs><LinearRing><coordinates>-36.0998126696822,-9.67323590629559 -36.1012508370395,-9.67199718896169 -36.0997086635141,-9.67068439653368 -36.0976241097935,-9.67239675056913 -36.0990560431958,-9.67364835359109 -36.0996933104738,-9.67309947049991 -36.0998126696822,-9.67323590629559</coordinates></LinearRing></outerBoundaryIs></Polygon></MultiGeometry>
  </Placemark>
</Folder>
</Document></kml>
