<?xml version="1.0" encoding="utf-8" ?>
<kml xmlns="http://www.opengis.net/kml/2.2">
<Document id="root_doc">
<Schema name="CHÃ_DOS_LEÕES_TALHAO_1085_ID_223" id="CHÃ_DOS_LEÕES_TALHAO_1085_ID_223">
	<SimpleField name="CODE" type="string"></SimpleField>
	<SimpleField name="TALHAO" type="float"></SimpleField>
	<SimpleField name="AREA_TOTAL" type="float"></SimpleField>
	<SimpleField name="FAZENDA" type="float"></SimpleField>
	<SimpleField name="ZONA" type="float"></SimpleField>
	<SimpleField name="FAZ_NOME" type="string"></SimpleField>
</Schema>
<Folder><name>CHÃ_DOS_LEÕES_TALHAO_1085_ID_223</name>
  <Placemark id="CHÃ_DOS_LEÕES_TALHAO_1085_ID_223.1">
	<Style><LineStyle><color>ff0000ff</color></LineStyle><PolyStyle><fill>0</fill></PolyStyle></Style>
	<ExtendedData><SchemaData schemaUrl="#CHÃ_DOS_LEÕES_TALHAO_1085_ID_223">
		<SimpleData name="CODE">224</SimpleData>
		<SimpleData name="TALHAO">1085</SimpleData>
		<SimpleData name="AREA_TOTAL">10.602</SimpleData>
		<SimpleData name="FAZENDA">2077</SimpleData>
		<SimpleData name="ZONA">1</SimpleData>
		<SimpleData name="FAZ_NOME">CHÃ DOS LEÕES</SimpleData>
	</SchemaData></ExtendedData>
      <MultiGeometry><Polygon><outerBoundaryIs><LinearRing><coordinates>-36.0912465517669,-9.68132184165053 -36.0944026835724,-9.67877798754995 -36.0931548954486,-9.67721682262625 -36.093062025417,-9.67728931807204 -36.093040909846,-9.67746027934424 -36.0930188728967,-9.67760775513672 -36.0930860693368,-9.67770515019688 -36.0932346468152,-9.67773771189511 -36.0932951908062,-9.67788417397248 -36.0933834633851,-9.67793608360657 -36.0935024171176,-9.67800603542373 -36.0936166427166,-9.67803745591983 -36.0937750571237,-9.6781588656138 -36.0939188078708,-9.67833533552853 -36.0937998437377,-9.67845699645792 -36.093614212622,-9.67849271013178 -36.0934264171137,-9.67845900602635 -36.0931231615159,-9.67833266835009 -36.0928809046015,-9.67815426850888 -36.0927433893958,-9.67818759926583 -36.0925040467242,-9.67827786273315 -36.0923204539431,-9.67841827919845 -36.0921528223629,-9.67843696702723 -36.091631168742,-9.67829206562241 -36.0911903748386,-9.67810768282219 -36.0908637948971,-9.67801962599263 -36.0906109016759,-9.67808174243802 -36.0903322891514,-9.67819519500906 -36.0900347485579,-9.6783670615906 -36.0898027436601,-9.67851072916801 -36.0896273224608,-9.67871539224323 -36.0897980246427,-9.67903297522698 -36.0903203344222,-9.67983811780224 -36.0906039253061,-9.68027180942241 -36.0908939177864,-9.68076500093766 -36.0912465517669,-9.68132184165053</coordinates></LinearRing></outerBoundaryIs></Polygon></MultiGeometry>
  </Placemark>
</Folder>
</Document></kml>
