<?xml version="1.0" encoding="utf-8" ?>
<kml xmlns="http://www.opengis.net/kml/2.2">
<Document id="root_doc">
<Schema name="CHÃ_DOS_LEÕES_TALHAO_1081_ID_98" id="CHÃ_DOS_LEÕES_TALHAO_1081_ID_98">
	<SimpleField name="CODE" type="string"></SimpleField>
	<SimpleField name="TALHAO" type="float"></SimpleField>
	<SimpleField name="AREA_TOTAL" type="float"></SimpleField>
	<SimpleField name="FAZENDA" type="float"></SimpleField>
	<SimpleField name="ZONA" type="float"></SimpleField>
	<SimpleField name="FAZ_NOME" type="string"></SimpleField>
</Schema>
<Folder><name>CHÃ_DOS_LEÕES_TALHAO_1081_ID_98</name>
  <Placemark id="CHÃ_DOS_LEÕES_TALHAO_1081_ID_98.1">
	<Style><LineStyle><color>ff0000ff</color></LineStyle><PolyStyle><fill>0</fill></PolyStyle></Style>
	<ExtendedData><SchemaData schemaUrl="#CHÃ_DOS_LEÕES_TALHAO_1081_ID_98">
		<SimpleData name="CODE">99</SimpleData>
		<SimpleData name="TALHAO">1081</SimpleData>
		<SimpleData name="AREA_TOTAL">7.513</SimpleData>
		<SimpleData name="FAZENDA">2077</SimpleData>
		<SimpleData name="ZONA">1</SimpleData>
		<SimpleData name="FAZ_NOME">CHÃ DOS LEÕES</SimpleData>
	</SchemaData></ExtendedData>
      <MultiGeometry><Polygon><outerBoundaryIs><LinearRing><coordinates>-36.1053674274757,-9.67798771944698 -36.1068907212753,-9.67679827309642 -36.105196420744,-9.67535603649421 -36.1040071441721,-9.67628436402919 -36.1030049311586,-9.67706692051871 -36.104685500577,-9.67850659674737 -36.1053674274757,-9.67798771944698</coordinates></LinearRing></outerBoundaryIs></Polygon></MultiGeometry>
  </Placemark>
</Folder>
</Document></kml>
