<?xml version="1.0" encoding="utf-8" ?>
<kml xmlns="http://www.opengis.net/kml/2.2">
<Document id="root_doc">
<Schema name="CHÃ_DOS_LEÕES_TALHAO_1008_ID_45" id="CHÃ_DOS_LEÕES_TALHAO_1008_ID_45">
	<SimpleField name="CODE" type="string"></SimpleField>
	<SimpleField name="TALHAO" type="float"></SimpleField>
	<SimpleField name="AREA_TOTAL" type="float"></SimpleField>
	<SimpleField name="FAZENDA" type="float"></SimpleField>
	<SimpleField name="ZONA" type="float"></SimpleField>
	<SimpleField name="FAZ_NOME" type="string"></SimpleField>
</Schema>
<Folder><name>CHÃ_DOS_LEÕES_TALHAO_1008_ID_45</name>
  <Placemark id="CHÃ_DOS_LEÕES_TALHAO_1008_ID_45.1">
	<Style><LineStyle><color>ff0000ff</color></LineStyle><PolyStyle><fill>0</fill></PolyStyle></Style>
	<ExtendedData><SchemaData schemaUrl="#CHÃ_DOS_LEÕES_TALHAO_1008_ID_45">
		<SimpleData name="CODE">46</SimpleData>
		<SimpleData name="TALHAO">1008</SimpleData>
		<SimpleData name="AREA_TOTAL">1.326</SimpleData>
		<SimpleData name="FAZENDA">2077</SimpleData>
		<SimpleData name="ZONA">1</SimpleData>
		<SimpleData name="FAZ_NOME">CHÃ DOS LEÕES</SimpleData>
	</SchemaData></ExtendedData>
      <MultiGeometry><Polygon><outerBoundaryIs><LinearRing><coordinates>-36.1190275591007,-9.68167934896146 -36.1178201323798,-9.68089949437293 -36.1178351410255,-9.68248730681882 -36.1178646110956,-9.68246641490224 -36.1180401954289,-9.68239648416623 -36.1182379922568,-9.68233246826317 -36.1184210654428,-9.68226103967576 -36.1186184802491,-9.68211363150833 -36.1188514530985,-9.68189316668253 -36.1190275591007,-9.68167934896146</coordinates></LinearRing></outerBoundaryIs></Polygon></MultiGeometry>
  </Placemark>
</Folder>
</Document></kml>
