<?xml version="1.0" encoding="utf-8" ?>
<kml xmlns="http://www.opengis.net/kml/2.2">
<Document id="root_doc">
<Schema name="CHÃ_DOS_LEÕES_TALHAO_1003_ID_60" id="CHÃ_DOS_LEÕES_TALHAO_1003_ID_60">
	<SimpleField name="CODE" type="string"></SimpleField>
	<SimpleField name="TALHAO" type="float"></SimpleField>
	<SimpleField name="AREA_TOTAL" type="float"></SimpleField>
	<SimpleField name="FAZENDA" type="float"></SimpleField>
	<SimpleField name="ZONA" type="float"></SimpleField>
	<SimpleField name="FAZ_NOME" type="string"></SimpleField>
</Schema>
<Folder><name>CHÃ_DOS_LEÕES_TALHAO_1003_ID_60</name>
  <Placemark id="CHÃ_DOS_LEÕES_TALHAO_1003_ID_60.1">
	<Style><LineStyle><color>ff0000ff</color></LineStyle><PolyStyle><fill>0</fill></PolyStyle></Style>
	<ExtendedData><SchemaData schemaUrl="#CHÃ_DOS_LEÕES_TALHAO_1003_ID_60">
		<SimpleData name="CODE">61</SimpleData>
		<SimpleData name="TALHAO">1003</SimpleData>
		<SimpleData name="AREA_TOTAL">1.481</SimpleData>
		<SimpleData name="FAZENDA">2077</SimpleData>
		<SimpleData name="ZONA">1</SimpleData>
		<SimpleData name="FAZ_NOME">CHÃ DOS LEÕES</SimpleData>
	</SchemaData></ExtendedData>
      <MultiGeometry><Polygon><outerBoundaryIs><LinearRing><coordinates>-36.1302426007015,-9.66734177500664 -36.1302343642405,-9.66736670097921 -36.1302417364908,-9.66748921126491 -36.1301914420734,-9.66767041409563 -36.1300905074321,-9.66798481221969 -36.1300005867392,-9.66827872602206 -36.1299160757846,-9.66851407676737 -36.1298490556074,-9.66872045319312 -36.1298287837962,-9.66881328495793 -36.1298519883748,-9.66889057957253 -36.1299042347755,-9.6689825525408 -36.1299527125416,-9.66904302225507 -36.1300243722473,-9.66908801931518 -36.1301019057889,-9.66909336923357 -36.1301886241912,-9.66909442921265 -36.1302642774871,-9.66904928122684 -36.1303212179447,-9.66897220567023 -36.1304620681054,-9.66884093614441 -36.1306217280876,-9.66872949054594 -36.1307511212316,-9.66861254940376 -36.1308210117981,-9.66852290873539 -36.1308891291476,-9.66836895851086 -36.1309442862206,-9.66821783428817 -36.1309576633643,-9.66808117671434 -36.1309601097781,-9.66791659219175 -36.1309320881705,-9.66775013029854 -36.1302426007015,-9.66734177500664</coordinates></LinearRing></outerBoundaryIs></Polygon></MultiGeometry>
  </Placemark>
</Folder>
</Document></kml>
