<?xml version="1.0" encoding="utf-8" ?>
<kml xmlns="http://www.opengis.net/kml/2.2">
<Document id="root_doc">
<Schema name="CHÃ_DOS_LEÕES_TALHAO_1090_ID_213" id="CHÃ_DOS_LEÕES_TALHAO_1090_ID_213">
	<SimpleField name="CODE" type="string"></SimpleField>
	<SimpleField name="TALHAO" type="float"></SimpleField>
	<SimpleField name="AREA_TOTAL" type="float"></SimpleField>
	<SimpleField name="FAZENDA" type="float"></SimpleField>
	<SimpleField name="ZONA" type="float"></SimpleField>
	<SimpleField name="FAZ_NOME" type="string"></SimpleField>
</Schema>
<Folder><name>CHÃ_DOS_LEÕES_TALHAO_1090_ID_213</name>
  <Placemark id="CHÃ_DOS_LEÕES_TALHAO_1090_ID_213.1">
	<Style><LineStyle><color>ff0000ff</color></LineStyle><PolyStyle><fill>0</fill></PolyStyle></Style>
	<ExtendedData><SchemaData schemaUrl="#CHÃ_DOS_LEÕES_TALHAO_1090_ID_213">
		<SimpleData name="CODE">214</SimpleData>
		<SimpleData name="TALHAO">1090</SimpleData>
		<SimpleData name="AREA_TOTAL">0.073</SimpleData>
		<SimpleData name="FAZENDA">2077</SimpleData>
		<SimpleData name="ZONA">1</SimpleData>
		<SimpleData name="FAZ_NOME">CHÃ DOS LEÕES</SimpleData>
	</SchemaData></ExtendedData>
      <MultiGeometry><Polygon><outerBoundaryIs><LinearRing><coordinates>-36.101278420193,-9.66811110875374 -36.1009025298206,-9.66835389838101 -36.1011769369865,-9.66832735797764 -36.1014769040153,-9.66829817024148 -36.101278420193,-9.66811110875374</coordinates></LinearRing></outerBoundaryIs></Polygon></MultiGeometry>
  </Placemark>
</Folder>
</Document></kml>
