<?xml version="1.0" encoding="utf-8" ?>
<kml xmlns="http://www.opengis.net/kml/2.2">
<Document id="root_doc">
<Schema name="CHÃ_DOS_LEÕES_TALHAO_1024_ID_73" id="CHÃ_DOS_LEÕES_TALHAO_1024_ID_73">
	<SimpleField name="CODE" type="string"></SimpleField>
	<SimpleField name="TALHAO" type="float"></SimpleField>
	<SimpleField name="AREA_TOTAL" type="float"></SimpleField>
	<SimpleField name="FAZENDA" type="float"></SimpleField>
	<SimpleField name="ZONA" type="float"></SimpleField>
	<SimpleField name="FAZ_NOME" type="string"></SimpleField>
</Schema>
<Folder><name>CHÃ_DOS_LEÕES_TALHAO_1024_ID_73</name>
  <Placemark id="CHÃ_DOS_LEÕES_TALHAO_1024_ID_73.1">
	<Style><LineStyle><color>ff0000ff</color></LineStyle><PolyStyle><fill>0</fill></PolyStyle></Style>
	<ExtendedData><SchemaData schemaUrl="#CHÃ_DOS_LEÕES_TALHAO_1024_ID_73">
		<SimpleData name="CODE">74</SimpleData>
		<SimpleData name="TALHAO">1024</SimpleData>
		<SimpleData name="AREA_TOTAL">20.952</SimpleData>
		<SimpleData name="FAZENDA">2077</SimpleData>
		<SimpleData name="ZONA">1</SimpleData>
		<SimpleData name="FAZ_NOME">CHÃ DOS LEÕES</SimpleData>
	</SchemaData></ExtendedData>
      <MultiGeometry><Polygon><outerBoundaryIs><LinearRing><coordinates>-36.1098555594001,-9.67541371593892 -36.1130790987695,-9.678197214045 -36.1130771828614,-9.67809730220666 -36.1130777750684,-9.67778613696781 -36.1131165802952,-9.67730615316282 -36.1130994159697,-9.67718734436384 -36.1130594772838,-9.67705671894475 -36.1130235989911,-9.6769916179853 -36.1129815593707,-9.67689681724289 -36.1129568374209,-9.67682420547758 -36.1129455187843,-9.67670382275659 -36.1129224695339,-9.67649302102227 -36.1128885902625,-9.67616502462196 -36.1128703083363,-9.67573609442423 -36.1128429988776,-9.67533997665895 -36.1127932116555,-9.6748389688382 -36.1127224471804,-9.6742568278432 -36.1127231491599,-9.67411712066716 -36.1127433980322,-9.67403747503175 -36.1129186231277,-9.67364167352976 -36.113055922847,-9.67334110603323 -36.1131897264031,-9.67301981120556 -36.1132316514692,-9.67291701254142 -36.1132675331503,-9.67277955962321 -36.1132932038336,-9.67266224738424 -36.1133322866982,-9.67254683743523 -36.1133654197933,-9.67246147151056 -36.1134190744016,-9.67230940885899 -36.113447356117,-9.67219766945304 -36.1134636658539,-9.67212096621227 -36.1134682020786,-9.67203050634695 -36.1134629459904,-9.67197411174842 -36.1134377412222,-9.67190620119923 -36.1134087029208,-9.67182673416133 -36.1133758268757,-9.67174746679665 -36.1133256460546,-9.67165227456416 -36.1132841950849,-9.67153132744469 -36.113270195641,-9.67142214482624 -36.113269260827,-9.67130044675783 -36.1132672510318,-9.67121456456496 -36.1132805535741,-9.67111095202378 -36.1132966842146,-9.67094815051591 -36.1122719324582,-9.67067654386877 -36.1110720963538,-9.67036820407552 -36.1098555594001,-9.67541371593892</coordinates></LinearRing></outerBoundaryIs></Polygon></MultiGeometry>
  </Placemark>
</Folder>
</Document></kml>
