<?xml version="1.0" encoding="utf-8" ?>
<kml xmlns="http://www.opengis.net/kml/2.2">
<Document id="root_doc">
<Schema name="CHÃ_DOS_LEÕES_TALHAO_1001_ID_58" id="CHÃ_DOS_LEÕES_TALHAO_1001_ID_58">
	<SimpleField name="CODE" type="string"></SimpleField>
	<SimpleField name="TALHAO" type="float"></SimpleField>
	<SimpleField name="AREA_TOTAL" type="float"></SimpleField>
	<SimpleField name="FAZENDA" type="float"></SimpleField>
	<SimpleField name="ZONA" type="float"></SimpleField>
	<SimpleField name="FAZ_NOME" type="string"></SimpleField>
</Schema>
<Folder><name>CHÃ_DOS_LEÕES_TALHAO_1001_ID_58</name>
  <Placemark id="CHÃ_DOS_LEÕES_TALHAO_1001_ID_58.1">
	<Style><LineStyle><color>ff0000ff</color></LineStyle><PolyStyle><fill>0</fill></PolyStyle></Style>
	<ExtendedData><SchemaData schemaUrl="#CHÃ_DOS_LEÕES_TALHAO_1001_ID_58">
		<SimpleData name="CODE">59</SimpleData>
		<SimpleData name="TALHAO">1001</SimpleData>
		<SimpleData name="AREA_TOTAL">3.891</SimpleData>
		<SimpleData name="FAZENDA">2077</SimpleData>
		<SimpleData name="ZONA">1</SimpleData>
		<SimpleData name="FAZ_NOME">CHÃ DOS LEÕES</SimpleData>
	</SchemaData></ExtendedData>
      <MultiGeometry><Polygon><outerBoundaryIs><LinearRing><coordinates>-36.1277185362631,-9.66366480458641 -36.1262890749749,-9.66585680658354 -36.1293393307893,-9.66557215418526 -36.1277185362631,-9.66366480458641</coordinates></LinearRing></outerBoundaryIs></Polygon></MultiGeometry>
  </Placemark>
</Folder>
</Document></kml>
