<?xml version="1.0" encoding="utf-8" ?>
<kml xmlns="http://www.opengis.net/kml/2.2">
<Document id="root_doc">
<Schema name="CHÃ_DOS_LEÕES_TALHAO_1023_ID_206" id="CHÃ_DOS_LEÕES_TALHAO_1023_ID_206">
	<SimpleField name="CODE" type="string"></SimpleField>
	<SimpleField name="TALHAO" type="float"></SimpleField>
	<SimpleField name="AREA_TOTAL" type="float"></SimpleField>
	<SimpleField name="FAZENDA" type="float"></SimpleField>
	<SimpleField name="ZONA" type="float"></SimpleField>
	<SimpleField name="FAZ_NOME" type="string"></SimpleField>
</Schema>
<Folder><name>CHÃ_DOS_LEÕES_TALHAO_1023_ID_206</name>
  <Placemark id="CHÃ_DOS_LEÕES_TALHAO_1023_ID_206.1">
	<Style><LineStyle><color>ff0000ff</color></LineStyle><PolyStyle><fill>0</fill></PolyStyle></Style>
	<ExtendedData><SchemaData schemaUrl="#CHÃ_DOS_LEÕES_TALHAO_1023_ID_206">
		<SimpleData name="CODE">207</SimpleData>
		<SimpleData name="TALHAO">1023</SimpleData>
		<SimpleData name="AREA_TOTAL">19.673</SimpleData>
		<SimpleData name="FAZENDA">2077</SimpleData>
		<SimpleData name="ZONA">1</SimpleData>
		<SimpleData name="FAZ_NOME">CHÃ DOS LEÕES</SimpleData>
	</SchemaData></ExtendedData>
      <MultiGeometry><Polygon><outerBoundaryIs><LinearRing><coordinates>-36.1159073210145,-9.6685856446112 -36.1160451269735,-9.66855839136509 -36.116239425518,-9.6686354273551 -36.1164180674069,-9.66875750080085 -36.1165755188728,-9.66878577617191 -36.1168107729135,-9.66871580366018 -36.1169736659022,-9.66857139150023 -36.1171102215017,-9.66837367077398 -36.117200518649,-9.66817407869489 -36.1172807814339,-9.66806566723242 -36.1174105309841,-9.66802580187955 -36.117581115222,-9.66795748499787 -36.1176959672872,-9.66781227318596 -36.1177863697546,-9.66756190559505 -36.1178325484505,-9.66743498158545 -36.1179404357555,-9.66732409740598 -36.1183791497512,-9.66692463962355 -36.1185314888976,-9.66676257563533 -36.1186274350313,-9.6667059061249 -36.1186589371415,-9.66666446591394 -36.1148657351667,-9.66700410239631 -36.1147930385824,-9.66700521993153 -36.1122429393125,-9.66725928282908 -36.1117925708636,-9.6673332396513 -36.1117225820303,-9.66742448994008 -36.1115135110664,-9.66832471315975 -36.1110616251711,-9.67027042729688 -36.1115948629833,-9.67041041373236 -36.1123314332121,-9.67058898030732 -36.1132935756291,-9.6708014427327 -36.1133616573572,-9.67055889563806 -36.1135048980882,-9.67004675164149 -36.1135925996594,-9.66996168993037 -36.1140409140996,-9.66968698876753 -36.1145133141068,-9.66948141061552 -36.1146694212001,-9.66939523236957 -36.1149085114743,-9.66920995603039 -36.115044221383,-9.66912989625508 -36.1152286973454,-9.66903991969198 -36.1153475025691,-9.66898884472338 -36.1154850446599,-9.66890703416156 -36.1159073210145,-9.6685856446112</coordinates></LinearRing></outerBoundaryIs></Polygon></MultiGeometry>
  </Placemark>
</Folder>
</Document></kml>
