<?xml version="1.0" encoding="utf-8" ?>
<kml xmlns="http://www.opengis.net/kml/2.2">
<Document id="root_doc">
<Schema name="CHÃ_DOS_LEÕES_TALHAO_1015_ID_36" id="CHÃ_DOS_LEÕES_TALHAO_1015_ID_36">
	<SimpleField name="CODE" type="string"></SimpleField>
	<SimpleField name="TALHAO" type="float"></SimpleField>
	<SimpleField name="AREA_TOTAL" type="float"></SimpleField>
	<SimpleField name="FAZENDA" type="float"></SimpleField>
	<SimpleField name="ZONA" type="float"></SimpleField>
	<SimpleField name="FAZ_NOME" type="string"></SimpleField>
</Schema>
<Folder><name>CHÃ_DOS_LEÕES_TALHAO_1015_ID_36</name>
  <Placemark id="CHÃ_DOS_LEÕES_TALHAO_1015_ID_36.1">
	<Style><LineStyle><color>ff0000ff</color></LineStyle><PolyStyle><fill>0</fill></PolyStyle></Style>
	<ExtendedData><SchemaData schemaUrl="#CHÃ_DOS_LEÕES_TALHAO_1015_ID_36">
		<SimpleData name="CODE">37</SimpleData>
		<SimpleData name="TALHAO">1015</SimpleData>
		<SimpleData name="AREA_TOTAL">8.146</SimpleData>
		<SimpleData name="FAZENDA">2077</SimpleData>
		<SimpleData name="ZONA">1</SimpleData>
		<SimpleData name="FAZ_NOME">CHÃ DOS LEÕES</SimpleData>
	</SchemaData></ExtendedData>
      <MultiGeometry><Polygon><outerBoundaryIs><LinearRing><coordinates>-36.1221634896921,-9.66626583532189 -36.1225267236311,-9.66551696442347 -36.1235363534158,-9.663435408231 -36.1219347687446,-9.66356535880489 -36.1189349361118,-9.66658615801069 -36.1219641940603,-9.66628560946943 -36.1221634896921,-9.66626583532189</coordinates></LinearRing></outerBoundaryIs></Polygon></MultiGeometry>
  </Placemark>
</Folder>
</Document></kml>
