<?xml version="1.0" encoding="utf-8" ?>
<kml xmlns="http://www.opengis.net/kml/2.2">
<Document id="root_doc">
<Schema name="CHÃ_DOS_LEÕES_TALHAO_1091_ID_215" id="CHÃ_DOS_LEÕES_TALHAO_1091_ID_215">
	<SimpleField name="CODE" type="string"></SimpleField>
	<SimpleField name="TALHAO" type="float"></SimpleField>
	<SimpleField name="AREA_TOTAL" type="float"></SimpleField>
	<SimpleField name="FAZENDA" type="float"></SimpleField>
	<SimpleField name="ZONA" type="float"></SimpleField>
	<SimpleField name="FAZ_NOME" type="string"></SimpleField>
</Schema>
<Folder><name>CHÃ_DOS_LEÕES_TALHAO_1091_ID_215</name>
  <Placemark id="CHÃ_DOS_LEÕES_TALHAO_1091_ID_215.1">
	<Style><LineStyle><color>ff0000ff</color></LineStyle><PolyStyle><fill>0</fill></PolyStyle></Style>
	<ExtendedData><SchemaData schemaUrl="#CHÃ_DOS_LEÕES_TALHAO_1091_ID_215">
		<SimpleData name="CODE">216</SimpleData>
		<SimpleData name="TALHAO">1091</SimpleData>
		<SimpleData name="AREA_TOTAL">10.648</SimpleData>
		<SimpleData name="FAZENDA">2077</SimpleData>
		<SimpleData name="ZONA">1</SimpleData>
		<SimpleData name="FAZ_NOME">CHÃ DOS LEÕES</SimpleData>
	</SchemaData></ExtendedData>
      <MultiGeometry><Polygon><outerBoundaryIs><LinearRing><coordinates>-36.0919327704042,-9.67403079488675 -36.0927264309179,-9.67474671381978 -36.0941208638135,-9.67447064545189 -36.0953875504675,-9.67419129972096 -36.0975247247182,-9.67240527812273 -36.0962551778347,-9.67128872341331 -36.0962537251185,-9.67128969518675 -36.094000655498,-9.67272380834868 -36.0919327704042,-9.67403079488675</coordinates></LinearRing></outerBoundaryIs></Polygon></MultiGeometry>
  </Placemark>
</Folder>
</Document></kml>
