<?xml version="1.0" encoding="utf-8" ?>
<kml xmlns="http://www.opengis.net/kml/2.2">
<Document id="root_doc">
<Schema name="CHÃ_DOS_LEÕES_TALHAO_1021_ID_229" id="CHÃ_DOS_LEÕES_TALHAO_1021_ID_229">
	<SimpleField name="CODE" type="string"></SimpleField>
	<SimpleField name="TALHAO" type="float"></SimpleField>
	<SimpleField name="AREA_TOTAL" type="float"></SimpleField>
	<SimpleField name="FAZENDA" type="float"></SimpleField>
	<SimpleField name="ZONA" type="float"></SimpleField>
	<SimpleField name="FAZ_NOME" type="string"></SimpleField>
</Schema>
<Folder><name>CHÃ_DOS_LEÕES_TALHAO_1021_ID_229</name>
  <Placemark id="CHÃ_DOS_LEÕES_TALHAO_1021_ID_229.1">
	<Style><LineStyle><color>ff0000ff</color></LineStyle><PolyStyle><fill>0</fill></PolyStyle></Style>
	<ExtendedData><SchemaData schemaUrl="#CHÃ_DOS_LEÕES_TALHAO_1021_ID_229">
		<SimpleData name="CODE">230</SimpleData>
		<SimpleData name="TALHAO">1021</SimpleData>
		<SimpleData name="AREA_TOTAL">3.419</SimpleData>
		<SimpleData name="FAZENDA">2077</SimpleData>
		<SimpleData name="ZONA">1</SimpleData>
		<SimpleData name="FAZ_NOME">CHÃ DOS LEÕES</SimpleData>
	</SchemaData></ExtendedData>
      <MultiGeometry><Polygon><outerBoundaryIs><LinearRing><coordinates>-36.1194919543566,-9.66589441973314 -36.1203431525423,-9.66503429916561 -36.1217918051984,-9.66359240744982 -36.1218225023673,-9.66352462623133 -36.1206121513128,-9.66360327130565 -36.1193632127599,-9.66368790612768 -36.1194919543566,-9.66589441973314</coordinates></LinearRing></outerBoundaryIs></Polygon></MultiGeometry>
  </Placemark>
</Folder>
</Document></kml>
