<?xml version="1.0" encoding="utf-8" ?>
<kml xmlns="http://www.opengis.net/kml/2.2">
<Document id="root_doc">
<Schema name="CHÃ_DOS_LEÕES_TALHAO_1086_ID_220" id="CHÃ_DOS_LEÕES_TALHAO_1086_ID_220">
	<SimpleField name="CODE" type="string"></SimpleField>
	<SimpleField name="TALHAO" type="float"></SimpleField>
	<SimpleField name="AREA_TOTAL" type="float"></SimpleField>
	<SimpleField name="FAZENDA" type="float"></SimpleField>
	<SimpleField name="ZONA" type="float"></SimpleField>
	<SimpleField name="FAZ_NOME" type="string"></SimpleField>
</Schema>
<Folder><name>CHÃ_DOS_LEÕES_TALHAO_1086_ID_220</name>
  <Placemark id="CHÃ_DOS_LEÕES_TALHAO_1086_ID_220.1">
	<Style><LineStyle><color>ff0000ff</color></LineStyle><PolyStyle><fill>0</fill></PolyStyle></Style>
	<ExtendedData><SchemaData schemaUrl="#CHÃ_DOS_LEÕES_TALHAO_1086_ID_220">
		<SimpleData name="CODE">221</SimpleData>
		<SimpleData name="TALHAO">1086</SimpleData>
		<SimpleData name="AREA_TOTAL">5.488</SimpleData>
		<SimpleData name="FAZENDA">2077</SimpleData>
		<SimpleData name="ZONA">1</SimpleData>
		<SimpleData name="FAZ_NOME">CHÃ DOS LEÕES</SimpleData>
	</SchemaData></ExtendedData>
      <MultiGeometry><Polygon><outerBoundaryIs><LinearRing><coordinates>-36.0936812951136,-9.67563552587976 -36.0926535121585,-9.67648576387352 -36.0927984832858,-9.6766595217195 -36.0928599220469,-9.6766594739278 -36.0930030239697,-9.67654432335819 -36.0931638467104,-9.67648356198489 -36.0932552600581,-9.67652121449914 -36.0933004622884,-9.67658456530752 -36.0933329575564,-9.67668770415752 -36.0932809721544,-9.67681653563888 -36.0932174460533,-9.67697464912417 -36.0931667862281,-9.67714447277381 -36.0944450852382,-9.67874381110787 -36.0958838189676,-9.67758415950403 -36.093693150548,-9.67564472198522 -36.0936812951136,-9.67563552587976</coordinates></LinearRing></outerBoundaryIs></Polygon></MultiGeometry>
  </Placemark>
</Folder>
</Document></kml>
