<?xml version="1.0" encoding="utf-8" ?>
<kml xmlns="http://www.opengis.net/kml/2.2">
<Document id="root_doc">
<Schema name="CHÃ_DOS_LEÕES_TALHAO_1035_ID_11" id="CHÃ_DOS_LEÕES_TALHAO_1035_ID_11">
	<SimpleField name="CODE" type="string"></SimpleField>
	<SimpleField name="TALHAO" type="float"></SimpleField>
	<SimpleField name="AREA_TOTAL" type="float"></SimpleField>
	<SimpleField name="FAZENDA" type="float"></SimpleField>
	<SimpleField name="ZONA" type="float"></SimpleField>
	<SimpleField name="FAZ_NOME" type="string"></SimpleField>
</Schema>
<Folder><name>CHÃ_DOS_LEÕES_TALHAO_1035_ID_11</name>
  <Placemark id="CHÃ_DOS_LEÕES_TALHAO_1035_ID_11.1">
	<Style><LineStyle><color>ff0000ff</color></LineStyle><PolyStyle><fill>0</fill></PolyStyle></Style>
	<ExtendedData><SchemaData schemaUrl="#CHÃ_DOS_LEÕES_TALHAO_1035_ID_11">
		<SimpleData name="CODE">12</SimpleData>
		<SimpleData name="TALHAO">1035</SimpleData>
		<SimpleData name="AREA_TOTAL">1.125</SimpleData>
		<SimpleData name="FAZENDA">2077</SimpleData>
		<SimpleData name="ZONA">1</SimpleData>
		<SimpleData name="FAZ_NOME">CHÃ DOS LEÕES</SimpleData>
	</SchemaData></ExtendedData>
      <MultiGeometry><Polygon><outerBoundaryIs><LinearRing><coordinates>-36.1055222399795,-9.66587393006287 -36.1056463082964,-9.66588027263368 -36.1059045726724,-9.6658933109042 -36.1062020442752,-9.66592650912423 -36.1062933159711,-9.6659366633776 -36.1063376440655,-9.66529459158345 -36.1063401658662,-9.66480592686999 -36.105851242879,-9.66485266681193 -36.1055988528508,-9.66484587588028 -36.105415061441,-9.66488195501751 -36.1055222399795,-9.66587393006287</coordinates></LinearRing></outerBoundaryIs></Polygon></MultiGeometry>
  </Placemark>
</Folder>
</Document></kml>
