<?xml version="1.0" encoding="utf-8" ?>
<kml xmlns="http://www.opengis.net/kml/2.2">
<Document id="root_doc">
<Schema name="CHÃ_DOS_LEÕES_TALHAO_1002_ID_64" id="CHÃ_DOS_LEÕES_TALHAO_1002_ID_64">
	<SimpleField name="CODE" type="string"></SimpleField>
	<SimpleField name="TALHAO" type="float"></SimpleField>
	<SimpleField name="AREA_TOTAL" type="float"></SimpleField>
	<SimpleField name="FAZENDA" type="float"></SimpleField>
	<SimpleField name="ZONA" type="float"></SimpleField>
	<SimpleField name="FAZ_NOME" type="string"></SimpleField>
</Schema>
<Folder><name>CHÃ_DOS_LEÕES_TALHAO_1002_ID_64</name>
  <Placemark id="CHÃ_DOS_LEÕES_TALHAO_1002_ID_64.1">
	<Style><LineStyle><color>ff0000ff</color></LineStyle><PolyStyle><fill>0</fill></PolyStyle></Style>
	<ExtendedData><SchemaData schemaUrl="#CHÃ_DOS_LEÕES_TALHAO_1002_ID_64">
		<SimpleData name="CODE">65</SimpleData>
		<SimpleData name="TALHAO">1002</SimpleData>
		<SimpleData name="AREA_TOTAL">6.995</SimpleData>
		<SimpleData name="FAZENDA">2077</SimpleData>
		<SimpleData name="ZONA">1</SimpleData>
		<SimpleData name="FAZ_NOME">CHÃ DOS LEÕES</SimpleData>
	</SchemaData></ExtendedData>
      <MultiGeometry><Polygon><outerBoundaryIs><LinearRing><coordinates>-36.1267268123702,-9.66820885013435 -36.1272508304656,-9.66816400831679 -36.1276413819668,-9.66812518098007 -36.1279592105286,-9.66807561498375 -36.1280984955265,-9.66805150431489 -36.1281670298404,-9.66803122404718 -36.1284357916471,-9.66792233350416 -36.1285415913494,-9.66787398048732 -36.1276288101561,-9.66580437288662 -36.1262386707163,-9.66593409800446 -36.1251641269292,-9.66758182314148 -36.1262875379427,-9.66838366313991 -36.1263549707402,-9.66839722612201 -36.1265974604085,-9.66821147463314 -36.1266888838765,-9.66820611985876 -36.1267268123702,-9.66820885013435</coordinates></LinearRing></outerBoundaryIs></Polygon></MultiGeometry>
  </Placemark>
</Folder>
</Document></kml>
