<?xml version="1.0" encoding="utf-8" ?>
<kml xmlns="http://www.opengis.net/kml/2.2">
<Document id="root_doc">
<Schema name="CHÃ_DOS_LEÕES_TALHAO_1092_ID_207" id="CHÃ_DOS_LEÕES_TALHAO_1092_ID_207">
	<SimpleField name="CODE" type="string"></SimpleField>
	<SimpleField name="TALHAO" type="float"></SimpleField>
	<SimpleField name="AREA_TOTAL" type="float"></SimpleField>
	<SimpleField name="FAZENDA" type="float"></SimpleField>
	<SimpleField name="ZONA" type="float"></SimpleField>
	<SimpleField name="FAZ_NOME" type="string"></SimpleField>
</Schema>
<Folder><name>CHÃ_DOS_LEÕES_TALHAO_1092_ID_207</name>
  <Placemark id="CHÃ_DOS_LEÕES_TALHAO_1092_ID_207.1">
	<Style><LineStyle><color>ff0000ff</color></LineStyle><PolyStyle><fill>0</fill></PolyStyle></Style>
	<ExtendedData><SchemaData schemaUrl="#CHÃ_DOS_LEÕES_TALHAO_1092_ID_207">
		<SimpleData name="CODE">208</SimpleData>
		<SimpleData name="TALHAO">1092</SimpleData>
		<SimpleData name="AREA_TOTAL">9.055</SimpleData>
		<SimpleData name="FAZENDA">2077</SimpleData>
		<SimpleData name="ZONA">1</SimpleData>
		<SimpleData name="FAZ_NOME">CHÃ DOS LEÕES</SimpleData>
	</SchemaData></ExtendedData>
      <MultiGeometry><Polygon><outerBoundaryIs><LinearRing><coordinates>-36.090014059604,-9.67523288751554 -36.0891618433667,-9.67578200749478 -36.0886847263735,-9.67608354461895 -36.0882076086449,-9.67638508082443 -36.0881577763287,-9.67642541393393 -36.0883632197018,-9.67670737367369 -36.0885444689881,-9.67700212673724 -36.0886915203795,-9.6773080059898 -36.0888926464552,-9.67732229559691 -36.0892068929465,-9.67721738757247 -36.089629711955,-9.67707132166822 -36.0899275187969,-9.67698672096303 -36.09011846247,-9.67689341980901 -36.0902402853234,-9.67671486442269 -36.0905828485256,-9.67584786103407 -36.0909055242613,-9.67537917056052 -36.0909856533719,-9.67530663729292 -36.091045180493,-9.67532420722046 -36.0911075976225,-9.67551578847209 -36.0911593736193,-9.67576296697581 -36.0911167277326,-9.67591846459322 -36.091075262183,-9.67610979125424 -36.090998131961,-9.67638854966436 -36.0909518553759,-9.67655835572021 -36.0909284459181,-9.67674836095346 -36.0910231174883,-9.67690701349555 -36.0911737535431,-9.6770231899153 -36.0914345160032,-9.6771547406433 -36.0916748197271,-9.67723349496465 -36.0936403528701,-9.6756190448731 -36.0927103556224,-9.67481077847357 -36.0914581932183,-9.67497570783098 -36.090014059604,-9.67523288751554</coordinates></LinearRing></outerBoundaryIs></Polygon></MultiGeometry>
  </Placemark>
</Folder>
</Document></kml>
