<?xml version="1.0" encoding="UTF-8"?>
<kml xmlns="http://www.opengis.net/kml/2.2" xmlns:gx="http://www.google.com/kml/ext/2.2" xmlns:kml="http://www.opengis.net/kml/2.2" xmlns:atom="http://www.w3.org/2005/Atom">
<Document>
  <name>12.kml</name>
  <StyleMap id="FFFF0000">
    <Pair>
      <key>normal</key>
      <styleUrl>#s_FFFF0000</styleUrl>
    </Pair>
    <Pair>
      <key>highlight</key>
      <styleUrl>#s_FFFF0000_hl</styleUrl>
    </Pair>
  </StyleMap>
  <Style id="s_FFFF0000">
   <IconStyle>
      <scale>1.1</scale>
      <Icon>
        <href>http://maps.google.com/mapfiles/kml/pushpin/agrocad.png</href>
      </Icon>
      <hotSpot x="20" y="2" xunits="pixels" yunits="pixels"/>
    </IconStyle>
    <LineStyle>
      <color>FFFF0000</color>
      <width>1</width>
    </LineStyle>
    <PolyStyle>
      <color>40ffffff</color>
      <fill>1</fill>
    </PolyStyle>
  </Style>
  <Style id="s_FFFF0000_hl">
    <IconStyle>
      <scale>1.3</scale>
      <Icon>
        <href>http://maps.google.com/mapfiles/kml/pushpin/agrocad.png</href>
      </Icon>
      <hotSpot x="20" y="2" xunits="pixels" yunits="pixels"/>
    </IconStyle>
    <LineStyle>
      <color>ff000000</color>
      <width>1</width>
    </LineStyle>
    <PolyStyle>
      <color>40ffffff</color>
      <fill>1</fill>
    </PolyStyle>
  </Style>
  <Placemark>
    <name>AgroCAD: BBEF</name>
    <styleUrl>FFFF0000</styleUrl>
    <Polygon>
      <outerBoundaryIs>
        <LinearRing>
          <coordinates>
           -36.40220963609507,-9.78200982567017 -36.40225020457754,-9.78250114394320 -36.40228121147938,-9.78272587128545 -36.40230434519306,-9.78306025082241 -36.40228340167106,-9.78319924374728 -36.40224151496058,-9.78347722886837 -36.40220563380005,-9.78376319472239 -36.40219120012988,-9.78396422333438 -36.40213208149003,-9.78422263857858 -36.40202358498711,-9.78451218355383 -36.40193575354558,-9.78471241571383 -36.40182829181337,-9.78503336435495 -36.40182019253153,-9.78503928207665 -36.40173286575225,-9.78529356976877 -36.40162048426962,-9.78548452790118 -36.40161682567202,-9.78548967488231 -36.40152326690910,-9.78563224707269 -36.40140046477919,-9.78573928789851 -36.40134988833273,-9.78561001461048 -36.40128749122624,-9.78551707074735 -36.40120811342477,-9.78543158600075 -36.40109921492824,-9.78536024917028 -36.40099945018090,-9.78531439838762 -36.40022664042188,-9.78503795036286 -36.40014751538355,-9.78497949362402 -36.40014047625578,-9.78494010844341 -36.40054322535427,-9.78424756645832 -36.40087807533074,-9.78350815412677 -36.40105139214428,-9.78309456040183 -36.40106759074167,-9.78308272500709 -36.40107778433923,-9.78306290809509 -36.40113188084891,-9.78298132791642 -36.40138586156747,-9.78271164776323 -36.40220963609507,-9.78200982567017 -36.40220963609507,-9.78200982567017 -36.40220963609507,-9.78200982567017
          </coordinates>
        </LinearRing>
      </outerBoundaryIs>
    </Polygon>
  </Placemark>
</Document>
</kml>
