<?xml version="1.0" encoding="UTF-8"?>
<kml xmlns="http://www.opengis.net/kml/2.2" xmlns:gx="http://www.google.com/kml/ext/2.2" xmlns:kml="http://www.opengis.net/kml/2.2" xmlns:atom="http://www.w3.org/2005/Atom">
<Document>
  <name>1005.kml</name>
  <StyleMap id="FF0040FF">
    <Pair>
      <key>normal</key>
      <styleUrl>#s_FF0040FF</styleUrl>
    </Pair>
    <Pair>
      <key>highlight</key>
      <styleUrl>#s_FF0040FF_hl</styleUrl>
    </Pair>
  </StyleMap>
  <Style id="s_FF0040FF">
   <IconStyle>
      <scale>1.1</scale>
      <Icon>
        <href>http://maps.google.com/mapfiles/kml/pushpin/agrocad.png</href>
      </Icon>
      <hotSpot x="20" y="2" xunits="pixels" yunits="pixels"/>
    </IconStyle>
    <LineStyle>
      <color>FF0040FF</color>
      <width>1</width>
    </LineStyle>
    <PolyStyle>
      <color>40ffffff</color>
      <fill>1</fill>
    </PolyStyle>
  </Style>
  <Style id="s_FF0040FF_hl">
    <IconStyle>
      <scale>1.3</scale>
      <Icon>
        <href>http://maps.google.com/mapfiles/kml/pushpin/agrocad.png</href>
      </Icon>
      <hotSpot x="20" y="2" xunits="pixels" yunits="pixels"/>
    </IconStyle>
    <LineStyle>
      <color>ff000000</color>
      <width>1</width>
    </LineStyle>
    <PolyStyle>
      <color>40ffffff</color>
      <fill>1</fill>
    </PolyStyle>
  </Style>
  <Placemark>
    <name>AgroCAD: 834E</name>
    <styleUrl>FF0040FF</styleUrl>
    <Polygon>
      <outerBoundaryIs>
        <LinearRing>
          <coordinates>
           -36.32163232778879,-9.83000645757171 -36.32174276436255,-9.83003750140407 -36.32220425378269,-9.83017322114242 -36.32336908904357,-9.83045389927378 -36.32486459371529,-9.83085045441435 -36.32583238855524,-9.83109804371462 -36.32624295121391,-9.82961247399891 -36.32674652805905,-9.82772380431059 -36.32701673362191,-9.82671824308267 -36.32707891818948,-9.82647944519033 -36.32711882943738,-9.82629527983062 -36.32712818051151,-9.82623648893869 -36.32713837921031,-9.82612096513927 -36.32710706308122,-9.82614730670832 -36.32705422955588,-9.82616962470047 -36.32700535261125,-9.82619016451249 -36.32692235408349,-9.82623764503591 -36.32681794730055,-9.82629445457009 -36.32671203934504,-9.82634914042214 -36.32665920010196,-9.82637748982037 -36.32649243906674,-9.82645239737361 -36.32643995246345,-9.82648198544214 -36.32639014456704,-9.82651235911618 -36.32634125535388,-9.82654583315113 -36.32629629216599,-9.82658037109044 -36.32625011535380,-9.82661470309521 -36.32620021932846,-9.82665174129954 -36.32615093818360,-9.82669157799835 -36.32610012189723,-9.82672609694235 -36.32600501061561,-9.82680084710343 -36.32590877479661,-9.82687289413036 -36.32527571185988,-9.82735031750271 -36.32498209577901,-9.82756653001122 -36.32477657945245,-9.82769942888249 -36.32462028488183,-9.82778842829086 -36.32446397799211,-9.82787283198443 -36.32435991663778,-9.82793007655514 -36.32425720855803,-9.82799416042430 -36.32409797791062,-9.82809914192647 -36.32390320081984,-9.82824482228843 -36.32363129714118,-9.82847527576616 -36.32349254713230,-9.82858717539159 -36.32334447450213,-9.82869597038578 -36.32315149998490,-9.82883421753351 -36.32295543726490,-9.82897436585390 -36.32280495278887,-9.82908900258740 -36.32260301343090,-9.82923501172320 -36.32245414692846,-9.82933785872909 -36.32230097155069,-9.82944687734862 -36.32215663413218,-9.82955597443395 -36.32202775585536,-9.82967522430267 -36.32189203068405,-9.82978666214742 -36.32179866614548,-9.82985587540821 -36.32171364161255,-9.82993521495411 -36.32163232778879,-9.83000645757171 -36.32163232778879,-9.83000645757171
          </coordinates>
        </LinearRing>
      </outerBoundaryIs>
    </Polygon>
  </Placemark>
</Document>
</kml>
