<?xml version="1.0" encoding="UTF-8"?>
<kml xmlns="http://www.opengis.net/kml/2.2" xmlns:gx="http://www.google.com/kml/ext/2.2" xmlns:kml="http://www.opengis.net/kml/2.2" xmlns:atom="http://www.w3.org/2005/Atom">
<Document>
  <name>1055.kml</name>
  <StyleMap id="FFFF4000">
    <Pair>
      <key>normal</key>
      <styleUrl>#s_FFFF4000</styleUrl>
    </Pair>
    <Pair>
      <key>highlight</key>
      <styleUrl>#s_FFFF4000_hl</styleUrl>
    </Pair>
  </StyleMap>
  <Style id="s_FFFF4000">
   <IconStyle>
      <scale>1.1</scale>
      <Icon>
        <href>http://maps.google.com/mapfiles/kml/pushpin/agrocad.png</href>
      </Icon>
      <hotSpot x="20" y="2" xunits="pixels" yunits="pixels"/>
    </IconStyle>
    <LineStyle>
      <color>FFFF4000</color>
      <width>1</width>
    </LineStyle>
    <PolyStyle>
      <color>40ffffff</color>
      <fill>1</fill>
    </PolyStyle>
  </Style>
  <Style id="s_FFFF4000_hl">
    <IconStyle>
      <scale>1.3</scale>
      <Icon>
        <href>http://maps.google.com/mapfiles/kml/pushpin/agrocad.png</href>
      </Icon>
      <hotSpot x="20" y="2" xunits="pixels" yunits="pixels"/>
    </IconStyle>
    <LineStyle>
      <color>ff000000</color>
      <width>1</width>
    </LineStyle>
    <PolyStyle>
      <color>40ffffff</color>
      <fill>1</fill>
    </PolyStyle>
  </Style>
  <Placemark>
    <name>AgroCAD: 8F6C</name>
    <styleUrl>FFFF4000</styleUrl>
    <Polygon>
      <outerBoundaryIs>
        <LinearRing>
          <coordinates>
           -36.30749171834202,-9.83693586264316 -36.30751032320628,-9.83692754826977 -36.30752093559116,-9.83692116309673 -36.30756410175457,-9.83689609250303 -36.30757270338842,-9.83689040574825 -36.30760296996386,-9.83687560339370 -36.30764510641317,-9.83685484802839 -36.30766448550758,-9.83684787716948 -36.30767382861996,-9.83684497306749 -36.30768782085699,-9.83683963654491 -36.30776399603518,-9.83684739398534 -36.30788751565428,-9.83687258092429 -36.30801103530384,-9.83689776782299 -36.30813455498387,-9.83692295468145 -36.30825807469436,-9.83694814149962 -36.30838159443531,-9.83697332827753 -36.30850511420673,-9.83699851501518 -36.30861193517544,-9.83703293218378 -36.30864794603346,-9.83704758915972 -36.30869419595311,-9.83706451248926 -36.30875995535024,-9.83708139920994 -36.30887486468842,-9.83710972815784 -36.30894440091719,-9.83712581941048 -36.30897123549223,-9.83713392363529 -36.30907660932810,-9.83716083851430 -36.30919942836018,-9.83719283648011 -36.30925530354914,-9.83720941619278 -36.30932519385897,-9.83722580860685 -36.30939508417938,-9.83724220100828 -36.30945885807995,-9.83725955016789 -36.30949517036716,-9.83726931703103 -36.30954620732835,-9.83728262869877 -36.30959777465274,-9.83729027978597 -36.30969731779334,-9.83730406110893 -36.30979686094998,-9.83731784240472 -36.30989640412269,-9.83733162367333 -36.31002089926397,-9.83733948435496 -36.31008628454351,-9.83734080650286 -36.31019972246092,-9.83734467178750 -36.31027239968183,-9.83734296732137 -36.31034507690623,-9.83734126283937 -36.31040789259671,-9.83734273014149 -36.31050312319364,-9.83733843175957 -36.31059424101948,-9.83733707010229 -36.31068535885121,-9.83733570842022 -36.31078203898823,-9.83732047656384 -36.31083730158056,-9.83731017629661 -36.31095934656262,-9.83728356834563 -36.31108286078241,-9.83727706122649 -36.31117890660510,-9.83727197838450 -36.31127495243221,-9.83726689551440 -36.31132942064988,-9.83726599441041 -36.31142808648770,-9.83726970768905 -36.31151823952470,-9.83726946649360 -36.31156163118999,-9.83726940615214 -36.31160369458344,-9.83726913560044 -36.31168246167307,-9.83726384205273 -36.31172032594245,-9.83725800660060 -36.31178212494059,-9.83724826761889 -36.31183041203758,-9.83724319912383 -36.31192690237759,-9.83722349998691 -36.31197701159539,-9.83721491225751 -36.31204543755846,-9.83720786352808 -36.31208697973813,-9.83720129865336 -36.31217161088956,-9.83718913722396 -36.31225624204041,-9.83717697577169 -36.31228231801256,-9.83717159936766 -36.31232008095472,-9.83716452741004 -36.31237257775947,-9.83715167473292 -36.31240755103799,-9.83714254549705 -36.31243296346677,-9.83713420468667 -36.31252031302548,-9.83709243056177 -36.31256941890245,-9.83706425904102 -36.31260111923554,-9.83704685824369 -36.31266024670400,-9.83701249438610 -36.31267305363266,-9.83700833267738 -36.31269888832306,-9.83699781388475 -36.31272892850219,-9.83698765959067 -36.31273431705370,-9.83698409421558 -36.31283276312653,-9.83694351563603 -36.31286288104541,-9.83693321660670 -36.31288888628890,-9.83692567009741 -36.31292313650764,-9.83691578116120 -36.31293270839836,-9.83691291450569 -36.31295180351828,-9.83691180607276 -36.31296068948295,-9.83691223239610 -36.31303248392279,-9.83692250843887 -36.31307225638457,-9.83695089311948 -36.31312400468244,-9.83698307179216 -36.31319376161606,-9.83702893211024 -36.31320838031542,-9.83704372701593 -36.31323473611557,-9.83708422457949 -36.31327966775514,-9.83712317029955 -36.31328806116945,-9.83713962291245 -36.31336249138413,-9.83725192733322 -36.31343692164336,-9.83736423175029 -36.31347324542472,-9.83742705182983 -36.31350956921769,-9.83748987190892 -36.31357696730483,-9.83760259961376 -36.31364436543107,-9.83771532731660 -36.31371176359639,-9.83782805501750 -36.31377916180080,-9.83794078271640 -36.31383149588481,-9.83802049051691 -36.31388382999097,-9.83810019831563 -36.31392301368434,-9.83817220679127 -36.31396219739172,-9.83824421526658 -36.31401900261812,-9.83834437073063 -36.31405712768876,-9.83841047009542 -36.31408306380157,-9.83851423261775 -36.31408323630579,-9.83859662692992 -36.31397160903597,-9.83865817723193 -36.31384197308029,-9.83862453945315 -36.31371233716342,-9.83859090163147 -36.31358270128536,-9.83855726376690 -36.31345306544613,-9.83852362585944 -36.31332342964568,-9.83848998790908 -36.31319379388406,-9.83845634991583 -36.31306415816125,-9.83842271187967 -36.31293452247726,-9.83838907380064 -36.31280488683206,-9.83835543567871 -36.31267525122569,-9.83832179751390 -36.31254561565813,-9.83828815930619 -36.31241598012939,-9.83825452105560 -36.31228634463945,-9.83822088276211 -36.31215670918835,-9.83818724442574 -36.31202707377605,-9.83815360604647 -36.31189743840256,-9.83811996762432 -36.31176780306790,-9.83808632915929 -36.31163816777205,-9.83805269065136 -36.31150853251503,-9.83801905210054 -36.31137889729682,-9.83798541350685 -36.31124926211743,-9.83795177487027 -36.31111962697686,-9.83791813619081 -36.31098999187511,-9.83788449746846 -36.31086035681218,-9.83785085870323 -36.31073072178808,-9.83781721989512 -36.31060108680279,-9.83778358104413 -36.31047145185632,-9.83774994215025 -36.31034181694869,-9.83771630321349 -36.31021218207987,-9.83768266423386 -36.31008254724988,-9.83764902521134 -36.30995291245873,-9.83761538614595 -36.30982327770637,-9.83758174703765 -36.30969364299286,-9.83754810788650 -36.30956400831817,-9.83751446869247 -36.30943437368230,-9.83748082945556 -36.30930473908527,-9.83744719017577 -36.30917510452706,-9.83741355085311 -36.30904547000768,-9.83737991148757 -36.30891583552712,-9.83734627207916 -36.30878620108541,-9.83731263262786 -36.30865656668252,-9.83727899313370 -36.30852693231847,-9.83724535359667 -36.30839729799324,-9.83721171401676 -36.30826766370684,-9.83717807439396 -36.30813802945927,-9.83714443472831 -36.30800839525055,-9.83711079501978 -36.30787876108064,-9.83707715526838 -36.30774912694958,-9.83704351547412 -36.30761949285735,-9.83700987563698 -36.30748985880396,-9.83697623575698 -36.30736735812743,-9.83694211324936 -36.30724485748718,-9.83690799070390 -36.30712235688322,-9.83687386812062 -36.30699985631553,-9.83683974549952 -36.30687983682284,-9.83680890504574 -36.30675981736323,-9.83677806455517 -36.30663979793670,-9.83674722402779 -36.30651977854328,-9.83671638346362 -36.30639975918293,-9.83668554286264 -36.30627973985566,-9.83665470222487 -36.30615972056149,-9.83662386155030 -36.30603970130041,-9.83659302083892 -36.30591968207241,-9.83656218009073 -36.30579966287751,-9.83653133930577 -36.30578992248388,-9.83650245904420 -36.30588235237976,-9.83653023981597 -36.30597478229735,-9.83655802056652 -36.30606721223664,-9.83658580129581 -36.30614100494733,-9.83659680806030 -36.30621479766720,-9.83660781480995 -36.30632025529552,-9.83662573819473 -36.30642571294391,-9.83664366154958 -36.30651521612685,-9.83666540886785 -36.30660471932755,-9.83668715616550 -36.30669422254604,-9.83670890344248 -36.30676465904068,-9.83672992469312 -36.30683509554788,-9.83675094593144 -36.30693128855220,-9.83677944118360 -36.30702748157979,-9.83680793641270 -36.30714354072185,-9.83683991802135 -36.30725959989624,-9.83687189959597 -36.30737565910298,-9.83690388113657 -36.30749171834202,-9.83693586264316
          </coordinates>
        </LinearRing>
      </outerBoundaryIs>
    </Polygon>
  </Placemark>
</Document>
</kml>
