<?xml version="1.0" encoding="UTF-8"?>
<kml xmlns="http://www.opengis.net/kml/2.2" xmlns:gx="http://www.google.com/kml/ext/2.2" xmlns:kml="http://www.opengis.net/kml/2.2" xmlns:atom="http://www.w3.org/2005/Atom">
<Document>
  <name>1030.kml</name>
  <StyleMap id="FF0040FF">
    <Pair>
      <key>normal</key>
      <styleUrl>#s_FF0040FF</styleUrl>
    </Pair>
    <Pair>
      <key>highlight</key>
      <styleUrl>#s_FF0040FF_hl</styleUrl>
    </Pair>
  </StyleMap>
  <Style id="s_FF0040FF">
   <IconStyle>
      <scale>1.1</scale>
      <Icon>
        <href>http://maps.google.com/mapfiles/kml/pushpin/agrocad.png</href>
      </Icon>
      <hotSpot x="20" y="2" xunits="pixels" yunits="pixels"/>
    </IconStyle>
    <LineStyle>
      <color>FF0040FF</color>
      <width>1</width>
    </LineStyle>
    <PolyStyle>
      <color>40ffffff</color>
      <fill>1</fill>
    </PolyStyle>
  </Style>
  <Style id="s_FF0040FF_hl">
    <IconStyle>
      <scale>1.3</scale>
      <Icon>
        <href>http://maps.google.com/mapfiles/kml/pushpin/agrocad.png</href>
      </Icon>
      <hotSpot x="20" y="2" xunits="pixels" yunits="pixels"/>
    </IconStyle>
    <LineStyle>
      <color>ff000000</color>
      <width>1</width>
    </LineStyle>
    <PolyStyle>
      <color>40ffffff</color>
      <fill>1</fill>
    </PolyStyle>
  </Style>
  <Placemark>
    <name>AgroCAD: 835A</name>
    <styleUrl>FF0040FF</styleUrl>
    <Polygon>
      <outerBoundaryIs>
        <LinearRing>
          <coordinates>
           -36.34187189068415,-9.82292344180720 -36.34183187797987,-9.82313036111440 -36.34169304309006,-9.82371986007782 -36.34150524379432,-9.82457370037477 -36.34155901764658,-9.82453196526942 -36.34172297459309,-9.82441095585579 -36.34196959199604,-9.82422041962358 -36.34216820353407,-9.82408303556906 -36.34236213068736,-9.82395142127227 -36.34257448247875,-9.82382397426159 -36.34284291792744,-9.82366527498846 -36.34304604793247,-9.82352421508537 -36.34323818336663,-9.82336905040562 -36.34347954181035,-9.82317042878706 -36.34362147258621,-9.82305331906134 -36.34384423538565,-9.82284718504034 -36.34404780516683,-9.82263713821232 -36.34429651956958,-9.82236469613187 -36.34441052035582,-9.82222734742893 -36.34456522469235,-9.82205302761411 -36.34465191189355,-9.82196998282775 -36.34473247532395,-9.82189594363627 -36.34474217711495,-9.82188668335641 -36.34452901721084,-9.82182169838313 -36.34432352526430,-9.82176754938235 -36.34407584406361,-9.82170745346149 -36.34387240382903,-9.82166680617692 -36.34372401279828,-9.82164058574608 -36.34372109523163,-9.82164393340489 -36.34367879947401,-9.82168189692424 -36.34363356067012,-9.82171633287493 -36.34359227418551,-9.82175511748212 -36.34354732077758,-9.82179094664528 -36.34345404316248,-9.82186125633800 -36.34335536405009,-9.82191884938767 -36.34325504601249,-9.82197488229252 -36.34315452250831,-9.82202841222481 -36.34310615531118,-9.82205407891991 -36.34300911348807,-9.82210211941277 -36.34296241686869,-9.82212900167064 -36.34291461644504,-9.82215556303448 -36.34286875572783,-9.82218409694114 -36.34282278892891,-9.82221147378342 -36.34277470427077,-9.82224040112106 -36.34272407852800,-9.82226536149660 -36.34267599122911,-9.82229535829358 -36.34262612184014,-9.82232232276551 -36.34257737305507,-9.82234921082154 -36.34253142543394,-9.82237904634703 -36.34248865022428,-9.82241708303397 -36.34244441723465,-9.82245557301455 -36.34239913014487,-9.82249296085277 -36.34235421925853,-9.82252946771410 -36.34226869392391,-9.82261074682141 -36.34222214720073,-9.82265055062200 -36.34217556071937,-9.82268819284015 -36.34212996699817,-9.82272791947783 -36.34203931900263,-9.82280255436394 -36.34198991744034,-9.82284129645986 -36.34194108501332,-9.82287426499776 -36.34189312389522,-9.82290988220531 -36.34187189068415,-9.82292344180720 -36.34187189068415,-9.82292344180720
          </coordinates>
        </LinearRing>
      </outerBoundaryIs>
    </Polygon>
  </Placemark>
  <Placemark>
    <name>AgroCAD: 8359</name>
    <styleUrl>FF0040FF</styleUrl>
    <Polygon>
      <outerBoundaryIs>
        <LinearRing>
          <coordinates>
           -36.34149307236548,-9.82462903822314 -36.34158112698879,-9.82456069704593 -36.34174505165308,-9.82443971145818 -36.34199122696460,-9.82424951678542 -36.34218891637014,-9.82411277059138 -36.34238186857974,-9.82398181797031 -36.34259324484481,-9.82385495644299 -36.34286272403198,-9.82369564011374 -36.34306803160717,-9.82355306803817 -36.34326132276505,-9.82339697001872 -36.34350282901378,-9.82319822676460 -36.34364557433778,-9.82308044493825 -36.34386981963702,-9.82287293907767 -36.34407445323996,-9.82266179457182 -36.34432410809320,-9.82238832230701 -36.34443827146653,-9.82225077771035 -36.34459160275684,-9.82207800502626 -36.34467695654365,-9.82199623762420 -36.34475749559265,-9.82192222083763 -36.34478200606628,-9.82189882578935 -36.34491363338792,-9.82193895424882 -36.34550228149466,-9.82210218029746 -36.34640111172752,-9.82235095476354 -36.34660336729363,-9.82240785400974 -36.34648582893159,-9.82285155516882 -36.34586311435373,-9.82536778510294 -36.34547446502317,-9.82689265913679 -36.34298376617138,-9.82614938535843 -36.34134095001422,-9.82565344018286 -36.34125318872885,-9.82562735157232 -36.34131053387481,-9.82540823830240 -36.34146695682910,-9.82474777336481 -36.34149307236548,-9.82462903822314 -36.34149307236548,-9.82462903822314
          </coordinates>
        </LinearRing>
      </outerBoundaryIs>
    </Polygon>
  </Placemark>
</Document>
</kml>
