<?xml version="1.0" encoding="UTF-8"?>
<kml xmlns="http://www.opengis.net/kml/2.2" xmlns:gx="http://www.google.com/kml/ext/2.2" xmlns:kml="http://www.opengis.net/kml/2.2" xmlns:atom="http://www.w3.org/2005/Atom">
<Document>
  <name>1001.kml</name>
  <StyleMap id="FF0040FF">
    <Pair>
      <key>normal</key>
      <styleUrl>#s_FF0040FF</styleUrl>
    </Pair>
    <Pair>
      <key>highlight</key>
      <styleUrl>#s_FF0040FF_hl</styleUrl>
    </Pair>
  </StyleMap>
  <Style id="s_FF0040FF">
   <IconStyle>
      <scale>1.1</scale>
      <Icon>
        <href>http://maps.google.com/mapfiles/kml/pushpin/agrocad.png</href>
      </Icon>
      <hotSpot x="20" y="2" xunits="pixels" yunits="pixels"/>
    </IconStyle>
    <LineStyle>
      <color>FF0040FF</color>
      <width>1</width>
    </LineStyle>
    <PolyStyle>
      <color>40ffffff</color>
      <fill>1</fill>
    </PolyStyle>
  </Style>
  <Style id="s_FF0040FF_hl">
    <IconStyle>
      <scale>1.3</scale>
      <Icon>
        <href>http://maps.google.com/mapfiles/kml/pushpin/agrocad.png</href>
      </Icon>
      <hotSpot x="20" y="2" xunits="pixels" yunits="pixels"/>
    </IconStyle>
    <LineStyle>
      <color>ff000000</color>
      <width>1</width>
    </LineStyle>
    <PolyStyle>
      <color>40ffffff</color>
      <fill>1</fill>
    </PolyStyle>
  </Style>
  <Placemark>
    <name>AgroCAD: 835D</name>
    <styleUrl>FF0040FF</styleUrl>
    <Polygon>
      <outerBoundaryIs>
        <LinearRing>
          <coordinates>
           -36.31377794031318,-9.83868925210668 -36.31377959104784,-9.83869305625743 -36.31379068608307,-9.83874170889001 -36.31375511454532,-9.83878391879415 -36.31370515415542,-9.83882090937225 -36.31362532953755,-9.83888269008696 -36.31360997034458,-9.83890316989641 -36.31359356930873,-9.83891415432916 -36.31295362091009,-9.83926838854291 -36.31220161749550,-9.83967461831795 -36.31096095344596,-9.84034373452505 -36.31023263648419,-9.84073350174183 -36.30943718056317,-9.84116158197453 -36.30916255200876,-9.84131281401229 -36.30912497482758,-9.84128627577342 -36.30908205494804,-9.84125190016419 -36.30903828791335,-9.84121241895014 -36.30894105217747,-9.84114957668137 -36.30876784930462,-9.84103478987940 -36.30853651328024,-9.84088176472442 -36.30826379587772,-9.84069892111081 -36.30774376575745,-9.84035933220814 -36.30693247510361,-9.83984595898164 -36.30601241396322,-9.83925866592289 -36.30544296956678,-9.83887825097122 -36.30455656902765,-9.83829905585761 -36.30388530067995,-9.83786623462456 -36.30255542023230,-9.83699459556656 -36.30207200527977,-9.83667668590568 -36.30068946635474,-9.83574756569914 -36.30036445945022,-9.83552530380985 -36.30025789578336,-9.83545730263634 -36.30004257303976,-9.83533094555871 -36.29991756221367,-9.83525687243336 -36.29977284374189,-9.83514614583877 -36.29964229864538,-9.83504027937605 -36.29956306344644,-9.83499045050097 -36.30014538700752,-9.83513605559154 -36.30104470464015,-9.83537207489411 -36.30199069138618,-9.83561849422704 -36.30346729254803,-9.83599594143349 -36.30484466393740,-9.83635085160783 -36.30568535578243,-9.83657352043534 -36.30613448947757,-9.83668969245323 -36.30662508160527,-9.83681055514410 -36.30786854900176,-9.83713197126991 -36.30878498152671,-9.83738141727816 -36.30972331581321,-9.83762846875046 -36.31210533806365,-9.83824179069618 -36.31297889299365,-9.83847181766060 -36.31369415512211,-9.83866444766112 -36.31377794031318,-9.83868925210668 -36.31377794031318,-9.83868925210668
          </coordinates>
        </LinearRing>
      </outerBoundaryIs>
    </Polygon>
  </Placemark>
</Document>
</kml>
