<?xml version="1.0" encoding="UTF-8"?>
<kml xmlns="http://www.opengis.net/kml/2.2" xmlns:gx="http://www.google.com/kml/ext/2.2" xmlns:kml="http://www.opengis.net/kml/2.2" xmlns:atom="http://www.w3.org/2005/Atom">
<Document>
  <name>1029.kml</name>
  <StyleMap id="FF0040FF">
    <Pair>
      <key>normal</key>
      <styleUrl>#s_FF0040FF</styleUrl>
    </Pair>
    <Pair>
      <key>highlight</key>
      <styleUrl>#s_FF0040FF_hl</styleUrl>
    </Pair>
  </StyleMap>
  <Style id="s_FF0040FF">
   <IconStyle>
      <scale>1.1</scale>
      <Icon>
        <href>http://maps.google.com/mapfiles/kml/pushpin/agrocad.png</href>
      </Icon>
      <hotSpot x="20" y="2" xunits="pixels" yunits="pixels"/>
    </IconStyle>
    <LineStyle>
      <color>FF0040FF</color>
      <width>1</width>
    </LineStyle>
    <PolyStyle>
      <color>40ffffff</color>
      <fill>1</fill>
    </PolyStyle>
  </Style>
  <Style id="s_FF0040FF_hl">
    <IconStyle>
      <scale>1.3</scale>
      <Icon>
        <href>http://maps.google.com/mapfiles/kml/pushpin/agrocad.png</href>
      </Icon>
      <hotSpot x="20" y="2" xunits="pixels" yunits="pixels"/>
    </IconStyle>
    <LineStyle>
      <color>ff000000</color>
      <width>1</width>
    </LineStyle>
    <PolyStyle>
      <color>40ffffff</color>
      <fill>1</fill>
    </PolyStyle>
  </Style>
  <Placemark>
    <name>AgroCAD: 8368</name>
    <styleUrl>FF0040FF</styleUrl>
    <Polygon>
      <outerBoundaryIs>
        <LinearRing>
          <coordinates>
           -36.35061858071460,-9.81931818697757 -36.34958620476516,-9.82319797509879 -36.34936348567368,-9.82313581964505 -36.34864703374994,-9.82293659245551 -36.34779291083972,-9.82270493136170 -36.34664769223155,-9.82238275707142 -36.34661262863007,-9.82237289287023 -36.34641098122326,-9.82231616471967 -36.34551207646703,-9.82206736965566 -36.34492389435375,-9.82190427283679 -36.34453905286735,-9.82178694829404 -36.34433253436868,-9.82173252879393 -36.34408377528048,-9.82167217134819 -36.34387919861616,-9.82163129701153 -36.34375173685330,-9.82160877475295 -36.34375936785043,-9.82160001883155 -36.34379479350913,-9.82155370315895 -36.34383070261449,-9.82150920204404 -36.34386493068254,-9.82146391857249 -36.34394548378972,-9.82137819963646 -36.34398598123151,-9.82133540357100 -36.34402849292754,-9.82129647673507 -36.34407251882509,-9.82126165196814 -36.34411664838351,-9.82122366746775 -36.34415432362310,-9.82118156370788 -36.34426710482128,-9.82105328897886 -36.34444427583054,-9.82090080260218 -36.34457713155191,-9.82077961357891 -36.34467073884629,-9.82069874025457 -36.34471673362644,-9.82066146088453 -36.34476346862158,-9.82062641318111 -36.34486720778055,-9.82056293136687 -36.34491584650374,-9.82052814985761 -36.34496684641136,-9.82049392214268 -36.34501421290705,-9.82045631612837 -36.34506023868745,-9.82041730262110 -36.34510470502164,-9.82037555762280 -36.34514474062514,-9.82033165802972 -36.34518300636788,-9.82028770899544 -36.34522580942753,-9.82024743501760 -36.34526772306607,-9.82020561459758 -36.34530912812055,-9.82016140707630 -36.34534952276650,-9.82012042565277 -36.34539316960503,-9.82007998981731 -36.34543543353191,-9.82003872146806 -36.34548069689504,-9.82000143992161 -36.34552106665837,-9.81996079536828 -36.34556533944027,-9.81992576624221 -36.34561250652832,-9.81988846305654 -36.34566131616200,-9.81984893562281 -36.34569168276866,-9.81982001583088 -36.34571335198506,-9.81980961719704 -36.34575211181939,-9.81977956424656 -36.34579589299185,-9.81974153177927 -36.34583749972144,-9.81970197488449 -36.34587638713334,-9.81966089696259 -36.34595559228902,-9.81957629771764 -36.34604016073108,-9.81949534294848 -36.34611539863190,-9.81939862077443 -36.34615357366246,-9.81935423751710 -36.34619214533054,-9.81930915864896 -36.34623324768521,-9.81926227542066 -36.34627408102589,-9.81921361600803 -36.34631239164101,-9.81916526702050 -36.34634730981026,-9.81911493754439 -36.34638713368172,-9.81906733284384 -36.34642356964683,-9.81901535371442 -36.34651763846628,-9.81890127007818 -36.34654741957044,-9.81884979089465 -36.34658041408901,-9.81880129333249 -36.34661584108858,-9.81875369831392 -36.34665419057025,-9.81870574030004 -36.34669041958971,-9.81865671939749 -36.34677140465216,-9.81856143495654 -36.34680988665287,-9.81851583369248 -36.34684620841076,-9.81846943298188 -36.34688360434117,-9.81841996657828 -36.34691793614170,-9.81836951642842 -36.34695052935450,-9.81831772918216 -36.34698787479869,-9.81827162069489 -36.34702391906467,-9.81822313494914 -36.34705757711166,-9.81817206281297 -36.34713426100111,-9.81807986668441 -36.34717656293651,-9.81803853410298 -36.34727066153960,-9.81795616235653 -36.34731400799682,-9.81791545447051 -36.34735994081970,-9.81787318565362 -36.34740620716053,-9.81783486466220 -36.34745608372560,-9.81780460598430 -36.34750573839065,-9.81777625822854 -36.34755697380741,-9.81775540061664 -36.34761381152103,-9.81773808235175 -36.34767189332064,-9.81772323543680 -36.34772855294142,-9.81770643547930 -36.34778712547636,-9.81770082988045 -36.34781397062595,-9.81769674330559 -36.34785276865386,-9.81768969077921 -36.34789803597066,-9.81767586681248 -36.34795355835958,-9.81765357024463 -36.34801217166824,-9.81763047848721 -36.34812586956905,-9.81757793798065 -36.34818082382917,-9.81754723412931 -36.34828922946507,-9.81748397240765 -36.34839787896768,-9.81741549904419 -36.34850470455686,-9.81734798903209 -36.34861313403116,-9.81728709802199 -36.34866815972348,-9.81726072792634 -36.34872438205018,-9.81723922198581 -36.34883863999405,-9.81720087346732 -36.34896058438164,-9.81717908095135 -36.34902033422393,-9.81718078985771 -36.34907901991072,-9.81718762347523 -36.34913607203097,-9.81720096232098 -36.34919310458091,-9.81721577037514 -36.34925366949164,-9.81722637827119 -36.34931304467396,-9.81723463852426 -36.34937335149462,-9.81723491471188 -36.34943491652439,-9.81722630068047 -36.34949332724914,-9.81721289682668 -36.34955022479902,-9.81719990233298 -36.34967004135784,-9.81717494358121 -36.34972770513775,-9.81716323181710 -36.34978603022086,-9.81715559678767 -36.34984620905203,-9.81714836303311 -36.34990479641916,-9.81713962894503 -36.34992690118473,-9.81713877653122 -36.34996150005834,-9.81713904734547 -36.35001673741515,-9.81714397857719 -36.35006984601024,-9.81716038402634 -36.35012145833526,-9.81718167140030 -36.35017326122949,-9.81720425971547 -36.35022120671900,-9.81723489405005 -36.35022400385580,-9.81723670614413 -36.35024431243272,-9.81737376950640 -36.35031976592235,-9.81779542235689 -36.35041172584775,-9.81827620587194 -36.35041855235747,-9.81831189611174 -36.35051312190887,-9.81880632276143 -36.35061858071462,-9.81931818697757 -36.35061858071460,-9.81931818697757
          </coordinates>
        </LinearRing>
      </outerBoundaryIs>
    </Polygon>
  </Placemark>
</Document>
</kml>
