<?xml version="1.0" encoding="UTF-8"?>
<kml xmlns="http://www.opengis.net/kml/2.2" xmlns:gx="http://www.google.com/kml/ext/2.2" xmlns:kml="http://www.opengis.net/kml/2.2" xmlns:atom="http://www.w3.org/2005/Atom">
<Document>
  <name>1053.kml</name>
  <StyleMap id="FFFF4000">
    <Pair>
      <key>normal</key>
      <styleUrl>#s_FFFF4000</styleUrl>
    </Pair>
    <Pair>
      <key>highlight</key>
      <styleUrl>#s_FFFF4000_hl</styleUrl>
    </Pair>
  </StyleMap>
  <Style id="s_FFFF4000">
   <IconStyle>
      <scale>1.1</scale>
      <Icon>
        <href>http://maps.google.com/mapfiles/kml/pushpin/agrocad.png</href>
      </Icon>
      <hotSpot x="20" y="2" xunits="pixels" yunits="pixels"/>
    </IconStyle>
    <LineStyle>
      <color>FFFF4000</color>
      <width>1</width>
    </LineStyle>
    <PolyStyle>
      <color>40ffffff</color>
      <fill>1</fill>
    </PolyStyle>
  </Style>
  <Style id="s_FFFF4000_hl">
    <IconStyle>
      <scale>1.3</scale>
      <Icon>
        <href>http://maps.google.com/mapfiles/kml/pushpin/agrocad.png</href>
      </Icon>
      <hotSpot x="20" y="2" xunits="pixels" yunits="pixels"/>
    </IconStyle>
    <LineStyle>
      <color>ff000000</color>
      <width>1</width>
    </LineStyle>
    <PolyStyle>
      <color>40ffffff</color>
      <fill>1</fill>
    </PolyStyle>
  </Style>
  <Placemark>
    <name>AgroCAD: 8F6D</name>
    <styleUrl>FFFF4000</styleUrl>
    <Polygon>
      <outerBoundaryIs>
        <LinearRing>
          <coordinates>
           -36.31883316168584,-9.83987405724167 -36.31895779433656,-9.83990673882443 -36.31908932760603,-9.83994122985687 -36.31922086091570,-9.83997572084521 -36.31935239426556,-9.84001021178943 -36.31948392765562,-9.84004470268957 -36.31961546108588,-9.84007919354558 -36.31974699455633,-9.84011368435750 -36.31987852806697,-9.84014817512529 -36.32001006161781,-9.84018266584899 -36.32014159520885,-9.84021715652856 -36.32027312884007,-9.84025164716405 -36.32040466251149,-9.84028613775540 -36.32053619622310,-9.84032062830266 -36.32066772997490,-9.84035511880579 -36.32079926376690,-9.84038960926484 -36.32093079759909,-9.84042409967974 -36.32106233147144,-9.84045859005056 -36.32119386538402,-9.84049308037724 -36.32132539933678,-9.84052757065982 -36.32145693332971,-9.84056206089827 -36.32158846736284,-9.84059655109262 -36.32172000143615,-9.84063104124284 -36.32185153554966,-9.84066553134896 -36.32198306970336,-9.84070002141095 -36.32211460389722,-9.84073451142883 -36.32224613813127,-9.84076900140258 -36.32237767240552,-9.84080349133223 -36.32250920671995,-9.84083798121774 -36.32264074107455,-9.84087247105915 -36.32277227546934,-9.84090696085642 -36.32290380990432,-9.84094145060959 -36.32303534437947,-9.84097594031862 -36.32317973898764,-9.84101380202551 -36.32317998754830,-9.84101287545815 -36.32318021629782,-9.84101202274139 -36.32318043786351,-9.84101119680402 -36.32318065947180,-9.84101037070778 -36.32318088116767,-9.84100954428515 -36.32318110301940,-9.84100871728139 -36.32318132522295,-9.84100788896619 -36.32318154810481,-9.84100705812251 -36.32318177233980,-9.84100622223466 -36.32318198664543,-9.84100542336076 -36.32318220817134,-9.84100459757155 -36.32318242971338,-9.84100377172230 -36.32318265121231,-9.84100294603369 -36.32318287276792,-9.84100212013389 -36.32318309427095,-9.84100129442995 -36.32344180924512,-9.84003686995774 -36.32331649146995,-9.84000416905355 -36.32319058890923,-9.83997131550326 -36.32306468638520,-9.83993846191251 -36.32293878389788,-9.83990560828132 -36.32281288144727,-9.83987275460966 -36.32268697903334,-9.83983990089756 -36.32256107665612,-9.83980704714502 -36.32243517431561,-9.83977419335204 -36.32230927201179,-9.83974133951859 -36.32218336974466,-9.83970848564469 -36.32205746751425,-9.83967563173035 -36.32193156532055,-9.83964277777556 -36.32180566316353,-9.83960992378032 -36.32167976104322,-9.83957706974464 -36.32155385895963,-9.83954421566851 -36.32142432408556,-9.83951079318946 -36.32129478925005,-9.83947737066750 -36.32116525445314,-9.83944394810268 -36.32103571969480,-9.83941052549494 -36.32090618497504,-9.83937710284433 -36.32077665029387,-9.83934368015082 -36.32064711565127,-9.83931025741445 -36.32051758104726,-9.83927683463518 -36.32038804648181,-9.83924341181300 -36.32025851195496,-9.83920998894797 -36.32012897746669,-9.83917656604002 -36.31999944301700,-9.83914314308922 -36.31986990860591,-9.83910972009552 -36.31974037423339,-9.83907629705893 -36.31961083989946,-9.83904287397947 -36.31948130560410,-9.83900945085711 -36.31935177134734,-9.83897602769189 -36.31922223712917,-9.83894260448377 -36.31909205438816,-9.83890901388661 -36.31883829475389,-9.83985492340429 -36.31883807327130,-9.83985574899482 -36.31883785168795,-9.83985657496083 -36.31883763018590,-9.83985740062392 -36.31883740862623,-9.83985822650169 -36.31883718709027,-9.83985905229110 -36.31883697278706,-9.83985985111999 -36.31883674855790,-9.83986068694850 -36.31883652563645,-9.83986151790235 -36.31883630342505,-9.83986234620949 -36.31883608157054,-9.83986317318633 -36.31883585987561,-9.83986399956832 -36.31883563826087,-9.83986482565129 -36.31883541667929,-9.83986565161067 -36.31883518791914,-9.83986650432867 -36.31883496008164,-9.83986735360748 -36.31883473538171,-9.83986819119063 -36.31883451227253,-9.83986902284436 -36.31883428995191,-9.83986985155850 -36.31883406802443,-9.83987067880723 -36.31883384629438,-9.83987150532007 -36.31883362466159,-9.83987233147025 -36.31883339587534,-9.83987318428551 -36.31883316168584,-9.83987405724167
          </coordinates>
        </LinearRing>
      </outerBoundaryIs>
    </Polygon>
  </Placemark>
</Document>
</kml>
