<?xml version="1.0" encoding="UTF-8"?>
<kml xmlns="http://www.opengis.net/kml/2.2" xmlns:gx="http://www.google.com/kml/ext/2.2" xmlns:kml="http://www.opengis.net/kml/2.2" xmlns:atom="http://www.w3.org/2005/Atom">
<Document>
  <name>34.kml</name>
  <StyleMap id="FFFF4000">
    <Pair>
      <key>normal</key>
      <styleUrl>#s_FFFF4000</styleUrl>
    </Pair>
    <Pair>
      <key>highlight</key>
      <styleUrl>#s_FFFF4000_hl</styleUrl>
    </Pair>
  </StyleMap>
  <Style id="s_FFFF4000">
   <IconStyle>
      <scale>1.1</scale>
      <Icon>
        <href>http://maps.google.com/mapfiles/kml/pushpin/agrocad.png</href>
      </Icon>
      <hotSpot x="20" y="2" xunits="pixels" yunits="pixels"/>
    </IconStyle>
    <LineStyle>
      <color>FFFF4000</color>
      <width>1</width>
    </LineStyle>
    <PolyStyle>
      <color>40ffffff</color>
      <fill>1</fill>
    </PolyStyle>
  </Style>
  <Style id="s_FFFF4000_hl">
    <IconStyle>
      <scale>1.3</scale>
      <Icon>
        <href>http://maps.google.com/mapfiles/kml/pushpin/agrocad.png</href>
      </Icon>
      <hotSpot x="20" y="2" xunits="pixels" yunits="pixels"/>
    </IconStyle>
    <LineStyle>
      <color>ff000000</color>
      <width>1</width>
    </LineStyle>
    <PolyStyle>
      <color>40ffffff</color>
      <fill>1</fill>
    </PolyStyle>
  </Style>
  <Placemark>
    <name>AgroCAD: 1FC1F</name>
    <styleUrl>FFFF4000</styleUrl>
    <Polygon>
      <outerBoundaryIs>
        <LinearRing>
          <coordinates>
           -36.46309695807878,-9.72559644728521 -36.46222002226348,-9.72543663725876 -36.46174445822028,-9.72528059220180 -36.46117895008635,-9.72511466128342 -36.46024751498778,-9.72484165763684 -36.45958901511765,-9.72467094664906 -36.45915864807270,-9.72455237121775 -36.45838886180113,-9.72433908873400 -36.45822825675633,-9.72428987401450 -36.45816788759022,-9.72426516015951 -36.45815137796053,-9.72423522113510 -36.45841944428325,-9.72363697501394 -36.45885127192404,-9.72281318942923 -36.45891037834431,-9.72269723274669 -36.45929485562916,-9.72204054299519 -36.45965847682679,-9.72136130817623 -36.46017507922767,-9.72040167037870 -36.46025931735972,-9.72022578238444 -36.46094114539245,-9.72040942116487 -36.46154984422387,-9.72057403348957 -36.46160575961153,-9.72069597193993 -36.46177061469499,-9.72107886357092 -36.46193975416509,-9.72144449058368 -36.46210275451212,-9.72175316840239 -36.46228027285997,-9.72202155857190 -36.46244410957067,-9.72223419425898 -36.46254446015185,-9.72237720687887 -36.46263824492511,-9.72255428564090 -36.46266770308141,-9.72265365738959 -36.46268833091117,-9.72270818016858 -36.46273415103111,-9.72275682903663 -36.46279934943579,-9.72286907711527 -36.46283087015264,-9.72293984657024 -36.46287412574703,-9.72303437015118 -36.46290751516583,-9.72314606124859 -36.46293968917268,-9.72332107017898 -36.46294715493288,-9.72371220851147 -36.46293920872350,-9.72396064481429 -36.46292068564185,-9.72421778668990 -36.46290575925437,-9.72435344364016 -36.46291283754346,-9.72442464121953 -36.46292357267301,-9.72445565640251 -36.46293892556129,-9.72450762502761 -36.46295059498608,-9.72455910099046 -36.46297547873775,-9.72475205132689 -36.46301535456312,-9.72500983477532 -36.46304312789835,-9.72517009231459 -36.46307824818123,-9.72541906440124 -36.46309695807878,-9.72559644728521 -36.46309695807878,-9.72559644728521 -36.46309695807878,-9.72559644728521
          </coordinates>
        </LinearRing>
      </outerBoundaryIs>
    </Polygon>
  </Placemark>
</Document>
</kml>
