<?xml version="1.0" encoding="UTF-8"?>
<kml xmlns="http://www.opengis.net/kml/2.2" xmlns:gx="http://www.google.com/kml/ext/2.2" xmlns:kml="http://www.opengis.net/kml/2.2" xmlns:atom="http://www.w3.org/2005/Atom">
<Document>
  <name>35.kml</name>
  <StyleMap id="FFFF0000">
    <Pair>
      <key>normal</key>
      <styleUrl>#s_FFFF0000</styleUrl>
    </Pair>
    <Pair>
      <key>highlight</key>
      <styleUrl>#s_FFFF0000_hl</styleUrl>
    </Pair>
  </StyleMap>
  <Style id="s_FFFF0000">
   <IconStyle>
      <scale>1.1</scale>
      <Icon>
        <href>http://maps.google.com/mapfiles/kml/pushpin/agrocad.png</href>
      </Icon>
      <hotSpot x="20" y="2" xunits="pixels" yunits="pixels"/>
    </IconStyle>
    <LineStyle>
      <color>FFFF0000</color>
      <width>1</width>
    </LineStyle>
    <PolyStyle>
      <color>40ffffff</color>
      <fill>1</fill>
    </PolyStyle>
  </Style>
  <Style id="s_FFFF0000_hl">
    <IconStyle>
      <scale>1.3</scale>
      <Icon>
        <href>http://maps.google.com/mapfiles/kml/pushpin/agrocad.png</href>
      </Icon>
      <hotSpot x="20" y="2" xunits="pixels" yunits="pixels"/>
    </IconStyle>
    <LineStyle>
      <color>ff000000</color>
      <width>1</width>
    </LineStyle>
    <PolyStyle>
      <color>40ffffff</color>
      <fill>1</fill>
    </PolyStyle>
  </Style>
  <Placemark>
    <name>AgroCAD: 1CC66</name>
    <styleUrl>FFFF0000</styleUrl>
    <Polygon>
      <outerBoundaryIs>
        <LinearRing>
          <coordinates>
           -36.18670566635300,-9.85130152459768 -36.18680023836049,-9.85133490662762 -36.18686668923511,-9.85135881685646 -36.18683297716177,-9.85140267018555 -36.18679242524986,-9.85145580948238 -36.18652722105581,-9.85181075660597 -36.18616718387732,-9.85228665163303 -36.18607557504143,-9.85239531801090 -36.18600970249082,-9.85247015952728 -36.18584807769852,-9.85239229571236 -36.18572402282000,-9.85233192860581 -36.18490704618780,-9.85194353972144 -36.18399101752328,-9.85149615250306 -36.18389812713056,-9.85144547868751 -36.18385256686862,-9.85141951026629 -36.18383090632791,-9.85141014180897 -36.18381021294979,-9.85139714237126 -36.18378320883880,-9.85137947602472 -36.18374597205720,-9.85133409187870 -36.18370511774396,-9.85129028255880 -36.18366637607231,-9.85124842701152 -36.18362639165203,-9.85121167596549 -36.18354069312971,-9.85112804747113 -36.18351048298146,-9.85110043041308 -36.18347580822518,-9.85106763369277 -36.18344009005968,-9.85103463003592 -36.18340331427732,-9.85100522595711 -36.18336820568104,-9.85097560318899 -36.18333138969550,-9.85094697350079 -36.18329375761962,-9.85091860016876 -36.18325585954052,-9.85089198832744 -36.18321829945315,-9.85086555577710 -36.18318283406708,-9.85083692732571 -36.18314721439134,-9.85080892424735 -36.18310623185219,-9.85077022831521 -36.18308462996729,-9.85074600153669 -36.18305096059719,-9.85070372319469 -36.18302931139926,-9.85066512457568 -36.18301424245451,-9.85062340273025 -36.18300337623206,-9.85058045637879 -36.18299822845187,-9.85053764173403 -36.18299831616969,-9.85049321409620 -36.18300312164038,-9.85044778860549 -36.18300909190553,-9.85040213895434 -36.18301914276211,-9.85035711173172 -36.18302980266756,-9.85031448881750 -36.18304000970565,-9.85027073988901 -36.18305103273232,-9.85022864968203 -36.18306320550949,-9.85018656559925 -36.18307531177148,-9.85014639635531 -36.18308972153211,-9.85011128360576 -36.18310820825462,-9.85008933136787 -36.18313870254204,-9.85009094088966 -36.18317953449114,-9.85010433007040 -36.18321950994973,-9.85011845375573 -36.18325901905694,-9.85013219813743 -36.18329921562338,-9.85014541455605 -36.18381792263694,-9.85032023024575 -36.18430154214421,-9.85048303823907 -36.18497669030948,-9.85071375893145 -36.18552611225206,-9.85090114300878 -36.18620407492588,-9.85113114788934 -36.18670566635300,-9.85130152459768 -36.18670566635300,-9.85130152459768
          </coordinates>
        </LinearRing>
      </outerBoundaryIs>
    </Polygon>
  </Placemark>
</Document>
</kml>
