<?xml version="1.0" encoding="UTF-8"?>
<kml xmlns="http://www.opengis.net/kml/2.2" xmlns:gx="http://www.google.com/kml/ext/2.2" xmlns:kml="http://www.opengis.net/kml/2.2" xmlns:atom="http://www.w3.org/2005/Atom">
<Document>
  <name>37.kml</name>
  <StyleMap id="FFFF0000">
    <Pair>
      <key>normal</key>
      <styleUrl>#s_FFFF0000</styleUrl>
    </Pair>
    <Pair>
      <key>highlight</key>
      <styleUrl>#s_FFFF0000_hl</styleUrl>
    </Pair>
  </StyleMap>
  <Style id="s_FFFF0000">
   <IconStyle>
      <scale>1.1</scale>
      <Icon>
        <href>http://maps.google.com/mapfiles/kml/pushpin/agrocad.png</href>
      </Icon>
      <hotSpot x="20" y="2" xunits="pixels" yunits="pixels"/>
    </IconStyle>
    <LineStyle>
      <color>FFFF0000</color>
      <width>1</width>
    </LineStyle>
    <PolyStyle>
      <color>40ffffff</color>
      <fill>1</fill>
    </PolyStyle>
  </Style>
  <Style id="s_FFFF0000_hl">
    <IconStyle>
      <scale>1.3</scale>
      <Icon>
        <href>http://maps.google.com/mapfiles/kml/pushpin/agrocad.png</href>
      </Icon>
      <hotSpot x="20" y="2" xunits="pixels" yunits="pixels"/>
    </IconStyle>
    <LineStyle>
      <color>ff000000</color>
      <width>1</width>
    </LineStyle>
    <PolyStyle>
      <color>40ffffff</color>
      <fill>1</fill>
    </PolyStyle>
  </Style>
  <Placemark>
    <name>AgroCAD: 1CC62</name>
    <styleUrl>FFFF0000</styleUrl>
    <Polygon>
      <outerBoundaryIs>
        <LinearRing>
          <coordinates>
           -36.18473431523542,-9.85415765971041 -36.18466379188798,-9.85412617487473 -36.18457454161703,-9.85407669808200 -36.18370630122051,-9.85365274030605 -36.18269543497498,-9.85315746848228 -36.18194998560991,-9.85278836077428 -36.18148364390334,-9.85256329690550 -36.18142018669388,-9.85252958429508 -36.18138211711210,-9.85257904017259 -36.18127731242792,-9.85272171503146 -36.18122867271046,-9.85281171492705 -36.18118813283557,-9.85291163698002 -36.18116264454674,-9.85301600132920 -36.18111209562048,-9.85342086615699 -36.18105222826924,-9.85395770655658 -36.18099630733425,-9.85443194619584 -36.18099162246692,-9.85447568501899 -36.18098712159612,-9.85451766635410 -36.18098162329518,-9.85456006538015 -36.18099406569227,-9.85458266163643 -36.18102829539457,-9.85460118387920 -36.18106460371226,-9.85461999035749 -36.18110405307155,-9.85463851396522 -36.18114481580649,-9.85465928655852 -36.18116392134512,-9.85466541484095 -36.18162638160116,-9.85488901938866 -36.18207128160032,-9.85511016251286 -36.18290867324955,-9.85550687962079 -36.18313440057479,-9.85562720995360 -36.18336411219190,-9.85572436665921 -36.18338932494888,-9.85573710132314 -36.18342993578434,-9.85575522052170 -36.18346986182383,-9.85577337064607 -36.18349800896318,-9.85576236413093 -36.18352639617942,-9.85572528545309 -36.18355503242921,-9.85568900484602 -36.18358358017042,-9.85565290017277 -36.18361255614176,-9.85561555929059 -36.18370258605634,-9.85550361249118 -36.18399531347908,-9.85511991264279 -36.18436263660242,-9.85464124296452 -36.18468158485088,-9.85423231180799 -36.18473431523542,-9.85415765971041 -36.18473431523542,-9.85415765971041 -36.18473431523542,-9.85415765971041
          </coordinates>
        </LinearRing>
      </outerBoundaryIs>
    </Polygon>
  </Placemark>
  <Placemark>
    <name>AgroCAD: 1CC5A</name>
    <styleUrl>FFFF0000</styleUrl>
    <Polygon>
      <outerBoundaryIs>
        <LinearRing>
          <coordinates>
           -36.18478229696171,-9.85417998611233 -36.18485986123519,-9.85421811487604 -36.18523848938945,-9.85440895325746 -36.18572709974833,-9.85464759115089 -36.18618701440774,-9.85487525424789 -36.18636312603539,-9.85496764270073 -36.18638199091805,-9.85497642472552 -36.18641636642275,-9.85500050082923 -36.18640731381390,-9.85502387072006 -36.18638004629844,-9.85505975460300 -36.18634830359180,-9.85509351721237 -36.18631809918865,-9.85512610744730 -36.18628623564105,-9.85515804419555 -36.18625250838285,-9.85518840769312 -36.18616799592948,-9.85524592110420 -36.18608565525999,-9.85529619327780 -36.18602534897006,-9.85532931974536 -36.18602154084025,-9.85533305120595 -36.18598098897774,-9.85535060558586 -36.18594059542090,-9.85536975327785 -36.18589968343081,-9.85538544531544 -36.18586251735864,-9.85540626167104 -36.18582737805688,-9.85543060380977 -36.18579218645002,-9.85545508710826 -36.18575741224364,-9.85547977556104 -36.18572023412732,-9.85550529027175 -36.18568500325336,-9.85553166808309 -36.18565130806942,-9.85556115521471 -36.18561980926270,-9.85559372204693 -36.18558920555547,-9.85562798166636 -36.18556768787461,-9.85566806275137 -36.18555449642228,-9.85571111036087 -36.18554729938921,-9.85575500101804 -36.18554713126270,-9.85579908838207 -36.18555377203509,-9.85584339000621 -36.18556537952154,-9.85588702801228 -36.18557587441436,-9.85592983590968 -36.18558744390151,-9.85598416701499 -36.18559046251047,-9.85602055862688 -36.18558478497943,-9.85607733625436 -36.18558329858711,-9.85608432550441 -36.18556273443644,-9.85613707404942 -36.18554491755766,-9.85617752844551 -36.18552612791088,-9.85622215364052 -36.18550559401321,-9.85626532789622 -36.18548410450698,-9.85630873022597 -36.18546435687681,-9.85635200659474 -36.18544594087954,-9.85639556656261 -36.18542937526675,-9.85643872781415 -36.18541274664339,-9.85648283774573 -36.18539838182797,-9.85652739107145 -36.18538720737523,-9.85656915357058 -36.18537623337593,-9.85661093860715 -36.18536219655647,-9.85666128611541 -36.18533741866494,-9.85668493083518 -36.18529285160296,-9.85666674712873 -36.18524939966280,-9.85664718485354 -36.18520615761081,-9.85662639099165 -36.18498036222955,-9.85651379833176 -36.18448605942567,-9.85626906656177 -36.18399833261327,-9.85603221118992 -36.18364411014144,-9.85586326805102 -36.18360357920268,-9.85584090666261 -36.18356342190546,-9.85581805383002 -36.18354748689608,-9.85579761313573 -36.18357103967147,-9.85575948322736 -36.18359728948610,-9.85572567840685 -36.18361393887497,-9.85570336468560 -36.18374233381316,-9.85553761119943 -36.18403615946457,-9.85515251340372 -36.18440471661499,-9.85467480408283 -36.18471048144840,-9.85427156118437 -36.18475178031384,-9.85422332419502 -36.18478229696171,-9.85417998611233 -36.18478229696171,-9.85417998611233 -36.18478229696171,-9.85417998611233
          </coordinates>
        </LinearRing>
      </outerBoundaryIs>
    </Polygon>
  </Placemark>
</Document>
</kml>
