<?xml version="1.0" encoding="UTF-8"?>
<kml xmlns="http://www.opengis.net/kml/2.2" xmlns:gx="http://www.google.com/kml/ext/2.2" xmlns:kml="http://www.opengis.net/kml/2.2" xmlns:atom="http://www.w3.org/2005/Atom">
<Document>
  <name>40.kml</name>
  <StyleMap id="FFFF0000">
    <Pair>
      <key>normal</key>
      <styleUrl>#s_FFFF0000</styleUrl>
    </Pair>
    <Pair>
      <key>highlight</key>
      <styleUrl>#s_FFFF0000_hl</styleUrl>
    </Pair>
  </StyleMap>
  <Style id="s_FFFF0000">
   <IconStyle>
      <scale>1.1</scale>
      <Icon>
        <href>http://maps.google.com/mapfiles/kml/pushpin/agrocad.png</href>
      </Icon>
      <hotSpot x="20" y="2" xunits="pixels" yunits="pixels"/>
    </IconStyle>
    <LineStyle>
      <color>FFFF0000</color>
      <width>1</width>
    </LineStyle>
    <PolyStyle>
      <color>40ffffff</color>
      <fill>1</fill>
    </PolyStyle>
  </Style>
  <Style id="s_FFFF0000_hl">
    <IconStyle>
      <scale>1.3</scale>
      <Icon>
        <href>http://maps.google.com/mapfiles/kml/pushpin/agrocad.png</href>
      </Icon>
      <hotSpot x="20" y="2" xunits="pixels" yunits="pixels"/>
    </IconStyle>
    <LineStyle>
      <color>ff000000</color>
      <width>1</width>
    </LineStyle>
    <PolyStyle>
      <color>40ffffff</color>
      <fill>1</fill>
    </PolyStyle>
  </Style>
  <Placemark>
    <name>AgroCAD: 1CC5F</name>
    <styleUrl>FFFF0000</styleUrl>
    <Polygon>
      <outerBoundaryIs>
        <LinearRing>
          <coordinates>
           -36.18270587259690,-9.86214097777765 -36.18266342216929,-9.86214113127420 -36.18262156153716,-9.86212987919262 -36.18258150771601,-9.86211476853332 -36.18254205820860,-9.86209705782331 -36.18218565267823,-9.86192832554451 -36.18196932566980,-9.86182138336578 -36.18138899866105,-9.86153942567158 -36.18095301317767,-9.86133010468217 -36.18048355552647,-9.86110377580343 -36.18045415378159,-9.86109266090323 -36.18041040750174,-9.86107407992800 -36.18036471218229,-9.86105692911050 -36.18032127549521,-9.86104243454632 -36.18028366729266,-9.86102428991868 -36.18026414077033,-9.86098885975988 -36.18026294361293,-9.86095216345998 -36.18026571968603,-9.86090731546628 -36.18027240114469,-9.86085974513480 -36.18032188795002,-9.86045338543356 -36.18040611496262,-9.85971715604206 -36.18046463241125,-9.85916316006064 -36.18047775676657,-9.85903908201935 -36.18047960665517,-9.85899292030420 -36.18049360705033,-9.85889284013829 -36.18055169880634,-9.85891870090410 -36.18062872080095,-9.85895495541781 -36.18070893805555,-9.85899160180363 -36.18097145699110,-9.85912028286224 -36.18138582817115,-9.85931732260045 -36.18237856037421,-9.85979593713783 -36.18286941923084,-9.86003301515883 -36.18297147277624,-9.86008821387514 -36.18302697405912,-9.86011564026682 -36.18301394167011,-9.86019255130558 -36.18300510560381,-9.86029454998120 -36.18296711548076,-9.86069078914268 -36.18292215010597,-9.86118141015086 -36.18288586287108,-9.86158843360499 -36.18286568503662,-9.86180073486838 -36.18286448597663,-9.86182625123232 -36.18285748631521,-9.86187144487742 -36.18284969867735,-9.86191143623978 -36.18284117070647,-9.86194389566109 -36.18282371406966,-9.86198561718597 -36.18280643493184,-9.86202614903038 -36.18279069619553,-9.86206443131421 -36.18277301337598,-9.86210104776353 -36.18274606367550,-9.86212881150317 -36.18270587259690,-9.86214097777765 -36.18270587259690,-9.86214097777765 -36.18270587259690,-9.86214097777765
          </coordinates>
        </LinearRing>
      </outerBoundaryIs>
    </Polygon>
  </Placemark>
  <Placemark>
    <name>AgroCAD: 1CC5D</name>
    <styleUrl>FFFF0000</styleUrl>
    <Polygon>
      <outerBoundaryIs>
        <LinearRing>
          <coordinates>
           -36.18308176081937,-9.86014839811463 -36.18307131395698,-9.86023005638859 -36.18306341271537,-9.86030363904691 -36.18302647844715,-9.86069187035020 -36.18297021628746,-9.86118830199148 -36.18292750402515,-9.86159202877087 -36.18290477557482,-9.86182500932681 -36.18289950594617,-9.86186673737429 -36.18289070208982,-9.86190712537384 -36.18288413848385,-9.86194925222457 -36.18287465604712,-9.86198892060924 -36.18286081604032,-9.86202863510197 -36.18285101027398,-9.86206868497313 -36.18284065211264,-9.86211154771321 -36.18283334570864,-9.86215212330491 -36.18282674593362,-9.86219192574069 -36.18283616595973,-9.86222831977542 -36.18286144504077,-9.86225298338574 -36.18289535665519,-9.86227161813808 -36.18291999592030,-9.86228064901836 -36.18332686008139,-9.86247284764328 -36.18380228549848,-9.86270787562352 -36.18430133039545,-9.86294371063467 -36.18477621200922,-9.86316901591136 -36.18522088938509,-9.86339578345015 -36.18527934453182,-9.86342092988829 -36.18532972699551,-9.86343779273259 -36.18537716301779,-9.86345065209852 -36.18542414243993,-9.86345691901852 -36.18547865994668,-9.86344058644453 -36.18548958822966,-9.86341667778728 -36.18552041936292,-9.86334335353758 -36.18555192175543,-9.86321547186599 -36.18558294366355,-9.86308918094475 -36.18560055237344,-9.86301739128732 -36.18561516570091,-9.86292811000763 -36.18563908381754,-9.86276703546648 -36.18566095535601,-9.86270487558497 -36.18569019082303,-9.86264699593625 -36.18571372819479,-9.86259572924964 -36.18573417084550,-9.86254164723658 -36.18574291166537,-9.86248257684116 -36.18574621860361,-9.86240572379854 -36.18573664508070,-9.86232546698053 -36.18572609523119,-9.86227868281408 -36.18569226215879,-9.86213004487630 -36.18566772955976,-9.86204232975692 -36.18563657655224,-9.86195242844288 -36.18560492502564,-9.86187353628446 -36.18556309334662,-9.86178864052049 -36.18551420702301,-9.86170424024895 -36.18541964613319,-9.86153150491785 -36.18539634788024,-9.86148992809278 -36.18537154021530,-9.86144877733571 -36.18534815993814,-9.86140608538394 -36.18532293283156,-9.86136293146672 -36.18530561452112,-9.86132327204656 -36.18524822905206,-9.86122842922135 -36.18521715274043,-9.86118492462834 -36.18517455685843,-9.86115587327645 -36.18510382828565,-9.86112367836575 -36.18476227940063,-9.86095773158717 -36.18424310414138,-9.86070414598207 -36.18375521163532,-9.86046794873722 -36.18323122240017,-9.86021751048862 -36.18315567304728,-9.86017982077487 -36.18308176081937,-9.86014839811463 -36.18308176081937,-9.86014839811463 -36.18308176081937,-9.86014839811463
          </coordinates>
        </LinearRing>
      </outerBoundaryIs>
    </Polygon>
  </Placemark>
</Document>
</kml>
