<?xml version="1.0" encoding="UTF-8"?>
<kml xmlns="http://www.opengis.net/kml/2.2" xmlns:gx="http://www.google.com/kml/ext/2.2" xmlns:kml="http://www.opengis.net/kml/2.2" xmlns:atom="http://www.w3.org/2005/Atom">
<Document>
  <name>13.kml</name>
  <StyleMap id="FFFF0000">
    <Pair>
      <key>normal</key>
      <styleUrl>#s_FFFF0000</styleUrl>
    </Pair>
    <Pair>
      <key>highlight</key>
      <styleUrl>#s_FFFF0000_hl</styleUrl>
    </Pair>
  </StyleMap>
  <Style id="s_FFFF0000">
   <IconStyle>
      <scale>1.1</scale>
      <Icon>
        <href>http://maps.google.com/mapfiles/kml/pushpin/agrocad.png</href>
      </Icon>
      <hotSpot x="20" y="2" xunits="pixels" yunits="pixels"/>
    </IconStyle>
    <LineStyle>
      <color>FFFF0000</color>
      <width>1</width>
    </LineStyle>
    <PolyStyle>
      <color>40ffffff</color>
      <fill>1</fill>
    </PolyStyle>
  </Style>
  <Style id="s_FFFF0000_hl">
    <IconStyle>
      <scale>1.3</scale>
      <Icon>
        <href>http://maps.google.com/mapfiles/kml/pushpin/agrocad.png</href>
      </Icon>
      <hotSpot x="20" y="2" xunits="pixels" yunits="pixels"/>
    </IconStyle>
    <LineStyle>
      <color>ff000000</color>
      <width>1</width>
    </LineStyle>
    <PolyStyle>
      <color>40ffffff</color>
      <fill>1</fill>
    </PolyStyle>
  </Style>
  <Placemark>
    <name>AgroCAD: 1CC7C</name>
    <styleUrl>FFFF0000</styleUrl>
    <Polygon>
      <outerBoundaryIs>
        <LinearRing>
          <coordinates>
           -36.19588547996610,-9.82482670303123 -36.19567091846406,-9.82475462651935 -36.19511852165935,-9.82457122584966 -36.19503263020531,-9.82454011982028 -36.19498661482159,-9.82452985916260 -36.19496314670531,-9.82453532852108 -36.19492017335701,-9.82457781165693 -36.19468859453031,-9.82480258851460 -36.19444947732075,-9.82503742300392 -36.19427995302020,-9.82522094924630 -36.19397757722269,-9.82557669203593 -36.19369881737328,-9.82586649688401 -36.19336994334250,-9.82618643950541 -36.19301316397887,-9.82650891576079 -36.19290348078938,-9.82661535925993 -36.19285143743756,-9.82667477538577 -36.19265988135615,-9.82694511242636 -36.19258781494224,-9.82706614223349 -36.19247942093803,-9.82724173064015 -36.19243603754950,-9.82731911985748 -36.19234548611233,-9.82748541257831 -36.19219450800868,-9.82779323740953 -36.19198712700490,-9.82818532503816 -36.19254506349765,-9.82752730697425 -36.19424627109962,-9.82658169741034 -36.19516679459827,-9.82681280456463 -36.19588519289089,-9.82482750718531 -36.19588541427292,-9.82482689538940 -36.19588547996610,-9.82482670303123 -36.19588547996610,-9.82482670303123 -36.19588547996610,-9.82482670303123
          </coordinates>
        </LinearRing>
      </outerBoundaryIs>
    </Polygon>
  </Placemark>
  <Placemark>
    <name>AgroCAD: 1CC76</name>
    <styleUrl>FFFF0000</styleUrl>
    <Polygon>
      <outerBoundaryIs>
        <LinearRing>
          <coordinates>
           -36.19718463791560,-9.82731939620584 -36.19720004582254,-9.82727383017949 -36.19739620153218,-9.82668562203529 -36.19757726577050,-9.82614187407098 -36.19779219234461,-9.82550416264483 -36.19780209159437,-9.82546913669449 -36.19752868967566,-9.82537089709114 -36.19725559791344,-9.82528168021568 -36.19706818412772,-9.82521839987519 -36.19669015556337,-9.82509438596038 -36.19643638809519,-9.82501134198025 -36.19612249263462,-9.82490636634241 -36.19591782689498,-9.82483756915084 -36.19591568457488,-9.82483684949356 -36.19591520030176,-9.82483818779717 -36.19519784608789,-9.82682060032320 -36.19718463791560,-9.82731939620584 -36.19718463791560,-9.82731939620584 -36.19718463791560,-9.82731939620584
          </coordinates>
        </LinearRing>
      </outerBoundaryIs>
    </Polygon>
  </Placemark>
  <Placemark>
    <name>AgroCAD: 1CC78</name>
    <styleUrl>FFFF0000</styleUrl>
    <Polygon>
      <outerBoundaryIs>
        <LinearRing>
          <coordinates>
           -36.19443330272140,-9.82893338093161 -36.19650941055970,-9.82932167012979 -36.19661382523989,-9.82900445389595 -36.19675090346637,-9.82859641403542 -36.19688989632938,-9.82818974460061 -36.19705247929644,-9.82771023001918 -36.19717011488329,-9.82736234536208 -36.19518238926737,-9.82686331494224 -36.19443330272140,-9.82893338093161 -36.19443330272140,-9.82893338093161 -36.19443330272140,-9.82893338093161
          </coordinates>
        </LinearRing>
      </outerBoundaryIs>
    </Polygon>
  </Placemark>
  <Placemark>
    <name>AgroCAD: 1CC7A</name>
    <styleUrl>FFFF0000</styleUrl>
    <Polygon>
      <outerBoundaryIs>
        <LinearRing>
          <coordinates>
           -36.19188955758875,-9.82836979546497 -36.19187341789805,-9.82840156561161 -36.19188063753149,-9.82845594461985 -36.19440157720055,-9.82892744728696 -36.19515133777480,-9.82685551918126 -36.19425269781182,-9.82662990610222 -36.19257457599459,-9.82756268344427 -36.19188856519722,-9.82837174893659 -36.19188955758875,-9.82836979546497 -36.19188955758875,-9.82836979546497 -36.19188955758875,-9.82836979546497
          </coordinates>
        </LinearRing>
      </outerBoundaryIs>
    </Polygon>
  </Placemark>
</Document>
</kml>
