<?xml version="1.0" encoding="UTF-8"?>
<kml xmlns="http://www.opengis.net/kml/2.2" xmlns:gx="http://www.google.com/kml/ext/2.2" xmlns:kml="http://www.opengis.net/kml/2.2" xmlns:atom="http://www.w3.org/2005/Atom">
<Document>
  <name>23.kml</name>
  <StyleMap id="FFFF0000">
    <Pair>
      <key>normal</key>
      <styleUrl>#s_FFFF0000</styleUrl>
    </Pair>
    <Pair>
      <key>highlight</key>
      <styleUrl>#s_FFFF0000_hl</styleUrl>
    </Pair>
  </StyleMap>
  <Style id="s_FFFF0000">
   <IconStyle>
      <scale>1.1</scale>
      <Icon>
        <href>http://maps.google.com/mapfiles/kml/pushpin/agrocad.png</href>
      </Icon>
      <hotSpot x="20" y="2" xunits="pixels" yunits="pixels"/>
    </IconStyle>
    <LineStyle>
      <color>FFFF0000</color>
      <width>1</width>
    </LineStyle>
    <PolyStyle>
      <color>40ffffff</color>
      <fill>1</fill>
    </PolyStyle>
  </Style>
  <Style id="s_FFFF0000_hl">
    <IconStyle>
      <scale>1.3</scale>
      <Icon>
        <href>http://maps.google.com/mapfiles/kml/pushpin/agrocad.png</href>
      </Icon>
      <hotSpot x="20" y="2" xunits="pixels" yunits="pixels"/>
    </IconStyle>
    <LineStyle>
      <color>ff000000</color>
      <width>1</width>
    </LineStyle>
    <PolyStyle>
      <color>40ffffff</color>
      <fill>1</fill>
    </PolyStyle>
  </Style>
  <Placemark>
    <name>AgroCAD: 1CC98</name>
    <styleUrl>FFFF0000</styleUrl>
    <Polygon>
      <outerBoundaryIs>
        <LinearRing>
          <coordinates>
           -36.19163690965502,-9.83580496002859 -36.19096007714034,-9.83767519915054 -36.19340261872386,-9.83844481475638 -36.19345689069151,-9.83827983640113 -36.19364801889954,-9.83771493260146 -36.19374646411654,-9.83741996770340 -36.19378964333662,-9.83729597346391 -36.19389752055954,-9.83697696503567 -36.19393112277915,-9.83687339413554 -36.19401419815809,-9.83663172274470 -36.19401976354203,-9.83658500669053 -36.19163690965502,-9.83580496002859 -36.19163690965502,-9.83580496002859 -36.19163690965502,-9.83580496002859
          </coordinates>
        </LinearRing>
      </outerBoundaryIs>
    </Polygon>
  </Placemark>
  <Placemark>
    <name>AgroCAD: 1CC96</name>
    <styleUrl>FFFF0000</styleUrl>
    <Polygon>
      <outerBoundaryIs>
        <LinearRing>
          <coordinates>
           -36.19275303272264,-9.84037827660470 -36.19293141120663,-9.83984772947314 -36.19306048202474,-9.83946266426767 -36.19314771768014,-9.83920830303498 -36.19331029360339,-9.83872262199301 -36.19335924496821,-9.83857666405806 -36.19338849166978,-9.83848775876604 -36.19094468053678,-9.83771774302737 -36.19073283613556,-9.83830310955081 -36.19026949374210,-9.83958340214470 -36.19275137418326,-9.84037994404126 -36.19275303272264,-9.84037827660470 -36.19275303272264,-9.84037827660470 -36.19275303272264,-9.84037827660470
          </coordinates>
        </LinearRing>
      </outerBoundaryIs>
    </Polygon>
  </Placemark>
  <Placemark>
    <name>AgroCAD: 1CC94</name>
    <styleUrl>FFFF0000</styleUrl>
    <Polygon>
      <outerBoundaryIs>
        <LinearRing>
          <coordinates>
           -36.18938064059480,-9.83506633461083 -36.18935244278981,-9.83505987372153 -36.18929086936875,-9.83512096776855 -36.18918732358390,-9.83524757091067 -36.18906256657192,-9.83541795134802 -36.18898184009147,-9.83553642217141 -36.18891945801486,-9.83564014799135 -36.18883699267990,-9.83581008903490 -36.18878481604308,-9.83595067144211 -36.18873674022297,-9.83610574988568 -36.18866529552104,-9.83639867124027 -36.18862817000405,-9.83658012807587 -36.18856920091356,-9.83678500466792 -36.18853492000040,-9.83691104182757 -36.19092967070103,-9.83766561832235 -36.19160662407268,-9.83579504567508 -36.18938064059480,-9.83506633461083 -36.18938064059480,-9.83506633461083 -36.18938064059480,-9.83506633461083
          </coordinates>
        </LinearRing>
      </outerBoundaryIs>
    </Polygon>
  </Placemark>
  <Placemark>
    <name>AgroCAD: 1CC92</name>
    <styleUrl>FFFF0000</styleUrl>
    <Polygon>
      <outerBoundaryIs>
        <LinearRing>
          <coordinates>
           -36.18780805576123,-9.83879340106648 -36.19023914488443,-9.83957366176882 -36.19070282792665,-9.83829242819410 -36.19091427409474,-9.83770816219683 -36.18852304654273,-9.83695469573040 -36.18850728084006,-9.83701265981582 -36.18844609352070,-9.83722592334236 -36.18841532806982,-9.83735763600065 -36.18839170101255,-9.83748107523695 -36.18834759099123,-9.83761013062488 -36.18826619685323,-9.83779392276412 -36.18817257485390,-9.83798774512615 -36.18806687964020,-9.83818026061878 -36.18799561060026,-9.83831352657981 -36.18792815639198,-9.83846413135261 -36.18788436874027,-9.83858287878804 -36.18780805576123,-9.83879340106648 -36.18780805576123,-9.83879340106648 -36.18780805576123,-9.83879340106648
          </coordinates>
        </LinearRing>
      </outerBoundaryIs>
    </Polygon>
  </Placemark>
</Document>
</kml>
