<?xml version="1.0" encoding="UTF-8"?>
<kml xmlns="http://www.opengis.net/kml/2.2" xmlns:gx="http://www.google.com/kml/ext/2.2" xmlns:kml="http://www.opengis.net/kml/2.2" xmlns:atom="http://www.w3.org/2005/Atom">
<Document>
  <name>01.kml</name>
  <StyleMap id="FFFF0000">
    <Pair>
      <key>normal</key>
      <styleUrl>#s_FFFF0000</styleUrl>
    </Pair>
    <Pair>
      <key>highlight</key>
      <styleUrl>#s_FFFF0000_hl</styleUrl>
    </Pair>
  </StyleMap>
  <Style id="s_FFFF0000">
   <IconStyle>
      <scale>1.1</scale>
      <Icon>
        <href>http://maps.google.com/mapfiles/kml/pushpin/agrocad.png</href>
      </Icon>
      <hotSpot x="20" y="2" xunits="pixels" yunits="pixels"/>
    </IconStyle>
    <LineStyle>
      <color>FFFF0000</color>
      <width>1</width>
    </LineStyle>
    <PolyStyle>
      <color>40ffffff</color>
      <fill>1</fill>
    </PolyStyle>
  </Style>
  <Style id="s_FFFF0000_hl">
    <IconStyle>
      <scale>1.3</scale>
      <Icon>
        <href>http://maps.google.com/mapfiles/kml/pushpin/agrocad.png</href>
      </Icon>
      <hotSpot x="20" y="2" xunits="pixels" yunits="pixels"/>
    </IconStyle>
    <LineStyle>
      <color>ff000000</color>
      <width>1</width>
    </LineStyle>
    <PolyStyle>
      <color>40ffffff</color>
      <fill>1</fill>
    </PolyStyle>
  </Style>
  <Placemark>
    <name>AgroCAD: 1CC4F</name>
    <styleUrl>FFFF0000</styleUrl>
    <Polygon>
      <outerBoundaryIs>
        <LinearRing>
          <coordinates>
           -36.20358764957745,-9.81138139520897 -36.20358125340484,-9.81126748307686 -36.20358555436669,-9.81095518805061 -36.20359207703908,-9.81059583758232 -36.20361995614517,-9.81022477946202 -36.20360637545488,-9.81009982549257 -36.20358942049779,-9.80995939535061 -36.20358056521982,-9.80996624295171 -36.20350406453243,-9.81005010884549 -36.20342305810488,-9.81017598077546 -36.20337441940123,-9.81026533686064 -36.20330047441726,-9.81041506622860 -36.20327463247401,-9.81047636548065 -36.20327021365804,-9.81049513507363 -36.20323736956065,-9.81055529072528 -36.20319428966944,-9.81060774523080 -36.20314183142824,-9.81067220939906 -36.20303349927712,-9.81076275107354 -36.20291449227065,-9.81097686609297 -36.20276465369702,-9.81122378496558 -36.20263067749603,-9.81139373587613 -36.20238871409225,-9.81160638672744 -36.20218352363722,-9.81174323802686 -36.20200246072735,-9.81186622045929 -36.20206597032927,-9.81188169913916 -36.20224208383104,-9.81192453468011 -36.20240128723548,-9.81197613861319 -36.20264833926550,-9.81205906831309 -36.20275302090291,-9.81208924703211 -36.20285897748865,-9.81213268051438 -36.20295859545834,-9.81217165518040 -36.20315224846238,-9.81222731401412 -36.20321384370062,-9.81224458518812 -36.20325718145887,-9.81216254819419 -36.20345544977818,-9.81181061499391 -36.20369623033692,-9.81136670232867 -36.20367103496765,-9.81135749133169 -36.20364837132758,-9.81137484802860 -36.20362524616592,-9.81140416706084 -36.20360549383689,-9.81143830435795 -36.20358764957745,-9.81138139520897 -36.20358764957745,-9.81138139520897
          </coordinates>
        </LinearRing>
      </outerBoundaryIs>
    </Polygon>
  </Placemark>
  <Placemark>
    <name>AgroCAD: 1CC69</name>
    <styleUrl>FFFF0000</styleUrl>
    <LineString>
      <tessellate>1</tessellate>
          <coordinates>
           -36.20541564790897,-9.80914337741643 -36.20542237742755,-9.80912311119766 -36.20553995272933,-9.80880577639010 -36.20555203806591,-9.80875485003690 -36.20537301775425,-9.80855872536611 -36.20534538671125,-9.80851279385250 -36.20522788233188,-9.80827586548927 -36.20504646561227,-9.80783127906628 -36.20488046926929,-9.80737636224326 -36.20481272911097,-9.80718448742715 -36.20461104482258,-9.80679056039314 -36.20452237689928,-9.80689794422581 -36.20449501402224,-9.80693874802066 -36.20447050469635,-9.80698341569886 -36.20444425084333,-9.80702706082786 -36.20442575642479,-9.80707228857433 -36.20441205941720,-9.80712152914499 -36.20440303059697,-9.80717051108999 -36.20439402580813,-9.80721793537289 -36.20437701518863,-9.80726444214551 -36.20436236382725,-9.80731282827217 -36.20417728034848,-9.80757783718724 -36.20416783435801,-9.80760475143698 -36.20415334911026,-9.80765354240691 -36.20413691747215,-9.80770077849664 -36.20412332219756,-9.80774674728536 -36.20411604152959,-9.80779415701610 -36.20411115785351,-9.80784327302748 -36.20411230286400,-9.80788934053263 -36.20411505350108,-9.80793344748677 -36.20412786075760,-9.80796536386393 -36.20425738937714,-9.80825481958853 -36.20434844123415,-9.80843981643280 -36.20437193468981,-9.80847946551089 -36.20439319302742,-9.80851873560032 -36.20441388774813,-9.80856289305359 -36.20443306777517,-9.80860673738707 -36.20445222477189,-9.80864871732877 -36.20447020575694,-9.80869221105310 -36.20448736196791,-9.80873887690584 -36.20451563357547,-9.80878835933966 -36.20453179370367,-9.80881804700898 -36.20456768951465,-9.80885414087230 -36.20460417002231,-9.80887786388780 -36.20464108041125,-9.80889776918740 -36.20467721890664,-9.80891624425123 -36.20471862830855,-9.80893239061110 -36.20502325536590,-9.80902736015765 -36.20534300557615,-9.80911767507354 -36.20541564790897,-9.80914337741643
          </coordinates>
    </LineString>
  </Placemark>
</Document>
</kml>
