<?xml version="1.0" encoding="UTF-8"?>
<kml xmlns="http://www.opengis.net/kml/2.2" xmlns:gx="http://www.google.com/kml/ext/2.2" xmlns:kml="http://www.opengis.net/kml/2.2" xmlns:atom="http://www.w3.org/2005/Atom">
<Document>
  <name>82.kml</name>
  <StyleMap id="FFFF4000">
    <Pair>
      <key>normal</key>
      <styleUrl>#s_FFFF4000</styleUrl>
    </Pair>
    <Pair>
      <key>highlight</key>
      <styleUrl>#s_FFFF4000_hl</styleUrl>
    </Pair>
  </StyleMap>
  <Style id="s_FFFF4000">
   <IconStyle>
      <scale>1.1</scale>
      <Icon>
        <href>http://maps.google.com/mapfiles/kml/pushpin/agrocad.png</href>
      </Icon>
      <hotSpot x="20" y="2" xunits="pixels" yunits="pixels"/>
    </IconStyle>
    <LineStyle>
      <color>FFFF4000</color>
      <width>1</width>
    </LineStyle>
    <PolyStyle>
      <color>40ffffff</color>
      <fill>1</fill>
    </PolyStyle>
  </Style>
  <Style id="s_FFFF4000_hl">
    <IconStyle>
      <scale>1.3</scale>
      <Icon>
        <href>http://maps.google.com/mapfiles/kml/pushpin/agrocad.png</href>
      </Icon>
      <hotSpot x="20" y="2" xunits="pixels" yunits="pixels"/>
    </IconStyle>
    <LineStyle>
      <color>ff000000</color>
      <width>1</width>
    </LineStyle>
    <PolyStyle>
      <color>40ffffff</color>
      <fill>1</fill>
    </PolyStyle>
  </Style>
  <Placemark>
    <name>AgroCAD: 16496</name>
    <styleUrl>FFFF4000</styleUrl>
    <Polygon>
      <outerBoundaryIs>
        <LinearRing>
          <coordinates>
           -36.25277518000490,-9.80268123166621 -36.25276654776690,-9.80264382032947 -36.25278828586813,-9.80266692369914 -36.25290585145034,-9.80264467436247 -36.25302835619314,-9.80261114363754 -36.25312242520425,-9.80259178407775 -36.25321877028964,-9.80257138186340 -36.25328462859865,-9.80256259941092 -36.25344782290935,-9.80251859440135 -36.25418793776947,-9.80568178532891 -36.25449806550043,-9.80685413784669 -36.25467175568282,-9.80765924092967 -36.25485022940710,-9.80849958997921 -36.25487971004820,-9.80866984227602 -36.25462043769211,-9.80843647562029 -36.25436997942064,-9.80823293877493 -36.25404895435257,-9.80802154206789 -36.25403934295818,-9.80801512082021 -36.25402646709497,-9.80794257530769 -36.25399889569157,-9.80779513703231 -36.25396320924578,-9.80765606109453 -36.25390544086729,-9.80744139109162 -36.25373758465160,-9.80674092704775 -36.25347819213143,-9.80565776128920 -36.25277518000490,-9.80268123166621 -36.25277518000490,-9.80268123166621
          </coordinates>
        </LinearRing>
      </outerBoundaryIs>
    </Polygon>
  </Placemark>
</Document>
</kml>
