<?xml version="1.0" encoding="UTF-8"?>
<kml xmlns="http://www.opengis.net/kml/2.2" xmlns:gx="http://www.google.com/kml/ext/2.2" xmlns:kml="http://www.opengis.net/kml/2.2" xmlns:atom="http://www.w3.org/2005/Atom">
<Document>
  <name>79.kml</name>
  <StyleMap id="FFFF4000">
    <Pair>
      <key>normal</key>
      <styleUrl>#s_FFFF4000</styleUrl>
    </Pair>
    <Pair>
      <key>highlight</key>
      <styleUrl>#s_FFFF4000_hl</styleUrl>
    </Pair>
  </StyleMap>
  <Style id="s_FFFF4000">
   <IconStyle>
      <scale>1.1</scale>
      <Icon>
        <href>http://maps.google.com/mapfiles/kml/pushpin/agrocad.png</href>
      </Icon>
      <hotSpot x="20" y="2" xunits="pixels" yunits="pixels"/>
    </IconStyle>
    <LineStyle>
      <color>FFFF4000</color>
      <width>1</width>
    </LineStyle>
    <PolyStyle>
      <color>40ffffff</color>
      <fill>1</fill>
    </PolyStyle>
  </Style>
  <Style id="s_FFFF4000_hl">
    <IconStyle>
      <scale>1.3</scale>
      <Icon>
        <href>http://maps.google.com/mapfiles/kml/pushpin/agrocad.png</href>
      </Icon>
      <hotSpot x="20" y="2" xunits="pixels" yunits="pixels"/>
    </IconStyle>
    <LineStyle>
      <color>ff000000</color>
      <width>1</width>
    </LineStyle>
    <PolyStyle>
      <color>40ffffff</color>
      <fill>1</fill>
    </PolyStyle>
  </Style>
  <Placemark>
    <name>AgroCAD: 16479</name>
    <styleUrl>FFFF4000</styleUrl>
    <Polygon>
      <outerBoundaryIs>
        <LinearRing>
          <coordinates>
           -36.25242398130133,-9.80117163214030 -36.25232489732534,-9.80076038061128 -36.25224058261805,-9.80042098452815 -36.25216769494616,-9.80013355623419 -36.25206823024997,-9.79973988188326 -36.25200413359968,-9.79948971081541 -36.25200561678938,-9.79946071362134 -36.25213701597666,-9.79947579895016 -36.25248412664233,-9.79946831049113 -36.25263558568053,-9.79946181584158 -36.25271412562862,-9.79946579366208 -36.25323899725864,-9.80162657342616 -36.25299169006403,-9.80169128252516 -36.25279016143162,-9.80173698440360 -36.25268435945522,-9.80175570802107 -36.25261572203822,-9.80177383322426 -36.25258824181592,-9.80179136877600 -36.25257558490345,-9.80181811581287 -36.25251751175283,-9.80157909467887 -36.25242398130133,-9.80117163214030 -36.25242398130133,-9.80117163214030
          </coordinates>
        </LinearRing>
      </outerBoundaryIs>
    </Polygon>
  </Placemark>
</Document>
</kml>
