<?xml version="1.0" encoding="utf-8" ?>
<kml xmlns="http://www.opengis.net/kml/2.2">
<Document id="root_doc">
<Schema name="TRIUNFO_TALHAO_1008_ID_109" id="TRIUNFO_TALHAO_1008_ID_109">
	<SimpleField name="CODE" type="string"></SimpleField>
	<SimpleField name="TALHAO" type="float"></SimpleField>
	<SimpleField name="AREA_TOTAL" type="float"></SimpleField>
	<SimpleField name="FAZENDA" type="float"></SimpleField>
	<SimpleField name="ZONA" type="float"></SimpleField>
	<SimpleField name="FAZ_NOME" type="string"></SimpleField>
</Schema>
<Folder><name>TRIUNFO_TALHAO_1008_ID_109</name>
  <Placemark id="TRIUNFO_TALHAO_1008_ID_109.1">
	<Style><LineStyle><color>ff0000ff</color></LineStyle><PolyStyle><fill>0</fill></PolyStyle></Style>
	<ExtendedData><SchemaData schemaUrl="#TRIUNFO_TALHAO_1008_ID_109">
		<SimpleData name="CODE">110</SimpleData>
		<SimpleData name="TALHAO">1008</SimpleData>
		<SimpleData name="AREA_TOTAL">6.764</SimpleData>
		<SimpleData name="FAZENDA">2303</SimpleData>
		<SimpleData name="ZONA">1</SimpleData>
		<SimpleData name="FAZ_NOME">TRIUNFO</SimpleData>
	</SchemaData></ExtendedData>
      <MultiGeometry><Polygon><outerBoundaryIs><LinearRing><coordinates>-36.1955900902746,-9.63729977400505 -36.196099767247,-9.63866011353723 -36.1961482113503,-9.63868618507581 -36.1972128639783,-9.63828927909482 -36.1996817848186,-9.63737353428422 -36.1997158042255,-9.63734084824953 -36.1997308634159,-9.63720776781762 -36.1996675366277,-9.63703458766464 -36.1952596384441,-9.63638501175105 -36.195259941377,-9.63644317588357 -36.1953775633079,-9.63672384466542 -36.1955900902746,-9.63729977400505</coordinates></LinearRing></outerBoundaryIs></Polygon></MultiGeometry>
  </Placemark>
</Folder>
</Document></kml>
