<?xml version="1.0" encoding="UTF-8"?>
<kml xmlns="http://www.opengis.net/kml/2.2" xmlns:gx="http://www.google.com/kml/ext/2.2" xmlns:kml="http://www.opengis.net/kml/2.2" xmlns:atom="http://www.w3.org/2005/Atom">
<Document>
  <name>2022.kml</name>
  <StyleMap id="FF0040FF">
    <Pair>
      <key>normal</key>
      <styleUrl>#s_FF0040FF</styleUrl>
    </Pair>
    <Pair>
      <key>highlight</key>
      <styleUrl>#s_FF0040FF_hl</styleUrl>
    </Pair>
  </StyleMap>
  <Style id="s_FF0040FF">
   <IconStyle>
      <scale>1.1</scale>
      <Icon>
        <href>http://maps.google.com/mapfiles/kml/pushpin/agrocad.png</href>
      </Icon>
      <hotSpot x="20" y="2" xunits="pixels" yunits="pixels"/>
    </IconStyle>
    <LineStyle>
      <color>FF0040FF</color>
      <width>1</width>
    </LineStyle>
    <PolyStyle>
      <color>40ffffff</color>
      <fill>1</fill>
    </PolyStyle>
  </Style>
  <Style id="s_FF0040FF_hl">
    <IconStyle>
      <scale>1.3</scale>
      <Icon>
        <href>http://maps.google.com/mapfiles/kml/pushpin/agrocad.png</href>
      </Icon>
      <hotSpot x="20" y="2" xunits="pixels" yunits="pixels"/>
    </IconStyle>
    <LineStyle>
      <color>ff000000</color>
      <width>1</width>
    </LineStyle>
    <PolyStyle>
      <color>40ffffff</color>
      <fill>1</fill>
    </PolyStyle>
  </Style>
  <Placemark>
    <name>AgroCAD: 7F79</name>
    <styleUrl>FF0040FF</styleUrl>
    <Polygon>
      <outerBoundaryIs>
        <LinearRing>
          <coordinates>
           -36.20471690814918,-9.76543668076954 -36.20475429614506,-9.76545759045884 -36.20490533380819,-9.76554332459305 -36.20504395161814,-9.76562334303143 -36.20517922195316,-9.76570050166011 -36.20533383824991,-9.76578625346485 -36.20551475394799,-9.76588653255480 -36.20569120224530,-9.76598620440353 -36.20585059675696,-9.76607844053727 -36.20599368502676,-9.76616331537288 -36.20614004544162,-9.76625529471409 -36.20626108042034,-9.76632743756307 -36.20637154375799,-9.76639088260153 -36.20647244680951,-9.76644692615967 -36.20622789657986,-9.76666579916538 -36.20580074815669,-9.76704209249846 -36.20546774247409,-9.76733247010206 -36.20511163769975,-9.76764601361971 -36.20491637116344,-9.76781833225238 -36.20470660800846,-9.76800154940417 -36.20427685772479,-9.76837890842800 -36.20386032266285,-9.76874459933519 -36.20365385696290,-9.76892709143911 -36.20323975704831,-9.76929331015731 -36.20306419097984,-9.76944549227905 -36.20273910925201,-9.76973031861957 -36.20242711360234,-9.77000932565530 -36.20215592250280,-9.77024296334281 -36.20198658809309,-9.77038902030809 -36.20180907841234,-9.77054484962940 -36.20162484747212,-9.77070893407017 -36.20127618351794,-9.77101674909324 -36.20111786452599,-9.77115601253709 -36.20079506260934,-9.77143027155893 -36.20068230345170,-9.77152706722905 -36.20056710620070,-9.77142947440095 -36.20039053639344,-9.77128368584381 -36.20016433949886,-9.77109873003487 -36.19991506864242,-9.77089631073785 -36.19965001862230,-9.77068175540211 -36.19939158187847,-9.77047052598923 -36.19917532749668,-9.77029426581892 -36.19931217867884,-9.77017367165200 -36.19952897419165,-9.76998538184263 -36.19975769482509,-9.76978589095987 -36.20024426876437,-9.76935765030686 -36.20049411144678,-9.76914225399505 -36.20065291765444,-9.76900098489517 -36.20093428224200,-9.76875726082124 -36.20132178560176,-9.76842050412385 -36.20157131556683,-9.76820189183081 -36.20182574597567,-9.76797682232130 -36.20210190425552,-9.76773488687569 -36.20238573451598,-9.76748552982554 -36.20265799005349,-9.76724796838827 -36.20295975550442,-9.76698295806445 -36.20327071184531,-9.76671224694985 -36.20357845838891,-9.76643969378324 -36.20389282969222,-9.76616319977914 -36.20421371139698,-9.76588337555967 -36.20449962141934,-9.76563432024360 -36.20470719868231,-9.76544520138192 -36.20471690814920,-9.76543668076954 -36.20471690814918,-9.76543668076954
          </coordinates>
        </LinearRing>
      </outerBoundaryIs>
    </Polygon>
  </Placemark>
</Document>
</kml>
