<?xml version="1.0" encoding="UTF-8"?>
<kml xmlns="http://www.opengis.net/kml/2.2" xmlns:gx="http://www.google.com/kml/ext/2.2" xmlns:kml="http://www.opengis.net/kml/2.2" xmlns:atom="http://www.w3.org/2005/Atom">
<Document>
  <name>2024.kml</name>
  <StyleMap id="FF0040FF">
    <Pair>
      <key>normal</key>
      <styleUrl>#s_FF0040FF</styleUrl>
    </Pair>
    <Pair>
      <key>highlight</key>
      <styleUrl>#s_FF0040FF_hl</styleUrl>
    </Pair>
  </StyleMap>
  <Style id="s_FF0040FF">
   <IconStyle>
      <scale>1.1</scale>
      <Icon>
        <href>http://maps.google.com/mapfiles/kml/pushpin/agrocad.png</href>
      </Icon>
      <hotSpot x="20" y="2" xunits="pixels" yunits="pixels"/>
    </IconStyle>
    <LineStyle>
      <color>FF0040FF</color>
      <width>1</width>
    </LineStyle>
    <PolyStyle>
      <color>40ffffff</color>
      <fill>1</fill>
    </PolyStyle>
  </Style>
  <Style id="s_FF0040FF_hl">
    <IconStyle>
      <scale>1.3</scale>
      <Icon>
        <href>http://maps.google.com/mapfiles/kml/pushpin/agrocad.png</href>
      </Icon>
      <hotSpot x="20" y="2" xunits="pixels" yunits="pixels"/>
    </IconStyle>
    <LineStyle>
      <color>ff000000</color>
      <width>1</width>
    </LineStyle>
    <PolyStyle>
      <color>40ffffff</color>
      <fill>1</fill>
    </PolyStyle>
  </Style>
  <Placemark>
    <name>AgroCAD: 7F7C</name>
    <styleUrl>FF0040FF</styleUrl>
    <Polygon>
      <outerBoundaryIs>
        <LinearRing>
          <coordinates>
           -36.19577365633006,-9.76752653009418 -36.19583052923089,-9.76757321487533 -36.19607664023189,-9.76777237803127 -36.19633644772167,-9.76798288196632 -36.19656973249232,-9.76817324068794 -36.19678670905586,-9.76834539449598 -36.19697829608322,-9.76850038282342 -36.19715579552762,-9.76864239136542 -36.19731564506160,-9.76877457530999 -36.19754626118705,-9.76896777904852 -36.19764708587677,-9.76888263618273 -36.19780728905640,-9.76873989195660 -36.19814763800797,-9.76843680693168 -36.19828968943699,-9.76831415387060 -36.19855882072442,-9.76807961403534 -36.19881695344350,-9.76785761820664 -36.19907713599323,-9.76762643574368 -36.19924388554142,-9.76748506231213 -36.19941325434731,-9.76733556026399 -36.19957665127856,-9.76719029676467 -36.19978575406628,-9.76701070941217 -36.20001722163509,-9.76680599986851 -36.20024162001989,-9.76660883714248 -36.20044190579652,-9.76643621026802 -36.20091678229302,-9.76602068798969 -36.20133014376098,-9.76565942097133 -36.20155359433997,-9.76546485562817 -36.20176203013772,-9.76528390661707 -36.20209486364363,-9.76499525537905 -36.20243116620324,-9.76470059137307 -36.20260625692973,-9.76454952770614 -36.20275191120069,-9.76441959222835 -36.20282138728966,-9.76435913528348 -36.20270604379071,-9.76429503028305 -36.20250967531332,-9.76418644742550 -36.20236167616191,-9.76410255612827 -36.20222699869036,-9.76402111997764 -36.20207843872849,-9.76393484898815 -36.20189917927500,-9.76383371752081 -36.20171899641069,-9.76373015341929 -36.20154723755860,-9.76362992440397 -36.20137452393514,-9.76352235693131 -36.20119208392142,-9.76340970188743 -36.20101050879106,-9.76330071034972 -36.20085350476258,-9.76320807284007 -36.20077373193336,-9.76316170599840 -36.20013487495779,-9.76371994707210 -36.19933837028446,-9.76441409843905 -36.19886319759860,-9.76482908710778 -36.19812439699405,-9.76547425485104 -36.19737130187532,-9.76613562551235 -36.19687902325797,-9.76656374866689 -36.19629422127371,-9.76707303968612 -36.19577365633008,-9.76752653009418 -36.19577365633006,-9.76752653009418
          </coordinates>
        </LinearRing>
      </outerBoundaryIs>
    </Polygon>
  </Placemark>
</Document>
</kml>
