<?xml version="1.0" encoding="UTF-8"?>
<kml xmlns="http://www.opengis.net/kml/2.2" xmlns:gx="http://www.google.com/kml/ext/2.2" xmlns:kml="http://www.opengis.net/kml/2.2" xmlns:atom="http://www.w3.org/2005/Atom">
<Document>
  <name>2027.kml</name>
  <StyleMap id="FF0040FF">
    <Pair>
      <key>normal</key>
      <styleUrl>#s_FF0040FF</styleUrl>
    </Pair>
    <Pair>
      <key>highlight</key>
      <styleUrl>#s_FF0040FF_hl</styleUrl>
    </Pair>
  </StyleMap>
  <Style id="s_FF0040FF">
   <IconStyle>
      <scale>1.1</scale>
      <Icon>
        <href>http://maps.google.com/mapfiles/kml/pushpin/agrocad.png</href>
      </Icon>
      <hotSpot x="20" y="2" xunits="pixels" yunits="pixels"/>
    </IconStyle>
    <LineStyle>
      <color>FF0040FF</color>
      <width>1</width>
    </LineStyle>
    <PolyStyle>
      <color>40ffffff</color>
      <fill>1</fill>
    </PolyStyle>
  </Style>
  <Style id="s_FF0040FF_hl">
    <IconStyle>
      <scale>1.3</scale>
      <Icon>
        <href>http://maps.google.com/mapfiles/kml/pushpin/agrocad.png</href>
      </Icon>
      <hotSpot x="20" y="2" xunits="pixels" yunits="pixels"/>
    </IconStyle>
    <LineStyle>
      <color>ff000000</color>
      <width>1</width>
    </LineStyle>
    <PolyStyle>
      <color>40ffffff</color>
      <fill>1</fill>
    </PolyStyle>
  </Style>
  <Placemark>
    <name>AgroCAD: 7F84</name>
    <styleUrl>FF0040FF</styleUrl>
    <Polygon>
      <outerBoundaryIs>
        <LinearRing>
          <coordinates>
           -36.19118009740397,-9.76780695791156 -36.19112902187840,-9.76776253564759 -36.19104746789201,-9.76769295718017 -36.19095162559732,-9.76761853938056 -36.19075070127858,-9.76747747491761 -36.19067368057848,-9.76742032745080 -36.19069891866357,-9.76736529042587 -36.19073279102509,-9.76728942394802 -36.19077384697707,-9.76721475834410 -36.19081574739781,-9.76715360601713 -36.19087704383705,-9.76709004464553 -36.19096832923135,-9.76702798158603 -36.19106618391516,-9.76698552843364 -36.19116281640863,-9.76696002357418 -36.19126099959188,-9.76694074954095 -36.19135788588085,-9.76692112679176 -36.19144594855023,-9.76689963833317 -36.19153372621958,-9.76686854373050 -36.19161590422542,-9.76681379062704 -36.19168668452064,-9.76672560270366 -36.19173768169639,-9.76663402071948 -36.19177773915686,-9.76655135070359 -36.19182336725044,-9.76646155840482 -36.19187792508802,-9.76636501245333 -36.19192907597098,-9.76629065862781 -36.19200028027333,-9.76621668889787 -36.19207913754179,-9.76614853442255 -36.19216878758976,-9.76608382492653 -36.19226711243551,-9.76602956902989 -36.19236876053834,-9.76599813880617 -36.19246409427184,-9.76598055787661 -36.19253937909166,-9.76596353369033 -36.19260572846454,-9.76593462314512 -36.19265693367831,-9.76587865430914 -36.19268648257686,-9.76579978618031 -36.19270837064691,-9.76571645406915 -36.19273331605188,-9.76563771605323 -36.19279437122453,-9.76556727506161 -36.19288064161640,-9.76550407078245 -36.19297357614886,-9.76544734647081 -36.19317339001739,-9.76533716561662 -36.19326772573510,-9.76527445684415 -36.19335151239877,-9.76520096998482 -36.19341992076009,-9.76512189209593 -36.19347148078826,-9.76503594263698 -36.19351498007553,-9.76493451166898 -36.19354475924752,-9.76483365086794 -36.19357304634878,-9.76474061737609 -36.19361126055988,-9.76465041897711 -36.19367004278569,-9.76456624465394 -36.19384646619904,-9.76440056451736 -36.19393111889302,-9.76433043064359 -36.19401048898793,-9.76426097324081 -36.19407919737749,-9.76418647594376 -36.19414121248093,-9.76408945559787 -36.19419849466910,-9.76397789309428 -36.19425799161550,-9.76386400256314 -36.19431642987095,-9.76376477463118 -36.19437838663267,-9.76368057828512 -36.19444497151667,-9.76360345400116 -36.19451038238704,-9.76353272060178 -36.19459856058757,-9.76344840934930 -36.19469707392708,-9.76336079395883 -36.19479165291318,-9.76328033339370 -36.19488076423650,-9.76320845726911 -36.19496907463929,-9.76313658225666 -36.19505843561617,-9.76305972575839 -36.19514105877829,-9.76298360380298 -36.19520876103488,-9.76291338092691 -36.19527279790004,-9.76282959297767 -36.19534242923907,-9.76272731621126 -36.19541368750449,-9.76262380372859 -36.19549048049381,-9.76252051356745 -36.19557458829774,-9.76241902154976 -36.19564824785835,-9.76233387444834 -36.19572378214578,-9.76224948817692 -36.19579378679933,-9.76217126498325 -36.19594037163699,-9.76200518119781 -36.19606687589255,-9.76185280094874 -36.19613484198330,-9.76177146705541 -36.19619585338262,-9.76169046345499 -36.19624709388845,-9.76161507832773 -36.19629730403226,-9.76153035284877 -36.19635503951660,-9.76141949500846 -36.19639259654678,-9.76132740859665 -36.19642921430370,-9.76123236000458 -36.19646870674809,-9.76113117844929 -36.19651051492853,-9.76103182610991 -36.19655341368405,-9.76094026595018 -36.19659473000865,-9.76086285949256 -36.19663102375322,-9.76080786556402 -36.19676076331505,-9.76088558888134 -36.19688595866878,-9.76096109863983 -36.19700466023967,-9.76103414160467 -36.19710683730162,-9.76109424043634 -36.19725838713899,-9.76118176959207 -36.19740471753742,-9.76126931970349 -36.19754929108824,-9.76135596519452 -36.19771574335804,-9.76145712962997 -36.19788399925380,-9.76155448011825 -36.19812021334658,-9.76168900439413 -36.19817300065384,-9.76171814236700 -36.19799891727634,-9.76187214590705 -36.19770191915340,-9.76212894788673 -36.19739770179656,-9.76238864597282 -36.19709514896456,-9.76265218073016 -36.19680849781341,-9.76289678295157 -36.19638803852936,-9.76325984976422 -36.19613021187565,-9.76347912401424 -36.19588613092810,-9.76369692363730 -36.19547313784726,-9.76405691542253 -36.19512851606223,-9.76435785018834 -36.19495050634351,-9.76451000472059 -36.19467473660175,-9.76474791367487 -36.19450649950382,-9.76489385099768 -36.19429261035313,-9.76508406210059 -36.19416382084007,-9.76519900222631 -36.19390155426779,-9.76542765197607 -36.19376680795639,-9.76554554607717 -36.19348448520415,-9.76579141146239 -36.19319666051151,-9.76604378611855 -36.19265043034875,-9.76652489844439 -36.19224202978401,-9.76688170302050 -36.19199622870445,-9.76709778410578 -36.19175111731205,-9.76730900172424 -36.19141166070401,-9.76760694405042 -36.19124317586209,-9.76775533644824 -36.19118009740395,-9.76780695791156 -36.19118009740397,-9.76780695791156
          </coordinates>
        </LinearRing>
      </outerBoundaryIs>
    </Polygon>
  </Placemark>
</Document>
</kml>
