<?xml version="1.0" encoding="UTF-8"?>
<kml xmlns="http://www.opengis.net/kml/2.2" xmlns:gx="http://www.google.com/kml/ext/2.2" xmlns:kml="http://www.opengis.net/kml/2.2" xmlns:atom="http://www.w3.org/2005/Atom">
<Document>
  <name>2026.kml</name>
  <StyleMap id="FF0040FF">
    <Pair>
      <key>normal</key>
      <styleUrl>#s_FF0040FF</styleUrl>
    </Pair>
    <Pair>
      <key>highlight</key>
      <styleUrl>#s_FF0040FF_hl</styleUrl>
    </Pair>
  </StyleMap>
  <Style id="s_FF0040FF">
   <IconStyle>
      <scale>1.1</scale>
      <Icon>
        <href>http://maps.google.com/mapfiles/kml/pushpin/agrocad.png</href>
      </Icon>
      <hotSpot x="20" y="2" xunits="pixels" yunits="pixels"/>
    </IconStyle>
    <LineStyle>
      <color>FF0040FF</color>
      <width>1</width>
    </LineStyle>
    <PolyStyle>
      <color>40ffffff</color>
      <fill>1</fill>
    </PolyStyle>
  </Style>
  <Style id="s_FF0040FF_hl">
    <IconStyle>
      <scale>1.3</scale>
      <Icon>
        <href>http://maps.google.com/mapfiles/kml/pushpin/agrocad.png</href>
      </Icon>
      <hotSpot x="20" y="2" xunits="pixels" yunits="pixels"/>
    </IconStyle>
    <LineStyle>
      <color>ff000000</color>
      <width>1</width>
    </LineStyle>
    <PolyStyle>
      <color>40ffffff</color>
      <fill>1</fill>
    </PolyStyle>
  </Style>
  <Placemark>
    <name>AgroCAD: 7F83</name>
    <styleUrl>FF0040FF</styleUrl>
    <Polygon>
      <outerBoundaryIs>
        <LinearRing>
          <coordinates>
           -36.19194586651091,-9.76853288722752 -36.19192770541933,-9.76850507574124 -36.19187742584597,-9.76843368253590 -36.19181749239996,-9.76835973310624 -36.19172276338522,-9.76827353606832 -36.19162055772325,-9.76819477709954 -36.19152067208461,-9.76810692881264 -36.19141782854330,-9.76801817215883 -36.19131223286726,-9.76792767052458 -36.19122167816438,-9.76784319982716 -36.19127871532131,-9.76779652237602 -36.19144790635733,-9.76764750799728 -36.19178714138565,-9.76734976014552 -36.19203226889226,-9.76713852863638 -36.19227820940100,-9.76692232497541 -36.19268662955488,-9.76656550327647 -36.19323289639851,-9.76608435863106 -36.19352060599973,-9.76583208488504 -36.19380290661806,-9.76558623876982 -36.19393766404126,-9.76546833494388 -36.19420013281299,-9.76523950890673 -36.19432912243199,-9.76512439019050 -36.19454272446309,-9.76493443441752 -36.19471065178669,-9.76478876580520 -36.19498627103223,-9.76455098668044 -36.19516440507974,-9.76439872587446 -36.19550920747882,-9.76409763335539 -36.19592243929477,-9.76373743346438 -36.19616627268066,-9.76351985474174 -36.19642376127215,-9.76330086799933 -36.19684425445753,-9.76293777190575 -36.19713099476086,-9.76269309360491 -36.19743355172008,-9.76242955524720 -36.19773769361110,-9.76216992157788 -36.19803505576059,-9.76191280483388 -36.19822355532611,-9.76174604794070 -36.19826888490506,-9.76177106931639 -36.19847202133004,-9.76188062354407 -36.19867439064228,-9.76199389089242 -36.19886999673856,-9.76210788997925 -36.19904812558902,-9.76221084171789 -36.19914628778867,-9.76226538778411 -36.19903520312211,-9.76236130719069 -36.19884662825135,-9.76252800365551 -36.19861892757155,-9.76272540082224 -36.19807356009336,-9.76320055086888 -36.19749379476056,-9.76370324424513 -36.19720746042103,-9.76395336305388 -36.19690994135230,-9.76421188195586 -36.19633273984354,-9.76471108971369 -36.19607343357170,-9.76493753240941 -36.19559641440420,-9.76535168976972 -36.19535587873316,-9.76556398663825 -36.19510518077348,-9.76577736838500 -36.19460607811519,-9.76621384054003 -36.19413620651681,-9.76662243380381 -36.19387369841655,-9.76685063325823 -36.19359279343156,-9.76709575639523 -36.19332439906896,-9.76733079405069 -36.19305759560111,-9.76756263810468 -36.19278946934269,-9.76779320873278 -36.19253133676356,-9.76802086847585 -36.19228793092877,-9.76823271736529 -36.19194586651091,-9.76853288722752 -36.19194586651091,-9.76853288722752
          </coordinates>
        </LinearRing>
      </outerBoundaryIs>
    </Polygon>
  </Placemark>
</Document>
</kml>
