<?xml version="1.0" encoding="UTF-8"?>
<kml xmlns="http://www.opengis.net/kml/2.2" xmlns:gx="http://www.google.com/kml/ext/2.2" xmlns:kml="http://www.opengis.net/kml/2.2" xmlns:atom="http://www.w3.org/2005/Atom">
<Document>
  <name>2028.kml</name>
  <StyleMap id="FF0040FF">
    <Pair>
      <key>normal</key>
      <styleUrl>#s_FF0040FF</styleUrl>
    </Pair>
    <Pair>
      <key>highlight</key>
      <styleUrl>#s_FF0040FF_hl</styleUrl>
    </Pair>
  </StyleMap>
  <Style id="s_FF0040FF">
   <IconStyle>
      <scale>1.1</scale>
      <Icon>
        <href>http://maps.google.com/mapfiles/kml/pushpin/agrocad.png</href>
      </Icon>
      <hotSpot x="20" y="2" xunits="pixels" yunits="pixels"/>
    </IconStyle>
    <LineStyle>
      <color>FF0040FF</color>
      <width>1</width>
    </LineStyle>
    <PolyStyle>
      <color>40ffffff</color>
      <fill>1</fill>
    </PolyStyle>
  </Style>
  <Style id="s_FF0040FF_hl">
    <IconStyle>
      <scale>1.3</scale>
      <Icon>
        <href>http://maps.google.com/mapfiles/kml/pushpin/agrocad.png</href>
      </Icon>
      <hotSpot x="20" y="2" xunits="pixels" yunits="pixels"/>
    </IconStyle>
    <LineStyle>
      <color>ff000000</color>
      <width>1</width>
    </LineStyle>
    <PolyStyle>
      <color>40ffffff</color>
      <fill>1</fill>
    </PolyStyle>
  </Style>
  <Placemark>
    <name>AgroCAD: 7F82</name>
    <styleUrl>FF0040FF</styleUrl>
    <Polygon>
      <outerBoundaryIs>
        <LinearRing>
          <coordinates>
           -36.19064413323702,-9.76739748710753 -36.19058042078876,-9.76734783154119 -36.19049102010225,-9.76727613622920 -36.19039093739639,-9.76719607671965 -36.19028097598345,-9.76711276599395 -36.19018450116278,-9.76704046660785 -36.19010213527094,-9.76697867195735 -36.19003187998086,-9.76692644688669 -36.18995689911727,-9.76687579713506 -36.18989823298445,-9.76683983044242 -36.18984722943749,-9.76678508984250 -36.18982664677930,-9.76668964500339 -36.18984298023989,-9.76660036048782 -36.18988660320362,-9.76652478815421 -36.18994853018602,-9.76644821268472 -36.19002536597298,-9.76636133374467 -36.19010963764953,-9.76628129668026 -36.19020174699146,-9.76619776274389 -36.19029253396219,-9.76611142970048 -36.19037378162174,-9.76603225586501 -36.19044840358923,-9.76595866002738 -36.19053155438614,-9.76588067519596 -36.19062343668614,-9.76579661344516 -36.19071704895398,-9.76571095764079 -36.19080908142780,-9.76562691502799 -36.19089937167205,-9.76554810935220 -36.19098188187023,-9.76547513826864 -36.19105223807390,-9.76540848223691 -36.19109669640008,-9.76535951412190 -36.19114867662779,-9.76529802076882 -36.19121518522040,-9.76522755277134 -36.19127001263644,-9.76517459398624 -36.19138458354388,-9.76507851365095 -36.19144058139397,-9.76497820000360 -36.19147319384398,-9.76489632823605 -36.19153618284468,-9.76485017528949 -36.19161390197223,-9.76480106003234 -36.19170178279419,-9.76474796296295 -36.19179968517772,-9.76469274800567 -36.19189632800865,-9.76463769377118 -36.19197944440092,-9.76458726999189 -36.19206428785891,-9.76453631387024 -36.19215480819637,-9.76447908572976 -36.19223961330645,-9.76441949597243 -36.19231837812280,-9.76434929234902 -36.19238659794187,-9.76425868569025 -36.19243299736915,-9.76415907992544 -36.19246788665496,-9.76407001433696 -36.19249939306254,-9.76398555967103 -36.19253048907295,-9.76389978661439 -36.19256690348123,-9.76381548121436 -36.19260914028620,-9.76373904372689 -36.19265820793082,-9.76366800777535 -36.19271121933397,-9.76360202737821 -36.19276863329123,-9.76353699748731 -36.19283843183450,-9.76347014200562 -36.19291624601211,-9.76341091720882 -36.19299943455926,-9.76335926397895 -36.19308254246174,-9.76331233234302 -36.19316714185536,-9.76326683395980 -36.19325377409051,-9.76322310217746 -36.19334584510399,-9.76317544980114 -36.19343616898003,-9.76311337497426 -36.19351682546017,-9.76303882370316 -36.19358432490919,-9.76296047076194 -36.19364366601973,-9.76288539503735 -36.19369782882309,-9.76281031471296 -36.19375134775320,-9.76273047743013 -36.19380513696115,-9.76264521605832 -36.19385401870974,-9.76256288605009 -36.19390394245637,-9.76248464942965 -36.19396072120093,-9.76241615780084 -36.19403211020711,-9.76236866085557 -36.19412175823317,-9.76233011546054 -36.19422132602106,-9.76228608395933 -36.19431746563609,-9.76223639038980 -36.19441297402456,-9.76217889997455 -36.19449672501317,-9.76211157878218 -36.19456536802553,-9.76203359247069 -36.19461330178971,-9.76194734538651 -36.19463376018391,-9.76184610569652 -36.19462779921688,-9.76174086407524 -36.19460469023733,-9.76163271478995 -36.19457432160560,-9.76153062834210 -36.19454697750992,-9.76144054558667 -36.19451540251493,-9.76133724676398 -36.19448395370085,-9.76122961773423 -36.19446099056624,-9.76112666525181 -36.19445640035076,-9.76102815535428 -36.19446736155089,-9.76093744072043 -36.19449233183206,-9.76085594724315 -36.19453402426483,-9.76077143906268 -36.19458432069560,-9.76068772391153 -36.19463869082965,-9.76061095650553 -36.19469249293067,-9.76054172240179 -36.19474211859803,-9.76047839883280 -36.19479428937331,-9.76040682009397 -36.19484859378015,-9.76032468766990 -36.19490225587120,-9.76023931100503 -36.19495264168635,-9.76015755536926 -36.19499569837074,-9.76009159690607 -36.19503354963477,-9.76003638644637 -36.19507547688788,-9.75998591754236 -36.19511501227560,-9.75994971571855 -36.19513574790499,-9.75992834467324 -36.19525117789571,-9.75999680500067 -36.19542664474896,-9.76010002535622 -36.19562721727171,-9.76021832622966 -36.19582921414021,-9.76033769529203 -36.19603175563280,-9.76046091240420 -36.19624049210391,-9.76057997448575 -36.19643890314516,-9.76069771711441 -36.19659961763393,-9.76078947831276 -36.19656332613073,-9.76084446883886 -36.19652077689004,-9.76092418516307 -36.19647717550848,-9.76101724494326 -36.19643490654941,-9.76111769224963 -36.19639521411071,-9.76121938617712 -36.19635869411231,-9.76131418099603 -36.19632190142971,-9.76140439327849 -36.19626539561995,-9.76151289000535 -36.19621626006465,-9.76159580219467 -36.19616614224363,-9.76166953561885 -36.19610620921851,-9.76174910747761 -36.19603879246100,-9.76182978398783 -36.19591260064765,-9.76198178787688 -36.19576646078225,-9.76214736749038 -36.19569653940331,-9.76222549762915 -36.19562080299033,-9.76231010970907 -36.19554669206735,-9.76239577856017 -36.19546173107558,-9.76249830010437 -36.19538397671588,-9.76260288334545 -36.19531229248388,-9.76270701459403 -36.19524316637031,-9.76280854925971 -36.19518099192613,-9.76288990035014 -36.19511547721551,-9.76295785423294 -36.19503410086449,-9.76303282748085 -36.19494558469336,-9.76310895738784 -36.19485771941849,-9.76318047011424 -36.19476830010433,-9.76325259465997 -36.19467305421482,-9.76333362257456 -36.19457375264839,-9.76342193899340 -36.19448429457000,-9.76350747399379 -36.19441770655758,-9.76357948031705 -36.19434979703632,-9.76365813890416 -36.19428591142292,-9.76374495646244 -36.19422607167142,-9.76384656411711 -36.19416609159824,-9.76396137944466 -36.19410952902095,-9.76407154042150 -36.19405015150089,-9.76416443435591 -36.19398492717633,-9.76423515404053 -36.19390738852622,-9.76430300872994 -36.19382224430476,-9.76437354982805 -36.19364225098045,-9.76454258248052 -36.19357914970908,-9.76463294153472 -36.19353872138081,-9.76472836597674 -36.19350983972380,-9.76482335487517 -36.19348062072365,-9.76492231836687 -36.19343891977157,-9.76501955598534 -36.19339022491961,-9.76510072924759 -36.19332550143655,-9.76517554753024 -36.19324542130236,-9.76524578349862 -36.19315436755788,-9.76530631061130 -36.19295517188293,-9.76541615058551 -36.19286023847271,-9.76547409495048 -36.19276942545583,-9.76554062729279 -36.19270080876844,-9.76561979220166 -36.19267334622398,-9.76570647532776 -36.19265169424977,-9.76578890854711 -36.19262523458123,-9.76585953128420 -36.19258396952036,-9.76590463523267 -36.19252790223341,-9.76592906554489 -36.19245671363869,-9.76594516345202 -36.19235998010706,-9.76596300252723 -36.19225268563649,-9.76599617864567 -36.19214914376467,-9.76605331331276 -36.19205641143608,-9.76612024760269 -36.19197508830942,-9.76619053326007 -36.19190066773782,-9.76626784416912 -36.19184693129533,-9.76634595640270 -36.19179119789135,-9.76644458263242 -36.19174505434776,-9.76653538927993 -36.19170529499374,-9.76661744405464 -36.19165627719493,-9.76670547141371 -36.19159091420399,-9.76678690970236 -36.19151719043117,-9.76683602996715 -36.19143544458113,-9.76686498784349 -36.19134988794328,-9.76688586479957 -36.19125381962589,-9.76690532188466 -36.19115458818344,-9.76692480170114 -36.19105413190311,-9.76695131580098 -36.19095057549188,-9.76699624258607 -36.19085333169837,-9.76706235663933 -36.19078732478672,-9.76713080253502 -36.19074271770634,-9.76719590513960 -36.19070009043111,-9.76727342838916 -36.19066568344715,-9.76735049228709 -36.19064413323702,-9.76739748710753 -36.19064413323702,-9.76739748710753
          </coordinates>
        </LinearRing>
      </outerBoundaryIs>
    </Polygon>
  </Placemark>
</Document>
</kml>
