<?xml version="1.0" encoding="UTF-8"?>
<kml xmlns="http://www.opengis.net/kml/2.2" xmlns:gx="http://www.google.com/kml/ext/2.2" xmlns:kml="http://www.opengis.net/kml/2.2" xmlns:atom="http://www.w3.org/2005/Atom">
<Document>
  <name>2030.kml</name>
  <StyleMap id="FF0040FF">
    <Pair>
      <key>normal</key>
      <styleUrl>#s_FF0040FF</styleUrl>
    </Pair>
    <Pair>
      <key>highlight</key>
      <styleUrl>#s_FF0040FF_hl</styleUrl>
    </Pair>
  </StyleMap>
  <Style id="s_FF0040FF">
   <IconStyle>
      <scale>1.1</scale>
      <Icon>
        <href>http://maps.google.com/mapfiles/kml/pushpin/agrocad.png</href>
      </Icon>
      <hotSpot x="20" y="2" xunits="pixels" yunits="pixels"/>
    </IconStyle>
    <LineStyle>
      <color>FF0040FF</color>
      <width>1</width>
    </LineStyle>
    <PolyStyle>
      <color>40ffffff</color>
      <fill>1</fill>
    </PolyStyle>
  </Style>
  <Style id="s_FF0040FF_hl">
    <IconStyle>
      <scale>1.3</scale>
      <Icon>
        <href>http://maps.google.com/mapfiles/kml/pushpin/agrocad.png</href>
      </Icon>
      <hotSpot x="20" y="2" xunits="pixels" yunits="pixels"/>
    </IconStyle>
    <LineStyle>
      <color>ff000000</color>
      <width>1</width>
    </LineStyle>
    <PolyStyle>
      <color>40ffffff</color>
      <fill>1</fill>
    </PolyStyle>
  </Style>
  <Placemark>
    <name>AgroCAD: 7F85</name>
    <styleUrl>FF0040FF</styleUrl>
    <Polygon>
      <outerBoundaryIs>
        <LinearRing>
          <coordinates>
           -36.19191827362623,-9.76855710061082 -36.19163803693451,-9.76880301429168 -36.19125481646647,-9.76913851249996 -36.19107073142391,-9.76929301356122 -36.19087190555158,-9.76945616200889 -36.19047629541602,-9.76980628117439 -36.19029334525489,-9.76996661396606 -36.19006966192201,-9.77015878457770 -36.18984716114167,-9.77035085715418 -36.18971456062226,-9.77046680040703 -36.18958483960869,-9.77058148362483 -36.18938674234914,-9.77075288250441 -36.18917752401262,-9.77092729273403 -36.18905826906536,-9.77102805887837 -36.18894531243790,-9.77112236773475 -36.18883720120179,-9.77121271264258 -36.18874857529626,-9.77129418652586 -36.18869791296580,-9.77137089073747 -36.18869693935313,-9.77139152205893 -36.18865311373211,-9.77132926827931 -36.18859840068918,-9.77125742625947 -36.18856545843338,-9.77117541023029 -36.18855967032831,-9.77108395871357 -36.18857198091161,-9.77099760406145 -36.18860428188301,-9.77090864872519 -36.18866144081179,-9.77082064519356 -36.18873496367462,-9.77075147352727 -36.18879106637443,-9.77071264605386 -36.18887126663200,-9.77066949690898 -36.18896619272426,-9.77062903381908 -36.18906350081942,-9.77059357444914 -36.18915313265111,-9.77055920031067 -36.18923877938668,-9.77052187115894 -36.18931157582043,-9.77048069306457 -36.18938501989405,-9.77043233063857 -36.18946803148534,-9.77037864362024 -36.18955492013884,-9.77033134090904 -36.18965399695496,-9.77028091279096 -36.18974173718140,-9.77022752207322 -36.18981483863839,-9.77016894443829 -36.18988168853139,-9.77010623229049 -36.18994043253202,-9.77003091041278 -36.18998921647820,-9.76995084754867 -36.19003986924778,-9.76986154811387 -36.19015750736078,-9.76963804083064 -36.19023691623212,-9.76947424459132 -36.19026568726994,-9.76937834932137 -36.19026652638668,-9.76927840027414 -36.19023952163729,-9.76910677952460 -36.19022595295147,-9.76901569830668 -36.19019697416558,-9.76893926162140 -36.19016727909825,-9.76885981572560 -36.19014076893760,-9.76878177708988 -36.19011466195004,-9.76872350387845 -36.19007673332947,-9.76866408449496 -36.19003385451597,-9.76861071402205 -36.18998233990850,-9.76855340511419 -36.18993360210611,-9.76849996527699 -36.18988198035582,-9.76844640863920 -36.18974515636856,-9.76830489722470 -36.18969061914864,-9.76823505668374 -36.18964344737925,-9.76816072417885 -36.18951507485261,-9.76790772118468 -36.18945848597523,-9.76772213522987 -36.18939274242614,-9.76754739085582 -36.18933421655301,-9.76733781654911 -36.18930243774492,-9.76720581758844 -36.18928367000169,-9.76708552623307 -36.18926638475262,-9.76697288750986 -36.18925495688304,-9.76687391081330 -36.18924851528575,-9.76680595646369 -36.18925908372260,-9.76680829395804 -36.18929225164649,-9.76681373998339 -36.18932997430394,-9.76681484434072 -36.18936575593430,-9.76682115984197 -36.18940194408322,-9.76683050933702 -36.18944011674326,-9.76683632569941 -36.18947704564035,-9.76684427881469 -36.18951313112589,-9.76685185305275 -36.18955325537724,-9.76685813587855 -36.18963254994099,-9.76686779876048 -36.18966850448478,-9.76687308730641 -36.18970727468284,-9.76687766955126 -36.18974644093262,-9.76687959547899 -36.18978589267286,-9.76688294701010 -36.18982350522504,-9.76688532908717 -36.18986155387196,-9.76688974574727 -36.18989503990394,-9.76689339007748 -36.18990449348398,-9.76689329563780 -36.18992020287385,-9.76689578056365 -36.18993706091354,-9.76690611579232 -36.19001069368388,-9.76695585490844 -36.19008022452778,-9.76700754145876 -36.19016252606692,-9.76706928783498 -36.19025894001159,-9.76714154161347 -36.19036844340918,-9.76722450533857 -36.19046813453627,-9.76730425161913 -36.19055771495626,-9.76737609107654 -36.19064648773889,-9.76744527791480 -36.19072926466115,-9.76750669636412 -36.19092986290112,-9.76764753190844 -36.19102435104324,-9.76772089826879 -36.19110513565271,-9.76778982034305 -36.19119595386638,-9.76786880828240 -36.19128783547461,-9.76795451674550 -36.19139396428663,-9.76804547531813 -36.19149663187496,-9.76813408012943 -36.19159727484877,-9.76822259449329 -36.19169923673211,-9.76830116561638 -36.19179083112982,-9.76838451037296 -36.19184826483404,-9.76845537548325 -36.19189747646877,-9.76852525230746 -36.19191827362623,-9.76855710061082 -36.19191827362623,-9.76855710061082
          </coordinates>
        </LinearRing>
      </outerBoundaryIs>
    </Polygon>
  </Placemark>
  <Placemark>
    <name>AgroCAD: 7F81</name>
    <styleUrl>FF0040FF</styleUrl>
    <Polygon>
      <outerBoundaryIs>
        <LinearRing>
          <coordinates>
           -36.18986119747208,-9.76685332152896 -36.18982678510363,-9.76684932696629 -36.18978860779006,-9.76684690912302 -36.18974889778910,-9.76684353565308 -36.18971033515390,-9.76684163940825 -36.18967333216873,-9.76683726603118 -36.18963744334689,-9.76683198715331 -36.18955831789917,-9.76682234488248 -36.18951974637947,-9.76681630519123 -36.18948468093016,-9.76680894505686 -36.18944675295053,-9.76680077677737 -36.18940931971251,-9.76679507308189 -36.18937354974069,-9.76678583162722 -36.18933372259090,-9.76677880208805 -36.18929577945592,-9.76677769127751 -36.18926602755168,-9.76677280614824 -36.18924562794795,-9.76676829422690 -36.18924162540300,-9.76670987226677 -36.18924751644069,-9.76662356138104 -36.18926489117538,-9.76655031640127 -36.18928858636099,-9.76649119610614 -36.18932043347108,-9.76644128772834 -36.18936449678081,-9.76638961861644 -36.18946732288569,-9.76628001819908 -36.18951057785637,-9.76623335206510 -36.18963494269428,-9.76611275364017 -36.18969842992440,-9.76606263641531 -36.18975351626732,-9.76601259805774 -36.18980216045669,-9.76595705808572 -36.18988840163833,-9.76581105751903 -36.18994663092585,-9.76572557819254 -36.19000538395761,-9.76564058279839 -36.19005610874617,-9.76554888337767 -36.19009952435458,-9.76545807613512 -36.19013267151371,-9.76536574826657 -36.19018081796988,-9.76517824108014 -36.19019902379366,-9.76508783239402 -36.19021627159133,-9.76500009452251 -36.19023506090514,-9.76490951797347 -36.19025911188868,-9.76482053231260 -36.19030251281207,-9.76473579768532 -36.19035367508489,-9.76467382179440 -36.19040900163959,-9.76464321212094 -36.19047610166030,-9.76463394846483 -36.19056555796618,-9.76464441050510 -36.19065698898725,-9.76466695153343 -36.19076511187192,-9.76468264287223 -36.19087397116564,-9.76469074868294 -36.19094835151701,-9.76468734886442 -36.19100685913624,-9.76466959369296 -36.19105840898509,-9.76464215272839 -36.19110906534824,-9.76460874797001 -36.19112579180234,-9.76459009143747 -36.19113941261890,-9.76460535294840 -36.19118796117430,-9.76465820572559 -36.19121426247417,-9.76468704971113 -36.19126528547452,-9.76474808672602 -36.19129045755240,-9.76478025718572 -36.19131525828894,-9.76481286863250 -36.19133724212562,-9.76484511948480 -36.19138311350002,-9.76490296221221 -36.19140582057071,-9.76493337011214 -36.19141460829527,-9.76494507023974 -36.19140756866512,-9.76496274283660 -36.19135595528793,-9.76505520219881 -36.19124551572262,-9.76514781794454 -36.19118916747665,-9.76520224572515 -36.19112140231556,-9.76527404509439 -36.19106919582105,-9.76533580612120 -36.19102608594225,-9.76538328900214 -36.19095717280759,-9.76544857785682 -36.19087521794763,-9.76552105780422 -36.19078470967959,-9.76560005377065 -36.19069237585378,-9.76568437157171 -36.19059873697251,-9.76577005170148 -36.19050669068307,-9.76585426348179 -36.19042304338271,-9.76593271396808 -36.19034817431286,-9.76600655350797 -36.19026716342117,-9.76608549661673 -36.19017684815635,-9.76617138109349 -36.19008474721984,-9.76625490740507 -36.18999902707816,-9.76633632014745 -36.18992061634510,-9.76642497988942 -36.18985640496951,-9.76650438010703 -36.18980825462427,-9.76658779565539 -36.18978951737132,-9.76669022009901 -36.18981369587310,-9.76680233945672 -36.18986119747209,-9.76685332152898 -36.18986119747208,-9.76685332152896
          </coordinates>
        </LinearRing>
      </outerBoundaryIs>
    </Polygon>
  </Placemark>
</Document>
</kml>
