<?xml version="1.0" encoding="UTF-8"?>
<kml xmlns="http://www.opengis.net/kml/2.2" xmlns:gx="http://www.google.com/kml/ext/2.2" xmlns:kml="http://www.opengis.net/kml/2.2" xmlns:atom="http://www.w3.org/2005/Atom">
<Document>
  <name>2015.kml</name>
  <StyleMap id="FFFF4000">
    <Pair>
      <key>normal</key>
      <styleUrl>#s_FFFF4000</styleUrl>
    </Pair>
    <Pair>
      <key>highlight</key>
      <styleUrl>#s_FFFF4000_hl</styleUrl>
    </Pair>
  </StyleMap>
  <Style id="s_FFFF4000">
   <IconStyle>
      <scale>1.1</scale>
      <Icon>
        <href>http://maps.google.com/mapfiles/kml/pushpin/agrocad.png</href>
      </Icon>
      <hotSpot x="20" y="2" xunits="pixels" yunits="pixels"/>
    </IconStyle>
    <LineStyle>
      <color>FFFF4000</color>
      <width>1</width>
    </LineStyle>
    <PolyStyle>
      <color>40ffffff</color>
      <fill>1</fill>
    </PolyStyle>
  </Style>
  <Style id="s_FFFF4000_hl">
    <IconStyle>
      <scale>1.3</scale>
      <Icon>
        <href>http://maps.google.com/mapfiles/kml/pushpin/agrocad.png</href>
      </Icon>
      <hotSpot x="20" y="2" xunits="pixels" yunits="pixels"/>
    </IconStyle>
    <LineStyle>
      <color>ff000000</color>
      <width>1</width>
    </LineStyle>
    <PolyStyle>
      <color>40ffffff</color>
      <fill>1</fill>
    </PolyStyle>
  </Style>
  <Placemark>
    <name>AgroCAD: 8ED5</name>
    <styleUrl>FFFF4000</styleUrl>
    <Polygon>
      <outerBoundaryIs>
        <LinearRing>
          <coordinates>
           -36.18667374469925,-9.77332540714968 -36.18671119988137,-9.77329892825613 -36.18673677508640,-9.77328116239062 -36.18677496316259,-9.77325763806369 -36.18681186932640,-9.77323329300819 -36.18686181750616,-9.77320136145273 -36.18690655599531,-9.77318211476025 -36.18695165939806,-9.77316245710964 -36.18699615570905,-9.77314084284730 -36.18704064562523,-9.77312223464819 -36.18708666379993,-9.77310534120891 -36.18713321574471,-9.77308801929124 -36.18717766917372,-9.77307466265089 -36.18722097332988,-9.77306266621911 -36.18726587010379,-9.77305346807467 -36.18731150793049,-9.77304394795114 -36.18735683719776,-9.77303525108029 -36.18738958180600,-9.77302897079410 -36.18756639191414,-9.77298882903532 -36.18761325514077,-9.77297708922724 -36.18765934318790,-9.77296840293635 -36.18770743614054,-9.77295729767401 -36.18775703654088,-9.77294515040676 -36.18780102023420,-9.77292582121351 -36.18784042150759,-9.77290075993620 -36.18787712651087,-9.77287036234073 -36.18791230750729,-9.77283796181703 -36.18794737551941,-9.77280514344114 -36.18798546228630,-9.77277740995049 -36.18801977795985,-9.77274805984485 -36.18805592427722,-9.77271889337019 -36.18809739855203,-9.77269326023804 -36.18814108542427,-9.77267406637347 -36.18818354370442,-9.77265752698994 -36.18822730874796,-9.77264868067389 -36.18826839966994,-9.77264516037177 -36.18830745439438,-9.77265448529882 -36.18835123928289,-9.77267232001897 -36.18839577327829,-9.77269290801149 -36.18844050518772,-9.77272063901270 -36.18848563595375,-9.77274430310827 -36.18853390730507,-9.77275394451690 -36.18858097710943,-9.77274596163139 -36.18862036628011,-9.77272355302242 -36.18865451412556,-9.77268885588282 -36.18870970812147,-9.77263156649501 -36.18874354033906,-9.77259512087608 -36.18878493179842,-9.77254785429248 -36.18881135369075,-9.77252088410691 -36.18884728614673,-9.77248559377867 -36.18889126944891,-9.77243847327902 -36.18892103150677,-9.77240430080155 -36.18895084108441,-9.77236456625162 -36.18898185250181,-9.77232555463213 -36.18901676338135,-9.77228833886652 -36.18905136568321,-9.77224905247052 -36.18908697385736,-9.77221720808104 -36.18912736109465,-9.77218657048395 -36.18916678106768,-9.77215733948013 -36.18919556248281,-9.77215037044845 -36.18920522633926,-9.77214755594797 -36.18923848870162,-9.77214678523475 -36.18926571776557,-9.77216344664531 -36.18929172082669,-9.77218893165957 -36.18931224159154,-9.77221679668180 -36.18932045200835,-9.77222804674064 -36.18941590288317,-9.77239781554554 -36.18943030073948,-9.77242700732728 -36.18944768665616,-9.77246394503108 -36.18946308073129,-9.77251248996804 -36.18947053710491,-9.77255180788007 -36.18947272526534,-9.77259261901460 -36.18947108483832,-9.77260414845658 -36.18947205097227,-9.77265471869501 -36.18947293751562,-9.77275461860580 -36.18947232015282,-9.77295889782567 -36.18939874443720,-9.77302949790556 -36.18930491154976,-9.77311074522328 -36.18918639744342,-9.77321540570020 -36.18906836184751,-9.77331613441649 -36.18897167844561,-9.77340031869201 -36.18891229108159,-9.77345490966459 -36.18886889752838,-9.77350535498352 -36.18881015649233,-9.77360361137456 -36.18874789388390,-9.77374503801711 -36.18869150135862,-9.77389346010715 -36.18863062064520,-9.77404010558617 -36.18856882974289,-9.77418350958753 -36.18850981573039,-9.77431583395181 -36.18845043399107,-9.77445412414779 -36.18835722175401,-9.77466495421590 -36.18833230247465,-9.77471428174055 -36.18667374469925,-9.77332540714968
          </coordinates>
        </LinearRing>
      </outerBoundaryIs>
    </Polygon>
  </Placemark>
</Document>
</kml>
