<?xml version="1.0" encoding="UTF-8"?>
<kml xmlns="http://www.opengis.net/kml/2.2" xmlns:gx="http://www.google.com/kml/ext/2.2" xmlns:kml="http://www.opengis.net/kml/2.2" xmlns:atom="http://www.w3.org/2005/Atom">
<Document>
  <name>4035.kml</name>
  <StyleMap id="FFFF4000">
    <Pair>
      <key>normal</key>
      <styleUrl>#s_FFFF4000</styleUrl>
    </Pair>
    <Pair>
      <key>highlight</key>
      <styleUrl>#s_FFFF4000_hl</styleUrl>
    </Pair>
  </StyleMap>
  <Style id="s_FFFF4000">
   <IconStyle>
      <scale>1.1</scale>
      <Icon>
        <href>http://maps.google.com/mapfiles/kml/pushpin/agrocad.png</href>
      </Icon>
      <hotSpot x="20" y="2" xunits="pixels" yunits="pixels"/>
    </IconStyle>
    <LineStyle>
      <color>FFFF4000</color>
      <width>1</width>
    </LineStyle>
    <PolyStyle>
      <color>40ffffff</color>
      <fill>1</fill>
    </PolyStyle>
  </Style>
  <Style id="s_FFFF4000_hl">
    <IconStyle>
      <scale>1.3</scale>
      <Icon>
        <href>http://maps.google.com/mapfiles/kml/pushpin/agrocad.png</href>
      </Icon>
      <hotSpot x="20" y="2" xunits="pixels" yunits="pixels"/>
    </IconStyle>
    <LineStyle>
      <color>ff000000</color>
      <width>1</width>
    </LineStyle>
    <PolyStyle>
      <color>40ffffff</color>
      <fill>1</fill>
    </PolyStyle>
  </Style>
  <Placemark>
    <name>AgroCAD: 90F6</name>
    <styleUrl>FFFF4000</styleUrl>
    <Polygon>
      <outerBoundaryIs>
        <LinearRing>
          <coordinates>
           -36.20567540960485,-9.72389694073338 -36.20566848290785,-9.72372025140641 -36.20565208198422,-9.72355843891422 -36.20563925736700,-9.72343579076290 -36.20563277995898,-9.72338006041664 -36.20562348760009,-9.72334860248037 -36.20560594565051,-9.72311693661562 -36.20560087888830,-9.72306072249865 -36.20559750463350,-9.72300314729467 -36.20559546332172,-9.72294987845254 -36.20559000840350,-9.72289200200887 -36.20558446736602,-9.72286253322064 -36.20554123363569,-9.72270642477683 -36.20553066168741,-9.72268444758309 -36.20546774688756,-9.72248340202021 -36.20545499712772,-9.72240790319299 -36.20547653420112,-9.72232163491423 -36.20551478493047,-9.72225700408036 -36.20553773219392,-9.72223706283558 -36.20557995457652,-9.72222524381161 -36.20567986211130,-9.72220544220340 -36.20577347483943,-9.72222214505029 -36.20592705433198,-9.72227327800298 -36.20600118096235,-9.72230832505623 -36.20606822072772,-9.72234523923809 -36.20612077660427,-9.72238975941414 -36.20620439445645,-9.72247554932420 -36.20633009211395,-9.72262131587731 -36.20640388939742,-9.72270252827617 -36.20650516537821,-9.72281257057865 -36.20654706936873,-9.72285432645149 -36.20659011846262,-9.72289553750970 -36.20663602300169,-9.72293446817905 -36.20668083500083,-9.72297159186797 -36.20670112111452,-9.72298686161658 -36.20680490500074,-9.72306348127066 -36.20690015366028,-9.72313281499059 -36.20694059184736,-9.72317202346978 -36.20698332176759,-9.72321517713741 -36.20699557812675,-9.72322549908806 -36.20706933587924,-9.72330399593340 -36.20708870574376,-9.72332290902577 -36.20715766372596,-9.72339747521339 -36.20719585210801,-9.72344386478654 -36.20723697392411,-9.72348743822738 -36.20728014464841,-9.72353084840579 -36.20732453476946,-9.72357440687316 -36.20736676229625,-9.72361556821710 -36.20741182345732,-9.72365903016710 -36.20745631804417,-9.72370002381656 -36.20750178890005,-9.72374004551336 -36.20755865013933,-9.72378657851644 -36.20760821128087,-9.72382448142741 -36.20765804814523,-9.72385903131613 -36.20769542789970,-9.72389017984138 -36.20776067375490,-9.72393218913068 -36.20786729769187,-9.72401390599996 -36.20791589877234,-9.72405003094671 -36.20795797810440,-9.72409331296368 -36.20800132544796,-9.72413973570092 -36.20804419078265,-9.72418971198046 -36.20808834387545,-9.72423567353735 -36.20813134201102,-9.72428414077923 -36.20817372382759,-9.72433087910588 -36.20821836870883,-9.72437294698006 -36.20826110845206,-9.72441575058808 -36.20830624613907,-9.72445371898126 -36.20834997525085,-9.72449418475739 -36.20843309017866,-9.72457246361384 -36.20847452977840,-9.72461016734765 -36.20851950933305,-9.72465253326170 -36.20855775484771,-9.72469142065004 -36.20859459877031,-9.72473686701676 -36.20863849657641,-9.72477440581072 -36.20867913636164,-9.72481656154112 -36.20872689196456,-9.72485984623897 -36.20877307517655,-9.72489904663200 -36.20881530947681,-9.72494108814849 -36.20886088735761,-9.72498397932974 -36.20890719285923,-9.72502564644496 -36.20895513387227,-9.72506950442708 -36.20899698341236,-9.72511152217705 -36.20908976003406,-9.72519800509278 -36.20912961956191,-9.72523857748285 -36.20917265207275,-9.72527749718570 -36.20915934391837,-9.72531929136527 -36.20914697770222,-9.72535574449923 -36.20648993324980,-9.72678145758877 -36.20646034354273,-9.72673441359864 -36.20643331259131,-9.72668554273567 -36.20641413376313,-9.72665154848741 -36.20578256281956,-9.72562150474198 -36.20519053337871,-9.72464235859115 -36.20492885510833,-9.72421150506590 -36.20491932027101,-9.72419830640728 -36.20487976670669,-9.72413075789533 -36.20486608998237,-9.72410986190197 -36.20484678650641,-9.72408156836361 -36.20482885860563,-9.72405419085717 -36.20480569789398,-9.72401120584893 -36.20481686091198,-9.72400628842842 -36.20483775862324,-9.72399869461295 -36.20485813799893,-9.72399007011416 -36.20487870223916,-9.72398370240767 -36.20489757059482,-9.72398458982848 -36.20492482806907,-9.72399910356418 -36.20505482833789,-9.72409493424550 -36.20509466790844,-9.72412637602068 -36.20513926474349,-9.72416319891846 -36.20518377459798,-9.72420081549414 -36.20523142986445,-9.72423537020197 -36.20528109853370,-9.72426663114497 -36.20533097204505,-9.72429680826051 -36.20537864744374,-9.72432528319267 -36.20542902187626,-9.72435655247114 -36.20548061998149,-9.72438297714568 -36.20552778535035,-9.72440712059229 -36.20556708750155,-9.72441532528966 -36.20560518744500,-9.72440374202443 -36.20564174326663,-9.72437486721723 -36.20566324353810,-9.72432983549940 -36.20567448002847,-9.72428181833944 -36.20567984716363,-9.72424178455610 -36.20567941454558,-9.72418959518564 -36.20567573730714,-9.72402609516842 -36.20567540960485,-9.72389694073338
          </coordinates>
        </LinearRing>
      </outerBoundaryIs>
    </Polygon>
  </Placemark>
</Document>
</kml>
