<?xml version="1.0" encoding="UTF-8"?>
<kml xmlns="http://www.opengis.net/kml/2.2" xmlns:gx="http://www.google.com/kml/ext/2.2" xmlns:kml="http://www.opengis.net/kml/2.2" xmlns:atom="http://www.w3.org/2005/Atom">
<Document>
  <name>4024.kml</name>
  <StyleMap id="FF0040FF">
    <Pair>
      <key>normal</key>
      <styleUrl>#s_FF0040FF</styleUrl>
    </Pair>
    <Pair>
      <key>highlight</key>
      <styleUrl>#s_FF0040FF_hl</styleUrl>
    </Pair>
  </StyleMap>
  <Style id="s_FF0040FF">
   <IconStyle>
      <scale>1.1</scale>
      <Icon>
        <href>http://maps.google.com/mapfiles/kml/pushpin/agrocad.png</href>
      </Icon>
      <hotSpot x="20" y="2" xunits="pixels" yunits="pixels"/>
    </IconStyle>
    <LineStyle>
      <color>FF0040FF</color>
      <width>1</width>
    </LineStyle>
    <PolyStyle>
      <color>40ffffff</color>
      <fill>1</fill>
    </PolyStyle>
  </Style>
  <Style id="s_FF0040FF_hl">
    <IconStyle>
      <scale>1.3</scale>
      <Icon>
        <href>http://maps.google.com/mapfiles/kml/pushpin/agrocad.png</href>
      </Icon>
      <hotSpot x="20" y="2" xunits="pixels" yunits="pixels"/>
    </IconStyle>
    <LineStyle>
      <color>ff000000</color>
      <width>1</width>
    </LineStyle>
    <PolyStyle>
      <color>40ffffff</color>
      <fill>1</fill>
    </PolyStyle>
  </Style>
  <Placemark>
    <name>AgroCAD: 80FF</name>
    <styleUrl>FF0040FF</styleUrl>
    <Polygon>
      <outerBoundaryIs>
        <LinearRing>
          <coordinates>
           -36.21042342523387,-9.74177128498969 -36.21066711267994,-9.74162843087166 -36.21214754251533,-9.74077020956165 -36.21237143490239,-9.74063311508342 -36.21229103331083,-9.74047231056302 -36.21211961939237,-9.74017233748443 -36.21194802351681,-9.73987204399143 -36.21166914003492,-9.73940008712493 -36.21139028953276,-9.73892818651578 -36.21119727353709,-9.73861721703571 -36.21100398196695,-9.73830580168959 -36.21070341142710,-9.73777980347805 -36.21040320162850,-9.73725443519009 -36.21027462485327,-9.73705085484510 -36.21014661936300,-9.73684407822498 -36.21002045986617,-9.73691738742354 -36.20855075873754,-9.73779706260254 -36.20813074222152,-9.73805215253263 -36.20836570353497,-9.73844492051757 -36.20920234720064,-9.73979642461486 -36.20974955203400,-9.74067624094840 -36.21042342523387,-9.74177128498969
          </coordinates>
        </LinearRing>
      </outerBoundaryIs>
    </Polygon>
  </Placemark>
</Document>
</kml>
