<?xml version="1.0" encoding="UTF-8"?>
<kml xmlns="http://www.opengis.net/kml/2.2" xmlns:gx="http://www.google.com/kml/ext/2.2" xmlns:kml="http://www.opengis.net/kml/2.2" xmlns:atom="http://www.w3.org/2005/Atom">
<Document>
  <name>4023.kml</name>
  <StyleMap id="FF0040FF">
    <Pair>
      <key>normal</key>
      <styleUrl>#s_FF0040FF</styleUrl>
    </Pair>
    <Pair>
      <key>highlight</key>
      <styleUrl>#s_FF0040FF_hl</styleUrl>
    </Pair>
  </StyleMap>
  <Style id="s_FF0040FF">
   <IconStyle>
      <scale>1.1</scale>
      <Icon>
        <href>http://maps.google.com/mapfiles/kml/pushpin/agrocad.png</href>
      </Icon>
      <hotSpot x="20" y="2" xunits="pixels" yunits="pixels"/>
    </IconStyle>
    <LineStyle>
      <color>FF0040FF</color>
      <width>1</width>
    </LineStyle>
    <PolyStyle>
      <color>40ffffff</color>
      <fill>1</fill>
    </PolyStyle>
  </Style>
  <Style id="s_FF0040FF_hl">
    <IconStyle>
      <scale>1.3</scale>
      <Icon>
        <href>http://maps.google.com/mapfiles/kml/pushpin/agrocad.png</href>
      </Icon>
      <hotSpot x="20" y="2" xunits="pixels" yunits="pixels"/>
    </IconStyle>
    <LineStyle>
      <color>ff000000</color>
      <width>1</width>
    </LineStyle>
    <PolyStyle>
      <color>40ffffff</color>
      <fill>1</fill>
    </PolyStyle>
  </Style>
  <Placemark>
    <name>AgroCAD: 8108</name>
    <styleUrl>FF0040FF</styleUrl>
    <Polygon>
      <outerBoundaryIs>
        <LinearRing>
          <coordinates>
           -36.21250781073780,-9.74055678718963 -36.21410041303963,-9.73961136535530 -36.21498011631902,-9.73911787312551 -36.21614022995882,-9.73841679818840 -36.21604650372726,-9.73826281770729 -36.21578904770381,-9.73781227090038 -36.21545662383950,-9.73727610231075 -36.21512385937008,-9.73673938520212 -36.21495203687717,-9.73643869626708 -36.21469463978926,-9.73598825194188 -36.21417968949862,-9.73513000062256 -36.21391120583189,-9.73466820956612 -36.21389906099525,-9.73464502258364 -36.21276696408599,-9.73530810668473 -36.21169414816979,-9.73593033979857 -36.21081438941536,-9.73645604941457 -36.21024478730872,-9.73678703447681 -36.21057604701428,-9.73738561864583 -36.21120689070391,-9.73839451093114 -36.21165760497289,-9.73914570005305 -36.21219399537946,-9.74004683652232 -36.21250781073780,-9.74055678718963
          </coordinates>
        </LinearRing>
      </outerBoundaryIs>
    </Polygon>
  </Placemark>
</Document>
</kml>
