<?xml version="1.0" encoding="UTF-8"?>
<kml xmlns="http://www.opengis.net/kml/2.2" xmlns:gx="http://www.google.com/kml/ext/2.2" xmlns:kml="http://www.opengis.net/kml/2.2" xmlns:atom="http://www.w3.org/2005/Atom">
<Document>
  <name>4028.kml</name>
  <StyleMap id="FF0040FF">
    <Pair>
      <key>normal</key>
      <styleUrl>#s_FF0040FF</styleUrl>
    </Pair>
    <Pair>
      <key>highlight</key>
      <styleUrl>#s_FF0040FF_hl</styleUrl>
    </Pair>
  </StyleMap>
  <Style id="s_FF0040FF">
   <IconStyle>
      <scale>1.1</scale>
      <Icon>
        <href>http://maps.google.com/mapfiles/kml/pushpin/agrocad.png</href>
      </Icon>
      <hotSpot x="20" y="2" xunits="pixels" yunits="pixels"/>
    </IconStyle>
    <LineStyle>
      <color>FF0040FF</color>
      <width>1</width>
    </LineStyle>
    <PolyStyle>
      <color>40ffffff</color>
      <fill>1</fill>
    </PolyStyle>
  </Style>
  <Style id="s_FF0040FF_hl">
    <IconStyle>
      <scale>1.3</scale>
      <Icon>
        <href>http://maps.google.com/mapfiles/kml/pushpin/agrocad.png</href>
      </Icon>
      <hotSpot x="20" y="2" xunits="pixels" yunits="pixels"/>
    </IconStyle>
    <LineStyle>
      <color>ff000000</color>
      <width>1</width>
    </LineStyle>
    <PolyStyle>
      <color>40ffffff</color>
      <fill>1</fill>
    </PolyStyle>
  </Style>
  <Placemark>
    <name>AgroCAD: 813E</name>
    <styleUrl>FF0040FF</styleUrl>
    <Polygon>
      <outerBoundaryIs>
        <LinearRing>
          <coordinates>
           -36.21732809306529,-9.72782632648418 -36.21724285876381,-9.72786894295725 -36.21711411330612,-9.72795477419283 -36.21694248687053,-9.72804058659197 -36.21683531327132,-9.72812632604941 -36.21679236433242,-9.72816927522634 -36.21649195622506,-9.72836239415551 -36.21625582790684,-9.72859852276032 -36.21582652911037,-9.72872731197972 -36.21547033249181,-9.72890541021713 -36.21551996272201,-9.72898542674247 -36.21652853209043,-9.73071286922287 -36.21756689622089,-9.73243468987998 -36.21841314889092,-9.73195111680456 -36.21916432118585,-9.73147895058503 -36.21987245113187,-9.73109269774855 -36.22012695451577,-9.73093387980483 -36.21996566625427,-9.73067178601911 -36.21962228768302,-9.73011379587398 -36.21906418883912,-9.72919078538309 -36.21890310017906,-9.72891156533980 -36.21877484126278,-9.72868776441758 -36.21854132557661,-9.72850562488304 -36.21817772246542,-9.72831312902920 -36.21770535192931,-9.72804473704222 -36.21732809306529,-9.72782632648418
          </coordinates>
        </LinearRing>
      </outerBoundaryIs>
    </Polygon>
  </Placemark>
  <Placemark>
    <name>AgroCAD: 811B</name>
    <styleUrl>FF0040FF</styleUrl>
    <Polygon>
      <outerBoundaryIs>
        <LinearRing>
          <coordinates>
           -36.21732809306529,-9.72782632648418 -36.21724285876381,-9.72786894295725 -36.21711411330612,-9.72795477419283 -36.21694248687053,-9.72804058659197 -36.21683531327132,-9.72812632604941 -36.21679236433242,-9.72816927522634 -36.21649195622506,-9.72836239415551 -36.21625582790684,-9.72859852276032 -36.21582652911037,-9.72872731197972 -36.21547033249181,-9.72890541021713 -36.21551996272201,-9.72898542674247 -36.21652853209043,-9.73071286922287 -36.21756689622089,-9.73243468987998 -36.21841314889092,-9.73195111680456 -36.21916432118585,-9.73147895058503 -36.21987245113187,-9.73109269774855 -36.22012695451577,-9.73093387980483 -36.21996566625427,-9.73067178601911 -36.21962228768302,-9.73011379587398 -36.21906418883912,-9.72919078538309 -36.21890310017906,-9.72891156533980 -36.21877484126278,-9.72868776441758 -36.21854132557661,-9.72850562488304 -36.21817772246542,-9.72831312902920 -36.21770535192931,-9.72804473704222 -36.21732809306529,-9.72782632648418
          </coordinates>
        </LinearRing>
      </outerBoundaryIs>
    </Polygon>
  </Placemark>
  <Placemark>
    <name>AgroCAD: 813D</name>
    <styleUrl>FF0040FF</styleUrl>
    <Polygon>
      <outerBoundaryIs>
        <LinearRing>
          <coordinates>
           -36.21804078899223,-9.72736244713230 -36.21792948706202,-9.72741834016444 -36.21771494628720,-9.72754706479195 -36.21737179553730,-9.72776153407883 -36.21734858558092,-9.72779634951896 -36.21772358312627,-9.72801345148595 -36.21819535268893,-9.72828150245755 -36.21856131141362,-9.72847524527477 -36.21872695954746,-9.72860444851495 -36.21848448888932,-9.72818167793497 -36.21805534160625,-9.72738775594434 -36.21804078899223,-9.72736244713230
          </coordinates>
        </LinearRing>
      </outerBoundaryIs>
    </Polygon>
  </Placemark>
  <Placemark>
    <name>AgroCAD: 811A</name>
    <styleUrl>FF0040FF</styleUrl>
    <Polygon>
      <outerBoundaryIs>
        <LinearRing>
          <coordinates>
           -36.21804078899223,-9.72736244713230 -36.21792948706202,-9.72741834016444 -36.21771494628720,-9.72754706479195 -36.21737179553730,-9.72776153407883 -36.21734858558092,-9.72779634951896 -36.21772358312627,-9.72801345148595 -36.21819535268893,-9.72828150245755 -36.21856131141362,-9.72847524527477 -36.21872695954746,-9.72860444851495 -36.21848448888932,-9.72818167793497 -36.21805534160625,-9.72738775594434 -36.21804078899223,-9.72736244713230
          </coordinates>
        </LinearRing>
      </outerBoundaryIs>
    </Polygon>
  </Placemark>
</Document>
</kml>
