<?xml version="1.0" encoding="UTF-8"?>
<kml xmlns="http://www.opengis.net/kml/2.2" xmlns:gx="http://www.google.com/kml/ext/2.2" xmlns:kml="http://www.opengis.net/kml/2.2" xmlns:atom="http://www.w3.org/2005/Atom">
<Document>
  <name>4015.kml</name>
  <StyleMap id="FF0040FF">
    <Pair>
      <key>normal</key>
      <styleUrl>#s_FF0040FF</styleUrl>
    </Pair>
    <Pair>
      <key>highlight</key>
      <styleUrl>#s_FF0040FF_hl</styleUrl>
    </Pair>
  </StyleMap>
  <Style id="s_FF0040FF">
   <IconStyle>
      <scale>1.1</scale>
      <Icon>
        <href>http://maps.google.com/mapfiles/kml/pushpin/agrocad.png</href>
      </Icon>
      <hotSpot x="20" y="2" xunits="pixels" yunits="pixels"/>
    </IconStyle>
    <LineStyle>
      <color>FF0040FF</color>
      <width>1</width>
    </LineStyle>
    <PolyStyle>
      <color>40ffffff</color>
      <fill>1</fill>
    </PolyStyle>
  </Style>
  <Style id="s_FF0040FF_hl">
    <IconStyle>
      <scale>1.3</scale>
      <Icon>
        <href>http://maps.google.com/mapfiles/kml/pushpin/agrocad.png</href>
      </Icon>
      <hotSpot x="20" y="2" xunits="pixels" yunits="pixels"/>
    </IconStyle>
    <LineStyle>
      <color>ff000000</color>
      <width>1</width>
    </LineStyle>
    <PolyStyle>
      <color>40ffffff</color>
      <fill>1</fill>
    </PolyStyle>
  </Style>
  <Placemark>
    <name>AgroCAD: 8105</name>
    <styleUrl>FF0040FF</styleUrl>
    <Polygon>
      <outerBoundaryIs>
        <LinearRing>
          <coordinates>
           -36.21687083917198,-9.74781302513707 -36.21760858492061,-9.74736842173775 -36.22023718162207,-9.74584490887556 -36.22048104653274,-9.74569913610127 -36.21984451586040,-9.74463575216104 -36.21945828138756,-9.74397057114638 -36.21887883606397,-9.74300482779386 -36.21877154720051,-9.74281170823018 -36.21864295574512,-9.74259738870088 -36.21851420900451,-9.74238281221955 -36.21838536450493,-9.74216807050478 -36.21838298201356,-9.74216390148171 -36.21821715904149,-9.74226044062969 -36.21615735935549,-9.74344053279839 -36.21475353525386,-9.74429133528566 -36.21489750575765,-9.74450977196673 -36.21515516465946,-9.74493920462421 -36.21545580879853,-9.74543312027121 -36.21554182961062,-9.74559440880938 -36.21584200172846,-9.74614115115798 -36.21633526554621,-9.74695610791001 -36.21687083917198,-9.74781302513707
          </coordinates>
        </LinearRing>
      </outerBoundaryIs>
    </Polygon>
  </Placemark>
</Document>
</kml>
