<?xml version="1.0" encoding="UTF-8"?>
<kml xmlns="http://www.opengis.net/kml/2.2" xmlns:gx="http://www.google.com/kml/ext/2.2" xmlns:kml="http://www.opengis.net/kml/2.2" xmlns:atom="http://www.w3.org/2005/Atom">
<Document>
  <name>4029.kml</name>
  <StyleMap id="FFFF4000">
    <Pair>
      <key>normal</key>
      <styleUrl>#s_FFFF4000</styleUrl>
    </Pair>
    <Pair>
      <key>highlight</key>
      <styleUrl>#s_FFFF4000_hl</styleUrl>
    </Pair>
  </StyleMap>
  <Style id="s_FFFF4000">
   <IconStyle>
      <scale>1.1</scale>
      <Icon>
        <href>http://maps.google.com/mapfiles/kml/pushpin/agrocad.png</href>
      </Icon>
      <hotSpot x="20" y="2" xunits="pixels" yunits="pixels"/>
    </IconStyle>
    <LineStyle>
      <color>FFFF4000</color>
      <width>1</width>
    </LineStyle>
    <PolyStyle>
      <color>40ffffff</color>
      <fill>1</fill>
    </PolyStyle>
  </Style>
  <Style id="s_FFFF4000_hl">
    <IconStyle>
      <scale>1.3</scale>
      <Icon>
        <href>http://maps.google.com/mapfiles/kml/pushpin/agrocad.png</href>
      </Icon>
      <hotSpot x="20" y="2" xunits="pixels" yunits="pixels"/>
    </IconStyle>
    <LineStyle>
      <color>ff000000</color>
      <width>1</width>
    </LineStyle>
    <PolyStyle>
      <color>40ffffff</color>
      <fill>1</fill>
    </PolyStyle>
  </Style>
  <Placemark>
    <name>AgroCAD: 8F30</name>
    <styleUrl>FFFF4000</styleUrl>
    <Polygon>
      <outerBoundaryIs>
        <LinearRing>
          <coordinates>
           -36.21556006967499,-9.72744760942903 -36.21484014694639,-9.72790632394940 -36.21345639400431,-9.72558077963162 -36.21355172419194,-9.72552458730085 -36.21358878993062,-9.72553776865014 -36.21362589172104,-9.72554516822050 -36.21366215290549,-9.72556403353681 -36.21369093320704,-9.72558990284741 -36.21370394914236,-9.72560528814374 -36.21413404358737,-9.72606466723546 -36.21415998583331,-9.72608876798009 -36.21418615798681,-9.72611290229665 -36.21421277793452,-9.72613676037748 -36.21424071909589,-9.72615955918744 -36.21426990017801,-9.72618158753159 -36.21429797555613,-9.72620323316241 -36.21432791423613,-9.72622473586983 -36.21435684977575,-9.72624579851542 -36.21438735357609,-9.72626534922154 -36.21441947798356,-9.72628033286458 -36.21445146223138,-9.72629657288003 -36.21448157362885,-9.72631570292867 -36.21451203692389,-9.72633770579822 -36.21454359325468,-9.72635766135924 -36.21457583021917,-9.72637607371059 -36.21460759294824,-9.72639317987286 -36.21463931403359,-9.72640724287374 -36.21467041393246,-9.72642250153825 -36.21470033457101,-9.72643661502520 -36.21472861824094,-9.72645014040901 -36.21475931435880,-9.72646440129214 -36.21478963013635,-9.72647637336180 -36.21481807308361,-9.72648904662598 -36.21484728577939,-9.72650141695431 -36.21487651574363,-9.72650910488996 -36.21490546357457,-9.72651934452204 -36.21493788721977,-9.72652795579968 -36.21497131840102,-9.72653887529852 -36.21500183153159,-9.72655702292959 -36.21502110397855,-9.72658355560777 -36.21556006967499,-9.72744760942903
          </coordinates>
        </LinearRing>
      </outerBoundaryIs>
    </Polygon>
  </Placemark>
  <Placemark>
    <name>AgroCAD: 8F32</name>
    <styleUrl>FFFF4000</styleUrl>
    <Polygon>
      <outerBoundaryIs>
        <LinearRing>
          <coordinates>
           -36.21506320995222,-9.72658238522536 -36.21508970376736,-9.72656450589505 -36.21516093770955,-9.72652370236800 -36.21518195027657,-9.72651151797096 -36.21521139662560,-9.72649343597811 -36.21525710211385,-9.72647277414326 -36.21531769257722,-9.72645340423998 -36.21538385455230,-9.72643782282215 -36.21545044006417,-9.72642060252746 -36.21551572501181,-9.72640136620546 -36.21558334053323,-9.72637644538438 -36.21565007716867,-9.72634940140803 -36.21571811354275,-9.72632171640498 -36.21579075731097,-9.72628869738694 -36.21586717835960,-9.72625836953714 -36.21593505755600,-9.72623350930540 -36.21598355815416,-9.72621358781290 -36.21603071780600,-9.72618758663900 -36.21609295342119,-9.72614751932781 -36.21615316954442,-9.72610810758442 -36.21621373796858,-9.72606754850039 -36.21653307321002,-9.72585280326106 -36.21691552869113,-9.72560439814218 -36.21696880695397,-9.72568901168699 -36.21698052603312,-9.72570431172638 -36.21716076240501,-9.72597605636613 -36.21739341608787,-9.72635765684984 -36.21778574376928,-9.72701083386383 -36.21786944275824,-9.72715049187583 -36.21789151686004,-9.72719699479015 -36.21790247106645,-9.72724374531949 -36.21789738458947,-9.72728412564561 -36.21787125829371,-9.72732226981814 -36.21722994935962,-9.72772039851415 -36.21654967039310,-9.72813420214341 -36.21647896450605,-9.72803108932258 -36.21623130536840,-9.72766589782707 -36.21622149254559,-9.72765324226332 -36.21619741706217,-9.72762907585932 -36.21617249439630,-9.72760296122036 -36.21614855813128,-9.72757296243885 -36.21612402060764,-9.72754561169744 -36.21609784960109,-9.72752205682654 -36.21606910838954,-9.72749725610239 -36.21604027070831,-9.72747461304286 -36.21600929814627,-9.72745352928071 -36.21597864604231,-9.72743184897707 -36.21594744514228,-9.72741356895343 -36.21591450485701,-9.72739677079699 -36.21588246752018,-9.72738651744296 -36.21584963089210,-9.72737504486787 -36.21581424929963,-9.72736361367794 -36.21577921080547,-9.72735454936390 -36.21574401987674,-9.72735178150041 -36.21570795258609,-9.72735495981467 -36.21567490932620,-9.72735307806082 -36.21564046521566,-9.72735356462897 -36.21560611420508,-9.72735351368042 -36.21557587330523,-9.72735221751834 -36.21553998335983,-9.72734673420319 -36.21506320995222,-9.72658238522536
          </coordinates>
        </LinearRing>
      </outerBoundaryIs>
    </Polygon>
  </Placemark>
</Document>
</kml>
