<?xml version="1.0" encoding="UTF-8"?>
<kml xmlns="http://www.opengis.net/kml/2.2" xmlns:gx="http://www.google.com/kml/ext/2.2" xmlns:kml="http://www.opengis.net/kml/2.2" xmlns:atom="http://www.w3.org/2005/Atom">
<Document>
  <name>1007.kml</name>
  <StyleMap id="FFFF4000">
    <Pair>
      <key>normal</key>
      <styleUrl>#s_FFFF4000</styleUrl>
    </Pair>
    <Pair>
      <key>highlight</key>
      <styleUrl>#s_FFFF4000_hl</styleUrl>
    </Pair>
  </StyleMap>
  <Style id="s_FFFF4000">
   <IconStyle>
      <scale>1.1</scale>
      <Icon>
        <href>http://maps.google.com/mapfiles/kml/pushpin/agrocad.png</href>
      </Icon>
      <hotSpot x="20" y="2" xunits="pixels" yunits="pixels"/>
    </IconStyle>
    <LineStyle>
      <color>FFFF4000</color>
      <width>1</width>
    </LineStyle>
    <PolyStyle>
      <color>40ffffff</color>
      <fill>1</fill>
    </PolyStyle>
  </Style>
  <Style id="s_FFFF4000_hl">
    <IconStyle>
      <scale>1.3</scale>
      <Icon>
        <href>http://maps.google.com/mapfiles/kml/pushpin/agrocad.png</href>
      </Icon>
      <hotSpot x="20" y="2" xunits="pixels" yunits="pixels"/>
    </IconStyle>
    <LineStyle>
      <color>ff000000</color>
      <width>1</width>
    </LineStyle>
    <PolyStyle>
      <color>40ffffff</color>
      <fill>1</fill>
    </PolyStyle>
  </Style>
  <Placemark>
    <name>AgroCAD: 8ECD</name>
    <styleUrl>FFFF4000</styleUrl>
    <Polygon>
      <outerBoundaryIs>
        <LinearRing>
          <coordinates>
           -36.17634877940162,-9.74742501680968 -36.17610253158702,-9.74766107296647 -36.17563862757877,-9.74811450923198 -36.17521901535151,-9.74852561965860 -36.17487712147711,-9.74885051291193 -36.17483567738992,-9.74888828308484 -36.17477151854354,-9.74894734447329 -36.17471326187324,-9.74891946417719 -36.17458396657755,-9.74885762350153 -36.17378900936230,-9.74846761597214 -36.17377294599978,-9.74845996621664 -36.17373552985930,-9.74843921123616 -36.17369774141827,-9.74841910251838 -36.17334033865877,-9.74824606739940 -36.17295912892406,-9.74805937018941 -36.17250584989689,-9.74784279857286 -36.17224399775202,-9.74771156383009 -36.17210170293841,-9.74764747821551 -36.17246040552796,-9.74706593492585 -36.17294291462183,-9.74630691481857 -36.17322039888255,-9.74584616746633 -36.17361033496310,-9.74521723906770 -36.17361848731583,-9.74519940229324 -36.17364115046861,-9.74516526991937 -36.17366610537935,-9.74513086917804 -36.17369141624587,-9.74509924960411 -36.17376013662722,-9.74505655808622 -36.17376909480667,-9.74505223019142 -36.17380847096765,-9.74505208364732 -36.17384576733531,-9.74506115764167 -36.17387893700128,-9.74507793419704 -36.17391101799880,-9.74510032431087 -36.17394271513612,-9.74511822625981 -36.17397521706853,-9.74514254872545 -36.17400961070329,-9.74516681180748 -36.17404499301027,-9.74518929861056 -36.17407871991720,-9.74521232248108 -36.17411036305771,-9.74523459772624 -36.17414480245172,-9.74525980478095 -36.17417911879253,-9.74528478008416 -36.17421523767749,-9.74530923299713 -36.17434522065725,-9.74539581105571 -36.17434649063191,-9.74539627970486 -36.17437209329889,-9.74541007594112 -36.17440461381678,-9.74543029680030 -36.17443727647091,-9.74545100377981 -36.17458479426524,-9.74553788534413 -36.17459769590796,-9.74554436495488 -36.17463334698353,-9.74556881268163 -36.17467181355947,-9.74559363847785 -36.17470605277515,-9.74562090642196 -36.17474035973819,-9.74564788514734 -36.17477451497330,-9.74567590325376 -36.17480891145427,-9.74570132615189 -36.17484118584444,-9.74572854574862 -36.17487356033052,-9.74575776205319 -36.17509457052177,-9.74593562273882 -36.17524437132749,-9.74603825837848 -36.17552382813467,-9.74624203708346 -36.17554391197976,-9.74625696641566 -36.17557175642160,-9.74627675206260 -36.17559916586883,-9.74629600054877 -36.17562357939345,-9.74630954833363 -36.17564495968103,-9.74631963654928 -36.17567091575221,-9.74632511790544 -36.17569443748354,-9.74633122226750 -36.17571653483020,-9.74633358058325 -36.17574269828410,-9.74633732054086 -36.17576850086057,-9.74633907839356 -36.17579948662713,-9.74634012193625 -36.17580554166510,-9.74634614527707 -36.17581006162350,-9.74637855899376 -36.17582189441272,-9.74640692662513 -36.17583229300278,-9.74643740996201 -36.17584326014684,-9.74646890360439 -36.17585395863740,-9.74650349030933 -36.17586584017313,-9.74653842587925 -36.17587792331557,-9.74657157545433 -36.17589820234096,-9.74663019362114 -36.17591135891594,-9.74666469826567 -36.17592593342114,-9.74669967337213 -36.17594138943180,-9.74673434549425 -36.17595774878006,-9.74676945070831 -36.17598083970189,-9.74681532248444 -36.17599247669986,-9.74683847637463 -36.17601237369203,-9.74688644021657 -36.17602376307558,-9.74690965815566 -36.17604940000991,-9.74695383377467 -36.17606588939529,-9.74698815639704 -36.17608383724924,-9.74701967180384 -36.17610369544184,-9.74705176876411 -36.17612505340787,-9.74708285245450 -36.17613742096269,-9.74710379274073 -36.17634877940162,-9.74742501680968
          </coordinates>
        </LinearRing>
      </outerBoundaryIs>
    </Polygon>
  </Placemark>
</Document>
</kml>
