<?xml version="1.0" encoding="UTF-8"?>
<kml xmlns="http://www.opengis.net/kml/2.2" xmlns:gx="http://www.google.com/kml/ext/2.2" xmlns:kml="http://www.opengis.net/kml/2.2" xmlns:atom="http://www.w3.org/2005/Atom">
<Document>
  <name>1001.kml</name>
  <StyleMap id="FFFF4000">
    <Pair>
      <key>normal</key>
      <styleUrl>#s_FFFF4000</styleUrl>
    </Pair>
    <Pair>
      <key>highlight</key>
      <styleUrl>#s_FFFF4000_hl</styleUrl>
    </Pair>
  </StyleMap>
  <Style id="s_FFFF4000">
   <IconStyle>
      <scale>1.1</scale>
      <Icon>
        <href>http://maps.google.com/mapfiles/kml/pushpin/agrocad.png</href>
      </Icon>
      <hotSpot x="20" y="2" xunits="pixels" yunits="pixels"/>
    </IconStyle>
    <LineStyle>
      <color>FFFF4000</color>
      <width>1</width>
    </LineStyle>
    <PolyStyle>
      <color>40ffffff</color>
      <fill>1</fill>
    </PolyStyle>
  </Style>
  <Style id="s_FFFF4000_hl">
    <IconStyle>
      <scale>1.3</scale>
      <Icon>
        <href>http://maps.google.com/mapfiles/kml/pushpin/agrocad.png</href>
      </Icon>
      <hotSpot x="20" y="2" xunits="pixels" yunits="pixels"/>
    </IconStyle>
    <LineStyle>
      <color>ff000000</color>
      <width>1</width>
    </LineStyle>
    <PolyStyle>
      <color>40ffffff</color>
      <fill>1</fill>
    </PolyStyle>
  </Style>
  <Placemark>
    <name>AgroCAD: 8EAC</name>
    <styleUrl>FFFF4000</styleUrl>
    <Polygon>
      <outerBoundaryIs>
        <LinearRing>
          <coordinates>
           -36.18586371910596,-9.75369092376547 -36.18529754354837,-9.75400606928113 -36.18504984402675,-9.75388529096931 -36.18457953237725,-9.75365417085649 -36.18382580298671,-9.75328667057404 -36.18260467876676,-9.75271612990520 -36.18150997609693,-9.75218506550963 -36.18064797079290,-9.75175609274648 -36.18248702226537,-9.74980847644465 -36.18251125747638,-9.74978706833056 -36.18255428312949,-9.74974455939216 -36.18314064599105,-9.74911659552119 -36.18374427532832,-9.74847581573580 -36.18378023138521,-9.74843593881458 -36.18401538916914,-9.74858996384361 -36.18422259217025,-9.74873403641410 -36.18466838068226,-9.74905269848023 -36.18475930023101,-9.74910826644893 -36.18489868427030,-9.74919890958497 -36.18519501029293,-9.74938313615788 -36.18540390309867,-9.74949263200928 -36.18579727621640,-9.74971240335506 -36.18599790931218,-9.74981654030464 -36.18607065992842,-9.74984263825901 -36.18627120978308,-9.74995390723580 -36.18648003289514,-9.75009409677483 -36.18701568104758,-9.75042670898752 -36.18760687414778,-9.75080292331911 -36.18807821561454,-9.75109459788271 -36.18875180504968,-9.75147371034412 -36.18865199996373,-9.75156121100647 -36.18857072546568,-9.75167444979254 -36.18848985002419,-9.75181426511515 -36.18841830938140,-9.75195697294072 -36.18834902574147,-9.75208492248047 -36.18826856369131,-9.75220455454894 -36.18817726495975,-9.75232622025912 -36.18808877016347,-9.75244805240513 -36.18800493568186,-9.75256231065954 -36.18791914750513,-9.75266162999375 -36.18782381579664,-9.75275221789816 -36.18772417826603,-9.75283536940963 -36.18762505170449,-9.75291379594019 -36.18751478453847,-9.75298823934113 -36.18739400679714,-9.75305882105969 -36.18728130271908,-9.75311016695821 -36.18716948808506,-9.75315849343278 -36.18714753486665,-9.75316753672283 -36.18662185766070,-9.75334429120498 -36.18658252066590,-9.75335905359037 -36.18617280393376,-9.75354922538296 -36.18614917100965,-9.75355934521259 -36.18609972614275,-9.75357922352917 -36.18604974614135,-9.75360100930886 -36.18600203209620,-9.75362340420578 -36.18595534545321,-9.75364726507524 -36.18590909289060,-9.75366825637340 -36.18586371910596,-9.75369092376547
          </coordinates>
        </LinearRing>
      </outerBoundaryIs>
    </Polygon>
  </Placemark>
</Document>
</kml>
