<?xml version="1.0" encoding="UTF-8"?>
<kml xmlns="http://www.opengis.net/kml/2.2" xmlns:gx="http://www.google.com/kml/ext/2.2" xmlns:kml="http://www.opengis.net/kml/2.2" xmlns:atom="http://www.w3.org/2005/Atom">
<Document>
  <name>1005.kml</name>
  <StyleMap id="FFFF4000">
    <Pair>
      <key>normal</key>
      <styleUrl>#s_FFFF4000</styleUrl>
    </Pair>
    <Pair>
      <key>highlight</key>
      <styleUrl>#s_FFFF4000_hl</styleUrl>
    </Pair>
  </StyleMap>
  <Style id="s_FFFF4000">
   <IconStyle>
      <scale>1.1</scale>
      <Icon>
        <href>http://maps.google.com/mapfiles/kml/pushpin/agrocad.png</href>
      </Icon>
      <hotSpot x="20" y="2" xunits="pixels" yunits="pixels"/>
    </IconStyle>
    <LineStyle>
      <color>FFFF4000</color>
      <width>1</width>
    </LineStyle>
    <PolyStyle>
      <color>40ffffff</color>
      <fill>1</fill>
    </PolyStyle>
  </Style>
  <Style id="s_FFFF4000_hl">
    <IconStyle>
      <scale>1.3</scale>
      <Icon>
        <href>http://maps.google.com/mapfiles/kml/pushpin/agrocad.png</href>
      </Icon>
      <hotSpot x="20" y="2" xunits="pixels" yunits="pixels"/>
    </IconStyle>
    <LineStyle>
      <color>ff000000</color>
      <width>1</width>
    </LineStyle>
    <PolyStyle>
      <color>40ffffff</color>
      <fill>1</fill>
    </PolyStyle>
  </Style>
  <Placemark>
    <name>AgroCAD: 8ECE</name>
    <styleUrl>FFFF4000</styleUrl>
    <Polygon>
      <outerBoundaryIs>
        <LinearRing>
          <coordinates>
           -36.17560293781760,-9.74403239726742 -36.17560483472024,-9.74403508150156 -36.17579370739206,-9.74421683523346 -36.17581636407766,-9.74424036163101 -36.17583934189418,-9.74426031865738 -36.17586695257072,-9.74428275992936 -36.17589251219136,-9.74430491130613 -36.17591895846035,-9.74432584986143 -36.17594489983822,-9.74434613501609 -36.17597556120062,-9.74436715222693 -36.17600685164958,-9.74438855384780 -36.17603533940482,-9.74440875927970 -36.17606606814828,-9.74442633591379 -36.17609383686594,-9.74444687268055 -36.17612889084104,-9.74446363961471 -36.17614117464349,-9.74447165206387 -36.17617597040442,-9.74449136799075 -36.17621201676405,-9.74450847436129 -36.17624771082768,-9.74452533148009 -36.17629440534798,-9.74454940753659 -36.17631761294474,-9.74456071041033 -36.17635113370254,-9.74457741756930 -36.17638372337955,-9.74459432210889 -36.17642942917240,-9.74461565328776 -36.17646152008228,-9.74462909753332 -36.17726769153961,-9.74501369109209 -36.17809039737721,-9.74541237154138 -36.17811042408207,-9.74542265042560 -36.17815564534821,-9.74544672770427 -36.17819730431348,-9.74547387992718 -36.17823758918977,-9.74549963009862 -36.17827239482628,-9.74552623156222 -36.17829434440657,-9.74553870338397 -36.17831163538065,-9.74552508487705 -36.17834517225063,-9.74549039323900 -36.17837987849664,-9.74545478739912 -36.17850129145001,-9.74532985139403 -36.17858572910363,-9.74524783374886 -36.17852807886476,-9.74521490499907 -36.17838361526331,-9.74511477703296 -36.17761462301380,-9.74457701860576 -36.17730238228833,-9.74436188075734 -36.17726611859007,-9.74433933867013 -36.17723067493758,-9.74431975960214 -36.17719882973010,-9.74430149283748 -36.17716650270836,-9.74428244538897 -36.17713902948129,-9.74426140096878 -36.17711132890131,-9.74424353532060 -36.17708138015079,-9.74422373046577 -36.17705249315431,-9.74420116494829 -36.17702255051425,-9.74417830003925 -36.17699540996194,-9.74415423451602 -36.17696699856221,-9.74413211356779 -36.17693820032988,-9.74411302479021 -36.17682204741760,-9.74401667144825 -36.17672084110969,-9.74394496243535 -36.17655695814005,-9.74383302271366 -36.17627542348053,-9.74363865875845 -36.17591537460115,-9.74340238685938 -36.17567789803244,-9.74323742751093 -36.17533748832909,-9.74298711155839 -36.17522612037902,-9.74290735890209 -36.17519432328176,-9.74288512552982 -36.17515991807819,-9.74286899025385 -36.17512256458210,-9.74286854856996 -36.17509018502924,-9.74288541024943 -36.17506219950985,-9.74290961849312 -36.17503706577262,-9.74293806941350 -36.17501459274122,-9.74296895415947 -36.17499434596046,-9.74300190556131 -36.17497289154321,-9.74303414175586 -36.17495239091719,-9.74306713628860 -36.17492976557498,-9.74309892690015 -36.17490020056853,-9.74314388219629 -36.17488686133380,-9.74316760471591 -36.17486971543530,-9.74320283000591 -36.17485209372286,-9.74323836305910 -36.17483575488022,-9.74327365780064 -36.17483289395466,-9.74330350922749 -36.17484234027296,-9.74332726000343 -36.17486181254875,-9.74335115279358 -36.17488733782034,-9.74337315829420 -36.17491276060249,-9.74339519022416 -36.17494904610156,-9.74342188439673 -36.17496651329750,-9.74343455473754 -36.17500002807547,-9.74346178361297 -36.17502417886781,-9.74348223587288 -36.17505144701835,-9.74350400447888 -36.17507839295960,-9.74352452923953 -36.17510677165557,-9.74354391073876 -36.17513415959435,-9.74356639730033 -36.17516349259263,-9.74358792825691 -36.17519092700130,-9.74360967564281 -36.17522010728118,-9.74363325607576 -36.17524926102972,-9.74365911293063 -36.17527579576761,-9.74368569361329 -36.17530485034869,-9.74371328434590 -36.17533297975351,-9.74374272506593 -36.17534022470666,-9.74374869267838 -36.17539691500117,-9.74381141966775 -36.17560293781760,-9.74403239726742
          </coordinates>
        </LinearRing>
      </outerBoundaryIs>
    </Polygon>
  </Placemark>
</Document>
</kml>
