<?xml version="1.0" encoding="utf-8" ?>
<kml xmlns="http://www.opengis.net/kml/2.2">
<Document id="root_doc">
<Schema name="BARRA_DA_URUBA_TALHAO_1002_ID_184" id="BARRA_DA_URUBA_TALHAO_1002_ID_184">
	<SimpleField name="ID" type="float"></SimpleField>
	<SimpleField name="AREA_TOTAL" type="float"></SimpleField>
	<SimpleField name="FAZENDA" type="float"></SimpleField>
	<SimpleField name="FAZ_NOME" type="string"></SimpleField>
	<SimpleField name="TALHAO" type="float"></SimpleField>
	<SimpleField name="ZONA" type="float"></SimpleField>
	<SimpleField name="ACIONISTA" type="string"></SimpleField>
	<SimpleField name="CODE" type="string"></SimpleField>
</Schema>
<Folder><name>BARRA_DA_URUBA_TALHAO_1002_ID_184</name>
  <Placemark id="BARRA_DA_URUBA_TALHAO_1002_ID_184.1">
	<Style><LineStyle><color>ff0000ff</color></LineStyle><PolyStyle><fill>0</fill></PolyStyle></Style>
	<ExtendedData><SchemaData schemaUrl="#BARRA_DA_URUBA_TALHAO_1002_ID_184">
		<SimpleData name="ID">184</SimpleData>
		<SimpleData name="AREA_TOTAL">11.95</SimpleData>
		<SimpleData name="FAZ_NOME">BARRA DA URUBA</SimpleData>
		<SimpleData name="TALHAO">1002</SimpleData>
		<SimpleData name="ZONA">1</SimpleData>
		<SimpleData name="ACIONISTA">ISABEL TENÓRIO</SimpleData>
		<SimpleData name="CODE"></SimpleData>
	</SchemaData></ExtendedData>
      <MultiGeometry><Polygon><outerBoundaryIs><LinearRing><coordinates>-36.4226446789297,-9.78011421276315,0 -36.4226651685971,-9.78020078386226,0 -36.422679013813,-9.78026506619874,0 -36.4227988894026,-9.78082285250248,0 -36.4229451026731,-9.78162833856372,0 -36.4231295320008,-9.78260535465201,0 -36.4231395413539,-9.78268199366892,0 -36.4231446194627,-9.78274572473661,0 -36.4231514773074,-9.78279683734615,0 -36.4231744335094,-9.783264213862,0 -36.4231766884506,-9.78329897855954,0 -36.4231796706782,-9.78333234006835,0 -36.4231788809873,-9.7833664451135,0 -36.4231803173572,-9.7833740670718,0 -36.4232061206136,-9.78336989935823,0 -36.4232379762562,-9.78336482332269,0 -36.4232712366086,-9.78335550216367,0 -36.4233047935581,-9.783344933697,0 -36.4233386954624,-9.78333489295001,0 -36.4233509384906,-9.78332883430432,0 -36.4235809973752,-9.7832546661689,0 -36.4243631870764,-9.78300404437907,0 -36.4251657347169,-9.78275047216854,0 -36.4251984205626,-9.78273983558325,0 -36.4252329169579,-9.78272727698244,0 -36.42526643707,-9.78271358970688,0 -36.4253005712498,-9.78269843313094,0 -36.4253341900369,-9.78267922340193,0 -36.4253651415406,-9.78265809545844,0 -36.4253934081364,-9.78263540356995,0 -36.4254221012562,-9.78260953432476,0 -36.4254491851144,-9.78258259298104,0 -36.42547669002,-9.78255299894205,0 -36.4254887203411,-9.78253521771211,0 -36.425531101884,-9.78247300549028,0 -36.4255475546997,-9.78244268710125,0 -36.4255647237254,-9.78241303437284,0 -36.4255788043866,-9.78238227942008,0 -36.4255911508345,-9.78234909539592,0 -36.425598592655,-9.78231542453277,0 -36.4256025703997,-9.78228001099482,0 -36.4256029526496,-9.7822439560443,0 -36.4256025082184,-9.78220672673513,0 -36.4256006657973,-9.78217033406529,0 -36.4256004535814,-9.78213427490751,0 -36.4255986928567,-9.78210009936292,0 -36.4255975651624,-9.78206407463366,0 -36.4255939306562,-9.78203032617466,0 -36.4255917045377,-9.78199636773888,0 -36.4255903873791,-9.78195043522221,0 -36.4255915773429,-9.78192552121778,0 -36.4255940334813,-9.78188801062914,0 -36.4255976568662,-9.78185328680544,0 -36.4256016189748,-9.7818187476025,0 -36.4256063041622,-9.78178408164379,0 -36.4256126965981,-9.78175055758607,0 -36.4256213344051,-9.78170298478673,0 -36.4256241940807,-9.78167874694306,0 -36.4256301217675,-9.78164247259386,0 -36.425637965045,-9.78159584709656,0 -36.4256465472415,-9.78156247988653,0 -36.4256553842676,-9.78152693363002,0 -36.4256750528562,-9.78145681924983,0 -36.4256860584168,-9.78142231562155,0 -36.4257000492858,-9.781389715167,0 -36.425717857347,-9.78135946996903,0 -36.4257371884726,-9.78132991772711,0 -36.4257589890981,-9.78130038476857,0 -36.425782878368,-9.78127263306153,0 -36.425807277669,-9.78124439824242,0 -36.4258327710575,-9.78121697497099,0 -36.4258679153529,-9.78117869354104,0 -36.4259989401192,-9.78102626713306,0 -36.4260674262162,-9.78093807417367,0 -36.426081697446,-9.78091988270281,0 -36.4261022967102,-9.78089417844618,0 -36.4261225060791,-9.78086711788867,0 -36.4261434107591,-9.78084017196252,0 -36.4261663212486,-9.78080261006376,0 -36.4261747905166,-9.78078217150446,0 -36.4261827990325,-9.78073984398831,0 -36.4261865920675,-9.78070554955867,0 -36.4261892305857,-9.7806724166601,0 -36.4261892788501,-9.78066360819144,0 -36.4262087027199,-9.78045078630355,0 -36.4262114175729,-9.78001040628841,0 -36.4262125614255,-9.77995907928796,0 -36.4262120674994,-9.77993697349073,0 -36.4262131991002,-9.77991524111738,0 -36.4262066510114,-9.77990100124341,0 -36.4261990788158,-9.77989893980735,0 -36.4261846007073,-9.77989540710607,0 -36.426175416893,-9.77989437825931,0 -36.4261741891857,-9.77988941844584,0 -36.4261573481469,-9.77988723161288,0 -36.42611640112,-9.77988337475413,0 -36.4260596304242,-9.77988133899723,0 -36.4259885991677,-9.77987920065056,0 -36.425912182888,-9.77987390992517,0 -36.4258369937452,-9.77986984531577,0 -36.4257617367289,-9.77986269029271,0 -36.4256073579994,-9.77984169132145,0 -36.4255302517846,-9.77983021038032,0 -36.4254153510364,-9.77981405675473,0 -36.4253768873142,-9.77980814438029,0 -36.4253005885829,-9.77979437567522,0 -36.4252255432896,-9.77978108948914,0 -36.4251500562676,-9.77976720852111,0 -36.4250351919989,-9.77974193116095,0 -36.4249573801445,-9.77972331704639,0 -36.4248800890195,-9.77970590080009,0 -36.4248046896767,-9.77968847561706,0 -36.4247333640683,-9.77967093827215,0 -36.4246626640826,-9.77965208639786,0 -36.4245942038562,-9.77963512422162,0 -36.4245260082903,-9.77961954168473,0 -36.4244592836427,-9.77960245028845,0 -36.4243313772162,-9.77957235236817,0 -36.4242705734748,-9.77955965391424,0 -36.4242067680872,-9.7795466025429,0 -36.4241337718245,-9.77953414857286,0 -36.4240611794452,-9.77952461910157,0 -36.4239894358164,-9.77951671736094,0 -36.4239138843001,-9.77951274430656,0 -36.4238372871214,-9.7795138001797,0 -36.423762440158,-9.77951819497488,0 -36.423685023561,-9.77952512422493,0 -36.4236026864338,-9.77953234600579,0 -36.4235239231261,-9.77954359222036,0 -36.4234596139233,-9.77955569977263,0 -36.4234015002991,-9.77956699418868,0 -36.4233450201019,-9.77957929563256,0 -36.4233049439449,-9.77958928483771,0 -36.4232739010975,-9.7795982636146,0 -36.4232317923038,-9.77960969835662,0 -36.4227669382164,-9.77974062815353,0 -36.4227346013542,-9.77975083898362,0 -36.4227018918462,-9.77975999573594,0 -36.4226626587284,-9.77977183584213,0 -36.4226371899946,-9.77978718949706,0 -36.4226148788966,-9.77991639577678,0 -36.4226261065498,-9.78001587750813,0 -36.4226446789297,-9.78011421276315,0</coordinates></LinearRing></outerBoundaryIs></Polygon></MultiGeometry>
  </Placemark>
</Folder>
</Document></kml>
