<?xml version="1.0" encoding="utf-8" ?>
<kml xmlns="http://www.opengis.net/kml/2.2">
<Document id="root_doc">
<Schema name="BARRA_DA_URUBA_TALHAO_1008_ID_181" id="BARRA_DA_URUBA_TALHAO_1008_ID_181">
	<SimpleField name="ID" type="float"></SimpleField>
	<SimpleField name="AREA_TOTAL" type="float"></SimpleField>
	<SimpleField name="FAZENDA" type="float"></SimpleField>
	<SimpleField name="FAZ_NOME" type="string"></SimpleField>
	<SimpleField name="TALHAO" type="float"></SimpleField>
	<SimpleField name="ZONA" type="float"></SimpleField>
	<SimpleField name="ACIONISTA" type="string"></SimpleField>
	<SimpleField name="CODE" type="string"></SimpleField>
</Schema>
<Folder><name>BARRA_DA_URUBA_TALHAO_1008_ID_181</name>
  <Placemark id="BARRA_DA_URUBA_TALHAO_1008_ID_181.1">
	<Style><LineStyle><color>ff0000ff</color></LineStyle><PolyStyle><fill>0</fill></PolyStyle></Style>
	<ExtendedData><SchemaData schemaUrl="#BARRA_DA_URUBA_TALHAO_1008_ID_181">
		<SimpleData name="ID">181</SimpleData>
		<SimpleData name="AREA_TOTAL">20.18</SimpleData>
		<SimpleData name="FAZ_NOME">BARRA DA URUBA</SimpleData>
		<SimpleData name="TALHAO">1008</SimpleData>
		<SimpleData name="ZONA">1</SimpleData>
		<SimpleData name="ACIONISTA">ISABEL TENÓRIO</SimpleData>
		<SimpleData name="CODE"></SimpleData>
	</SchemaData></ExtendedData>
      <MultiGeometry><Polygon><outerBoundaryIs><LinearRing><coordinates>-36.4311984619531,-9.78850688471447,0 -36.4312192745673,-9.78853898138826,0 -36.4312418207391,-9.78857034486744,0 -36.4312544161385,-9.78858394312267,0 -36.4313811831561,-9.78875394594514,0 -36.4313996996833,-9.78878059767116,0 -36.4314203466352,-9.7888086043682,0 -36.431444365316,-9.78883892336691,0 -36.4315006604058,-9.7889215387569,0 -36.4315260647811,-9.78896055182597,0 -36.4315486893384,-9.78899172999735,0 -36.4315687795153,-9.78902416335415,0 -36.4315882086843,-9.78905519829303,0 -36.4316317491596,-9.78911817297675,0 -36.4316476785788,-9.78914450361368,0 -36.4317425514103,-9.78929781016821,0 -36.4317598627353,-9.78931485652994,0 -36.4318101715241,-9.78934716022308,0 -36.4318375758491,-9.78935885119317,0 -36.431868416313,-9.78937175968772,0 -36.4318996208095,-9.7893836719557,0 -36.4319276880574,-9.78939253480246,0 -36.4319574402977,-9.78940473571528,0 -36.4319887524889,-9.78941711112071,0 -36.4320440162964,-9.78943439158326,0 -36.4320847521722,-9.78944789130033,0 -36.4321218421664,-9.78945971102916,0 -36.4321583726505,-9.78947272776744,0 -36.4321938402036,-9.78948247924423,0 -36.4322288541468,-9.78949477066076,0 -36.4322890370583,-9.7895127604563,0 -36.4323256157914,-9.78952849637695,0 -36.4324072448022,-9.78955998526186,0 -36.4324420878827,-9.78957201500232,0 -36.4324770390823,-9.78958518976708,0 -36.4325123221792,-9.78959707386732,0 -36.4325468798507,-9.78960845606695,0 -36.4325947465075,-9.78961969433568,0 -36.4326210853623,-9.78962310156051,0 -36.4326593434104,-9.7896270565184,0 -36.4326974936777,-9.78963054041503,0 -36.4327322143916,-9.78963281776633,0 -36.4328095706554,-9.78963160320887,0 -36.4328600116888,-9.78962830332505,0 -36.4328846743443,-9.78962589335532,0 -36.4329233068717,-9.78962055149736,0 -36.432962034448,-9.78961442534546,0 -36.4329975913879,-9.78960657149525,0 -36.4330344027686,-9.78960075863682,0 -36.4330761389934,-9.78959166554973,0 -36.4331549872899,-9.78956898624885,0 -36.4331836164067,-9.78955905854039,0 -36.4332153242086,-9.78954602192314,0 -36.4332453735031,-9.78952958728013,0 -36.4332743526231,-9.78950866165795,0 -36.4333108430612,-9.78948547285995,0 -36.4333427539852,-9.78946227540511,0 -36.4333751555519,-9.78943668935757,0 -36.4334056231877,-9.78941372900292,0 -36.4334333752145,-9.78939049601882,0 -36.4334615517517,-9.78936462904622,0 -36.4334903539563,-9.78934082868899,0 -36.4335175842812,-9.7893153302129,0 -36.4335498528032,-9.78928635241714,0 -36.4336159134877,-9.78923567477552,0 -36.4336712006296,-9.78919671098822,0 -36.4337495767757,-9.78915098824754,0 -36.4338086097213,-9.78911797776295,0 -36.4338439016683,-9.78909620844819,0 -36.4338787683381,-9.78907350125831,0 -36.4339126042418,-9.78905095728683,0 -36.433947008207,-9.78902834783488,0 -36.4339766197296,-9.78900583187232,0 -36.4340030915058,-9.78898242205205,0 -36.4340308452014,-9.78895474834443,0 -36.4340579665601,-9.78892642320837,0 -36.4340717880552,-9.7889093156968,0 -36.4341245538616,-9.78883004429233,0 -36.4341476789109,-9.78878919581599,0 -36.4341804059051,-9.78873365011559,0 -36.4341977794845,-9.78869757894905,0 -36.4342172976402,-9.78865933948378,0 -36.4342357668436,-9.78862112761372,0 -36.4342555625768,-9.78857973383152,0 -36.4342730384565,-9.78853886155936,0 -36.4343044999105,-9.78845711068765,0 -36.4343288527791,-9.78836876027969,0 -36.4343389488359,-9.78832235956655,0 -36.4343498778159,-9.78827753031243,0 -36.4343579911529,-9.78823182532375,0 -36.4343640808894,-9.78818502387123,0 -36.4343698994577,-9.78813784367873,0 -36.4343772683206,-9.78809095639868,0 -36.4343815687914,-9.78804491355472,0 -36.4343845982918,-9.78799650280035,0 -36.4343899941736,-9.78795024731381,0 -36.4343953674354,-9.78790214637434,0 -36.4344033846088,-9.78782910221588,0 -36.4344205109341,-9.78775857206118,0 -36.4344456580946,-9.78769017651237,0 -36.4344724429918,-9.78762407202085,0 -36.4344901900906,-9.78757852100489,0 -36.4345083766119,-9.78753469568056,0 -36.4345227522256,-9.78749287010916,0 -36.4345512160634,-9.78740000535042,0 -36.4345589055257,-9.78735068219274,0 -36.4345353993594,-9.78731322847124,0 -36.434503461747,-9.78727908804202,0 -36.4344383892256,-9.78720428369702,0 -36.4343785848798,-9.78713411640127,0 -36.4343083271754,-9.78705360890194,0 -36.4342342650906,-9.78697025356216,0 -36.4341609909528,-9.78688154374066,0 -36.434058393761,-9.78675621798819,0 -36.4340049498687,-9.78669357624211,0 -36.4339160279811,-9.78658777751379,0 -36.4338761873602,-9.78654136967647,0 -36.433733509753,-9.78637666156899,0 -36.4336347763837,-9.78626887942971,0 -36.4335681865158,-9.78619471465452,0 -36.433502612996,-9.78611969258578,0 -36.4334381204809,-9.78604924332005,0 -36.4333826996173,-9.78599080450905,0 -36.4333212980423,-9.78592686618016,0 -36.433259368984,-9.78586200298773,0 -36.4331980315014,-9.7857991607985,0 -36.4331388298875,-9.78573710473338,0 -36.4330704537842,-9.78566685913152,0 -36.4330018431791,-9.78558853178806,0 -36.4329354041483,-9.78550822741824,0 -36.432866901102,-9.78542925455922,0 -36.4327977400782,-9.78534759883256,0 -36.4327286373929,-9.78526491478987,0 -36.432662641413,-9.78518165850217,0 -36.4325261425066,-9.78500917009596,0 -36.4324514729139,-9.78491581180371,0 -36.4323758525637,-9.78481850520535,0 -36.4322949317544,-9.78471979213537,0 -36.4322127874658,-9.78462090645493,0 -36.4321341490886,-9.78452139148658,0 -36.4320579218443,-9.78442378025787,0 -36.4319905248212,-9.78433694180853,0 -36.4319310044853,-9.78426194606443,0 -36.4318835767814,-9.78419580070519,0 -36.4318502060509,-9.78414968037532,0 -36.4318324523167,-9.78412464464011,0 -36.4318275994909,-9.78412848940405,0 -36.4318227466705,-9.7841323341806,0 -36.4318178938609,-9.78413617898242,0 -36.4318130410675,-9.78414002382222,0 -36.431808188296,-9.7841438687127,0 -36.4318033355516,-9.78414771366653,0 -36.4317984828399,-9.78415155869642,0 -36.4317936301663,-9.78415540381505,0 -36.4317887775363,-9.78415924903513,0 -36.4317839249554,-9.78416309436934,0 -36.431779072429,-9.78416693983035,0 -36.4317742199625,-9.78417078543087,0 -36.4317693675615,-9.78417463118365,0 -36.4317645152314,-9.78417847710128,0 -36.4317596629777,-9.78418232319651,0 -36.4317354030456,-9.78420155678072,0 -36.431711145842,-9.78422079670849,0 -36.4316868920496,-9.78424004456633,0 -36.4316626423511,-9.78425930194068,0 -36.4316383974293,-9.78427857041813,0 -36.4316141579671,-9.78429785158514,0 -36.431589924647,-9.78431714702823,0 -36.4315656981519,-9.78433645833388,0 -36.4315414791646,-9.78435578708865,0 -36.4315172683678,-9.784375134879,0 -36.4314930664443,-9.78439450329144,0 -36.4314882271845,-9.78439837958819,0 -36.4314640368101,-9.78441777484134,0 -36.4314591999584,-9.78442165673469,0 -36.4314350221164,-9.78444108111313,0 -36.4314301878695,-9.78444496905998,0 -36.4314060235453,-9.78446442485029,0 -36.4314011922069,-9.78446831940674,0 -36.4313963617016,-9.78447221541377,0 -36.431391532287,-9.78447611311768,0 -36.4313867042209,-9.78448001276464,0 -36.4313818777612,-9.78448391460088,0 -36.4313770531657,-9.78448781887264,0 -36.431372230692,-9.78449172582613,0 -36.431367410598,-9.78449563570756,0 -36.4313625931416,-9.78449954876316,0 -36.4313577785803,-9.78450346523917,0 -36.4313529671721,-9.78450738538182,0 -36.4313481591748,-9.78451130943728,0 -36.431343354846,-9.78451523765179,0 -36.4313385544436,-9.78451917027164,0 -36.4313337582255,-9.78452310754297,0 -36.4313289664492,-9.78452704971202,0 -36.4313241793728,-9.78453099702504,0 -36.4313193972538,-9.78453494972822,0 -36.4313146203502,-9.7845389080678,0 -36.4313098489197,-9.78454287229002,0 -36.43130508322,-9.78454684264107,0 -36.4313003235091,-9.78455081936718,0 -36.4312955700445,-9.78455480271458,0 -36.4312908230842,-9.78455879292947,0 -36.431286082886,-9.78456279025815,0 -36.4312813497075,-9.78456679494673,0 -36.4312766238066,-9.78457080724152,0 -36.4312719054411,-9.7845748273887,0 -36.4312671948687,-9.78457885563449,0 -36.4312624923473,-9.78458289222512,0 -36.4312577981346,-9.78458693740686,0 -36.4312531124883,-9.78459099142587,0 -36.4312484356664,-9.78459505452837,0 -36.4312437679266,-9.78459912696062,0 -36.4312391095266,-9.78460320896884,0 -36.4312344607242,-9.78460730079923,0 -36.4312298217773,-9.78461140269803,0 -36.4312251929436,-9.78461551491145,0 -36.4312205744808,-9.7846196376857,0 -36.4312159666469,-9.78462377126705,0 -36.4312113696995,-9.78462791590169,0 -36.4312067838964,-9.78463207183582,0 -36.4312022094955,-9.78463623931572,0 -36.4311976467545,-9.78464041858757,0 -36.4311930959311,-9.7846446098976,0 -36.4311885572833,-9.78464881349205,0 -36.4311840310687,-9.7846530296171,0 -36.4311795175451,-9.78465725851905,0 -36.4311750169704,-9.78466150044406,0 -36.4311705296023,-9.78466575563835,0 -36.4311660556986,-9.78467002434818,0 -36.431161595517,-9.78467430681975,0 -36.4311571493155,-9.78467860329927,0 -36.4311527173516,-9.78468291403301,0 -36.4311482998833,-9.78468723926713,0 -36.4311438971683,-9.7846915792479,0 -36.4311395093692,-9.7846959341294,0 -36.4311351361988,-9.7847003036301,0 -36.431130777237,-9.78470468734011,0 -36.4311264320638,-9.7847090848495,0 -36.4311221002592,-9.78471349574827,0 -36.4311177814033,-9.78471791962648,0 -36.431113475076,-9.78472235607419,0 -36.4311091808573,-9.78472680468146,0 -36.4311048983272,-9.78473126503829,0 -36.4311006270658,-9.78473573673475,0 -36.4310963666529,-9.78474021936087,0 -36.4310921166686,-9.78474471250671,0 -36.4310878766929,-9.78474921576231,0 -36.4310836463058,-9.7847537287177,0 -36.4310794250873,-9.78475825096294,0 -36.4310752126173,-9.78476278208807,0 -36.4310710084759,-9.78476732168316,0 -36.431066812243,-9.78477186933821,0 -36.4310626234987,-9.78477642464329,0 -36.4310584418229,-9.78478098718844,0 -36.4310542667957,-9.7847855565637,0 -36.431050097997,-9.78479013235911,0 -36.4310459350068,-9.78479471416476,0 -36.4310417774052,-9.78479930157064,0 -36.431037624772,-9.7848038941668,0 -36.4310334766874,-9.7848084915433,0 -36.4310293327313,-9.78481309329019,0 -36.4310251924837,-9.78481769899749,0 -36.4310210555245,-9.78482230825528,0 -36.4310169214339,-9.78482692065357,0 -36.4310127897917,-9.7848315357824,0 -36.431008660178,-9.78483615323185,0 -36.4309880278363,-9.78485926093967,0 -36.4309839015733,-9.78486388370366,0 -36.4309797743988,-9.78486850591855,0 -36.4309756458927,-9.78487312717442,0 -36.4309543021518,-9.78489700114675,0 -36.4309224206723,-9.7849321984947,0 -36.4308868185789,-9.78497047951583,0 -36.4308483126761,-9.78501003672793,0 -36.4308088865811,-9.7850480839885,0 -36.4307674478146,-9.7850852211465,0 -36.4307233947633,-9.78512164159175,0 -36.4306848969324,-9.7851496751717,0 -36.4306411913384,-9.7851730090115,0 -36.4305867252252,-9.78518904492588,0 -36.4305299709133,-9.78519611834774,0 -36.4304729519113,-9.78519320932577,0 -36.4304121209105,-9.78517900301631,0 -36.4303555753896,-9.78515786519734,0 -36.4303052633953,-9.78513327732174,0 -36.4302572896913,-9.78510447783005,0 -36.430211754482,-9.78507220008674,0 -36.4301684863347,-9.78503700433191,0 -36.4301252111238,-9.78499753511971,0 -36.4300826528086,-9.78495448151698,0 -36.4300398545923,-9.78490794591068,0 -36.4299877719528,-9.78484905627241,0 -36.4299836673532,-9.78484442178708,0 -36.4299795599916,-9.784839789554,0 -36.4299754492421,-9.78483516019738,0 -36.4299713344786,-9.78483053434151,0 -36.429967215075,-9.78482591261069,0 -36.4299630904053,-9.78482129562918,0 -36.4299589598435,-9.78481668402129,0 -36.4299548227634,-9.78481207841125,0 -36.429950678539,-9.78480747942337,0 -36.4299465265443,-9.78480288768197,0 -36.4299423661533,-9.78479830381128,0 -36.4299381967398,-9.78479372843561,0 -36.4299340176778,-9.78478916217922,0 -36.4299298283414,-9.78478460566637,0 -36.4299256281043,-9.78478005952135,0 -36.4299214163407,-9.78477552436852,0 -36.4299171924243,-9.78477100083206,0 -36.4299129557293,-9.7847664895363,0 -36.4299087056294,-9.7847619911055,0 -36.4299044414988,-9.78475750616398,0 -36.4299001627112,-9.78475303533595,0 -36.4298958686408,-9.78474857924574,0 -36.4298915586613,-9.78474413851764,0 -36.4298872321469,-9.78473971377589,0 -36.4298828884713,-9.78473530564482,0 -36.4298785270086,-9.78473091474866,0 -36.4298741471328,-9.78472654171173,0 -36.4298697482177,-9.78472218715827,0 -36.4298653296465,-9.78471785170613,0 -36.4298608911471,-9.78471353572724,0 -36.4298564328921,-9.7847092392769,0 -36.4298519550832,-9.78470496238954,0 -36.4298474579221,-9.78470070509965,0 -36.4298429416106,-9.78469646744167,0 -36.4298384063504,-9.78469224945004,0 -36.4298338523432,-9.78468805115923,0 -36.4298292797907,-9.78468387260372,0 -36.4298246888947,-9.78467971381792,0 -36.429820079857,-9.78467557483631,0 -36.4298154528792,-9.78467145569333,0 -36.429810808163,-9.78466735642344,0 -36.4298061459103,-9.7846632770611,0 -36.4298014663227,-9.78465921764075,0 -36.429796769602,-9.78465517819672,0 -36.4297920559965,-9.78465115865569,0 -36.4297873258871,-9.78464715863585,0 -36.4297825796784,-9.78464317770068,0 -36.4297778177752,-9.78463921541358,0 -36.429773040582,-9.78463527133802,0 -36.4297682485035,-9.78463134503741,0 -36.4297634419444,-9.78462743607521,0 -36.4297586213093,-9.78462354401483,0 -36.4297537870028,-9.78461966841973,0 -36.4297489394296,-9.78461580885334,0 -36.4297440789943,-9.7846119648791,0 -36.4297392061015,-9.78460813606043,0 -36.429734321156,-9.78460432196078,0 -36.4297294245623,-9.7846005221436,0 -36.4297245167252,-9.78459673617228,0 -36.4297195980491,-9.78459296361028,0 -36.4297146689389,-9.78458920402109,0 -36.429709729799,-9.78458545696809,0 -36.4297047810343,-9.78458172201472,0 -36.4296998230492,-9.78457799872442,0 -36.4296948562485,-9.78457428666062,0 -36.4296898810368,-9.78457058538679,0 -36.4296848978187,-9.78456689446631,0 -36.4296799069989,-9.78456321346269,0 -36.4296749089821,-9.78455954193931,0 -36.4296699041728,-9.78455587945963,0 -36.4296648929757,-9.78455222558707,0 -36.4296598757955,-9.7845485798851,0 -36.4296548530368,-9.7845449419171,0 -36.4296498251042,-9.78454131124658,0 -36.4296447924024,-9.78453768743692,0 -36.4296397553037,-9.78453407008461,0 -36.4296347139559,-9.78453045901533,0 -36.4296296684118,-9.78452685415176,0 -36.4296246187238,-9.78452325541706,0 -36.4296195649443,-9.78451966273424,0 -36.4296145071258,-9.78451607602643,0 -36.4296094453207,-9.78451249521668,0 -36.4296043795815,-9.78450892022809,0 -36.4295993099605,-9.78450535098375,0 -36.4295942365101,-9.78450178740674,0 -36.4295891592829,-9.78449822942013,0 -36.4295840783312,-9.78449467694702,0 -36.4295789937075,-9.78449112991048,0 -36.4295739054642,-9.78448758823363,0 -36.4295688136537,-9.78448405183952,0 -36.4295637183284,-9.7844805206512,0 -36.4295586195408,-9.78447699459185,0 -36.4295535173433,-9.78447347358447,0 -36.4295484117884,-9.78446995755217,0 -36.4295433029284,-9.78446644641806,0 -36.4295381908157,-9.78446294010519,0 -36.4295330755029,-9.78445943853663,0 -36.4295279570423,-9.78445594163551,0 -36.4295228354864,-9.78445244932489,0 -36.4295177108876,-9.78444896152785,0 -36.4295125832983,-9.78444547816748,0 -36.4295074527709,-9.78444199916688,0 -36.4295023193579,-9.78443852444909,0 -36.4294971831117,-9.78443505393724,0 -36.4294920440848,-9.78443158755438,0 -36.4294869023295,-9.78442812522364,0 -36.4294817578983,-9.78442466686807,0 -36.4294766108436,-9.78442121241072,0 -36.4294714612178,-9.78441776177474,0 -36.4294663090734,-9.78441431488317,0 -36.4294611544591,-9.78441087166438,0 -36.4294559974053,-9.78440743207354,0 -36.4294508379364,-9.78440399607435,0 -36.4294456760767,-9.78440056363055,0 -36.4294405118507,-9.78439713470586,0 -36.4294353452827,-9.78439370926399,0 -36.4294301763971,-9.78439028726867,0 -36.4294250052184,-9.78438686868361,0 -36.4294198317709,-9.78438345347252,0 -36.429414656079,-9.78438004159915,0 -36.4294094781672,-9.78437663302719,0 -36.4294042980598,-9.7843732277204,0 -36.4293991157811,-9.78436982564246,0 -36.4293939313558,-9.78436642675707,0 -36.429388744808,-9.78436303102802,0 -36.4293835561622,-9.78435963841899,0 -36.4293783654428,-9.78435624889371,0 -36.4293731726743,-9.78435286241587,0 -36.4293679778809,-9.78434947894922,0 -36.4293627810871,-9.78434609845748,0 -36.4293575823173,-9.78434272090436,0 -36.4293523815959,-9.78433934625357,0 -36.4293471789473,-9.78433597446887,0 -36.4293419743959,-9.78433260551394,0 -36.429336767966,-9.7843292393525,0 -36.4293315596821,-9.78432587594829,0 -36.4293263495686,-9.78432251526503,0 -36.4293211376499,-9.78431915726643,0 -36.4293159239503,-9.78431580191619,0 -36.4293107084943,-9.78431244917805,0 -36.4293054913062,-9.78430909901578,0 -36.4293002724105,-9.78430575139302,0 -36.4292950518315,-9.78430240627353,0 -36.4292898295937,-9.78429906362102,0 -36.4292846057214,-9.78429572339922,0 -36.4292793802391,-9.78429238557182,0 -36.4292741531711,-9.78428905010259,0 -36.4292689245418,-9.7842857169552,0 -36.4292636943757,-9.78428238609339,0 -36.4292584626971,-9.78427905748091,0 -36.4292532295304,-9.78427573108143,0 -36.4292479949,-9.78427240685868,0 -36.4292427588304,-9.78426908477642,0 -36.4292375213458,-9.78426576479832,0 -36.4292322824708,-9.78426244688813,0 -36.4292270422296,-9.78425913100957,0 -36.4292218006468,-9.78425581712633,0 -36.4292165577467,-9.78425250520218,0 -36.4292113135537,-9.78424919520079,0 -36.4292060680921,-9.78424588708591,0 -36.4292008213865,-9.78424258082125,0 -36.4291955734611,-9.78423927637055,0 -36.4291903243404,-9.78423597369747,0 -36.4291850740488,-9.78423267276581,0 -36.4291798226107,-9.78422937353923,0 -36.4291745700504,-9.78422607598147,0 -36.4291693163924,-9.78422278005629,0 -36.4291640616611,-9.78421948572732,0 -36.4291588058808,-9.78421619295836,0 -36.429153549076,-9.78421290171309,0 -36.429148291271,-9.78420961195526,0 -36.4291430324903,-9.78420632364853,0 -36.4291377727583,-9.78420303675672,0 -36.4291325120993,-9.78419975124346,0 -36.4291272505377,-9.7841964670725,0 -36.429121988098,-9.78419318420755,0 -36.4291167248045,-9.78418990261238,0 -36.4291114606816,-9.78418662225064,0 -36.4291061957538,-9.7841833430861,0 -36.4291009300453,-9.78418006508245,0 -36.4290956635808,-9.78417678820343,0 -36.4290903963844,-9.78417351241275,0 -36.4290851284806,-9.78417023767412,0 -36.4290798598939,-9.78416696395129,0 -36.4290535075691,-9.78415060930402,0 -36.4290482353968,-9.784147340914,0 -36.4290218673397,-9.78413100966561,0 -36.4289954895269,-9.78411469292779,0 -36.4289691050079,-9.78409838616554,0 -36.4289638275677,-9.78409512561108,0 -36.4289585500057,-9.78409186523795,0 -36.4289532723462,-9.7840886050099,0 -36.4289479946136,-9.78408534489061,0 -36.4289427168323,-9.78408208484384,0 -36.4289374390268,-9.7840788248333,0 -36.4289710963301,-9.78416123512017,0 -36.4290162074579,-9.78425958125176,0 -36.4290563112772,-9.78435309855835,0 -36.4291174468335,-9.78449193985692,0 -36.4291537919431,-9.78456281797318,0 -36.4292089003952,-9.78467146105621,0 -36.4292917246457,-9.78482918889254,0 -36.4293320647503,-9.78490521565631,0 -36.4293889305975,-9.78501782202185,0 -36.4294411176557,-9.78512631287346,0 -36.4294978188914,-9.78528231835785,0 -36.4295309764921,-9.78539070916495,0 -36.429560356935,-9.78549245998992,0 -36.4295901828807,-9.78559328471018,0 -36.4296221467101,-9.78569626593698,0 -36.4296550491042,-9.78579994648379,0 -36.4296915790418,-9.7858982847319,0 -36.4297297693173,-9.78599996299045,0 -36.4297663441642,-9.7861102147077,0 -36.4297997345453,-9.78621452044586,0 -36.4298262254314,-9.78630295486849,0 -36.4298488646787,-9.7863941879068,0 -36.4298719201737,-9.78648347270703,0 -36.4298911132194,-9.78657298701654,0 -36.4299101415182,-9.78665320414636,0 -36.4299288585452,-9.78673793551709,0 -36.4299506225241,-9.78683152577133,0 -36.4299724684296,-9.78692143860857,0 -36.4299957498303,-9.78700142024289,0 -36.430023649058,-9.78707968794349,0 -36.4300586955184,-9.78715884921163,0 -36.4301040689168,-9.78723654300909,0 -36.4301616744008,-9.78732125553646,0 -36.4302328149889,-9.78740973954063,0 -36.4303126847283,-9.78749967170275,0 -36.4304061844488,-9.78761003262636,0 -36.4304830797197,-9.78768940680669,0 -36.4307984766395,-9.78802018720663,0 -36.4308213326575,-9.78804659739073,0 -36.4308571094893,-9.78808667298487,0 -36.4308884989073,-9.78812649617766,0 -36.4309066488469,-9.78814850347129,0 -36.4309540138137,-9.78820143937833,0 -36.4309736982435,-9.78822637723019,0 -36.4309967692345,-9.78825277526445,0 -36.4310157729946,-9.78827865400223,0 -36.4310378199692,-9.78830624737979,0 -36.4310715326916,-9.7883462044058,0 -36.4311044824242,-9.7883896802405,0 -36.4311556007474,-9.78844883076639,0 -36.4311762471691,-9.78847756790991,0 -36.4311984619531,-9.78850688471447,0</coordinates></LinearRing></outerBoundaryIs></Polygon></MultiGeometry>
  </Placemark>
</Folder>
</Document></kml>
