<?xml version="1.0" encoding="UTF-8"?>
<kml xmlns="http://www.opengis.net/kml/2.2" xmlns:gx="http://www.google.com/kml/ext/2.2" xmlns:kml="http://www.opengis.net/kml/2.2" xmlns:atom="http://www.w3.org/2005/Atom">
<Document>
  <name>1004.kml</name>
  <StyleMap id="FF0040FF">
    <Pair>
      <key>normal</key>
      <styleUrl>#s_FF0040FF</styleUrl>
    </Pair>
    <Pair>
      <key>highlight</key>
      <styleUrl>#s_FF0040FF_hl</styleUrl>
    </Pair>
  </StyleMap>
  <Style id="s_FF0040FF">
   <IconStyle>
      <scale>1.1</scale>
      <Icon>
        <href>http://maps.google.com/mapfiles/kml/pushpin/agrocad.png</href>
      </Icon>
      <hotSpot x="20" y="2" xunits="pixels" yunits="pixels"/>
    </IconStyle>
    <LineStyle>
      <color>FF0040FF</color>
      <width>1</width>
    </LineStyle>
    <PolyStyle>
      <color>40ffffff</color>
      <fill>1</fill>
    </PolyStyle>
  </Style>
  <Style id="s_FF0040FF_hl">
    <IconStyle>
      <scale>1.3</scale>
      <Icon>
        <href>http://maps.google.com/mapfiles/kml/pushpin/agrocad.png</href>
      </Icon>
      <hotSpot x="20" y="2" xunits="pixels" yunits="pixels"/>
    </IconStyle>
    <LineStyle>
      <color>ff000000</color>
      <width>1</width>
    </LineStyle>
    <PolyStyle>
      <color>40ffffff</color>
      <fill>1</fill>
    </PolyStyle>
  </Style>
  <Placemark>
    <name>AgroCAD: 7E14</name>
    <styleUrl>FF0040FF</styleUrl>
    <Polygon>
      <outerBoundaryIs>
        <LinearRing>
          <coordinates>
           -36.12328702131300,-9.81251409787554 -36.12325531628255,-9.81250425830661 -36.12323250628256,-9.81248629497326 -36.12315788767153,-9.81242109719548 -36.12312213406047,-9.81238257219549 -36.12308874544939,-9.81235319413993 -36.12306005044942,-9.81232153580659 -36.12304330600500,-9.81229331747324 -36.12299055461616,-9.81225978858436 -36.12294543433842,-9.81222654025103 -36.12289090822737,-9.81218644886213 -36.12288178767183,-9.81217796136213 -36.12568980461344,-9.80875405719566 -36.12569993794677,-9.80876231330677 -36.12608792766856,-9.80907961969569 -36.12624786739061,-9.80921522580682 -36.12620076961289,-9.80927083302904 -36.12594986822425,-9.80957966025124 -36.12597184877976,-9.80967127858458 -36.12646671850145,-9.81003829580683 -36.12653009072362,-9.81007940775127 -36.12645012572369,-9.81017972997349 -36.12577275516882,-9.81101082858456 -36.12495559266965,-9.81199660469560 -36.12363360739321,-9.81359241775107 -36.12264837711644,-9.81478711525100 -36.12221487100577,-9.81529046747320 -36.12219930572800,-9.81527564691763 -36.12211126100587,-9.81518271913984 -36.12202801711709,-9.81509476025095 -36.12194604767273,-9.81500621969540 -36.12186243878393,-9.81491999247317 -36.12177939489513,-9.81483209413983 -36.12169301183967,-9.81474367775093 -36.12151871239542,-9.81456513858426 -36.12139125267334,-9.81443269191759 -36.12130716072898,-9.81434587747313 -36.12126291961792,-9.81430565775092 -36.12119729128466,-9.81423186608424 -36.12251636461664,-9.81262352469543 -36.12253648350551,-9.81264756247322 -36.12257887183881,-9.81268424302878 -36.12265386600539,-9.81274426108435 -36.12280212183855,-9.81286339302880 -36.12290866239400,-9.81294952997325 -36.12301449378278,-9.81303618719547 -36.12305932656052,-9.81301499941767 -36.12310279989380,-9.81296311886214 -36.12319986989370,-9.81284866386215 -36.12324899211587,-9.81278741747327 -36.12329110600471,-9.81272665497326 -36.12334561782365,-9.81267895380801 -36.12335204211577,-9.81264030969550 -36.12334840989356,-9.81261614413995 -36.12334636949299,-9.81257435637029 -36.12333837711580,-9.81256161108438 -36.12328702131300,-9.81251409787554
          </coordinates>
        </LinearRing>
      </outerBoundaryIs>
    </Polygon>
  </Placemark>
</Document>
</kml>
