<?xml version="1.0" encoding="UTF-8"?>
<kml xmlns="http://www.opengis.net/kml/2.2" xmlns:gx="http://www.google.com/kml/ext/2.2" xmlns:kml="http://www.opengis.net/kml/2.2" xmlns:atom="http://www.w3.org/2005/Atom">
<Document>
  <name>1007.kml</name>
  <StyleMap id="FF0040FF">
    <Pair>
      <key>normal</key>
      <styleUrl>#s_FF0040FF</styleUrl>
    </Pair>
    <Pair>
      <key>highlight</key>
      <styleUrl>#s_FF0040FF_hl</styleUrl>
    </Pair>
  </StyleMap>
  <Style id="s_FF0040FF">
   <IconStyle>
      <scale>1.1</scale>
      <Icon>
        <href>http://maps.google.com/mapfiles/kml/pushpin/agrocad.png</href>
      </Icon>
      <hotSpot x="20" y="2" xunits="pixels" yunits="pixels"/>
    </IconStyle>
    <LineStyle>
      <color>FF0040FF</color>
      <width>1</width>
    </LineStyle>
    <PolyStyle>
      <color>40ffffff</color>
      <fill>1</fill>
    </PolyStyle>
  </Style>
  <Style id="s_FF0040FF_hl">
    <IconStyle>
      <scale>1.3</scale>
      <Icon>
        <href>http://maps.google.com/mapfiles/kml/pushpin/agrocad.png</href>
      </Icon>
      <hotSpot x="20" y="2" xunits="pixels" yunits="pixels"/>
    </IconStyle>
    <LineStyle>
      <color>ff000000</color>
      <width>1</width>
    </LineStyle>
    <PolyStyle>
      <color>40ffffff</color>
      <fill>1</fill>
    </PolyStyle>
  </Style>
  <Placemark>
    <name>AgroCAD: 7E17</name>
    <styleUrl>FF0040FF</styleUrl>
    <Polygon>
      <outerBoundaryIs>
        <LinearRing>
          <coordinates>
           -36.13005149516429,-9.81231357080707 -36.13023385183075,-9.81246011497373 -36.13032149460845,-9.81253097830708 -36.13046105988607,-9.81264278858486 -36.13050502544158,-9.81268329636264 -36.13064467294142,-9.81279697219599 -36.13082180877458,-9.81293802414045 -36.13091233238559,-9.81300873997378 -36.13102853932991,-9.81310411664045 -36.13110098849650,-9.81316096608492 -36.13113184682980,-9.81318379636270 -36.13117369321865,-9.81322259247380 -36.13121369516304,-9.81326190497381 -36.13126170932966,-9.81331267719603 -36.13129396571852,-9.81335375580714 -36.13130564571849,-9.81340120914048 -36.13130720488515,-9.81342954025158 -36.13130233016295,-9.81346043469603 -36.13129246044073,-9.81350758941825 -36.13128633821852,-9.81352330330713 -36.13126461377408,-9.81355629941825 -36.13121548599636,-9.81361479469602 -36.13112047099646,-9.81371725608491 -36.13097107071883,-9.81389175247378 -36.13082509183009,-9.81404785636267 -36.13069269099689,-9.81419573914043 -36.13055944099702,-9.81434360747376 -36.13043588571937,-9.81448388858485 -36.13037597571942,-9.81455691386264 -36.13018955266407,-9.81442530664040 -36.13009552210862,-9.81442120358484 -36.12973944349787,-9.81490815386259 -36.12977189377559,-9.81499427191816 -36.13012406933079,-9.81517318775152 -36.13021368544180,-9.81515742997373 -36.13052544488595,-9.81474574441819 -36.13051544877483,-9.81465537636264 -36.13040571905273,-9.81457791136263 -36.13046374294155,-9.81450718469598 -36.13058674294144,-9.81436753414043 -36.13071989433019,-9.81421977525154 -36.13085207210784,-9.81407214164044 -36.13099832516323,-9.81391574469600 -36.13114777460755,-9.81374119080714 -36.13124290682968,-9.81363860302936 -36.13129396127405,-9.81357781358491 -36.13131233766294,-9.81354990247382 -36.13132697210736,-9.81353726025158 -36.13134986849623,-9.81351663552936 -36.13138553766287,-9.81350572191826 -36.13142843599614,-9.81351312441827 -36.13150667127385,-9.81360626219605 -36.13150696599606,-9.81360666858493 -36.13151171377384,-9.81361508941827 -36.13152845377383,-9.81365968719605 -36.13154801460713,-9.81370037914049 -36.13155833571822,-9.81373302469606 -36.13157457210711,-9.81376523275160 -36.13159556849597,-9.81378411997383 -36.13161466266261,-9.81381446414050 -36.13161988321816,-9.81383690136273 -36.13150114682939,-9.81396375302939 -36.13109977266313,-9.81443164858490 -36.13088192155223,-9.81468783302933 -36.13029331988615,-9.81539864691816 -36.12989751183100,-9.81587132275150 -36.12921146266501,-9.81669141441811 -36.12891085683199,-9.81705390719587 -36.12817363211050,-9.81796572997359 -36.12759425544441,-9.81866734608466 -36.12687306016735,-9.81954306858460 -36.12661154100097,-9.81986124080682 -36.12657128183433,-9.81981742275125 -36.12652751988993,-9.81977071469569 -36.12643519627892,-9.81967748552903 -36.12630755766794,-9.81953459330680 -36.12622231266804,-9.81944359247346 -36.12613617711259,-9.81935289302902 -36.12604665600157,-9.81926018441789 -36.12600349989050,-9.81921539497345 -36.12587625322398,-9.81908301469565 -36.12579207655742,-9.81899347025120 -36.12566800850198,-9.81886167080676 -36.12550117100217,-9.81868287441785 -36.12541513905782,-9.81859539997339 -36.12532828822458,-9.81850207275117 -36.12528553128016,-9.81845578219562 -36.12519941211361,-9.81836644969561 -36.12511694890886,-9.81827906402299 -36.13005149516429,-9.81231357080707
          </coordinates>
        </LinearRing>
      </outerBoundaryIs>
    </Polygon>
  </Placemark>
</Document>
</kml>
