<?xml version="1.0" encoding="UTF-8"?>
<kml xmlns="http://www.opengis.net/kml/2.2" xmlns:gx="http://www.google.com/kml/ext/2.2" xmlns:kml="http://www.opengis.net/kml/2.2" xmlns:atom="http://www.w3.org/2005/Atom">
<Document>
  <name>04.kml</name>
  <StyleMap id="FFFF4000">
    <Pair>
      <key>normal</key>
      <styleUrl>#s_FFFF4000</styleUrl>
    </Pair>
    <Pair>
      <key>highlight</key>
      <styleUrl>#s_FFFF4000_hl</styleUrl>
    </Pair>
  </StyleMap>
  <Style id="s_FFFF4000">
   <IconStyle>
      <scale>1.1</scale>
      <Icon>
        <href>http://maps.google.com/mapfiles/kml/pushpin/agrocad.png</href>
      </Icon>
      <hotSpot x="20" y="2" xunits="pixels" yunits="pixels"/>
    </IconStyle>
    <LineStyle>
      <color>FFFF4000</color>
      <width>1</width>
    </LineStyle>
    <PolyStyle>
      <color>40ffffff</color>
      <fill>1</fill>
    </PolyStyle>
  </Style>
  <Style id="s_FFFF4000_hl">
    <IconStyle>
      <scale>1.3</scale>
      <Icon>
        <href>http://maps.google.com/mapfiles/kml/pushpin/agrocad.png</href>
      </Icon>
      <hotSpot x="20" y="2" xunits="pixels" yunits="pixels"/>
    </IconStyle>
    <LineStyle>
      <color>ff000000</color>
      <width>1</width>
    </LineStyle>
    <PolyStyle>
      <color>40ffffff</color>
      <fill>1</fill>
    </PolyStyle>
  </Style>
  <Placemark>
    <name>AgroCAD: 15FA3</name>
    <styleUrl>FFFF4000</styleUrl>
    <Polygon>
      <outerBoundaryIs>
        <LinearRing>
          <coordinates>
           -36.39203374933787,-9.73790240688607 -36.39201984835346,-9.73786971918780 -36.39192679242905,-9.73765431830378 -36.39192672609497,-9.73764005987627 -36.39192528978526,-9.73759418442297 -36.39193314114866,-9.73755153026936 -36.39194301373756,-9.73750907998767 -36.39196215000506,-9.73747256272815 -36.39198859568587,-9.73744251359602 -36.39201886914656,-9.73741351896710 -36.39204580658407,-9.73738886125319 -36.39206844836257,-9.73735869591675 -36.39208933696877,-9.73732276940883 -36.39211220557877,-9.73728627998201 -36.39213214066467,-9.73725095568946 -36.39214819770026,-9.73721010961904 -36.39215470596997,-9.73716292181332 -36.39215537924827,-9.73712468731083 -36.39215910287497,-9.73708181809828 -36.39216631036757,-9.73703602244031 -36.39217684419568,-9.73699557335170 -36.39219328720946,-9.73695622974405 -36.39221249225548,-9.73691814634430 -36.39223639749467,-9.73688786364858 -36.39226593915878,-9.73684789081353 -36.39228813249707,-9.73681913949087 -36.39231223428798,-9.73678954900889 -36.39232829837088,-9.73676893302764 -36.39235783834868,-9.73672830830049 -36.39238129823117,-9.73669561191869 -36.39239900102207,-9.73665981344121 -36.39241655461098,-9.73662670064614 -36.39243744041868,-9.73659293852503 -36.39246315240028,-9.73656727016059 -36.39249199252558,-9.73654644014911 -36.39252409304648,-9.73652916481056 -36.39254403421438,-9.73651648650399 -36.39258890328099,-9.73648708731947 -36.39262191083438,-9.73647199400074 -36.39265743594498,-9.73645486787183 -36.39269244712838,-9.73644175464265 -36.39272700144720,-9.73643151995862 -36.39276182924120,-9.73642170462801 -36.39279716266258,-9.73640620914368 -36.39283128144219,-9.73638994200784 -36.39286337709929,-9.73636860726430 -36.39289237677508,-9.73635093243592 -36.39292035548279,-9.73633350567518 -36.39295369950509,-9.73632175048337 -36.39298705381759,-9.73630285804708 -36.39301211292429,-9.73629239549358 -36.39306195748590,-9.73627910220701 -36.39309564747130,-9.73627146450896 -36.39313301187429,-9.73626597062898 -36.39317038699750,-9.73625908818426 -36.39320676640100,-9.73625007002959 -36.39324270350789,-9.73623975165450 -36.39327782745920,-9.73622767120255 -36.39331282392790,-9.73621556873886 -36.39334754283409,-9.73620353380878 -36.39337415805761,-9.73617800138892 -36.39340221082799,-9.73615486299376 -36.39343277295371,-9.73613210862184 -36.39346690986871,-9.73610702475150 -36.39350080416041,-9.73609321243239 -36.39353259543060,-9.73607950785792 -36.39356378004240,-9.73606077573624 -36.39359665826101,-9.73603851259837 -36.39362847548231,-9.73601937620287 -36.39365756746251,-9.73600154713660 -36.39368578762371,-9.73598296326548 -36.39371446327562,-9.73596111369452 -36.39374826614151,-9.73593952262507 -36.39377878750302,-9.73591976326367 -36.39381114932561,-9.73590261943892 -36.39384228211233,-9.73588617053140 -36.39387292436412,-9.73586865152184 -36.39391718232702,-9.73584526479589 -36.39395069706712,-9.73582636294779 -36.39397269760292,-9.73581251111800 -36.39401336118102,-9.73578930420412 -36.39403895727793,-9.73577714510299 -36.39407040481623,-9.73577537464292 -36.39409408965783,-9.73578980297805 -36.39412240824962,-9.73580708955239 -36.39414627663942,-9.73582601196302 -36.39415448390693,-9.73584729717193 -36.39442889638763,-9.73652477549011 -36.39470315509635,-9.73722935159769 -36.39496052901515,-9.73790655568373 -36.39497454081666,-9.73794198417516 -36.39499387911355,-9.73798920275849 -36.39501222226225,-9.73804158306520 -36.39502968407205,-9.73808435033912 -36.39503881408015,-9.73812660919165 -36.39503344468065,-9.73813664162272 -36.39501661721015,-9.73814784313031 -36.39495652517065,-9.73816269653299 -36.39431460416914,-9.73829097494723 -36.39286325199929,-9.73858311833922 -36.39236500665397,-9.73868760169397 -36.39235903298717,-9.73867694511342 -36.39235416993768,-9.73866716609406 -36.39233368923947,-9.73861339143079 -36.39232448514488,-9.73858743267557 -36.39231077190477,-9.73854986331167 -36.39229243340987,-9.73849679983659 -36.39228102135599,-9.73845735731564 -36.39227326710257,-9.73841608130672 -36.39226316906049,-9.73839172225193 -36.39223637362727,-9.73834377481411 -36.39221946926617,-9.73830490898522 -36.39220042656466,-9.73826531160671 -36.39218129543037,-9.73822993544494 -36.39215777988758,-9.73819423619272 -36.39214515333157,-9.73816952279168 -36.39212605018137,-9.73811817290402 -36.39211332729067,-9.73808355378016 -36.39209618661717,-9.73804353427043 -36.39208039661927,-9.73800894732925 -36.39206464675866,-9.73797329854322 -36.39204958880466,-9.73793833780263 -36.39203374933787,-9.73790240688607 -36.39203374933787,-9.73790240688607 -36.39203374933787,-9.73790240688607
          </coordinates>
        </LinearRing>
      </outerBoundaryIs>
    </Polygon>
  </Placemark>
</Document>
</kml>
