<?xml version="1.0" encoding="UTF-8"?>
<kml xmlns="http://www.opengis.net/kml/2.2" xmlns:gx="http://www.google.com/kml/ext/2.2" xmlns:kml="http://www.opengis.net/kml/2.2" xmlns:atom="http://www.w3.org/2005/Atom">
<Document>
  <name>43.kml</name>
  <StyleMap id="FF0000FF">
    <Pair>
      <key>normal</key>
      <styleUrl>#s_FF0000FF</styleUrl>
    </Pair>
    <Pair>
      <key>highlight</key>
      <styleUrl>#s_FF0000FF_hl</styleUrl>
    </Pair>
  </StyleMap>
  <Style id="s_FF0000FF">
   <IconStyle>
      <scale>1.1</scale>
      <Icon>
        <href>http://maps.google.com/mapfiles/kml/pushpin/agrocad.png</href>
      </Icon>
      <hotSpot x="20" y="2" xunits="pixels" yunits="pixels"/>
    </IconStyle>
    <LineStyle>
      <color>FF0000FF</color>
      <width>1</width>
    </LineStyle>
    <PolyStyle>
      <color>40ffffff</color>
      <fill>1</fill>
    </PolyStyle>
  </Style>
  <Style id="s_FF0000FF_hl">
    <IconStyle>
      <scale>1.3</scale>
      <Icon>
        <href>http://maps.google.com/mapfiles/kml/pushpin/agrocad.png</href>
      </Icon>
      <hotSpot x="20" y="2" xunits="pixels" yunits="pixels"/>
    </IconStyle>
    <LineStyle>
      <color>ff000000</color>
      <width>1</width>
    </LineStyle>
    <PolyStyle>
      <color>40ffffff</color>
      <fill>1</fill>
    </PolyStyle>
  </Style>
  <Placemark>
    <name>AgroCAD: 11E0B</name>
    <styleUrl>FF0000FF</styleUrl>
    <Polygon>
      <outerBoundaryIs>
        <LinearRing>
          <coordinates>
           -36.49085953830537,-9.83418108156760 -36.49080723522957,-9.83414011820971 -36.49074990301187,-9.83409221750246 -36.49068284778651,-9.83390821265229 -36.49064596741255,-9.83369612794021 -36.49062719194944,-9.83359768358840 -36.49065669624861,-9.83348305204110 -36.49466861038273,-9.83070512438001 -36.49707321076464,-9.83339716094224 -36.49428639559810,-9.83474994315834 -36.49201992898047,-9.83584108434030 -36.49114988743124,-9.83580144258021 -36.49076733737047,-9.83575552420217 -36.49060271679218,-9.83574660480427 -36.49046089499052,-9.83566732125667 -36.49038780479485,-9.83552295908160 -36.49042401461656,-9.83535382070931 -36.49046692996080,-9.83525141266840 -36.49060606955345,-9.83512026426001 -36.49082567541655,-9.83500992777532 -36.49094369261321,-9.83492172463085 -36.49097084997949,-9.83482394134202 -36.49092223494109,-9.83475787153590 -36.49086356161889,-9.83469312311312 -36.49078913031873,-9.83464158864505 -36.49074956773576,-9.83456197448316 -36.49085953830537,-9.83418108156760 -36.49085953830537,-9.83418108156760
          </coordinates>
        </LinearRing>
      </outerBoundaryIs>
    </Polygon>
  </Placemark>
</Document>
</kml>
