<?xml version="1.0" encoding="UTF-8"?>
<kml xmlns="http://www.opengis.net/kml/2.2" xmlns:gx="http://www.google.com/kml/ext/2.2" xmlns:kml="http://www.opengis.net/kml/2.2" xmlns:atom="http://www.w3.org/2005/Atom">
<Document>
  <name>14.kml</name>
  <StyleMap id="FFFF4000">
    <Pair>
      <key>normal</key>
      <styleUrl>#s_FFFF4000</styleUrl>
    </Pair>
    <Pair>
      <key>highlight</key>
      <styleUrl>#s_FFFF4000_hl</styleUrl>
    </Pair>
  </StyleMap>
  <Style id="s_FFFF4000">
   <IconStyle>
      <scale>1.1</scale>
      <Icon>
        <href>http://maps.google.com/mapfiles/kml/pushpin/agrocad.png</href>
      </Icon>
      <hotSpot x="20" y="2" xunits="pixels" yunits="pixels"/>
    </IconStyle>
    <LineStyle>
      <color>FFFF4000</color>
      <width>1</width>
    </LineStyle>
    <PolyStyle>
      <color>40ffffff</color>
      <fill>1</fill>
    </PolyStyle>
  </Style>
  <Style id="s_FFFF4000_hl">
    <IconStyle>
      <scale>1.3</scale>
      <Icon>
        <href>http://maps.google.com/mapfiles/kml/pushpin/agrocad.png</href>
      </Icon>
      <hotSpot x="20" y="2" xunits="pixels" yunits="pixels"/>
    </IconStyle>
    <LineStyle>
      <color>ff000000</color>
      <width>1</width>
    </LineStyle>
    <PolyStyle>
      <color>40ffffff</color>
      <fill>1</fill>
    </PolyStyle>
  </Style>
  <Placemark>
    <name>AgroCAD: 1A8D0</name>
    <styleUrl>FFFF4000</styleUrl>
    <Polygon>
      <outerBoundaryIs>
        <LinearRing>
          <coordinates>
           -36.21142539557991,-9.70708803555614 -36.21134792533069,-9.70687244743871 -36.21130954957351,-9.70668313229990 -36.21130245774590,-9.70656432134265 -36.21130921406520,-9.70656072601653 -36.21131941861290,-9.70652725839740 -36.21134526300560,-9.70647664817106 -36.21135662687001,-9.70645780054041 -36.21306364324107,-9.70610349846579 -36.21312174115467,-9.70644916763547 -36.21325232243887,-9.70733671036758 -36.21334056560088,-9.70779018188689 -36.21334234312367,-9.70779966636150 -36.21314517254987,-9.70783803269568 -36.21304687075126,-9.70880085591445 -36.21301754383136,-9.70879045367827 -36.21297694020248,-9.70876969816224 -36.21292932285565,-9.70875763177665 -36.21288559178716,-9.70874289474721 -36.21283850508156,-9.70872534414842 -36.21278806208226,-9.70871352323733 -36.21273545655345,-9.70870717385256 -36.21268174704676,-9.70869823079979 -36.21263584181015,-9.70870170805684 -36.21258683045885,-9.70871638657287 -36.21254274483346,-9.70873919557499 -36.21249947400885,-9.70876379955340 -36.21245669973684,-9.70879150790772 -36.21240859529844,-9.70881340137782 -36.21235956022385,-9.70882620612976 -36.21232111213095,-9.70882878866754 -36.21226762862974,-9.70883191939469 -36.21221277021274,-9.70881381273247 -36.21216910321733,-9.70880897278121 -36.21214765572683,-9.70880068867665 -36.21214243633543,-9.70879213106351 -36.21211806326103,-9.70864057429268 -36.21211122834903,-9.70859807340677 -36.21209010675753,-9.70848100511879 -36.21205918375023,-9.70835233914071 -36.21195388694263,-9.70813153770427 -36.21192872999983,-9.70809136380801 -36.21183257630722,-9.70793937732942 -36.21172244475511,-9.70772666738474 -36.21161497566451,-9.70751952596346 -36.21152125593802,-9.70731137827931 -36.21142539557991,-9.70708803555614 -36.21142539557991,-9.70708803555614 -36.21142539557991,-9.70708803555614
          </coordinates>
        </LinearRing>
      </outerBoundaryIs>
    </Polygon>
  </Placemark>
</Document>
</kml>
