<?xml version="1.0" encoding="UTF-8"?>
<kml xmlns="http://www.opengis.net/kml/2.2" xmlns:gx="http://www.google.com/kml/ext/2.2" xmlns:kml="http://www.opengis.net/kml/2.2" xmlns:atom="http://www.w3.org/2005/Atom">
<Document>
  <name>16.kml</name>
  <StyleMap id="FFFF4000">
    <Pair>
      <key>normal</key>
      <styleUrl>#s_FFFF4000</styleUrl>
    </Pair>
    <Pair>
      <key>highlight</key>
      <styleUrl>#s_FFFF4000_hl</styleUrl>
    </Pair>
  </StyleMap>
  <Style id="s_FFFF4000">
   <IconStyle>
      <scale>1.1</scale>
      <Icon>
        <href>http://maps.google.com/mapfiles/kml/pushpin/agrocad.png</href>
      </Icon>
      <hotSpot x="20" y="2" xunits="pixels" yunits="pixels"/>
    </IconStyle>
    <LineStyle>
      <color>FFFF4000</color>
      <width>1</width>
    </LineStyle>
    <PolyStyle>
      <color>40ffffff</color>
      <fill>1</fill>
    </PolyStyle>
  </Style>
  <Style id="s_FFFF4000_hl">
    <IconStyle>
      <scale>1.3</scale>
      <Icon>
        <href>http://maps.google.com/mapfiles/kml/pushpin/agrocad.png</href>
      </Icon>
      <hotSpot x="20" y="2" xunits="pixels" yunits="pixels"/>
    </IconStyle>
    <LineStyle>
      <color>ff000000</color>
      <width>1</width>
    </LineStyle>
    <PolyStyle>
      <color>40ffffff</color>
      <fill>1</fill>
    </PolyStyle>
  </Style>
  <Placemark>
    <name>AgroCAD: 1DAFE</name>
    <styleUrl>FFFF4000</styleUrl>
    <Polygon>
      <outerBoundaryIs>
        <LinearRing>
          <coordinates>
           -36.41753689681076,-9.63494518687028 -36.41745652213286,-9.63451493242508 -36.41793687879668,-9.63437278395514 -36.41832152516228,-9.63425868526263 -36.41858126671858,-9.63418162737297 -36.41872731104168,-9.63413614101236 -36.41875447608838,-9.63412655318732 -36.41933676646730,-9.63604473866995 -36.41936985235481,-9.63615046227389 -36.41923058114530,-9.63621579869959 -36.41899047213699,-9.63631899195453 -36.41867742913709,-9.63643353386962 -36.41830534597008,-9.63653812680776 -36.41817321396377,-9.63656614115789 -36.41804686145207,-9.63658128955577 -36.41783730601427,-9.63657768121827 -36.41782488633975,-9.63657040739255 -36.41771976067377,-9.63594505964700 -36.41762228422955,-9.63543598493671 -36.41753689681076,-9.63494518687028 -36.41753689681076,-9.63494518687028 -36.41753689681076,-9.63494518687028
          </coordinates>
        </LinearRing>
      </outerBoundaryIs>
    </Polygon>
  </Placemark>
</Document>
</kml>
