<?xml version="1.0" encoding="utf-8" ?>
<kml xmlns="http://www.opengis.net/kml/2.2">
<Document id="root_doc">
<Schema name="SÃO_JOSÉ_TALHAO_1022_ID_235" id="SÃO_JOSÉ_TALHAO_1022_ID_235">
	<SimpleField name="ID" type="float"></SimpleField>
	<SimpleField name="AREA_TOTAL" type="float"></SimpleField>
	<SimpleField name="FAZENDA" type="float"></SimpleField>
	<SimpleField name="FAZ_NOME" type="string"></SimpleField>
	<SimpleField name="TALHAO" type="float"></SimpleField>
	<SimpleField name="ZONA" type="float"></SimpleField>
	<SimpleField name="ACIONISTA" type="string"></SimpleField>
	<SimpleField name="CODE" type="string"></SimpleField>
</Schema>
<Folder><name>SÃO_JOSÉ_TALHAO_1022_ID_235</name>
  <Placemark id="SÃO_JOSÉ_TALHAO_1022_ID_235.1">
	<Style><LineStyle><color>ff0000ff</color></LineStyle><PolyStyle><fill>0</fill></PolyStyle></Style>
	<ExtendedData><SchemaData schemaUrl="#SÃO_JOSÉ_TALHAO_1022_ID_235">
		<SimpleData name="ID">235</SimpleData>
		<SimpleData name="AREA_TOTAL">0.17</SimpleData>
		<SimpleData name="FAZ_NOME">SÃO JOSÉ</SimpleData>
		<SimpleData name="TALHAO">1022</SimpleData>
		<SimpleData name="ZONA">1</SimpleData>
		<SimpleData name="ACIONISTA">ISABEL TENÓRIO</SimpleData>
		<SimpleData name="CODE"></SimpleData>
	</SchemaData></ExtendedData>
      <MultiGeometry><Polygon><outerBoundaryIs><LinearRing><coordinates>-36.2628145603221,-9.8260179446621,0 -36.2628145603221,-9.82645953466212,0 -36.2630705975443,-9.82622056660656,0 -36.2630739197665,-9.82621746577325,0 -36.2629372055999,-9.8258321799399,0 -36.2628086050444,-9.82548924466218,0 -36.2627703164332,-9.82539526355105,0 -36.2627716208777,-9.82545972993993,0 -36.2628145603221,-9.8260179446621,0</coordinates></LinearRing></outerBoundaryIs></Polygon></MultiGeometry>
  </Placemark>
</Folder>
</Document></kml>
