<?xml version="1.0" encoding="utf-8" ?>
<kml xmlns="http://www.opengis.net/kml/2.2">
<Document id="root_doc">
<Schema name="SÃO_JOSÉ_TALHAO_1023_ID_236" id="SÃO_JOSÉ_TALHAO_1023_ID_236">
	<SimpleField name="ID" type="float"></SimpleField>
	<SimpleField name="AREA_TOTAL" type="float"></SimpleField>
	<SimpleField name="FAZENDA" type="float"></SimpleField>
	<SimpleField name="FAZ_NOME" type="string"></SimpleField>
	<SimpleField name="TALHAO" type="float"></SimpleField>
	<SimpleField name="ZONA" type="float"></SimpleField>
	<SimpleField name="ACIONISTA" type="string"></SimpleField>
	<SimpleField name="CODE" type="string"></SimpleField>
</Schema>
<Folder><name>SÃO_JOSÉ_TALHAO_1023_ID_236</name>
  <Placemark id="SÃO_JOSÉ_TALHAO_1023_ID_236.1">
	<Style><LineStyle><color>ff0000ff</color></LineStyle><PolyStyle><fill>0</fill></PolyStyle></Style>
	<ExtendedData><SchemaData schemaUrl="#SÃO_JOSÉ_TALHAO_1023_ID_236">
		<SimpleData name="ID">236</SimpleData>
		<SimpleData name="AREA_TOTAL">7.36</SimpleData>
		<SimpleData name="FAZ_NOME">SÃO JOSÉ</SimpleData>
		<SimpleData name="TALHAO">1023</SimpleData>
		<SimpleData name="ZONA">1</SimpleData>
		<SimpleData name="ACIONISTA">ISABEL TENÓRIO</SimpleData>
		<SimpleData name="CODE"></SimpleData>
	</SchemaData></ExtendedData>
      <MultiGeometry><Polygon><outerBoundaryIs><LinearRing><coordinates>-36.2632075036554,-9.82648506743992,0 -36.2633358614332,-9.82682735521771,0 -36.2634242560605,-9.82700414475708,0 -36.2634988986554,-9.82692950216213,0 -36.2638200992109,-9.82656547493995,0 -36.2640771939331,-9.82624410688444,0 -36.2643559119887,-9.8258796293844,0 -36.2645915994886,-9.82555823799559,0 -36.2647236697664,-9.82536013244003,0 -36.2647733717108,-9.82534447632893,0 -36.2648077230997,-9.8252986743845,0 -36.2649627080997,-9.82516582994005,0 -36.2651389236553,-9.8251217760512,0 -36.2657588600441,-9.8249935135512,0 -36.266184221433,-9.82475956494016,0 -36.2663980267107,-9.82458852077349,0 -36.2668279847662,-9.82428755021798,0 -36.2670628692107,-9.82413807827355,0 -36.2674905761551,-9.82373175716246,0 -36.2676818736551,-9.82354045966247,0 -36.2678311714328,-9.82328452077362,0 -36.2679609133772,-9.82308990799583,0 -36.268305423655,-9.822702334107,0 -36.2683917875439,-9.82261597049591,0 -36.2680503180995,-9.82236436105143,0 -36.2678780472662,-9.8222351577181,0 -36.267705842544,-9.82208447855142,0 -36.2675080458773,-9.82190995216252,0 -36.2674299603217,-9.82197688271808,0 -36.2670871317107,-9.8223197110514,0 -36.2665505661552,-9.82285627660686,0 -36.2659926686552,-9.82339271605125,0 -36.2654991272664,-9.82388625716236,0 -36.2650056025442,-9.82435832410675,0 -36.2644049325442,-9.8249589941067,0 -36.263889950322,-9.8254739760511,0 -36.2634176619887,-9.82594626410661,0 -36.2631161658777,-9.82622766049544,0 -36.2632075036554,-9.82648506743992,0</coordinates></LinearRing></outerBoundaryIs></Polygon></MultiGeometry>
  </Placemark>
</Folder>
</Document></kml>
