<?xml version="1.0" encoding="UTF-8"?>
<kml xmlns="http://www.opengis.net/kml/2.2" xmlns:gx="http://www.google.com/kml/ext/2.2" xmlns:kml="http://www.opengis.net/kml/2.2" xmlns:atom="http://www.w3.org/2005/Atom">
<Document>
  <name>3010.kml</name>
  <StyleMap id="FFFF4000">
    <Pair>
      <key>normal</key>
      <styleUrl>#s_FFFF4000</styleUrl>
    </Pair>
    <Pair>
      <key>highlight</key>
      <styleUrl>#s_FFFF4000_hl</styleUrl>
    </Pair>
  </StyleMap>
  <Style id="s_FFFF4000">
   <IconStyle>
      <scale>1.1</scale>
      <Icon>
        <href>http://maps.google.com/mapfiles/kml/pushpin/agrocad.png</href>
      </Icon>
      <hotSpot x="20" y="2" xunits="pixels" yunits="pixels"/>
    </IconStyle>
    <LineStyle>
      <color>FFFF4000</color>
      <width>1</width>
    </LineStyle>
    <PolyStyle>
      <color>40ffffff</color>
      <fill>1</fill>
    </PolyStyle>
  </Style>
  <Style id="s_FFFF4000_hl">
    <IconStyle>
      <scale>1.3</scale>
      <Icon>
        <href>http://maps.google.com/mapfiles/kml/pushpin/agrocad.png</href>
      </Icon>
      <hotSpot x="20" y="2" xunits="pixels" yunits="pixels"/>
    </IconStyle>
    <LineStyle>
      <color>ff000000</color>
      <width>1</width>
    </LineStyle>
    <PolyStyle>
      <color>40ffffff</color>
      <fill>1</fill>
    </PolyStyle>
  </Style>
  <Placemark>
    <name>AgroCAD: 9579</name>
    <styleUrl>FFFF4000</styleUrl>
    <Polygon>
      <outerBoundaryIs>
        <LinearRing>
          <coordinates>
           -36.29792990889374,-9.78623441469053 -36.29797476939715,-9.78591388852614 -36.29805905484249,-9.78596037818546 -36.29814144151486,-9.78600920449443 -36.29821521704524,-9.78605221236987 -36.29829712489491,-9.78610140368304 -36.29837652549740,-9.78614550863220 -36.29845281379440,-9.78619178393311 -36.29852667417447,-9.78624204098118 -36.29859970733577,-9.78629505230941 -36.29867427589765,-9.78634937105834 -36.29874815142112,-9.78639462342929 -36.29882540368411,-9.78644054195828 -36.29890936394551,-9.78648839788043 -36.29898831974517,-9.78653543257765 -36.29906438922783,-9.78658090009754 -36.29913132074995,-9.78663285482472 -36.29918468034845,-9.78669566129631 -36.29922269144597,-9.78677046366046 -36.29925259089096,-9.78685313961650 -36.29928240960269,-9.78693983230349 -36.29932104751854,-9.78702709752020 -36.29937244331975,-9.78710052310813 -36.29944761081802,-9.78716346944608 -36.29952956614992,-9.78721379569548 -36.29954456048763,-9.78721975928598 -36.29959698745784,-9.78722050646238 -36.29975725794249,-9.78715132257177 -36.29987066140965,-9.78708532311417 -36.29994723125705,-9.78702992882376 -36.30000415786442,-9.78697889148809 -36.30006712792851,-9.78690865386935 -36.30016500251580,-9.78677609578782 -36.30026090315972,-9.78664631604942 -36.30032504356826,-9.78657449939734 -36.30040244561094,-9.78650296488974 -36.30048635837571,-9.78643894853247 -36.30058361841190,-9.78637801559762 -36.30068603668473,-9.78632606293945 -36.30079275081495,-9.78628376342330 -36.30089425241067,-9.78625441808493 -36.30098912232584,-9.78623668775996 -36.30108621726325,-9.78622845674719 -36.30121577312208,-9.78622357984489 -36.30137823837021,-9.78623471508507 -36.30153474078022,-9.78623818252226 -36.30169833196406,-9.78623677011686 -36.30187475673327,-9.78624403518990 -36.30203797345429,-9.78624585938081 -36.30218035534382,-9.78625722918978 -36.30229378350070,-9.78627630344730 -36.30238711365414,-9.78630119886971 -36.30248695686227,-9.78633853164462 -36.30264028869907,-9.78640345027138 -36.30277874279197,-9.78646355020058 -36.30292627523801,-9.78652299012507 -36.30308630458657,-9.78659907336544 -36.30322861833545,-9.78665130783395 -36.30337942690632,-9.78670825491874 -36.30353441250952,-9.78679147492178 -36.30363711873059,-9.78684646435301 -36.30374053239115,-9.78691474624137 -36.30386657758456,-9.78701444614969 -36.30398685187907,-9.78712234921001 -36.30410365341268,-9.78723477021946 -36.30421699182791,-9.78735075998081 -36.30432674023204,-9.78746998229727 -36.30443190545149,-9.78759268202811 -36.30453023117321,-9.78772011738026 -36.30461982337765,-9.78785379634489 -36.30469661024330,-9.78798130519430 -36.29745225512268,-9.79002952420571 -36.29792990889374,-9.78623441469053
          </coordinates>
        </LinearRing>
      </outerBoundaryIs>
    </Polygon>
  </Placemark>
  <Placemark>
    <name>AgroCAD: 9575</name>
    <styleUrl>FFFF4000</styleUrl>
    <Polygon>
      <outerBoundaryIs>
        <LinearRing>
          <coordinates>
           -36.30473472835110,-9.78797412825585 -36.30508882111217,-9.78787465358635 -36.30491541316452,-9.78756946901325 -36.30478638366563,-9.78736476563152 -36.30467624865157,-9.78721497381702 -36.30453428382273,-9.78707399033276 -36.30448900145817,-9.78702955381615 -36.30444939688479,-9.78698946562612 -36.30436868071438,-9.78689366887695 -36.30432758650985,-9.78683826824890 -36.30422896144096,-9.78666684624982 -36.30415171600266,-9.78655928519011 -36.30401408693961,-9.78642845426420 -36.30391415367812,-9.78636943438118 -36.30375578089128,-9.78630638777468 -36.30357920457545,-9.78626303522958 -36.30348644260958,-9.78624226254129 -36.30330339317453,-9.78623030472744 -36.30312955681283,-9.78618966729955 -36.30306477971646,-9.78615653612478 -36.30295583287594,-9.78608944542173 -36.30285314375730,-9.78601784595855 -36.30280176144770,-9.78598513255556 -36.30259155477571,-9.78584498236207 -36.30247981520650,-9.78577558568630 -36.30234655093217,-9.78572614403427 -36.30228559965759,-9.78571667690863 -36.30222298199789,-9.78571475715633 -36.30201133984694,-9.78573933161009 -36.30181557352791,-9.78576613698709 -36.30167034276584,-9.78578813119666 -36.30153648140839,-9.78579631722181 -36.30140797513762,-9.78578769445149 -36.30127674485950,-9.78576163117631 -36.30120724632261,-9.78573899177861 -36.30108858380389,-9.78568303116811 -36.30094129279603,-9.78559731534822 -36.30088145771985,-9.78555608685327 -36.30082115813865,-9.78552712466644 -36.30078829460684,-9.78551124697510 -36.30071767136568,-9.78550590166658 -36.30067079212268,-9.78550193333192 -36.30058617293532,-9.78554102517751 -36.30050138782912,-9.78561634836979 -36.30043589959284,-9.78570599916448 -36.30040078576197,-9.78575758692086 -36.30031916437117,-9.78585306634840 -36.30020453447297,-9.78594833100988 -36.30008183943012,-9.78604212410184 -36.29997702367930,-9.78613991844381 -36.29990877783587,-9.78622110478224 -36.29983788779443,-9.78627957781332 -36.29980215705261,-9.78630754762481 -36.29977602845951,-9.78631293904300 -36.29972149360096,-9.78642855345042 -36.29969616911389,-9.78652264817967 -36.29968602467834,-9.78683853542732 -36.29965674098384,-9.78697285824739 -36.29958965364636,-9.78718425872763 -36.29974070957957,-9.78711905247300 -36.29985065771800,-9.78705506397338 -36.29992421745260,-9.78700184734234 -36.29997825203336,-9.78695340284327 -36.30003875367914,-9.78688591853340 -36.30013560784395,-9.78675474248799 -36.30023251315325,-9.78662360316850 -36.30029892883136,-9.78654923894922 -36.30037886801088,-9.78647535963665 -36.30046547929324,-9.78640928460263 -36.30056555838214,-9.78634658554386 -36.30067094952369,-9.78629312486714 -36.30078086518137,-9.78624955632161 -36.30088576143516,-9.78621922954359 -36.30098418534197,-9.78620083500698 -36.30108397384822,-9.78619237565001 -36.30121633968305,-9.78618739296703 -36.30137990189759,-9.78619860338832 -36.30153498909249,-9.78620203946572 -36.30169892943452,-9.78620062404066 -36.30187571786561,-9.78620790408435 -36.30203964258714,-9.78620973618302 -36.30218487092277,-9.78622133328870 -36.30230157703110,-9.78624095876823 -36.30239829733188,-9.78626675849498 -36.30250054080733,-9.78630498875999 -36.30265474433961,-9.78637027644507 -36.30279290459283,-9.78643024881956 -36.30294101879033,-9.78648992312223 -36.30310053128263,-9.78656576062613 -36.30324142226294,-9.78661747287994 -36.30339464763483,-9.78667533257109 -36.30355173836179,-9.78675968292019 -36.30365590679238,-9.78681545522059 -36.30376202492891,-9.78688552281177 -36.30389017865819,-9.78698689053126 -36.30401176617969,-9.78709597173039 -36.30412942736961,-9.78720922014274 -36.30424353226254,-9.78732599429812 -36.30435408153299,-9.78744608659969 -36.30446027066592,-9.78756998094741 -36.30455990205420,-9.78769910849353 -36.30465065223225,-9.78783451522748 -36.30473472835110,-9.78797412825585
          </coordinates>
        </LinearRing>
      </outerBoundaryIs>
    </Polygon>
  </Placemark>
  <Placemark>
    <name>AgroCAD: 9576</name>
    <styleUrl>FFFF4000</styleUrl>
    <Polygon>
      <outerBoundaryIs>
        <LinearRing>
          <coordinates>
           -36.29954605841153,-9.78718141856201 -36.29962694386654,-9.78695907354154 -36.29965430238581,-9.78682425937314 -36.29966620006071,-9.78652028155246 -36.29968654760644,-9.78641497944462 -36.29972703952033,-9.78632040207897 -36.29971099179230,-9.78630755447375 -36.29967981908384,-9.78625905529261 -36.29965812575077,-9.78620826557662 -36.29963745390929,-9.78615950523890 -36.29961776382937,-9.78611589012963 -36.29959627817801,-9.78607262956434 -36.29956488680908,-9.78602746741565 -36.29952708578342,-9.78597736040640 -36.29949735016839,-9.78594038630584 -36.29939062947519,-9.78580067075265 -36.29924573070823,-9.78563339172422 -36.29918102221017,-9.78554411790649 -36.29914205785306,-9.78538167288631 -36.29912198513718,-9.78532284417393 -36.29906041363232,-9.78524034522772 -36.29896801493605,-9.78517248931554 -36.29884032332997,-9.78511875092330 -36.29863894149043,-9.78503829344313 -36.29849149416820,-9.78497970656633 -36.29830580040727,-9.78490528788914 -36.29817892052454,-9.78487116487439 -36.29812199299677,-9.78486685549897 -36.29798669053578,-9.78487411999288 -36.29782006764698,-9.78489909176598 -36.29768646926422,-9.78492547142574 -36.29760510340495,-9.78494978221981 -36.29749423862641,-9.78499415877349 -36.29744336572116,-9.78503175227717 -36.29736898372505,-9.78510839728832 -36.29729560183994,-9.78521617050632 -36.29723989828921,-9.78532486416477 -36.29722076216824,-9.78539003522741 -36.29720831357635,-9.78544514960480 -36.29720325145543,-9.78549437491107 -36.29719197148391,-9.78554771885674 -36.29720031457156,-9.78559321215595 -36.29723358869435,-9.78561837750591 -36.29733828895350,-9.78562498829339 -36.29742901582491,-9.78563294791799 -36.29751920375305,-9.78564549190416 -36.29760806175639,-9.78566519448506 -36.29769409440743,-9.78569467846100 -36.29777562509423,-9.78573484991806 -36.29785305352764,-9.78578239928547 -36.29792573340019,-9.78582894416499 -36.29800159855578,-9.78587633995072 -36.29807887555015,-9.78593002604982 -36.29816001607220,-9.78597811382563 -36.29823388370935,-9.78602117539140 -36.29831546671644,-9.78607017160998 -36.29839493769524,-9.78611431564725 -36.29847263689015,-9.78616144677274 -36.29854774252029,-9.78621255112555 -36.29862124872516,-9.78626590580882 -36.29869466383941,-9.78631938433511 -36.29876708842833,-9.78636374793354 -36.29884384590758,-9.78640937236044 -36.29892782153949,-9.78645723703917 -36.29900710158310,-9.78650446488735 -36.29908509551341,-9.78655108266512 -36.29915674871087,-9.78660670252592 -36.29921529357586,-9.78667561226287 -36.29925623226657,-9.78675617584507 -36.29928698202450,-9.78684120300336 -36.29931639222312,-9.78692670798196 -36.29935298818269,-9.78700936134105 -36.29939962601279,-9.78707598953767 -36.29946906745039,-9.78713414078418 -36.29954605841153,-9.78718141856201
          </coordinates>
        </LinearRing>
      </outerBoundaryIs>
    </Polygon>
  </Placemark>
</Document>
</kml>
