<?xml version="1.0" encoding="UTF-8"?>
<kml xmlns="http://www.opengis.net/kml/2.2" xmlns:gx="http://www.google.com/kml/ext/2.2" xmlns:kml="http://www.opengis.net/kml/2.2" xmlns:atom="http://www.w3.org/2005/Atom">
<Document>
  <name>3041.kml</name>
  <StyleMap id="FFFF4000">
    <Pair>
      <key>normal</key>
      <styleUrl>#s_FFFF4000</styleUrl>
    </Pair>
    <Pair>
      <key>highlight</key>
      <styleUrl>#s_FFFF4000_hl</styleUrl>
    </Pair>
  </StyleMap>
  <Style id="s_FFFF4000">
   <IconStyle>
      <scale>1.1</scale>
      <Icon>
        <href>http://maps.google.com/mapfiles/kml/pushpin/agrocad.png</href>
      </Icon>
      <hotSpot x="20" y="2" xunits="pixels" yunits="pixels"/>
    </IconStyle>
    <LineStyle>
      <color>FFFF4000</color>
      <width>1</width>
    </LineStyle>
    <PolyStyle>
      <color>40ffffff</color>
      <fill>1</fill>
    </PolyStyle>
  </Style>
  <Style id="s_FFFF4000_hl">
    <IconStyle>
      <scale>1.3</scale>
      <Icon>
        <href>http://maps.google.com/mapfiles/kml/pushpin/agrocad.png</href>
      </Icon>
      <hotSpot x="20" y="2" xunits="pixels" yunits="pixels"/>
    </IconStyle>
    <LineStyle>
      <color>ff000000</color>
      <width>1</width>
    </LineStyle>
    <PolyStyle>
      <color>40ffffff</color>
      <fill>1</fill>
    </PolyStyle>
  </Style>
  <Placemark>
    <name>AgroCAD: 8FB8</name>
    <styleUrl>FFFF4000</styleUrl>
    <Polygon>
      <outerBoundaryIs>
        <LinearRing>
          <coordinates>
           -36.30156298877420,-9.79987562079488 -36.30158232710179,-9.79986805537976 -36.30159521143299,-9.79986427681487 -36.30174566804163,-9.79983254859114 -36.30187198367544,-9.79980602339210 -36.30190048998765,-9.79980158048576 -36.30209655285429,-9.79976914180367 -36.30212647412871,-9.79975754822853 -36.30214937061009,-9.79974192287562 -36.30217948881592,-9.79973683473845 -36.30220554669890,-9.79972972053094 -36.30222968816079,-9.79972919254340 -36.30225402306120,-9.79973721743779 -36.30226328107518,-9.79975036064862 -36.30227934284574,-9.79977143834175 -36.30230414700287,-9.79978476889075 -36.30232662864300,-9.79979519070405 -36.30234620918564,-9.79980874020407 -36.30236309034768,-9.79982136716846 -36.30239453269395,-9.79982726788648 -36.30242099140997,-9.79982859431093 -36.30244333962796,-9.79982337684090 -36.30246302961000,-9.79983146013495 -36.30252036074922,-9.79990607749295 -36.30253738717028,-9.79990831914410 -36.30268805605455,-9.79987128176803 -36.30271118456080,-9.79986306720081 -36.30272446275993,-9.79985835117287 -36.30280520584066,-9.79986076482304 -36.30284082005543,-9.79986347691212 -36.30286892533086,-9.79986408715128 -36.30289017713960,-9.79986378005440 -36.30305394452824,-9.79985631116373 -36.30306257469722,-9.79985971182913 -36.30327763336231,-9.79984452028196 -36.30329757797854,-9.79983806174974 -36.30344130264476,-9.79979472484186 -36.30346469897584,-9.79977718925362 -36.30348949783548,-9.79977082695255 -36.30351143859816,-9.79976719625404 -36.30371029420591,-9.79977493739889 -36.30372978203384,-9.79977772936962 -36.30375699985051,-9.79978178655242 -36.30378738292341,-9.79978505224411 -36.30382651108954,-9.79978203986300 -36.30385713672074,-9.79978006868690 -36.30388699723006,-9.79977509457620 -36.30391443825490,-9.79978057804044 -36.30394120588113,-9.79978124851897 -36.30396983617491,-9.79978448223975 -36.30399488958976,-9.79978588598282 -36.30402778755577,-9.79979173265689 -36.30406055733615,-9.79978893952889 -36.30409213421488,-9.79978991038066 -36.30412043774933,-9.79979250760270 -36.30414273263631,-9.79979666125775 -36.30427673032023,-9.79983618374087 -36.30429913697668,-9.79983939076785 -36.30432670796081,-9.79983606388705 -36.30433984353054,-9.79983436322092 -36.30452988126349,-9.79989563896561 -36.30456118521629,-9.79990343753491 -36.30458828605507,-9.79990653901528 -36.30461437051642,-9.79990303742162 -36.30464749341034,-9.79990820984955 -36.30468120804346,-9.79991572716940 -36.30471356188224,-9.79991611358405 -36.30474035645136,-9.79992019740755 -36.30477578669065,-9.79991717744895 -36.30480641541852,-9.79990721800128 -36.30483614391275,-9.79989780677526 -36.30487372746092,-9.79989409007439 -36.30489820551837,-9.79988531031415 -36.30492864009332,-9.79988169499078 -36.30495939263119,-9.79988415390423 -36.30498212919368,-9.79988882876279 -36.30500045230043,-9.79989415623812 -36.30519934381140,-9.79991966542193 -36.30522829087552,-9.79992040725544 -36.30525762394273,-9.79991793529745 -36.30540097779466,-9.79990825330215 -36.30542890371121,-9.79990744960332 -36.30545588570058,-9.79990619266606 -36.30548736457002,-9.79990229422600 -36.30552174677364,-9.79989919456680 -36.30554813549880,-9.79990369888449 -36.30557202361389,-9.79990948684427 -36.30560286374482,-9.79991405511060 -36.30563373247260,-9.79991730306850 -36.30566368545898,-9.79992199182117 -36.30569598207875,-9.79992043288505 -36.30573245620525,-9.79992584149259 -36.30576008989816,-9.79993177407369 -36.30537637178770,-9.79857914581469 -36.30162162252422,-9.79934659793996 -36.30156298877420,-9.79987562079488
          </coordinates>
        </LinearRing>
      </outerBoundaryIs>
    </Polygon>
  </Placemark>
  <Placemark>
    <name>AgroCAD: 8FB5</name>
    <styleUrl>FFFF4000</styleUrl>
    <Polygon>
      <outerBoundaryIs>
        <LinearRing>
          <coordinates>
           -36.30579891362869,-9.79993520217493 -36.30580585644287,-9.79993214277332 -36.30583163055663,-9.79992594144949 -36.30584804205934,-9.79992533359048 -36.30608717202110,-9.79995655354942 -36.30611722946398,-9.79996233099300 -36.30614642496384,-9.79996727212572 -36.30616292191383,-9.79996586157510 -36.30618995537016,-9.79997155920477 -36.30621560301518,-9.79998130889639 -36.30622460544522,-9.79998440517711 -36.30627599349619,-9.79999526364389 -36.30630034799600,-9.79999048625970 -36.30639485868846,-9.79997743052838 -36.30644519239738,-9.79994357413196 -36.30659807040744,-9.79988881401208 -36.30675862452816,-9.79981565930303 -36.30662930962122,-9.79943648306621 -36.30649466051953,-9.79902636607601 -36.30646291722287,-9.79894010870577 -36.30636918277515,-9.79896637033496 -36.30634930072942,-9.79888448566124 -36.30620470492352,-9.79840983222084 -36.30541214834440,-9.79857183303501 -36.30579891362869,-9.79993520217493
          </coordinates>
        </LinearRing>
      </outerBoundaryIs>
    </Polygon>
  </Placemark>
</Document>
</kml>
