<?xml version="1.0" encoding="UTF-8"?>
<kml xmlns="http://www.opengis.net/kml/2.2" xmlns:gx="http://www.google.com/kml/ext/2.2" xmlns:kml="http://www.opengis.net/kml/2.2" xmlns:atom="http://www.w3.org/2005/Atom">
<Document>
  <name>3008.kml</name>
  <StyleMap id="FF0040FF">
    <Pair>
      <key>normal</key>
      <styleUrl>#s_FF0040FF</styleUrl>
    </Pair>
    <Pair>
      <key>highlight</key>
      <styleUrl>#s_FF0040FF_hl</styleUrl>
    </Pair>
  </StyleMap>
  <Style id="s_FF0040FF">
   <IconStyle>
      <scale>1.1</scale>
      <Icon>
        <href>http://maps.google.com/mapfiles/kml/pushpin/agrocad.png</href>
      </Icon>
      <hotSpot x="20" y="2" xunits="pixels" yunits="pixels"/>
    </IconStyle>
    <LineStyle>
      <color>FF0040FF</color>
      <width>1</width>
    </LineStyle>
    <PolyStyle>
      <color>40ffffff</color>
      <fill>1</fill>
    </PolyStyle>
  </Style>
  <Style id="s_FF0040FF_hl">
    <IconStyle>
      <scale>1.3</scale>
      <Icon>
        <href>http://maps.google.com/mapfiles/kml/pushpin/agrocad.png</href>
      </Icon>
      <hotSpot x="20" y="2" xunits="pixels" yunits="pixels"/>
    </IconStyle>
    <LineStyle>
      <color>ff000000</color>
      <width>1</width>
    </LineStyle>
    <PolyStyle>
      <color>40ffffff</color>
      <fill>1</fill>
    </PolyStyle>
  </Style>
  <Placemark>
    <name>AgroCAD: 82A9</name>
    <styleUrl>FF0040FF</styleUrl>
    <Polygon>
      <outerBoundaryIs>
        <LinearRing>
          <coordinates>
           -36.30484970802669,-9.79549564365999 -36.30487736510753,-9.79490666753471 -36.30496319347037,-9.79321156206852 -36.30502683416878,-9.79176374994350 -36.30356613473538,-9.79217056904266 -36.30006988965110,-9.79317781799314 -36.29701726390144,-9.79402941119728 -36.29700315721556,-9.79403320114146 -36.29680841613661,-9.79564158575394 -36.29652696988034,-9.79789315886014 -36.29655558134799,-9.79788692892842 -36.29676947052730,-9.79781031230625 -36.29696939729002,-9.79777589454606 -36.29730648288300,-9.79768100685590 -36.29760873827712,-9.79759761705723 -36.29784953476593,-9.79752999761210 -36.29805816965383,-9.79747415528534 -36.29822809813868,-9.79744634364958 -36.29836959254223,-9.79741822721246 -36.29853298124418,-9.79736977382797 -36.29872019064892,-9.79730940814914 -36.29892858517732,-9.79727267884159 -36.29907533950715,-9.79724162748860 -36.29914506913519,-9.79722138289441 -36.29929029390039,-9.79718099597610 -36.29946447435911,-9.79713576759278 -36.29950222886467,-9.79713298363586 -36.30033515380184,-9.79689790203820 -36.30092365939488,-9.79674125461044 -36.30129282632962,-9.79662958249160 -36.30150609901892,-9.79657476806155 -36.30159882430933,-9.79654747270580 -36.30183257220372,-9.79646780611602 -36.30189919553867,-9.79645885567501 -36.30193402998211,-9.79643960141621 -36.30199860863615,-9.79640957682612 -36.30241393851902,-9.79629367782966 -36.30298313723544,-9.79612136940579 -36.30350512312379,-9.79596890132965 -36.30411427165940,-9.79578810103095 -36.30483339706967,-9.79559236638106 -36.30483395776693,-9.79552292715963 -36.30484785270231,-9.79549745069497 -36.30484970802669,-9.79549564365999 -36.30484970802669,-9.79549564365999
          </coordinates>
        </LinearRing>
      </outerBoundaryIs>
    </Polygon>
  </Placemark>
</Document>
</kml>
