<?xml version="1.0" encoding="UTF-8"?>
<kml xmlns="http://www.opengis.net/kml/2.2" xmlns:gx="http://www.google.com/kml/ext/2.2" xmlns:kml="http://www.opengis.net/kml/2.2" xmlns:atom="http://www.w3.org/2005/Atom">
<Document>
  <name>3012.kml</name>
  <StyleMap id="FFFF4000">
    <Pair>
      <key>normal</key>
      <styleUrl>#s_FFFF4000</styleUrl>
    </Pair>
    <Pair>
      <key>highlight</key>
      <styleUrl>#s_FFFF4000_hl</styleUrl>
    </Pair>
  </StyleMap>
  <Style id="s_FFFF4000">
   <IconStyle>
      <scale>1.1</scale>
      <Icon>
        <href>http://maps.google.com/mapfiles/kml/pushpin/agrocad.png</href>
      </Icon>
      <hotSpot x="20" y="2" xunits="pixels" yunits="pixels"/>
    </IconStyle>
    <LineStyle>
      <color>FFFF4000</color>
      <width>1</width>
    </LineStyle>
    <PolyStyle>
      <color>40ffffff</color>
      <fill>1</fill>
    </PolyStyle>
  </Style>
  <Style id="s_FFFF4000_hl">
    <IconStyle>
      <scale>1.3</scale>
      <Icon>
        <href>http://maps.google.com/mapfiles/kml/pushpin/agrocad.png</href>
      </Icon>
      <hotSpot x="20" y="2" xunits="pixels" yunits="pixels"/>
    </IconStyle>
    <LineStyle>
      <color>ff000000</color>
      <width>1</width>
    </LineStyle>
    <PolyStyle>
      <color>40ffffff</color>
      <fill>1</fill>
    </PolyStyle>
  </Style>
  <Placemark>
    <name>AgroCAD: 9572</name>
    <styleUrl>FFFF4000</styleUrl>
    <Polygon>
      <outerBoundaryIs>
        <LinearRing>
          <coordinates>
           -36.30499193363090,-9.79181627716193 -36.30498629284552,-9.79192200177972 -36.30483205071656,-9.79535077933795 -36.30487921186445,-9.79554103202067 -36.30535044069289,-9.79543225121597 -36.30549087064139,-9.79539968544791 -36.30583927899170,-9.79531442214334 -36.30629845245667,-9.79517441171922 -36.30682874360990,-9.79503134095728 -36.30730136875893,-9.79490237282243 -36.30795500103662,-9.79472079593290 -36.30816185643087,-9.79465573726879 -36.30817675270405,-9.79462717598857 -36.30842712084787,-9.79455018419879 -36.30866850990922,-9.79448211673931 -36.30972524130606,-9.79421923041023 -36.30973878570812,-9.79419035242348 -36.30974137001107,-9.79418521694290 -36.31013636119486,-9.79041727803099 -36.30648731245823,-9.79144716775601 -36.30647326716537,-9.79139820672091 -36.30499193363090,-9.79181627716193
          </coordinates>
        </LinearRing>
      </outerBoundaryIs>
    </Polygon>
  </Placemark>
</Document>
</kml>
