<?xml version="1.0" encoding="UTF-8"?>
<kml xmlns="http://www.opengis.net/kml/2.2" xmlns:gx="http://www.google.com/kml/ext/2.2" xmlns:kml="http://www.opengis.net/kml/2.2" xmlns:atom="http://www.w3.org/2005/Atom">
<Document>
  <name>3020.kml</name>
  <StyleMap id="FF0040FF">
    <Pair>
      <key>normal</key>
      <styleUrl>#s_FF0040FF</styleUrl>
    </Pair>
    <Pair>
      <key>highlight</key>
      <styleUrl>#s_FF0040FF_hl</styleUrl>
    </Pair>
  </StyleMap>
  <Style id="s_FF0040FF">
   <IconStyle>
      <scale>1.1</scale>
      <Icon>
        <href>http://maps.google.com/mapfiles/kml/pushpin/agrocad.png</href>
      </Icon>
      <hotSpot x="20" y="2" xunits="pixels" yunits="pixels"/>
    </IconStyle>
    <LineStyle>
      <color>FF0040FF</color>
      <width>1</width>
    </LineStyle>
    <PolyStyle>
      <color>40ffffff</color>
      <fill>1</fill>
    </PolyStyle>
  </Style>
  <Style id="s_FF0040FF_hl">
    <IconStyle>
      <scale>1.3</scale>
      <Icon>
        <href>http://maps.google.com/mapfiles/kml/pushpin/agrocad.png</href>
      </Icon>
      <hotSpot x="20" y="2" xunits="pixels" yunits="pixels"/>
    </IconStyle>
    <LineStyle>
      <color>ff000000</color>
      <width>1</width>
    </LineStyle>
    <PolyStyle>
      <color>40ffffff</color>
      <fill>1</fill>
    </PolyStyle>
  </Style>
  <Placemark>
    <name>AgroCAD: 82A6</name>
    <styleUrl>FF0040FF</styleUrl>
    <Polygon>
      <outerBoundaryIs>
        <LinearRing>
          <coordinates>
           -36.30997404958655,-9.79783831414951 -36.31426062714279,-9.79655471674475 -36.31430052969081,-9.79671432710859 -36.31430931194411,-9.79674945615007 -36.31446179390496,-9.79735938393664 -36.31467566732053,-9.79800100443969 -36.31467566728581,-9.79833894440954 -36.31466243751804,-9.79838600060554 -36.31457461472843,-9.79843464535431 -36.31420792493225,-9.79888761507809 -36.31380173547835,-9.79933656129216 -36.31337365152551,-9.79965762424195 -36.31300935903104,-9.79995762981492 -36.31264686892011,-9.80019218223189 -36.31228841677375,-9.80033978017045 -36.31134494829318,-9.80018968285613 -36.31102106032760,-9.80029764550910 -36.31070417691797,-9.80031877106023 -36.31068716332293,-9.80031499026492 -36.30997404958655,-9.79783831414951 -36.30997404958655,-9.79783831414951
          </coordinates>
        </LinearRing>
      </outerBoundaryIs>
    </Polygon>
  </Placemark>
</Document>
</kml>
