<?xml version="1.0" encoding="UTF-8"?>
<kml xmlns="http://www.opengis.net/kml/2.2" xmlns:gx="http://www.google.com/kml/ext/2.2" xmlns:kml="http://www.opengis.net/kml/2.2" xmlns:atom="http://www.w3.org/2005/Atom">
<Document>
  <name>3023.kml</name>
  <StyleMap id="FFFF4000">
    <Pair>
      <key>normal</key>
      <styleUrl>#s_FFFF4000</styleUrl>
    </Pair>
    <Pair>
      <key>highlight</key>
      <styleUrl>#s_FFFF4000_hl</styleUrl>
    </Pair>
  </StyleMap>
  <Style id="s_FFFF4000">
   <IconStyle>
      <scale>1.1</scale>
      <Icon>
        <href>http://maps.google.com/mapfiles/kml/pushpin/agrocad.png</href>
      </Icon>
      <hotSpot x="20" y="2" xunits="pixels" yunits="pixels"/>
    </IconStyle>
    <LineStyle>
      <color>FFFF4000</color>
      <width>1</width>
    </LineStyle>
    <PolyStyle>
      <color>40ffffff</color>
      <fill>1</fill>
    </PolyStyle>
  </Style>
  <Style id="s_FFFF4000_hl">
    <IconStyle>
      <scale>1.3</scale>
      <Icon>
        <href>http://maps.google.com/mapfiles/kml/pushpin/agrocad.png</href>
      </Icon>
      <hotSpot x="20" y="2" xunits="pixels" yunits="pixels"/>
    </IconStyle>
    <LineStyle>
      <color>ff000000</color>
      <width>1</width>
    </LineStyle>
    <PolyStyle>
      <color>40ffffff</color>
      <fill>1</fill>
    </PolyStyle>
  </Style>
  <Placemark>
    <name>AgroCAD: 9599</name>
    <styleUrl>FFFF4000</styleUrl>
    <Polygon>
      <outerBoundaryIs>
        <LinearRing>
          <coordinates>
           -36.30036208813459,-9.80118245356912 -36.30033928268828,-9.80131437971943 -36.30027941313516,-9.80150165222630 -36.30021168457070,-9.80165352529192 -36.30019530954346,-9.80167582614635 -36.30017067357253,-9.80170785961946 -36.30015303350497,-9.80172834735783 -36.30013418696361,-9.80174855824906 -36.30011561472303,-9.80176872376214 -36.30005879457258,-9.80182957987287 -36.29996205423585,-9.80193150967595 -36.29986667166353,-9.80203437496729 -36.29972129656412,-9.80218801984752 -36.29963948534446,-9.80228389156484 -36.29959850951801,-9.80233274133563 -36.29958626231172,-9.80234652352494 -36.29956972898111,-9.80236503710976 -36.29945549949945,-9.80248948973329 -36.29942355998584,-9.80252448728505 -36.29941609853605,-9.80253296899589 -36.29941265184628,-9.80253723871495 -36.29940352210352,-9.80254775935853 -36.29937692404633,-9.80257065515613 -36.29935217254239,-9.80258679403199 -36.29931396157263,-9.80261774534742 -36.29927797721004,-9.80265404391266 -36.29924549611455,-9.80269113471134 -36.29922251570598,-9.80271768969259 -36.29919048082668,-9.80275801274885 -36.29917305900445,-9.80278030956125 -36.29914855614362,-9.80281423397531 -36.29913194165078,-9.80283763504525 -36.29894096639843,-9.80300854410187 -36.29884592096547,-9.80306332351837 -36.29876042547562,-9.80312844260098 -36.29872875247124,-9.80314185022025 -36.29853667121214,-9.80326372717841 -36.29845498443422,-9.80331829612712 -36.29842505038813,-9.80333927437263 -36.29837432729684,-9.80338274752125 -36.29827530743022,-9.80349879283638 -36.29824254372093,-9.80350886372627 -36.29820874486973,-9.80352668886404 -36.29777900221411,-9.80182645974809 -36.30036208813459,-9.80118245356912
          </coordinates>
        </LinearRing>
      </outerBoundaryIs>
    </Polygon>
  </Placemark>
</Document>
</kml>
