<?xml version="1.0" encoding="UTF-8"?>
<kml xmlns="http://www.opengis.net/kml/2.2" xmlns:gx="http://www.google.com/kml/ext/2.2" xmlns:kml="http://www.opengis.net/kml/2.2" xmlns:atom="http://www.w3.org/2005/Atom">
<Document>
  <name>23.kml</name>
  <StyleMap id="FFFF4000">
    <Pair>
      <key>normal</key>
      <styleUrl>#s_FFFF4000</styleUrl>
    </Pair>
    <Pair>
      <key>highlight</key>
      <styleUrl>#s_FFFF4000_hl</styleUrl>
    </Pair>
  </StyleMap>
  <Style id="s_FFFF4000">
   <IconStyle>
      <scale>1.1</scale>
      <Icon>
        <href>http://maps.google.com/mapfiles/kml/pushpin/agrocad.png</href>
      </Icon>
      <hotSpot x="20" y="2" xunits="pixels" yunits="pixels"/>
    </IconStyle>
    <LineStyle>
      <color>FFFF4000</color>
      <width>1</width>
    </LineStyle>
    <PolyStyle>
      <color>40ffffff</color>
      <fill>1</fill>
    </PolyStyle>
  </Style>
  <Style id="s_FFFF4000_hl">
    <IconStyle>
      <scale>1.3</scale>
      <Icon>
        <href>http://maps.google.com/mapfiles/kml/pushpin/agrocad.png</href>
      </Icon>
      <hotSpot x="20" y="2" xunits="pixels" yunits="pixels"/>
    </IconStyle>
    <LineStyle>
      <color>ff000000</color>
      <width>1</width>
    </LineStyle>
    <PolyStyle>
      <color>40ffffff</color>
      <fill>1</fill>
    </PolyStyle>
  </Style>
  <Placemark>
    <name>AgroCAD: 1F040</name>
    <styleUrl>FFFF4000</styleUrl>
    <Polygon>
      <outerBoundaryIs>
        <LinearRing>
          <coordinates>
           -36.46316832864589,-9.69324312108367 -36.46320152098250,-9.69313637754683 -36.46323773080420,-9.69302825099595 -36.46327519791140,-9.69291924434517 -36.46331643687500,-9.69280344835285 -36.46336312407571,-9.69268153357126 -36.46341676825590,-9.69255090161036 -36.46346588620851,-9.69242496351520 -36.46351349541861,-9.69231105345109 -36.46355322563961,-9.69221273372691 -36.46358692089031,-9.69213708705078 -36.46361039021922,-9.69207744980972 -36.46363025532970,-9.69203415727986 -36.46365305410641,-9.69201316061241 -36.46368155257711,-9.69200938875598 -36.46371893586533,-9.69202070432526 -36.46376612598011,-9.69204714922977 -36.46382723005431,-9.69208055111389 -36.46389872768832,-9.69212099379674 -36.46398849787132,-9.69217128521574 -36.46408706905263,-9.69221700849757 -36.46419117229002,-9.69226151640341 -36.46429887974563,-9.69231201737000 -36.46440717393462,-9.69236402707918 -36.46474421026115,-9.69253170705213 -36.46485979670595,-9.69258862017467 -36.46497546696964,-9.69264863460139 -36.46509272979506,-9.69270869093758 -36.46520873533495,-9.69276711280273 -36.46532474087485,-9.69282381637768 -36.46543496290155,-9.69287888548150 -36.46563160234996,-9.69298013887182 -36.46578063258836,-9.69305494735764 -36.46582614632246,-9.69307619548217 -36.46584483796666,-9.69308600230888 -36.46584810690887,-9.69309534813091 -36.46584601143307,-9.69310444249587 -36.46583084018827,-9.69311378831791 -36.46579328926217,-9.69312581634891 -36.46574324930006,-9.69314647774025 -36.46568239668316,-9.69317384465409 -36.46561123432526,-9.69320439669116 -36.46553537810156,-9.69323880440366 -36.46545734258306,-9.69327870226275 -36.46537310445616,-9.69331918685507 -36.46528802813895,-9.69336042581867 -36.46520077252696,-9.69340216769647 -36.46511284636265,-9.69344214937457 -36.46502919496905,-9.69347814964869 -36.46494654940376,-9.69350346299629 -36.46485820414434,-9.69352764478692 -36.46476399155264,-9.69355165893951 -36.46466843785653,-9.69357265560697 -36.46456835793264,-9.69359180825568 -36.46446735599942,-9.69361242773747 -36.46436886863713,-9.69363845354683 -36.46426811816114,-9.69366116850440 -36.46416409874272,-9.69367956678188 -36.46405915731501,-9.69370211410140 -36.46395413206832,-9.69372214684998 -36.46384743044091,-9.69373631226631 -36.46363126115811,-9.69376284098983 -36.46352858284430,-9.69377298309266 -36.46343554371910,-9.69377830560120 -36.46335273051570,-9.69377692258715 -36.46327804775850,-9.69376971415042 -36.46320361645830,-9.69375236361084 -36.46313630977580,-9.69373082211972 -36.46308878438480,-9.69371187901853 -36.46305492149601,-9.69369444465994 -36.46301267670399,-9.69367596256345 -36.46300563590539,-9.69368153652902 -36.46299758235960,-9.69368055640636 -36.46299030973650,-9.69367019842789 -36.46299985239219,-9.69365597172440 -36.46302407609240,-9.69361163145661 -36.46305441858180,-9.69353937945127 -36.46308803001359,-9.69345136946797 -36.46312784405360,-9.69334969698253 -36.46316832864589,-9.69324312108367 -36.46316832864589,-9.69324312108367 -36.46316832864589,-9.69324312108367
          </coordinates>
        </LinearRing>
      </outerBoundaryIs>
    </Polygon>
  </Placemark>
</Document>
</kml>
